{"type":"FeatureCollection","features":[{"type":"Feature","properties":{},"geometry":{"type":"MultiLineString","coordinates":[[[6.99871,57.99616],[6.99604,57.99595],[6.99598,57.99721],[6.99747,57.99704],[6.99871,57.99616]],[[6.98917,57.99942],[6.98587,57.99891],[6.98693,57.99806],[6.98511,57.99711],[6.98318,57.9979],[6.9823,57.99943],[6.98533,57.99923],[6.98197,58.00186]],[[6.98966,58.00097],[6.98917,57.99942]],[[7.00194,57.99708],[6.99998,57.99703],[6.99906,57.99725],[6.99708,57.99902],[6.9974,57.99936],[6.99898,57.99931],[6.99924,58.00076]]]}}]}