{"type":"FeatureCollection","features":[{"type":"Feature","properties":{},"geometry":{"type":"MultiLineString","coordinates":[[[7.4154,57.98998],[7.41682,57.9897],[7.41686,57.98932],[7.41552,57.98903],[7.41362,57.99057],[7.41438,57.99061],[7.4154,57.98998]],[[7.43339,57.99564],[7.43625,57.99519],[7.44087,57.99176],[7.43908,57.98938],[7.43675,57.98771],[7.43497,57.9881],[7.43767,57.9921],[7.4339,57.99268],[7.43249,57.99547],[7.43339,57.99564]],[[7.21108,57.9823],[7.21372,57.98236],[7.21389,57.9815],[7.21509,57.98072],[7.21461,57.97998],[7.21503,57.97875],[7.21362,57.97804],[7.21202,57.978]],[[7.42419,57.99407],[7.42595,57.99445],[7.42748,57.99358],[7.42671,57.99208],[7.42444,57.99127],[7.42389,57.99149],[7.42443,57.99224],[7.42385,57.99284],[7.42018,57.99404],[7.42107,57.99569],[7.42474,57.99488],[7.42419,57.99407]],[[7.36702,57.99223],[7.36548,57.99154],[7.36326,57.99177],[7.36346,57.99241],[7.36656,57.99268],[7.36716,57.99256],[7.36702,57.99223]],[[7.21202,57.978],[7.20871,57.97829],[7.20772,57.97875],[7.21043,57.97971],[7.21037,57.98017],[7.20496,57.98049],[7.20359,57.98087],[7.2044,57.98152],[7.20559,57.98157],[7.2076,57.98314],[7.20928,57.98286],[7.2097,57.98237],[7.21108,57.9823]],[[7.37811,57.99512],[7.38024,57.99456],[7.38429,57.99433],[7.38594,57.99357],[7.38693,57.99213],[7.38645,57.99158],[7.38274,57.9912],[7.38438,57.99013],[7.38401,57.98954],[7.38306,57.98939],[7.38108,57.99076],[7.38205,57.99141],[7.37872,57.99231]],[[7.34568,57.99171],[7.34774,57.9912],[7.35028,57.98935],[7.34644,57.98855],[7.34493,57.98923],[7.34494,57.98834],[7.34372,57.98767],[7.34012,57.98881],[7.34025,57.98926],[7.33924,57.98975],[7.34175,57.99007],[7.34293,57.99117],[7.33968,57.99055],[7.33903,57.98975],[7.33781,57.99014],[7.33904,57.99193],[7.33803,57.99266],[7.33832,57.99296],[7.34568,57.99171]],[[7.42451,57.99751],[7.42332,57.99726],[7.42134,57.99753],[7.41899,57.99903],[7.42178,57.99967],[7.42385,57.99938],[7.42451,57.99751]],[[7.40281,57.99844],[7.40565,57.99807],[7.40628,57.99742],[7.40223,57.99782],[7.40205,57.99724],[7.40386,57.99625],[7.40157,57.99494],[7.39882,57.99588],[7.39754,57.99535],[7.39681,57.99545],[7.39443,57.99706],[7.39546,57.99823],[7.39991,57.99826],[7.40192,57.9987],[7.40281,57.99844]],[[7.3728,57.99902],[7.37511,57.99657],[7.3741,57.99606],[7.37254,57.99656],[7.37367,57.99529],[7.37651,57.99435],[7.3768,57.99515],[7.37811,57.99512]],[[7.20927,57.9906],[7.20938,57.99009]],[[7.34775,57.99934],[7.35459,57.99939],[7.35506,57.99891],[7.35377,57.99732],[7.35061,57.99801],[7.35026,57.99751],[7.34925,57.99731],[7.34814,57.99775],[7.34775,57.99934]],[[7.20938,57.99009],[7.20667,57.98905],[7.2048,57.98964],[7.20651,57.99098],[7.20927,57.9906]],[[7.32487,57.99674],[7.3236,57.9968],[7.32447,57.99879],[7.32578,57.99794],[7.32487,57.99674]],[[7.33813,57.99972],[7.34211,57.999]],[[7.37872,57.99231],[7.37469,57.99295],[7.36929,57.99497],[7.36685,57.99637],[7.36629,57.9979],[7.36322,57.9985],[7.36268,57.99922],[7.35861,58.0003]],[[7.3486,58.00036],[7.3448,57.99925],[7.34774,57.99801],[7.34495,57.99819],[7.34468,57.99791],[7.34864,57.99629],[7.34664,57.99574],[7.34611,57.9947],[7.3445,57.995],[7.34435,57.99378],[7.34275,57.99332],[7.33923,57.99377],[7.33728,57.99479],[7.33464,57.99434],[7.33264,57.99471],[7.33254,57.99524],[7.33341,57.9957],[7.33103,57.99591],[7.32833,57.9979],[7.32727,57.99781],[7.32629,57.99835],[7.32935,58.00066]],[[7.33587,58.00018],[7.33813,57.99972]],[[7.19615,57.99351],[7.19531,57.99314],[7.19387,57.99387],[7.19421,57.99459],[7.1956,57.995],[7.19667,57.99478],[7.19615,57.99351]],[[7.30845,58.00143],[7.30801,57.99944],[7.30698,57.99937],[7.30682,58.00039]],[[7.20897,57.99198],[7.20698,57.99198],[7.20634,57.99099],[7.20509,57.991],[7.20456,57.99138],[7.2032,57.9912],[7.20279,57.99272],[7.20421,57.99268],[7.20387,57.99376],[7.20147,57.9943],[7.2022,57.99496],[7.20428,57.99525],[7.20459,57.99442],[7.20721,57.99406],[7.20697,57.99534],[7.20804,57.99624]],[[7.20804,57.99624],[7.20891,57.99599],[7.20977,57.99482],[7.20969,57.99278],[7.20853,57.99396]],[[7.34211,57.999],[7.34196,58.00104]],[[7.1906,57.99624],[7.19027,57.99595],[7.18869,57.99612]],[[7.3732,58.00039],[7.3728,57.99902]],[[7.18869,57.99612],[7.18824,57.99691],[7.18939,57.99734],[7.19131,57.99705],[7.1906,57.99624]],[[7.19758,57.99777],[7.19477,57.99735],[7.19391,57.99776],[7.19388,57.99857],[7.19682,57.99907],[7.19782,57.99856],[7.19758,57.99777]],[[7.20241,57.99837],[7.20144,57.99811],[7.19803,57.9986],[7.20059,57.9994],[7.20252,57.9987],[7.20241,57.99837]],[[7.19112,57.99893],[7.1897,57.9981],[7.18816,57.99887],[7.18983,57.99944],[7.19112,57.99893]],[[7.20724,57.99989],[7.20434,57.99881],[7.20358,57.99915],[7.20398,57.99993],[7.20591,58.00117]],[[7.20781,58.00081],[7.20724,57.99989]],[[7.20882,57.99266],[7.20897,57.99198]],[[7.20882,57.99266],[7.20717,57.99372],[7.20726,57.99402],[7.20853,57.99396]],[[7.20993,57.99786],[7.20855,57.99812],[7.20842,57.99858],[7.21018,57.99973],[7.21058,57.99905],[7.20993,57.99786]],[[7.63331,57.97772],[7.63128,57.97651],[7.63051,57.97755]],[[7.5708,57.95985],[7.56758,57.95958],[7.56684,57.95992],[7.56759,57.96042],[7.56919,57.96059],[7.57071,57.96038],[7.5708,57.95985]],[[7.55457,57.96323],[7.55351,57.96398],[7.55425,57.96478]],[[7.56711,57.96381],[7.56677,57.96287],[7.56832,57.96178],[7.56822,57.96122],[7.56529,57.96018],[7.56333,57.96099],[7.5627,57.96238],[7.56143,57.96328],[7.5639,57.96373],[7.5643,57.96537],[7.5649,57.96558],[7.56675,57.96512],[7.56631,57.96441],[7.56711,57.96381]],[[7.53861,57.96456],[7.53694,57.96461],[7.5356,57.96545],[7.53694,57.96627],[7.53789,57.96606],[7.53861,57.96456]],[[7.49365,57.9642],[7.4958,57.96363],[7.49676,57.96414],[7.5002,57.96362],[7.5,57.96228],[7.49836,57.96086],[7.49728,57.96101],[7.49661,57.96213],[7.4924,57.96221],[7.48853,57.96404],[7.49365,57.9642]],[[7.55298,57.96465],[7.5492,57.9649],[7.54831,57.96571],[7.54892,57.96671],[7.54641,57.96791],[7.54686,57.96901],[7.54949,57.97024],[7.55075,57.96945],[7.54965,57.96797],[7.55346,57.96607],[7.55298,57.96465]],[[7.53011,57.96408],[7.52688,57.96393],[7.52503,57.96494],[7.5248,57.9656],[7.52934,57.96865],[7.53178,57.96926],[7.53384,57.96863],[7.53177,57.96508],[7.53011,57.96408]],[[7.54194,57.96718],[7.54119,57.96704],[7.5401,57.96756],[7.5409,57.96861],[7.53814,57.96977],[7.54024,57.97089],[7.54136,57.97088],[7.54202,57.96997],[7.54194,57.96718]],[[7.50197,57.97],[7.50093,57.96952],[7.50057,57.96854],[7.49742,57.96771],[7.49954,57.96724],[7.49988,57.96655],[7.49631,57.96662],[7.49392,57.96622],[7.49055,57.96663],[7.48834,57.96748],[7.48816,57.96918]],[[7.56281,57.97359],[7.56051,57.97289],[7.56258,57.97191],[7.56243,57.97128],[7.55685,57.9693],[7.55635,57.96852],[7.55826,57.96796],[7.55802,57.96678],[7.5546,57.96617],[7.55479,57.96514],[7.55425,57.96478]],[[7.56633,57.9738],[7.5664,57.97316],[7.56412,57.97199],[7.56436,57.97148],[7.56534,57.97122],[7.56531,57.97065],[7.56327,57.96947],[7.56488,57.96868],[7.56531,57.96697],[7.56398,57.96615],[7.56256,57.96596],[7.56113,57.96374],[7.55912,57.96369],[7.55792,57.96409],[7.55592,57.963],[7.55457,57.96323]],[[7.60327,57.97596],[7.6021,57.97541],[7.60084,57.97582]],[[7.61198,57.97647],[7.61436,57.97594],[7.61232,57.97539],[7.61347,57.97366],[7.61241,57.9731],[7.61375,57.97251],[7.61183,57.97149],[7.60818,57.9707],[7.60951,57.96964],[7.60905,57.96901],[7.61157,57.96896],[7.61054,57.96795],[7.60897,57.96765],[7.609,57.96722],[7.60823,57.96706],[7.60688,57.96711],[7.60668,57.96766],[7.60548,57.96729],[7.60486,57.9675],[7.60626,57.96856],[7.60583,57.96921],[7.60724,57.97039],[7.60526,57.97045],[7.60492,57.97081],[7.6064,57.97128],[7.6052,57.97241],[7.60626,57.97408],[7.60487,57.97467],[7.60574,57.97545],[7.60537,57.97609]],[[7.60327,57.97596],[7.60398,57.97628],[7.60537,57.97609]],[[7.56281,57.97359],[7.56295,57.97433],[7.56179,57.97473],[7.56233,57.97565],[7.56402,57.97536],[7.56633,57.9738]],[[7.63331,57.97772],[7.63317,57.97968],[7.63598,57.97974]],[[7.63583,57.98048],[7.63707,57.97986],[7.63598,57.97974]],[[7.48816,57.96918],[7.48957,57.97015],[7.48854,57.97078],[7.48953,57.97189],[7.49215,57.97223],[7.49445,57.97198],[7.49834,57.97227],[7.50029,57.97174],[7.50197,57.97]],[[7.5524,57.97365],[7.55142,57.97382],[7.55081,57.97469],[7.55181,57.9765]],[[7.62747,57.97944],[7.62692,57.97929],[7.62498,57.97979],[7.62451,57.98077],[7.62651,57.98087],[7.62747,57.97944]],[[7.63051,57.97755],[7.63037,57.97811],[7.63137,57.97859],[7.63091,57.97979],[7.63144,57.98044],[7.63237,57.98059],[7.63209,57.98176],[7.63329,57.9818],[7.63583,57.98048]],[[7.56228,57.97674],[7.56036,57.97608],[7.55929,57.9765],[7.55987,57.97772],[7.56121,57.97862],[7.56291,57.97854],[7.56328,57.97819],[7.5631,57.97724],[7.56228,57.97674]],[[7.63562,57.98153],[7.63383,57.98243],[7.63532,57.98298]],[[7.63532,57.98298],[7.63638,57.98287],[7.63614,57.98161],[7.63562,57.98153]],[[7.60084,57.97582],[7.60112,57.97711],[7.60307,57.97832],[7.60159,57.97947],[7.60222,57.98023],[7.60453,57.9802],[7.60495,57.97938],[7.60738,57.97867],[7.61112,57.97868],[7.61044,57.97943],[7.60759,57.98054],[7.60921,57.98188],[7.61568,57.98048],[7.61862,57.97916],[7.61889,57.97781],[7.61798,57.9773],[7.61334,57.97802],[7.61321,57.97734],[7.6112,57.9768],[7.61198,57.97647]],[[7.59356,57.97771],[7.59141,57.97774],[7.59049,57.97897],[7.59094,57.98015],[7.5934,57.98114],[7.59401,57.98057],[7.59304,57.97998],[7.59454,57.97926],[7.59356,57.97771]],[[7.58765,57.97754],[7.58636,57.97711],[7.58495,57.9793],[7.58198,57.98068],[7.58272,57.98133],[7.58493,57.98094],[7.58686,57.97952],[7.58765,57.97754]],[[7.55181,57.9765],[7.5522,57.97871],[7.55373,57.9788],[7.5566,57.98018],[7.55891,57.98044],[7.56044,57.98011],[7.56044,57.97943],[7.55884,57.97799],[7.55756,57.97753],[7.55491,57.97496],[7.5524,57.97365]],[[7.61266,57.98411],[7.61119,57.98403],[7.60935,57.98462],[7.60916,57.98587],[7.61228,57.98526],[7.61266,57.98411]],[[7.65261,57.98883],[7.65035,57.98846],[7.6491,57.9889],[7.65006,57.98964],[7.65188,57.98968],[7.65285,57.98945],[7.65261,57.98883]],[[7.62069,57.98585],[7.61983,57.98553],[7.61724,57.98573],[7.61607,57.98669],[7.61629,57.98738],[7.62153,57.98795],[7.6223,57.98686],[7.62069,57.98585]],[[7.53114,57.9828],[7.52865,57.98108],[7.52781,57.98191],[7.52624,57.98223],[7.52511,57.98177],[7.52675,57.97832],[7.5287,57.97823],[7.53251,57.97945],[7.53535,57.98268],[7.53503,57.98295],[7.5326,57.98286]],[[7.59472,57.98699],[7.59713,57.98699],[7.59849,57.98624],[7.59879,57.98552],[7.59472,57.98634],[7.59472,57.98699]],[[7.57732,57.98728],[7.5796,57.98695],[7.5808,57.98626],[7.5827,57.98587],[7.58518,57.98612],[7.58585,57.98557],[7.58561,57.98418],[7.58661,57.98351],[7.58782,57.98497],[7.58947,57.98544],[7.59049,57.98621],[7.59227,57.98574],[7.59511,57.98579],[7.59723,57.98513]],[[7.60645,57.98593],[7.60865,57.98426],[7.60713,57.98421],[7.60635,57.98529],[7.60532,57.98447],[7.60524,57.98321],[7.60432,57.98283],[7.60279,57.98349],[7.60198,57.98473],[7.60326,57.98539],[7.60484,57.98859],[7.60597,57.98924],[7.6067,57.98916],[7.60707,57.98763],[7.60553,57.98721],[7.60527,57.98675],[7.60645,57.98593]],[[7.59723,57.98513],[7.60033,57.98254],[7.59927,57.98192],[7.59758,57.98237],[7.59554,57.98165],[7.59345,57.98141],[7.58843,57.98205],[7.58654,57.98155],[7.58407,57.98259],[7.58264,57.98158],[7.57781,57.9815],[7.5739,57.98377],[7.57123,57.98471],[7.56883,57.98468],[7.56823,57.98538],[7.56989,57.9863],[7.56963,57.98704],[7.5703,57.98767],[7.57233,57.98744],[7.5731,57.98808],[7.57526,57.98833],[7.57732,57.98728]],[[7.56311,57.98554],[7.56226,57.98537],[7.5606,57.98589],[7.56009,57.98745],[7.56307,57.98641],[7.56356,57.98593],[7.56311,57.98554]],[[7.64462,57.99036],[7.64673,57.99054],[7.64741,57.98997],[7.64662,57.9893],[7.64494,57.98988],[7.64427,57.98978],[7.64604,57.98883],[7.64576,57.98798],[7.64663,57.98717],[7.64602,57.98618],[7.64371,57.98645],[7.64236,57.98707],[7.64264,57.98835],[7.63898,57.99087],[7.63957,57.99261],[7.6404,57.99288],[7.64162,57.99247],[7.64193,57.99178],[7.64384,57.99124],[7.64462,57.99036]],[[7.61891,57.99177],[7.62071,57.99064],[7.62078,57.98876],[7.61987,57.98841],[7.61614,57.98974],[7.61521,57.99095],[7.61674,57.99128],[7.61694,57.99194],[7.61802,57.99208],[7.61891,57.99177]],[[7.54352,57.98846],[7.545,57.98732],[7.54416,57.98698],[7.54268,57.98716],[7.54055,57.98437],[7.54045,57.983],[7.53715,57.98286],[7.53586,57.98111],[7.53661,57.98088],[7.5389,57.98156],[7.54207,57.98116],[7.54252,57.98059],[7.54143,57.97926],[7.53921,57.97805],[7.53839,57.97816],[7.53729,57.97917],[7.53645,57.97885],[7.53542,57.97745],[7.53249,57.9777],[7.53133,57.97622],[7.53405,57.97567],[7.53432,57.97531],[7.53195,57.97436],[7.52973,57.97397],[7.52667,57.97443],[7.52761,57.97641],[7.52631,57.97688],[7.52443,57.97457],[7.52089,57.97443],[7.51969,57.97477],[7.51904,57.97673],[7.52027,57.97731],[7.52175,57.97981],[7.51385,57.97861],[7.5125,57.97755],[7.51161,57.97749],[7.51145,57.97903],[7.50884,57.9809],[7.50855,57.98213],[7.51052,57.98471],[7.51148,57.98492],[7.51096,57.98616],[7.51265,57.98632],[7.5142,57.98534],[7.51536,57.98573],[7.51532,57.98658],[7.51403,57.98719],[7.51334,57.98826]],[[7.55691,57.9897],[7.55623,57.98951],[7.55599,57.99057],[7.55704,57.99154],[7.5581,57.99044],[7.5576,57.98974],[7.55691,57.9897]],[[7.5488,57.99089],[7.54674,57.99073],[7.54675,57.98997],[7.54459,57.98999],[7.54308,57.99159],[7.54084,57.99187],[7.53891,57.99132],[7.53746,57.99036],[7.5355,57.99095],[7.53411,57.99028],[7.53122,57.99037],[7.53188,57.98949],[7.53343,57.98889],[7.53144,57.98789],[7.53294,57.98738],[7.53316,57.98639],[7.53114,57.9828]],[[7.59441,57.99423],[7.59484,57.99503],[7.59727,57.99501],[7.59729,57.99449],[7.59619,57.99377],[7.59645,57.99311],[7.60275,57.99232],[7.60422,57.99054],[7.60521,57.99108],[7.6057,57.99094],[7.60553,57.99004],[7.60218,57.9893],[7.59422,57.98941],[7.59101,57.98909],[7.58075,57.99128],[7.58018,57.99244],[7.57737,57.99177],[7.57558,57.99192]],[[7.54842,57.99274],[7.5519,57.99124],[7.5505,57.99075],[7.5488,57.99089]],[[7.66429,57.99799],[7.66473,57.99722],[7.6639,57.99666],[7.66058,57.99702],[7.66167,57.99582],[7.66125,57.9953],[7.65626,57.99649],[7.65728,57.99797],[7.65929,57.99747],[7.65998,57.99769],[7.65793,57.99861],[7.65659,58.00011]],[[7.66012,58.00001],[7.66232,57.99996],[7.66291,57.99939],[7.6625,57.99867],[7.66429,57.99799]],[[7.56792,57.9953],[7.56651,57.99267],[7.56273,57.9932],[7.56303,57.99249],[7.56191,57.99215],[7.56488,57.99161],[7.56598,57.99105],[7.56572,57.98867],[7.56629,57.98829],[7.5653,57.98732],[7.56275,57.98793],[7.56178,57.98903],[7.55971,57.98989],[7.55874,57.99125],[7.56017,57.99132],[7.5617,57.99204],[7.55933,57.99292],[7.56043,57.99566]],[[7.51219,57.98831],[7.51075,57.98689],[7.5109,57.98618],[7.50993,57.9856],[7.50769,57.98641],[7.50622,57.98516],[7.5047,57.98555],[7.50423,57.98642],[7.5029,57.98715],[7.50317,57.98969],[7.50397,57.99],[7.50549,57.98917],[7.50674,57.9899],[7.50553,57.99007],[7.50589,57.99083],[7.50448,57.99239]],[[7.65131,58.00065],[7.65113,57.99996],[7.64985,57.99936],[7.65032,57.99839],[7.65359,57.9979],[7.65402,57.99727],[7.64917,57.99726],[7.64606,57.99837],[7.64369,57.99962],[7.64346,58.00018]],[[7.57558,57.99192],[7.57329,57.99236],[7.57473,57.99105],[7.57436,57.99061],[7.57327,57.99061],[7.57153,57.9923],[7.57013,57.99246],[7.57017,57.99301],[7.572,57.99278],[7.57229,57.99301],[7.56883,57.99546],[7.56951,57.9961],[7.57154,57.99667]],[[7.57214,57.99672],[7.57226,57.99644],[7.57357,57.99647],[7.58154,57.99749],[7.58931,57.99332],[7.59159,57.99431],[7.59383,57.99401],[7.59441,57.99423]],[[7.50448,57.99239],[7.5039,57.99384],[7.50303,57.99329],[7.50296,57.99238]],[[7.61518,58.00011],[7.61458,57.99971],[7.61375,58.0002]],[[7.62288,57.99968],[7.61744,58.00031]],[[7.62307,58.00011],[7.62288,57.99968]],[[7.57154,57.99667],[7.5696,57.9975],[7.56999,57.99969],[7.57383,57.99935],[7.57695,58.0001]],[[7.58101,58.0002],[7.58339,57.99922],[7.58281,57.99857],[7.58104,57.99811],[7.5754,57.99774],[7.57214,57.99672]],[[7.56043,57.99566],[7.55754,57.99712],[7.55972,57.99732],[7.55976,57.99838],[7.55837,57.99893],[7.55908,57.99994],[7.56073,58],[7.56129,58.00039]],[[7.56356,58.00142],[7.56348,57.99936],[7.56283,57.9988],[7.56064,57.99825],[7.56406,57.99843],[7.56588,57.99679],[7.56604,57.99574],[7.56792,57.9953]],[[7.49355,57.99742],[7.49497,57.99736],[7.49458,57.99671],[7.49318,57.99645],[7.49392,57.99216],[7.49285,57.99144],[7.49151,57.98915],[7.49045,57.989],[7.48885,57.98941],[7.48862,57.99099],[7.48673,57.99216],[7.4845,57.99257],[7.48414,57.99339],[7.48634,57.99485],[7.48813,57.99502],[7.48868,57.99657],[7.48963,57.99725],[7.49316,57.99768],[7.49355,57.99742]],[[7.50296,57.99238],[7.50347,57.99125],[7.50229,57.9909],[7.49782,57.99092],[7.49689,57.99165],[7.4973,57.99558],[7.49828,57.99675],[7.49729,57.99894],[7.49869,57.99969],[7.50476,57.99977]],[[7.55596,57.99887],[7.55218,57.9988],[7.55207,57.99995],[7.55361,58.00134]],[[7.55791,58.00135],[7.55596,57.99887]],[[7.52896,58.00073],[7.53117,57.99945],[7.53717,57.99804],[7.53863,57.99735],[7.54068,57.99796],[7.54259,57.99804],[7.54363,57.99869],[7.54479,57.99766],[7.54409,57.99722],[7.54129,57.9969],[7.53884,57.99706],[7.53758,57.99675],[7.53704,57.9961],[7.54197,57.99519],[7.54842,57.99274]],[[7.50555,57.99982],[7.5078,58.00043]],[[7.51334,57.98826],[7.51273,57.9886],[7.51219,57.98831]],[[7.50476,57.99977],[7.50555,57.99982]],[[7.5326,57.98286],[7.53259,57.98367],[7.53551,57.98716],[7.536,57.98945],[7.53794,57.98916],[7.54142,57.98937],[7.54352,57.98846]],[[7.07022,57.98452],[7.07021,57.984],[7.06884,57.98436],[7.06815,57.98416],[7.06837,57.98342],[7.06737,57.98367],[7.06773,57.9845],[7.06919,57.98535],[7.07022,57.98452]],[[7.09081,57.98737],[7.08999,57.98743],[7.08975,57.98836],[7.09125,57.98958],[7.09283,57.98971],[7.09403,57.9889],[7.09277,57.98789],[7.09081,57.98737]],[[7.06656,57.98852],[7.06585,57.98735],[7.06521,57.98843]],[[7.06849,57.98864],[7.06989,57.98765],[7.06675,57.98667],[7.06586,57.9846],[7.06501,57.98524],[7.06506,57.98655],[7.06328,57.9864],[7.06147,57.98727],[7.06089,57.98687],[7.0613,57.98522],[7.06053,57.98481],[7.05954,57.98475],[7.05775,57.98658],[7.05619,57.98574],[7.05693,57.98507],[7.05639,57.98399],[7.05744,57.98212],[7.05708,57.98048],[7.0556,57.98051],[7.05528,57.97956],[7.05146,57.98021],[7.05084,57.98091],[7.05094,57.98253],[7.04917,57.9822],[7.04905,57.98077],[7.04754,57.98089],[7.04628,57.98148],[7.04529,57.98295],[7.04726,57.98372],[7.04734,57.9841],[7.04404,57.986],[7.04111,57.98692]],[[7.08342,57.98958],[7.08215,57.98908],[7.07892,57.9888],[7.07691,57.9878],[7.07527,57.98808],[7.07276,57.98759],[7.06967,57.98871]],[[7.06656,57.98852],[7.06752,57.98902],[7.06849,57.98864]],[[7.06381,57.99036],[7.06521,57.98843]],[[7.0398,57.98891],[7.04111,57.98692]],[[7.06454,57.99062],[7.06507,57.98987],[7.06668,57.98995],[7.06967,57.98871]],[[7.06381,57.99036],[7.06431,57.99104],[7.06454,57.99062]],[[7.00293,57.99248],[7.00158,57.99251],[7.00087,57.99339],[7.00161,57.99379],[7.00328,57.99348],[7.00293,57.99248]],[[7.10462,58.00135],[7.10099,57.99986],[7.09641,57.99932],[7.09388,57.99541],[7.09005,57.99334],[7.08978,57.99271],[7.08784,57.99274],[7.08625,57.99205],[7.08401,57.99059],[7.08342,57.98958]],[[7.0398,57.98891],[7.03754,57.98924],[7.03702,57.98877],[7.03735,57.98786],[7.03618,57.9877],[7.03506,57.98791],[7.03252,57.98991],[7.03192,57.99095],[7.03233,57.99237],[7.03041,57.99426],[7.02905,57.99739],[7.03202,57.99976]],[[7.03202,57.99976],[7.0343,58.00166]],[[7.00405,58.00069],[7.00596,57.99944],[7.00559,57.99898],[7.00395,57.99885],[7.00194,57.99708],[6.99998,57.99703]]]}}]}