{"type":"FeatureCollection","features":[{"type":"Feature","properties":{},"geometry":{"type":"MultiLineString","coordinates":[[[11.47369,58.98118],[11.4725,58.9802],[11.47027,58.98128],[11.46886,58.9812],[11.4674,58.98194],[11.46425,58.98623],[11.46239,58.98719],[11.46102,58.98879]],[[11.46808,58.99628],[11.46892,58.99467],[11.46613,58.99013],[11.46792,58.98911],[11.47487,58.98735],[11.47588,58.98629],[11.47603,58.98483],[11.47693,58.98424],[11.47609,58.98295],[11.47509,58.98261]],[[11.0826,58.99718],[11.08234,58.99676],[11.07979,58.99723],[11.08025,58.99903],[11.07938,58.99951],[11.07835,58.99951],[11.07696,59.00042]],[[11.03155,59.00068],[11.02845,58.99869],[11.0274,58.99925],[11.02854,59.0007]],[[11.07696,59.00042],[11.07429,58.99957],[11.0748,59.00062]],[[11.0532,59.00015],[11.05315,58.99939],[11.05254,58.99924],[11.05315,58.99871],[11.05294,58.99792],[11.05395,58.99736],[11.05593,58.99736],[11.0584,58.99665],[11.06021,58.99471],[11.06128,58.99482],[11.06155,58.9953],[11.06336,58.99521],[11.06382,58.99415],[11.06318,58.99354],[11.06167,58.99326],[11.0608,58.99361],[11.0603,58.99344],[11.0608,58.99296],[11.06006,58.9925],[11.06081,58.99196],[11.06034,58.99188],[11.06135,58.99128],[11.06081,58.99117],[11.06146,58.99111],[11.0603,58.99039],[11.06034,58.98965],[11.05836,58.98954],[11.05732,58.98993],[11.05553,58.98848],[11.0557,58.98684],[11.0546,58.98642],[11.05437,58.98693],[11.05532,58.98689],[11.05552,58.98743],[11.05348,58.98673],[11.04967,58.98904],[11.04756,58.98966],[11.04669,58.99094],[11.04539,58.99147],[11.04171,58.99202],[11.0419,58.98992],[11.04074,58.9895],[11.03823,58.99013],[11.03642,58.99114],[11.0359,58.99104],[11.03468,58.99189],[11.03589,58.99234],[11.03532,58.99331],[11.03648,58.99443],[11.03553,58.99546],[11.03631,58.99621],[11.03783,58.99603],[11.0394,58.99524],[11.04114,58.9962],[11.04315,58.99607],[11.04308,58.9965],[11.04441,58.99729],[11.04404,58.99783],[11.04208,58.99773],[11.04027,58.99884],[11.04302,58.9995],[11.04164,58.99997],[11.03924,59.00182]],[[11.084,59.00113],[11.08463,58.99941],[11.08337,58.99823],[11.08385,58.99759],[11.08259,58.99751],[11.0826,58.99718]],[[11.46352,59.00028],[11.46663,58.99827],[11.46808,58.99628]]]}}]}