{"type":"FeatureCollection","features":[{"type":"Feature","properties":{},"geometry":{"type":"MultiLineString","coordinates":[[[10.96195,58.98147],[10.96058,58.97974],[10.96117,58.97947],[10.96129,58.9783],[10.96027,58.97803],[10.95975,58.97844],[10.95839,58.97819],[10.95886,58.97782],[10.95825,58.97762],[10.95666,58.97784],[10.95622,58.97863],[10.95317,58.97806],[10.94929,58.97886],[10.94937,58.9793],[10.95212,58.98003],[10.95145,58.98064],[10.95399,58.98122]],[[10.94778,58.98102],[10.94909,58.98209],[10.94916,58.98139],[10.95194,58.98135],[10.9538,58.98266],[10.95577,58.98164],[10.95399,58.98122]],[[10.94605,58.98097],[10.94773,58.98126],[10.94709,58.98179],[10.94813,58.98239],[10.95235,58.98284],[10.95095,58.98304],[10.95224,58.98377],[10.95306,58.98357],[10.95105,58.98444],[10.95125,58.98507],[10.95199,58.98494],[10.95214,58.98534],[10.95023,58.98513],[10.94937,58.98537],[10.95132,58.98619],[10.95535,58.98559],[10.95762,58.98483],[10.95828,58.98538],[10.96052,58.98558],[10.95971,58.98473],[10.95798,58.98469],[10.96062,58.9827],[10.96018,58.98222],[10.96195,58.98147]],[[10.94724,58.98101],[10.94674,58.9807],[10.94605,58.98097]],[[10.94778,58.98102],[10.94744,58.98101]],[[10.94724,58.98101],[10.94744,58.98101]],[[10.14159,58.97421],[10.14275,58.97349],[10.14273,58.97401],[10.14523,58.9731],[10.1458,58.97335],[10.1454,58.97383],[10.14599,58.97389],[10.14644,58.97343],[10.14733,58.97386],[10.14822,58.97378],[10.15032,58.97276],[10.1497,58.97218],[10.15105,58.97192],[10.15199,58.97051],[10.15139,58.96986],[10.14961,58.97024],[10.14928,58.96996],[10.1485,58.97073],[10.14797,58.97068],[10.14872,58.97214],[10.14663,58.97205],[10.14705,58.97056],[10.1464,58.97024],[10.14766,58.97009],[10.14865,58.96872],[10.14758,58.9683],[10.14714,58.96875],[10.14734,58.96818],[10.14626,58.97031],[10.14396,58.97185],[10.14391,58.97147],[10.14201,58.97131],[10.14141,58.97188],[10.14164,58.97128],[10.14052,58.97119],[10.14013,58.97161],[10.13993,58.97115],[10.13841,58.97229],[10.13805,58.97376],[10.13882,58.97392],[10.13958,58.97361],[10.13956,58.97417],[10.14159,58.97421]],[[10.00076,58.97372],[10.00214,58.97486],[10.00303,58.97343],[10.00471,58.97322],[10.0057,58.97348],[10.00814,58.97842],[10.00877,58.97866],[10.00938,58.9783]],[[10.00076,58.97372],[10.00074,58.97114],[10.00052,58.97197],[9.99961,58.9721]],[[10.03966,58.97771],[10.03881,58.97762],[10.03786,58.97857],[10.03607,58.97735],[10.0359,58.97797],[10.03576,58.97725],[10.03468,58.97726],[10.03464,58.97785],[10.03431,58.97725],[10.03365,58.97725],[10.03222,58.97837],[10.03196,58.97778],[10.031,58.97809],[10.03116,58.97759],[10.02989,58.97765],[10.02915,58.9772],[10.02853,58.97729],[10.02864,58.97809],[10.02436,58.97697],[10.0246,58.97739],[10.02395,58.97715],[10.02315,58.97801],[10.02241,58.97774],[10.02138,58.97804],[10.02078,58.9788],[10.02053,58.97843],[10.01874,58.97972],[10.01738,58.98008],[10.01512,58.979],[10.01462,58.97823],[10.01266,58.9795],[10.01126,58.97826],[10.00938,58.9783]],[[10.03548,58.98119],[10.03668,58.98004],[10.03942,58.97936]],[[10.03548,58.98119],[10.03735,58.98235],[10.03758,58.98382],[10.03612,58.98476],[10.03321,58.98549],[10.03246,58.98752],[10.03479,58.99055],[10.03667,58.9915],[10.03766,58.99156]],[[10.03972,58.99283],[10.03844,58.99266],[10.03845,58.99148],[10.03766,58.99156]],[[10.05502,58.99438],[10.0575,58.9924],[10.05616,58.99147],[10.05661,58.99101],[10.05614,58.99074],[10.05717,58.99032],[10.05652,58.98949],[10.05578,58.99016],[10.056,58.98929],[10.05328,58.98938],[10.05384,58.98678],[10.05263,58.98625],[10.05134,58.98651],[10.05125,58.9882],[10.05084,58.9883],[10.05008,58.98754],[10.04806,58.98921],[10.04811,58.98973],[10.04939,58.98984],[10.04821,58.99169],[10.04732,58.99195],[10.04737,58.99249],[10.04657,58.99291],[10.04758,58.99402],[10.0486,58.99428]],[[10.04059,58.99437],[10.0409,58.99366],[10.04278,58.99304],[10.04333,58.99388],[10.04422,58.99348],[10.04422,58.99254],[10.04337,58.99294],[10.0411,58.99237],[10.04296,58.99112],[10.04328,58.98974],[10.04408,58.98957],[10.04367,58.98899],[10.04247,58.9894],[10.04305,58.98967],[10.0422,58.98947],[10.04119,58.99213],[10.03972,58.99283]],[[10.05379,58.99487],[10.05317,58.99467],[10.05305,58.99233],[10.05129,58.99207],[10.04905,58.99469]],[[10.0541,58.99489],[10.05502,58.99438]],[[10.05387,58.99488],[10.05361,58.99532],[10.05216,58.99527],[10.05124,58.9963],[10.05325,58.99631],[10.05432,58.9954],[10.05374,58.99534],[10.0541,58.99489]],[[10.04075,58.99958],[10.04155,58.99797],[10.04017,58.99724],[10.03891,58.99565],[10.03709,58.99569],[10.03999,58.99552],[10.04059,58.99437]],[[10.04068,59.00021],[10.04075,58.99958]],[[10.03942,58.97936],[10.04053,58.9783],[10.03966,58.97771]],[[10.0486,58.99428],[10.04872,58.99468]],[[10.05387,58.99488],[10.05384,58.99488]],[[10.05379,58.99487],[10.05384,58.99488]],[[10.04872,58.99468],[10.04898,58.99509],[10.04905,58.99469]]]}}]}