{"type":"FeatureCollection","features":[{"type":"Feature","properties":{},"geometry":{"type":"MultiLineString","coordinates":[[[5.9967,58.89649],[6.00103,58.89683]],[[5.96793,58.90301],[5.97351,58.90187],[5.97809,58.90321],[5.98061,58.90168],[5.9852,58.90028],[5.99156,58.89749],[5.9967,58.89649]],[[5.96664,58.90631],[5.96554,58.90551],[5.96528,58.90377],[5.96793,58.90301]],[[5.97282,58.90862],[5.97367,58.90738],[5.97236,58.9072],[5.97126,58.90771],[5.96664,58.90631]],[[6.00039,58.90925],[5.99832,58.91041]],[[5.99832,58.91041],[5.99816,58.91054]],[[5.99303,58.91331],[5.99196,58.91334],[5.99041,58.91515],[5.98943,58.91686],[5.99032,58.91724],[5.99213,58.91643],[5.99318,58.9153],[5.99358,58.91429],[5.99303,58.91331]],[[5.96999,58.92374],[5.96997,58.92287],[5.96846,58.92204],[5.96558,58.91729],[5.96761,58.91527],[5.96721,58.9127],[5.96951,58.91199],[5.97282,58.90862]],[[5.99816,58.91054],[5.99594,58.91401],[5.99683,58.91643],[5.99653,58.91807],[5.99861,58.91838],[6.0014,58.91684]],[[6.0002,58.91879],[5.99834,58.91984],[5.99592,58.91941],[5.99294,58.91796],[5.98985,58.91758],[5.98836,58.91795],[5.98797,58.91973],[5.9871,58.92027],[5.98722,58.92149],[5.98605,58.9223],[5.9842,58.92278],[5.98299,58.92456],[5.98346,58.92564],[5.98539,58.9261],[5.98594,58.92729],[5.98877,58.9258],[5.99101,58.9255],[5.99311,58.92436],[5.99695,58.92312],[5.99841,58.92356],[5.99859,58.92457],[5.99981,58.92539],[6.00218,58.92539]],[[5.99336,58.93266],[5.99614,58.92996],[5.99606,58.92856],[5.99538,58.92831],[5.99354,58.92892],[5.99269,58.93064],[5.99103,58.93074],[5.9906,58.9314],[5.99219,58.93204],[5.9905,58.93248],[5.98998,58.93321],[5.99182,58.93348],[5.99336,58.93266]],[[5.81643,58.92555],[5.82303,58.92533],[5.82833,58.92591],[5.83277,58.92715],[5.8346,58.92882],[5.83825,58.93005]],[[5.84695,58.93182],[5.84661,58.93123],[5.84732,58.93054],[5.84972,58.92942],[5.85093,58.92971],[5.85043,58.93173]],[[5.83825,58.93005],[5.8402,58.93029],[5.839,58.93201],[5.83885,58.93426],[5.84261,58.93391],[5.84588,58.93252],[5.84741,58.93235],[5.84695,58.93182]],[[5.83956,58.94435],[5.83566,58.94185],[5.8354,58.94082]],[[5.84885,58.94501],[5.85215,58.94426],[5.85265,58.94316],[5.85485,58.94207],[5.85281,58.94053],[5.85224,58.94092],[5.85257,58.94149],[5.85138,58.94143],[5.85015,58.93998],[5.85118,58.93757],[5.8492,58.9355],[5.85,58.93445],[5.85043,58.93173]],[[5.93343,58.95101],[5.93211,58.95043],[5.93225,58.95012],[5.93479,58.95061],[5.93535,58.95028],[5.93451,58.94972],[5.93595,58.94958],[5.93692,58.95022],[5.93787,58.95029],[5.93956,58.94919],[5.93436,58.94797],[5.92898,58.94773],[5.92782,58.94857],[5.92769,58.95061]],[[5.94598,58.9519],[5.94782,58.95171],[5.95343,58.95014],[5.9596,58.94631],[5.96276,58.94541],[5.96481,58.94159],[5.96443,58.93821],[5.96821,58.93617],[5.96902,58.93529],[5.97015,58.93517],[5.97204,58.93569],[5.97092,58.93686],[5.97158,58.93781],[5.97267,58.93793],[5.97294,58.93739],[5.97399,58.93726],[5.9746,58.93762],[5.97378,58.93851],[5.97531,58.93895],[5.97628,58.93885],[5.97894,58.93717],[5.98122,58.9327],[5.98299,58.93078],[5.98167,58.92957],[5.98327,58.92872],[5.98356,58.92793],[5.9806,58.92532],[5.97855,58.92422],[5.97611,58.92473],[5.97594,58.92331],[5.97456,58.92368],[5.97384,58.9246],[5.97447,58.92552],[5.9755,58.92553],[5.97527,58.92586],[5.97431,58.9259],[5.97045,58.92485]],[[5.94374,58.95235],[5.94598,58.9519]],[[5.99751,58.95743],[5.99527,58.95803],[5.99494,58.95886],[5.99586,58.95929],[5.99655,58.95927],[5.99793,58.95825],[5.99751,58.95743]],[[5.93343,58.95101],[5.93367,58.95223],[5.931,58.95352],[5.93289,58.95501],[5.93834,58.95403],[5.9388,58.95336],[5.94148,58.9523],[5.94374,58.95235]],[[5.86694,58.95027],[5.86584,58.95035],[5.86319,58.95267],[5.86542,58.95187],[5.86694,58.95027]],[[5.84885,58.94501],[5.84692,58.94648],[5.84781,58.94726],[5.84535,58.94756],[5.84548,58.94889],[5.85052,58.95293],[5.85225,58.95356],[5.85224,58.95484],[5.8545,58.95617],[5.85531,58.95613]],[[5.83842,58.95645],[5.8367,58.95575],[5.83583,58.95723],[5.83647,58.95751],[5.83812,58.95719],[5.83876,58.95682],[5.83842,58.95645]],[[5.81871,58.95798],[5.81918,58.95846],[5.81751,58.96082],[5.82087,58.96198],[5.82254,58.96135],[5.82657,58.96127],[5.83668,58.95954],[5.8346,58.95623],[5.83495,58.9541],[5.83611,58.95298],[5.83855,58.95326],[5.83991,58.9521],[5.84005,58.9488],[5.83866,58.94669],[5.83956,58.94435]],[[5.84383,58.95377],[5.84252,58.95345],[5.83719,58.95987],[5.8376,58.96089],[5.83679,58.96155],[5.84039,58.96393],[5.84269,58.96355],[5.84351,58.96181],[5.84601,58.96016],[5.84576,58.95916],[5.84813,58.95701],[5.84757,58.95553],[5.84527,58.95514],[5.84383,58.95377]],[[5.85531,58.95613],[5.85892,58.95508],[5.8615,58.95343],[5.86208,58.95409],[5.86457,58.95464],[5.86248,58.95735],[5.86509,58.95926],[5.8635,58.96015],[5.86364,58.96157],[5.86196,58.96225],[5.86309,58.96326],[5.86411,58.96341],[5.86491,58.96267],[5.86634,58.96238],[5.86802,58.9646],[5.87035,58.9653],[5.87599,58.96559],[5.88211,58.96515],[5.88391,58.96472],[5.88686,58.96495],[5.89097,58.96422],[5.89236,58.96429],[5.89212,58.96484],[5.88858,58.96668],[5.88916,58.9672],[5.89038,58.96694],[5.89527,58.96404],[5.89559,58.96435],[5.89357,58.96537],[5.89159,58.96763],[5.89371,58.9679],[5.89602,58.96603],[5.89745,58.9656],[5.89917,58.96393],[5.89947,58.96285],[5.89804,58.96246],[5.89819,58.9614],[5.90298,58.95885],[5.90277,58.95807],[5.90407,58.95733],[5.91,58.95548],[5.91198,58.95407],[5.91737,58.95263],[5.91847,58.95127],[5.9213,58.95157],[5.9189,58.95386],[5.91929,58.9541],[5.92228,58.95316],[5.92444,58.9517],[5.9263,58.95155],[5.92769,58.95061]],[[5.9706,58.97144],[5.96714,58.97156],[5.96538,58.97311],[5.96559,58.97358],[5.96627,58.97361],[5.9669,58.97292],[5.9706,58.97144]],[[5.87281,58.96748],[5.87086,58.96725],[5.86966,58.96764],[5.86845,58.96896],[5.86954,58.96935],[5.87031,58.96921],[5.87336,58.96797],[5.87281,58.96748]],[[5.95747,58.97549],[5.94945,58.97471],[5.94593,58.97488],[5.94175,58.97606]],[[5.88424,58.96961],[5.8856,58.96892],[5.88561,58.96837],[5.88479,58.96807],[5.88344,58.96842],[5.88234,58.96932],[5.88073,58.96933],[5.87891,58.96885],[5.87699,58.96973],[5.87999,58.97181],[5.88198,58.97052],[5.88474,58.97016],[5.88494,58.96983],[5.88424,58.96961]],[[5.85974,58.97156],[5.86034,58.97078],[5.85858,58.97033],[5.85752,58.97031],[5.85623,58.971],[5.85654,58.97123],[5.85804,58.971],[5.85765,58.97164],[5.85839,58.9719],[5.85974,58.97156]],[[5.94175,58.97606],[5.93701,58.9778]],[[5.98838,58.97101],[5.98767,58.97053],[5.98779,58.96872],[5.98576,58.96802],[5.9824,58.96939],[5.98205,58.97041],[5.98292,58.97072],[5.98494,58.97062],[5.98578,58.97091],[5.98595,58.97154],[5.98201,58.97167],[5.9812,58.9722],[5.9811,58.97371],[5.97667,58.97344],[5.97379,58.97435],[5.97386,58.97499],[5.97124,58.97673],[5.97018,58.97818],[5.97358,58.97906],[5.97217,58.97973],[5.97193,58.98046],[5.97381,58.98108]],[[5.96473,58.98138],[5.96706,58.98018],[5.96773,58.97922],[5.96653,58.97788],[5.96685,58.97624],[5.96308,58.97531],[5.96002,58.97518]],[[5.85782,58.97374],[5.85685,58.97308],[5.85494,58.97304],[5.85334,58.97346],[5.85241,58.97468],[5.85391,58.97499],[5.85664,58.97484],[5.85782,58.97374]],[[5.82606,58.97357],[5.82426,58.97334],[5.82301,58.97368],[5.82195,58.97479],[5.82237,58.97594],[5.82359,58.9758],[5.82606,58.97357]],[[5.82124,58.97373],[5.81981,58.97376],[5.81759,58.97488],[5.81717,58.97609],[5.82067,58.97579],[5.82158,58.97414],[5.82124,58.97373]],[[6.00363,58.95978],[5.99977,58.95973],[5.99896,58.96029],[6.00187,58.96052]],[[6.00447,58.96368],[5.997,58.96597],[5.99683,58.9676],[5.99508,58.96893],[5.99591,58.97153],[5.99762,58.97405],[5.99929,58.97341],[6.00094,58.9742]],[[5.97381,58.98108],[5.97369,58.98159],[5.97218,58.98205],[5.97206,58.98287],[5.97325,58.98489],[5.97474,58.98603],[5.97437,58.98706],[5.97349,58.98752],[5.97533,58.9894],[5.98023,58.99182],[5.984,58.99158],[5.98752,58.9929],[5.99092,58.99134],[5.99429,58.99068],[5.99466,58.98983],[5.99348,58.98976],[5.99209,58.98909],[5.9909,58.98721],[5.99289,58.98667],[5.99547,58.98765],[5.99668,58.98753],[5.99647,58.98588],[5.99829,58.98566],[5.99893,58.98434],[6.00151,58.98401]],[[6.00098,58.97925],[5.99928,58.97881],[5.99961,58.97826],[5.99281,58.97141],[5.99179,58.97112],[5.99103,58.97173],[5.98962,58.97168],[5.98838,58.97101]],[[5.84096,58.97707],[5.84029,58.97539],[5.83771,58.9745],[5.83811,58.973],[5.83527,58.97204],[5.82954,58.97262],[5.82732,58.97372],[5.82697,58.97457],[5.8281,58.97536],[5.83032,58.97562],[5.8327,58.97495],[5.8343,58.97548],[5.83421,58.97643],[5.8324,58.9762],[5.82732,58.97685],[5.83229,58.97826],[5.83322,58.97923],[5.83289,58.98068],[5.83749,58.98306],[5.84084,58.98293],[5.84351,58.9811],[5.84367,58.98056],[5.84211,58.97997],[5.84083,58.97881],[5.84096,58.97707]],[[5.94283,58.99177],[5.94766,58.99018],[5.9462,58.98895],[5.94791,58.98871],[5.94762,58.98949],[5.94887,58.98939],[5.95562,58.98726],[5.96345,58.98347],[5.96473,58.98138]],[[5.93296,58.99309],[5.93446,58.9918],[5.93355,58.99086]],[[5.93296,58.99309],[5.9328,58.99371]],[[5.9328,58.99371],[5.94283,58.99177]],[[5.83031,58.98886],[5.8322,58.98783],[5.83173,58.98729],[5.82754,58.98809],[5.82715,58.98783],[5.83305,58.98567],[5.83362,58.98383],[5.83439,58.98344],[5.83352,58.98281],[5.83063,58.98231],[5.82862,58.98128],[5.82676,58.98147],[5.82127,58.98409],[5.82237,58.98504],[5.82041,58.98614],[5.82281,58.98833]],[[5.91444,58.99484],[5.9154,58.99371],[5.90927,58.99346],[5.90877,58.99288],[5.90446,58.99304],[5.90218,58.99189],[5.90181,58.99088],[5.9029,58.98961],[5.90104,58.98889],[5.90131,58.98853],[5.90297,58.98817],[5.9062,58.98827],[5.91549,58.98466],[5.91591,58.98311],[5.91803,58.98094],[5.91882,58.98113],[5.91911,58.98193],[5.92021,58.98223],[5.9231,58.98107],[5.9281,58.98047],[5.933,58.97837],[5.93701,58.9778]],[[5.92618,58.99567],[5.92812,58.99341],[5.92746,58.99285],[5.93355,58.99086]],[[5.82281,58.98833],[5.82353,58.9888],[5.82604,58.98867],[5.82531,58.99009],[5.82706,58.99002],[5.83031,58.98886]],[[5.91444,58.99484],[5.91426,58.99639],[5.91716,58.99742],[5.92283,58.99606],[5.92434,58.99645],[5.92618,58.99567]],[[5.88944,58.99335],[5.88807,58.99341],[5.88631,58.99404],[5.88598,58.99528],[5.88655,58.99556],[5.88937,58.99417],[5.88944,58.99335]],[[5.8895,58.99516],[5.88809,58.99555],[5.8861,58.99741],[5.88649,58.99802],[5.89069,58.9972],[5.88959,58.9964],[5.8895,58.99516]],[[5.97045,58.92485],[5.96999,58.92374]],[[5.8354,58.94082],[5.83188,58.93888],[5.8271,58.9379],[5.82525,58.93802],[5.81605,58.94266]],[[5.96002,58.97518],[5.95747,58.97549]],[[5.99854,58.98281],[5.99744,58.98277],[5.99566,58.98352],[5.99242,58.9852],[5.99194,58.98614],[5.99483,58.98587],[5.99668,58.98461],[5.99836,58.98415],[5.99793,58.98344],[5.99854,58.98281]],[[5.54471,58.81387],[5.54694,58.81177]],[[5.54471,58.81387],[5.54314,58.81423],[5.54206,58.81583],[5.53917,58.81767],[5.54015,58.81854],[5.53954,58.81907],[5.53927,58.82146],[5.54231,58.82258]],[[5.50475,58.82438],[5.50291,58.82432],[5.50393,58.82632],[5.50533,58.82727],[5.50601,58.8267],[5.50603,58.82557],[5.50475,58.82438]],[[5.55232,58.83312],[5.55105,58.83228],[5.54986,58.82894],[5.54763,58.82711]],[[5.55232,58.83312],[5.55723,58.83497]],[[5.74397,58.85637],[5.74354,58.85292],[5.74112,58.85285],[5.74057,58.85213],[5.74147,58.85185],[5.74613,58.85188]],[[5.74613,58.85188],[5.74767,58.85197],[5.74922,58.85315],[5.74854,58.85582],[5.75341,58.85698],[5.7543,58.85754],[5.7539,58.86211],[5.7552,58.86398],[5.75499,58.86473],[5.75598,58.865],[5.75599,58.86653],[5.75941,58.86763],[5.76049,58.86956],[5.76463,58.87069],[5.76528,58.87155]],[[5.77006,58.8776],[5.76329,58.87401],[5.76528,58.87155]],[[5.77006,58.8776],[5.77151,58.8789],[5.77107,58.87957]],[[5.74955,58.88719],[5.74659,58.87761],[5.74189,58.87514],[5.74093,58.87372],[5.74107,58.87271],[5.74408,58.87091],[5.74614,58.87191],[5.74668,58.87182],[5.7467,58.86915],[5.74519,58.86727],[5.74665,58.86677],[5.74567,58.86562],[5.74815,58.86238],[5.74806,58.86061],[5.74595,58.8597],[5.74611,58.85771],[5.74397,58.85637]],[[5.55723,58.83497],[5.56046,58.84066],[5.56185,58.84499],[5.55941,58.8475],[5.55586,58.84778],[5.55426,58.84913],[5.54906,58.8502],[5.54733,58.85107],[5.54672,58.8532],[5.54835,58.85386],[5.54893,58.85466],[5.54658,58.85535],[5.54664,58.85705],[5.54901,58.85897],[5.55036,58.86099],[5.55607,58.86024],[5.55839,58.86065],[5.55988,58.8614],[5.55989,58.86195],[5.55788,58.86259],[5.559,58.86421],[5.55857,58.86494],[5.55784,58.86513],[5.55573,58.86467],[5.55311,58.86655],[5.55449,58.86738],[5.55999,58.86704],[5.56402,58.86797],[5.56269,58.86902],[5.56245,58.87005],[5.56305,58.87015],[5.56437,58.86948],[5.56712,58.86972],[5.57101,58.87105],[5.56993,58.8735],[5.57358,58.87545],[5.57537,58.87547],[5.57606,58.87505],[5.578,58.87482],[5.58086,58.87485],[5.58238,58.87574],[5.58667,58.8765],[5.58935,58.87641],[5.59208,58.87567],[5.59461,58.87608],[5.59581,58.87672],[5.59865,58.87677],[5.6008,58.87813]],[[5.74955,58.88719],[5.75056,58.88837],[5.74896,58.88903],[5.74888,58.88962],[5.75119,58.89282]],[[5.77342,58.89443],[5.77517,58.89293],[5.77625,58.89092],[5.77569,58.88748],[5.77631,58.88647],[5.77506,58.88493],[5.77433,58.88244],[5.77217,58.88195],[5.77001,58.88216],[5.76854,58.88131],[5.77107,58.87957]],[[5.74711,58.89982],[5.74917,58.89897],[5.75045,58.89901],[5.75104,58.89831],[5.75177,58.89366],[5.75119,58.89282]],[[5.63406,58.89549],[5.6364,58.89559],[5.63695,58.89771],[5.63764,58.89758],[5.63806,58.89611],[5.63977,58.89625]],[[5.74982,58.90407],[5.74855,58.90392],[5.74656,58.90461],[5.74639,58.90575],[5.74977,58.90572],[5.74982,58.90407]],[[5.63977,58.89625],[5.64163,58.89809],[5.64397,58.89875]],[[5.55067,58.8923],[5.54963,58.89174],[5.54879,58.89195],[5.54759,58.89353],[5.55112,58.89302],[5.55067,58.8923]],[[5.60295,58.88358],[5.59896,58.89163],[5.59532,58.89312],[5.58891,58.89309],[5.58792,58.8934],[5.58804,58.89549],[5.58673,58.89695]],[[5.43862,58.88209],[5.43764,58.88143],[5.4343,58.88079],[5.43622,58.88023],[5.43495,58.87786],[5.43357,58.87736],[5.43019,58.87812],[5.43248,58.87916],[5.4332,58.87996],[5.43177,58.87995],[5.4311,58.88047],[5.43401,58.88438],[5.43407,58.88567],[5.43591,58.88535],[5.43737,58.88659]],[[5.43702,58.88784],[5.43787,58.88736],[5.43737,58.88659]],[[5.77342,58.89443],[5.77249,58.89639],[5.77511,58.89774],[5.77577,58.89927],[5.77429,58.90004],[5.77509,58.90156],[5.77436,58.90287],[5.77726,58.90406],[5.77995,58.90616],[5.77898,58.90679],[5.77662,58.90602],[5.77469,58.90736],[5.77491,58.90816],[5.77805,58.90915],[5.7788,58.91035],[5.77839,58.91138],[5.77572,58.91271]],[[5.43702,58.88784],[5.43576,58.88824],[5.43676,58.8888]],[[5.43676,58.8888],[5.43785,58.8888],[5.44245,58.88739],[5.43862,58.88209]],[[5.44425,58.8888],[5.44338,58.88871],[5.44259,58.88911],[5.44425,58.89069],[5.4454,58.89002],[5.44425,58.8888]],[[5.62606,58.90566],[5.62473,58.9042],[5.62709,58.90275],[5.62809,58.90291],[5.62957,58.90221],[5.6306,58.90223],[5.63218,58.90035],[5.63406,58.89549]],[[5.45078,58.89093],[5.44691,58.88993],[5.4447,58.89139],[5.44592,58.89204],[5.44937,58.89279],[5.45102,58.89127],[5.45078,58.89093]],[[5.64383,58.8988],[5.64253,58.89967],[5.64306,58.90049],[5.6423,58.90261],[5.64272,58.90387],[5.64149,58.9051],[5.64208,58.90564],[5.64508,58.90645],[5.64695,58.90797],[5.65064,58.90762]],[[5.62606,58.90566],[5.62325,58.90639],[5.6192,58.90486],[5.6165,58.90522]],[[5.77572,58.91271],[5.77549,58.91443],[5.77786,58.91897]],[[5.65064,58.90762],[5.6526,58.90879],[5.65399,58.91058],[5.65519,58.91089],[5.65988,58.91085],[5.66081,58.90957]],[[5.74711,58.89982],[5.74499,58.90088],[5.74396,58.90208],[5.7451,58.90282],[5.74281,58.90334],[5.74138,58.90451],[5.74129,58.90607],[5.73847,58.90709],[5.73446,58.90947],[5.73471,58.91036],[5.73698,58.91194],[5.73867,58.91413],[5.73937,58.91416],[5.74243,58.91226],[5.7452,58.91231],[5.74637,58.91301],[5.74364,58.91289],[5.74307,58.91318],[5.74274,58.91458],[5.74357,58.9156],[5.74122,58.91605],[5.74179,58.91661],[5.74079,58.91724],[5.73786,58.91727],[5.73702,58.91684],[5.73534,58.91681],[5.73461,58.91853]],[[5.66081,58.90957],[5.66267,58.90996],[5.66294,58.91139],[5.66066,58.91305],[5.65865,58.91319],[5.65809,58.91385],[5.65847,58.91424],[5.66214,58.91368],[5.66455,58.91393],[5.66656,58.91301],[5.669,58.91373],[5.67163,58.91364],[5.67181,58.91441]],[[5.77786,58.91897],[5.77859,58.92372]],[[5.73678,58.92303],[5.73821,58.92188],[5.74088,58.92149],[5.74082,58.92004],[5.73921,58.91995],[5.73879,58.92045],[5.73769,58.92065],[5.73741,58.92025],[5.73976,58.919],[5.73931,58.91849],[5.73824,58.91842],[5.73729,58.91887],[5.73461,58.91853]],[[5.58914,58.91206],[5.58841,58.91109],[5.58715,58.91085],[5.5848,58.91111],[5.58432,58.91176],[5.58103,58.91174],[5.58013,58.91044],[5.57558,58.90808],[5.57661,58.90615],[5.57839,58.90527],[5.57807,58.89938],[5.58006,58.89772],[5.58343,58.89793],[5.58673,58.89695]],[[5.65112,58.91515],[5.64989,58.91481],[5.64831,58.9162],[5.64967,58.91704],[5.65227,58.9166],[5.65112,58.91515]],[[5.73678,58.92303],[5.74119,58.92516],[5.74402,58.92454]],[[5.62433,58.91731],[5.62449,58.91418],[5.62061,58.91002],[5.61513,58.90697],[5.6165,58.90522]],[[5.75058,58.9267],[5.74898,58.92701],[5.74753,58.92616],[5.7492,58.92522],[5.74997,58.92358],[5.74852,58.92275],[5.74695,58.9225],[5.74402,58.92454]],[[5.64683,58.92037],[5.64792,58.91934],[5.64789,58.9183],[5.64683,58.9165],[5.64579,58.91627],[5.64158,58.91799],[5.64065,58.91898],[5.64193,58.91955],[5.64454,58.9196],[5.64622,58.92056],[5.64683,58.92037]],[[5.5757,58.91721],[5.57402,58.91709],[5.57164,58.91864],[5.5718,58.91985],[5.5726,58.92017],[5.57521,58.91957],[5.57504,58.91814],[5.5757,58.91721]],[[5.77859,58.92372],[5.77963,58.92558],[5.77937,58.92753],[5.78013,58.92784],[5.78475,58.92787],[5.78466,58.92842],[5.78642,58.92975],[5.78891,58.92996],[5.78999,58.93046],[5.78965,58.93274],[5.78476,58.93446],[5.78508,58.93557],[5.786,58.93607],[5.78716,58.936],[5.78784,58.93653],[5.78814,58.93736],[5.78647,58.93875],[5.78809,58.93941],[5.79276,58.93854],[5.79639,58.93672],[5.79874,58.93407],[5.79888,58.93119],[5.79996,58.9312],[5.80154,58.92992],[5.80888,58.92849],[5.81643,58.92555]],[[5.55883,58.91914],[5.55728,58.91954],[5.5549,58.92131],[5.55418,58.92281],[5.55474,58.92321],[5.55693,58.92344],[5.55787,58.92312],[5.55999,58.92],[5.55883,58.91914]],[[5.51744,58.91282],[5.51702,58.91204],[5.5138,58.9108],[5.51321,58.90978],[5.51242,58.90952],[5.5115,58.9095],[5.50988,58.91053],[5.5091,58.90968],[5.50783,58.90945],[5.50536,58.90988],[5.50455,58.90933],[5.50134,58.91063],[5.50107,58.91262],[5.49983,58.91309],[5.49973,58.91373],[5.49713,58.9157],[5.49507,58.91652],[5.49293,58.91867],[5.49413,58.91852],[5.49575,58.91727],[5.49897,58.91677],[5.50963,58.91576],[5.51089,58.91621],[5.51375,58.91611],[5.51673,58.91537]],[[5.50884,58.9203],[5.50973,58.91882],[5.50866,58.91692],[5.50987,58.91676],[5.51118,58.91742],[5.51653,58.91611]],[[5.52274,58.92132],[5.52443,58.91816],[5.52278,58.91684],[5.52354,58.91558],[5.52218,58.91485],[5.52165,58.9135],[5.51879,58.9127],[5.51783,58.91329],[5.51744,58.91282]],[[5.56974,58.92479],[5.5696,58.92337],[5.56707,58.92309],[5.56515,58.92445]],[[5.57267,58.92501],[5.57374,58.92379],[5.57572,58.92279],[5.57523,58.92229],[5.57574,58.92162],[5.57852,58.92001],[5.57702,58.91907],[5.57667,58.91795],[5.57842,58.91737],[5.58211,58.91772],[5.58914,58.91206]],[[5.6016,58.92451],[5.5949,58.92415],[5.59325,58.92248],[5.58999,58.92252],[5.58659,58.9203],[5.58627,58.91839],[5.58497,58.91825],[5.58334,58.92],[5.58283,58.92188],[5.58164,58.92178],[5.57976,58.92297],[5.5787,58.92287],[5.57624,58.92442],[5.57401,58.9251]],[[5.60525,58.9274],[5.60476,58.92598],[5.60591,58.92551],[5.60583,58.92482]],[[5.62485,58.92883],[5.62576,58.92381],[5.62444,58.91877]],[[5.63617,58.92966],[5.63505,58.92748],[5.63296,58.92657],[5.63573,58.92593],[5.63554,58.92499],[5.63364,58.92382],[5.63203,58.92467],[5.63185,58.92653],[5.63095,58.92786],[5.62788,58.92905]],[[5.68328,58.93309],[5.68601,58.93079],[5.68467,58.92932],[5.68626,58.92878],[5.68596,58.92798],[5.68288,58.92701],[5.67534,58.92561],[5.67628,58.92384],[5.67529,58.92265],[5.66966,58.92035],[5.66411,58.91898],[5.66231,58.91815],[5.66581,58.91612],[5.66801,58.91595],[5.67181,58.91441]],[[5.75058,58.9267],[5.75184,58.92658],[5.75261,58.92846],[5.75443,58.92999],[5.75471,58.9328],[5.75403,58.93456],[5.75589,58.93682],[5.75634,58.93838]],[[5.57267,58.92501],[5.57279,58.92558],[5.57401,58.9251]],[[5.56515,58.92445],[5.5656,58.92503],[5.56699,58.92482],[5.56787,58.92525],[5.56974,58.92479]],[[5.51475,58.92253],[5.51762,58.92242],[5.51925,58.92184],[5.5206,58.922],[5.52122,58.92278],[5.52226,58.92295],[5.52321,58.92235],[5.52274,58.92132]],[[5.62788,58.92905],[5.62691,58.93074],[5.62955,58.93199],[5.63184,58.93163],[5.63229,58.92995],[5.635,58.93027],[5.63617,58.92966]],[[5.75634,58.93838],[5.75605,58.94099],[5.75475,58.94215]],[[5.50884,58.9203],[5.50678,58.9204],[5.50564,58.9228],[5.50728,58.92318],[5.50704,58.92469],[5.5087,58.92433],[5.51144,58.92225],[5.51167,58.92428],[5.51356,58.92433],[5.51475,58.92253]],[[5.65435,58.93598],[5.64749,58.93209],[5.64549,58.93164],[5.64403,58.93213]],[[5.58408,58.9282],[5.58321,58.92778],[5.57877,58.92939],[5.57779,58.93],[5.57808,58.93054],[5.57897,58.93071],[5.58335,58.92946],[5.58408,58.9282]],[[5.59983,58.93099],[5.59935,58.93146],[5.59714,58.93113],[5.59778,58.92996],[5.59742,58.92899],[5.59322,58.92824],[5.5919,58.92847],[5.58992,58.92814],[5.58771,58.92837],[5.58625,58.92934],[5.58225,58.93059],[5.58171,58.93178]],[[5.81605,58.94266],[5.81037,58.94609],[5.81295,58.94714],[5.81334,58.94949]],[[5.61628,58.9353],[5.61712,58.93366],[5.61924,58.93275],[5.62105,58.931],[5.62174,58.93089],[5.62401,58.93192],[5.62513,58.93171],[5.62553,58.93107],[5.62485,58.92883]],[[5.58171,58.93178],[5.58018,58.93229],[5.58165,58.93383],[5.58163,58.93446],[5.58066,58.93466],[5.5797,58.93391],[5.57829,58.93422],[5.57711,58.93353],[5.57414,58.93366],[5.57367,58.93341],[5.57416,58.93267]],[[5.63751,58.9394],[5.63563,58.93481],[5.63817,58.93434],[5.64116,58.93194],[5.64342,58.93171],[5.64403,58.93213]],[[5.66983,58.94236],[5.66744,58.94098],[5.66413,58.94036],[5.66407,58.93988],[5.66182,58.93849],[5.66071,58.93838],[5.65563,58.93574],[5.65435,58.93598]],[[5.66983,58.94236],[5.67266,58.94137],[5.67554,58.93894]],[[5.74722,58.94929],[5.74888,58.94886],[5.74926,58.94775],[5.75236,58.94758],[5.75506,58.9459],[5.75401,58.94287],[5.75475,58.94215]],[[5.81334,58.94949],[5.81259,58.95024],[5.80981,58.94998],[5.80328,58.9531],[5.80337,58.95364],[5.80415,58.95386],[5.80645,58.95335],[5.80747,58.95384]],[[5.74722,58.94929],[5.74593,58.95093],[5.74482,58.95131],[5.74489,58.95211]],[[5.80747,58.95384],[5.8112,58.95648],[5.81408,58.95721],[5.81531,58.9571],[5.81513,58.95638],[5.81719,58.95648],[5.81836,58.9569],[5.81871,58.95798]],[[5.74489,58.95211],[5.74594,58.95302],[5.74647,58.9553],[5.74841,58.95305],[5.75119,58.95167],[5.75263,58.95176],[5.75572,58.95375]],[[5.81287,58.95869],[5.81217,58.9585],[5.81078,58.95942],[5.81099,58.9602],[5.81231,58.96067],[5.8133,58.95973],[5.81287,58.95869]],[[5.60957,58.9461],[5.61216,58.9442],[5.61407,58.9436],[5.61666,58.94185],[5.62022,58.94123],[5.62262,58.94042],[5.62302,58.93993],[5.62665,58.93928],[5.62759,58.93874],[5.62711,58.93653],[5.62785,58.93503],[5.62563,58.93398],[5.62353,58.93379],[5.62246,58.93515],[5.61862,58.936],[5.61654,58.93626],[5.61628,58.9353]],[[5.75572,58.95375],[5.76121,58.95571],[5.76151,58.95624],[5.75991,58.95708],[5.75991,58.95825],[5.76088,58.95828],[5.76127,58.95753]],[[5.76127,58.95753],[5.76233,58.95683],[5.76354,58.95807],[5.76712,58.95887]],[[5.60559,58.94818],[5.60795,58.94759],[5.60957,58.9461]],[[5.74281,58.95784],[5.74362,58.95688],[5.74591,58.95587],[5.74582,58.95867]],[[5.48468,58.93972],[5.48529,58.93962],[5.48651,58.94066],[5.48854,58.94037],[5.48889,58.93997],[5.48599,58.93899],[5.48639,58.93786],[5.48468,58.93699],[5.48322,58.93956],[5.48377,58.94075],[5.48476,58.94061],[5.48468,58.93972]],[[5.7853,58.95813],[5.78372,58.95822],[5.7813,58.9603],[5.7807,58.96179],[5.78084,58.96234],[5.78168,58.96258],[5.78599,58.96201],[5.78654,58.96164],[5.78629,58.9588],[5.7853,58.95813]],[[5.43404,58.93519],[5.43342,58.93508],[5.43118,58.93647],[5.4309,58.93748],[5.43357,58.9367],[5.43404,58.93519]],[[5.63751,58.9394],[5.63788,58.94108],[5.63619,58.94345],[5.63193,58.94444],[5.62959,58.94552],[5.62848,58.94728],[5.62546,58.9469],[5.62309,58.94738],[5.62226,58.948],[5.62267,58.94839],[5.62626,58.94847],[5.62799,58.94838],[5.62951,58.94784],[5.6312,58.94797],[5.63011,58.94895],[5.63115,58.95012],[5.63036,58.95058],[5.62922,58.95294]],[[5.74281,58.95784],[5.74241,58.95912],[5.74312,58.96144],[5.74401,58.96141],[5.74616,58.95961],[5.74582,58.95867]],[[5.76625,58.96399],[5.76788,58.96344],[5.7686,58.96232],[5.76766,58.96023],[5.76798,58.95934],[5.76712,58.95887]],[[5.48164,58.94438],[5.48289,58.94487],[5.48332,58.94445],[5.48333,58.94238],[5.48073,58.94244],[5.48069,58.94377],[5.47979,58.94492],[5.48051,58.94505],[5.48164,58.94438]],[[5.78836,58.96481],[5.78762,58.96429],[5.78641,58.96452],[5.78489,58.96609],[5.78471,58.96763],[5.78652,58.96758],[5.78612,58.96616],[5.78785,58.96564],[5.78836,58.96481]],[[5.60991,58.95505],[5.60996,58.95284],[5.60923,58.95155],[5.60559,58.94818]],[[5.44835,58.94195],[5.44894,58.94122],[5.44843,58.94095],[5.44825,58.9415],[5.44702,58.94174],[5.44504,58.94155],[5.44479,58.94306],[5.44884,58.94263],[5.44906,58.94226],[5.44835,58.94195]],[[5.76625,58.96399],[5.76618,58.965],[5.76692,58.96509],[5.76867,58.9644],[5.76965,58.9649],[5.76704,58.96608],[5.76673,58.96758],[5.76562,58.9682],[5.76463,58.96807]],[[5.60423,58.95722],[5.60815,58.95715],[5.60977,58.95581],[5.60991,58.95505]],[[5.45286,58.94669],[5.45237,58.94642],[5.45193,58.94661],[5.45245,58.9479],[5.4537,58.94861],[5.45427,58.94788],[5.45286,58.94669]],[[5.60468,58.96141],[5.60822,58.96151],[5.60994,58.96017],[5.61356,58.95955],[5.61598,58.95836],[5.62413,58.95592],[5.6262,58.9546],[5.62778,58.95429],[5.62922,58.95294]],[[5.45167,58.94823],[5.45073,58.94764],[5.44973,58.94776],[5.45206,58.95063],[5.45291,58.94949],[5.45167,58.94823]],[[5.46021,58.95035],[5.46144,58.95038],[5.46256,58.95109],[5.46358,58.95116],[5.46222,58.94966],[5.46312,58.94882],[5.46132,58.9488],[5.4601,58.94616],[5.45645,58.94482],[5.45533,58.94568],[5.45575,58.94705],[5.45712,58.94698],[5.45821,58.94871],[5.45856,58.94953],[5.45785,58.94987],[5.45787,58.9505],[5.45887,58.95124],[5.46021,58.95035]],[[5.76463,58.96807],[5.76229,58.96762],[5.76336,58.96836],[5.76288,58.96929],[5.75943,58.96986],[5.75742,58.97108],[5.75493,58.97119],[5.75325,58.97251],[5.75259,58.97248],[5.75263,58.97337],[5.75202,58.97369],[5.74603,58.97339],[5.74552,58.9718],[5.74392,58.97151]],[[5.57416,58.93267],[5.5755,58.93169],[5.57529,58.93125],[5.57177,58.93258],[5.56988,58.93433],[5.5694,58.93619],[5.56659,58.93843],[5.56511,58.93885],[5.56494,58.9418],[5.56846,58.94365],[5.569,58.94501],[5.56823,58.94607],[5.57057,58.94751],[5.57007,58.95061],[5.57129,58.95146],[5.5717,58.95273],[5.57323,58.95291],[5.57457,58.95249],[5.57385,58.95541],[5.57509,58.95626],[5.57596,58.95837],[5.57775,58.95892],[5.58012,58.95836],[5.58101,58.96078],[5.58208,58.96168],[5.5839,58.96191],[5.58623,58.96134],[5.58767,58.96144],[5.59182,58.96016]],[[5.44444,58.95151],[5.44607,58.95109],[5.44574,58.95004],[5.44485,58.9499],[5.44416,58.95057],[5.44308,58.95072],[5.44085,58.94842],[5.43874,58.94782],[5.43628,58.94796],[5.43289,58.94677],[5.43162,58.94677],[5.43063,58.94849],[5.4313,58.94868],[5.43332,58.94828],[5.43447,58.95001],[5.44079,58.95109],[5.44265,58.95195],[5.44444,58.95151]],[[5.50536,58.95644],[5.50284,58.95542],[5.50186,58.95548],[5.50175,58.95685],[5.50277,58.9574],[5.505,58.95773]],[[5.72711,58.9725],[5.72911,58.97089],[5.73042,58.97058],[5.72903,58.9736],[5.72991,58.97425],[5.73113,58.97432],[5.73584,58.97367],[5.73692,58.97287],[5.73778,58.97277],[5.73833,58.97204],[5.73988,58.97226],[5.74195,58.97174],[5.74249,58.97206],[5.74392,58.97151]],[[5.47097,58.95285],[5.47023,58.95269],[5.4702,58.9536],[5.47179,58.95542],[5.47269,58.95405],[5.47227,58.95337],[5.47097,58.95285]],[[5.505,58.95773],[5.50669,58.95825],[5.50536,58.95644]],[[5.46823,58.95587],[5.46485,58.95611],[5.46532,58.95726],[5.46815,58.95628],[5.46823,58.95587]],[[5.47678,58.95923],[5.47599,58.95918],[5.47617,58.95969],[5.47812,58.96114],[5.48153,58.96159],[5.4801,58.96078],[5.4782,58.96058],[5.47678,58.95923]],[[5.59815,58.97207],[5.59773,58.97149],[5.59295,58.97055],[5.59047,58.96813],[5.59183,58.96726],[5.59578,58.96634],[5.59636,58.9659],[5.59583,58.96503],[5.59842,58.96389],[5.59862,58.96317],[5.59761,58.96222],[5.59817,58.9615],[5.60468,58.96141]],[[5.59815,58.97207],[5.60069,58.9732],[5.60183,58.9725],[5.60311,58.97274]],[[5.53938,58.78482],[5.534,58.78118],[5.53336,58.77889],[5.53244,58.77807],[5.52851,58.77747],[5.52042,58.77342],[5.517,58.77122],[5.51502,58.7709],[5.51362,58.77133],[5.51215,58.76988],[5.50266,58.76602],[5.4998,58.76217],[5.49596,58.75885],[5.49491,58.75702]],[[5.54122,58.78711],[5.54085,58.78574],[5.53938,58.78482]],[[5.54122,58.78711],[5.54662,58.79396],[5.54848,58.80012]],[[5.54848,58.80012],[5.54872,58.80568],[5.54687,58.81136]],[[5.54231,58.82258],[5.54692,58.8259],[5.54763,58.82711]],[[5.60286,58.88203],[5.6008,58.87813]],[[5.60286,58.88203],[5.60295,58.88358]],[[5.64397,58.89875],[5.64383,58.8988]],[[5.57142,58.90792],[5.56914,58.90804],[5.56908,58.90857],[5.57067,58.90898],[5.57187,58.90853],[5.57142,58.90792]],[[5.62433,58.91731],[5.62444,58.91877]],[[5.51653,58.91611],[5.51715,58.91565],[5.51673,58.91537]],[[5.60583,58.92482],[5.60503,58.92431],[5.60433,58.92463],[5.6016,58.92451]],[[5.59983,58.93099],[5.60022,58.93054],[5.60221,58.93054],[5.60368,58.92927]],[[5.60525,58.9274],[5.60478,58.92878],[5.60372,58.92885],[5.60368,58.92927]],[[5.68328,58.93309],[5.68218,58.93391],[5.68144,58.93561],[5.6777,58.93696],[5.67554,58.93894]],[[5.59563,58.95878],[5.59603,58.95855]],[[5.59603,58.95855],[5.59713,58.95831],[5.5983,58.9591],[5.60423,58.95722]],[[5.59182,58.96016],[5.59563,58.95878]],[[5.49836,58.98164],[5.49537,58.98033],[5.4946,58.98042],[5.49776,58.9838]],[[5.49776,58.9838],[5.49881,58.98441],[5.49951,58.9841],[5.49953,58.98268],[5.49836,58.98164]],[[5.51345,58.98362],[5.51512,58.98366],[5.51445,58.98295],[5.51154,58.98306],[5.51184,58.98351],[5.51345,58.98362]],[[5.80503,58.97418],[5.80432,58.97386],[5.80187,58.9738],[5.80064,58.97458],[5.80291,58.97518],[5.80452,58.97479],[5.80503,58.97418]],[[5.81546,58.98146],[5.81409,58.98117],[5.81199,58.98155],[5.81189,58.98364],[5.81421,58.9845],[5.81657,58.98463],[5.81742,58.98439],[5.81806,58.9835],[5.81694,58.98218],[5.81546,58.98146]],[[5.74669,58.97692],[5.74887,58.97667],[5.74925,58.97615],[5.74786,58.97501],[5.7468,58.97484],[5.7438,58.97532],[5.74372,58.97645],[5.74145,58.97585],[5.73897,58.9757],[5.73823,58.97671],[5.74017,58.97852],[5.7415,58.97864],[5.74429,58.97985],[5.747,58.97927],[5.74623,58.97738],[5.74669,58.97692]],[[5.72711,58.9725],[5.72529,58.97498],[5.72149,58.97735],[5.72052,58.97941],[5.71796,58.98079]],[[5.74804,58.98296],[5.74938,58.98236],[5.74655,58.98215],[5.74613,58.98082],[5.74428,58.98075],[5.74371,58.98213],[5.74279,58.98231],[5.74229,58.98143],[5.74031,58.98087],[5.73807,58.98083],[5.73872,58.9791],[5.73617,58.97878],[5.73627,58.97929],[5.73747,58.97979],[5.73682,58.98003],[5.73458,58.97977],[5.73393,58.98046],[5.738,58.98204],[5.74084,58.98181],[5.74076,58.98244]],[[5.81168,58.98753],[5.81015,58.98657],[5.80746,58.98723]],[[5.77047,58.98667],[5.7684,58.98628],[5.7674,58.98655],[5.76752,58.98772],[5.76822,58.98803],[5.77103,58.98716],[5.77047,58.98667]],[[5.61075,58.97688],[5.61292,58.97668],[5.61304,58.97564],[5.6051,58.97384],[5.60311,58.97274]],[[5.75519,58.98442],[5.7523,58.98491],[5.75033,58.98629],[5.74882,58.98663],[5.74908,58.98722],[5.75109,58.98753],[5.75224,58.98688],[5.75492,58.9867],[5.75812,58.98531],[5.7579,58.98494],[5.75519,58.98442]],[[5.734,58.9829],[5.73136,58.98215],[5.72838,58.98362],[5.72654,58.98387],[5.7251,58.98366],[5.72637,58.98524],[5.72562,58.98559],[5.7235,58.9843],[5.72022,58.98438],[5.72063,58.98623]],[[5.79407,58.98888],[5.79297,58.98862],[5.79293,58.9892],[5.79184,58.9898],[5.792,58.99155],[5.79283,58.99182],[5.7945,58.99111],[5.79488,58.98966],[5.79407,58.98888]],[[5.75906,58.98873],[5.75949,58.98948],[5.76195,58.99026],[5.76423,58.98954],[5.7661,58.98998],[5.76708,58.9898],[5.76634,58.98865],[5.76448,58.98848],[5.76389,58.98668],[5.76291,58.98589],[5.7617,58.98595],[5.75953,58.987]],[[5.80746,58.98723],[5.80659,58.98889],[5.804,58.989],[5.8032,58.98959],[5.80459,58.99109],[5.80787,58.99182],[5.80635,58.99279],[5.80715,58.99363],[5.80937,58.99322],[5.8127,58.99159],[5.81454,58.99158],[5.81578,58.99006],[5.81433,58.98968],[5.81298,58.99],[5.81199,58.98982],[5.81168,58.98753]],[[5.72063,58.98623],[5.71982,58.98747],[5.71799,58.98717],[5.71753,58.98743],[5.71786,58.98913],[5.71936,58.99009],[5.72285,58.99058],[5.72644,58.98939]],[[5.72719,58.98939],[5.72616,58.99144],[5.72776,58.99171],[5.72803,58.99207],[5.72431,58.99311],[5.72232,58.99298],[5.72046,58.9922]],[[5.58379,58.98332],[5.58538,58.98356]],[[5.76881,58.99594],[5.76787,58.99525],[5.76771,58.99345],[5.76629,58.99267],[5.76866,58.99121],[5.76822,58.99043],[5.76438,58.99115],[5.76087,58.99103],[5.76026,58.99147],[5.76076,58.99227],[5.75908,58.99413],[5.75977,58.9948],[5.76167,58.99571],[5.76497,58.99516],[5.76538,58.9966],[5.7679,58.99741],[5.76881,58.99697],[5.76881,58.99594]],[[5.58538,58.98356],[5.59004,58.98456]],[[5.59004,58.98456],[5.59332,58.98474],[5.59543,58.98532],[5.59721,58.98495],[5.60025,58.98568],[5.60223,58.98491],[5.60648,58.98552],[5.60831,58.98408],[5.6077,58.98261],[5.60895,58.98259],[5.60916,58.98226],[5.60741,58.98129],[5.60719,58.97972],[5.60959,58.97967],[5.60941,58.97731],[5.61075,58.97688]],[[5.75736,58.995],[5.75632,58.99496],[5.75402,58.99712],[5.75447,58.99846],[5.75622,58.99923]],[[5.75622,58.99923],[5.75731,59.00011]],[[5.75731,59.00011],[5.75826,58.99911],[5.76011,58.99843],[5.75929,58.99734],[5.7598,58.9953],[5.75736,58.995]],[[5.79098,58.99464],[5.79156,58.99277],[5.78877,58.99133],[5.78907,58.98946],[5.78735,58.98917],[5.78599,58.98957],[5.78403,58.99234],[5.78485,58.99267],[5.7851,58.99358],[5.78705,58.99453],[5.78637,58.99488],[5.78566,58.99445],[5.78452,58.99447],[5.78496,58.9955],[5.78438,58.99582],[5.78296,58.99509],[5.78082,58.99523],[5.78168,58.99613],[5.78132,58.99698],[5.78278,58.99772],[5.78109,58.99995],[5.78176,59.00128]],[[5.79072,59.00221],[5.79341,58.99841],[5.79357,58.99604],[5.79101,58.99501],[5.79098,58.99464]],[[5.72046,58.9922],[5.71766,58.99243],[5.71217,58.99083],[5.71106,58.99122],[5.70974,58.99365],[5.71067,58.99462],[5.70923,58.9959],[5.70917,58.99937],[5.71017,59.00099]],[[5.66877,58.99878],[5.67032,58.99914],[5.67291,58.99837],[5.67288,58.99705]],[[5.67288,58.99705],[5.67297,58.99589],[5.67596,58.99635],[5.67648,58.99865],[5.67728,58.99948],[5.67908,58.99982],[5.68419,58.99843],[5.69071,58.99537],[5.69572,58.99197],[5.70001,58.99047],[5.7008,58.98944],[5.70551,58.98621],[5.70945,58.98437],[5.71089,58.98292],[5.71235,58.98239],[5.71354,58.98256],[5.71363,58.98321],[5.71445,58.98322],[5.71623,58.98243],[5.71796,58.98079]],[[5.66332,59.0011],[5.66293,58.99931],[5.66413,58.99908],[5.66557,58.99942],[5.66877,58.99878]],[[5.5665,59.00034],[5.56617,58.99899],[5.57156,58.99623],[5.57085,58.99554],[5.56867,58.99581],[5.56728,58.99545],[5.56868,58.99189],[5.56799,58.99099],[5.56609,58.99024],[5.56376,58.99031],[5.56231,58.98862],[5.55995,58.98808],[5.5598,58.98751],[5.56108,58.98606],[5.56443,58.98452],[5.56347,58.98368],[5.56341,58.9826],[5.56593,58.9803],[5.56769,58.98163],[5.56862,58.98367],[5.5708,58.98351],[5.5716,58.98286],[5.57132,58.9819],[5.57435,58.98092],[5.5768,58.98152],[5.57808,58.98256],[5.58103,58.98251],[5.58379,58.98332]],[[5.73957,58.98235],[5.73917,58.98232]],[[5.73957,58.98235],[5.74076,58.98244]],[[5.75953,58.987],[5.75841,58.98784],[5.75906,58.98873]],[[5.72644,58.98939],[5.72719,58.98939]],[[5.73917,58.98232],[5.739,58.9826],[5.74078,58.98363],[5.74366,58.98403],[5.7461,58.98396],[5.74804,58.98296]],[[5.74845,59.00091],[5.74685,58.99862],[5.75022,58.99757],[5.7516,58.99661],[5.75475,58.99148],[5.75143,58.9898],[5.748,58.9896],[5.74638,58.98871],[5.74695,58.98803],[5.74472,58.9867],[5.74385,58.98706],[5.74466,58.98777],[5.74457,58.98854],[5.74187,58.98877],[5.74068,58.98986],[5.73789,58.98969],[5.73697,58.9908],[5.73384,58.99221],[5.73122,58.99255],[5.73134,58.99154],[5.73265,58.99083],[5.73533,58.9896],[5.7369,58.98913],[5.73795,58.98927],[5.73914,58.98877],[5.73928,58.98738],[5.74161,58.98735],[5.74275,58.98666],[5.73808,58.9831],[5.73565,58.98251],[5.734,58.9829]],[[5.97011,58.3987],[5.96864,58.39866],[5.96758,58.39937],[5.96934,58.39997],[5.97065,58.39926],[5.97011,58.3987]],[[5.98662,58.40554],[5.985,58.40548],[5.98427,58.406],[5.98318,58.40841],[5.98381,58.40888],[5.98673,58.40898],[5.98796,58.40851],[5.98782,58.40682],[5.98662,58.40554]],[[5.97983,58.41022],[5.98137,58.40978],[5.98164,58.40869],[5.9798,58.4078],[5.9794,58.40823],[5.98053,58.4089],[5.97729,58.40888],[5.97657,58.40965],[5.97734,58.41074],[5.9794,58.41097],[5.97983,58.41022]],[[5.93709,58.40925],[5.9361,58.40918]],[[5.9633,58.41112],[5.96197,58.41032],[5.95982,58.41087]],[[5.97234,58.41176],[5.97312,58.41067],[5.97479,58.41054],[5.97518,58.41017],[5.97545,58.40933],[5.97455,58.40847],[5.97195,58.40912],[5.97166,58.41059],[5.97082,58.41119],[5.96918,58.41078],[5.97018,58.40952],[5.96944,58.40897],[5.96512,58.40849],[5.96484,58.41054],[5.96529,58.41101],[5.96632,58.41085],[5.96648,58.41135]],[[5.98029,58.41233],[5.97606,58.41071],[5.97485,58.41152],[5.97543,58.41198]],[[5.97234,58.41176],[5.97252,58.41229],[5.97545,58.4124],[5.97543,58.41198]],[[5.9361,58.40918],[5.93387,58.41003],[5.93438,58.411],[5.93729,58.41015],[5.93709,58.40925]],[[5.95982,58.41087],[5.95977,58.41175],[5.96107,58.41269],[5.96394,58.41309],[5.96469,58.41226],[5.9633,58.41112]],[[6.00113,58.41577],[5.99907,58.41511],[5.99738,58.41642],[5.99859,58.41761],[6.00042,58.41679]],[[5.99603,58.41919],[5.99734,58.41894],[5.99759,58.42009],[5.99818,58.42023],[6.00053,58.41936]],[[5.98888,58.42469],[5.98982,58.42028],[5.98806,58.41941],[5.98595,58.41959],[5.983,58.4213],[5.98368,58.42247],[5.98024,58.42238],[5.97746,58.42145],[5.97934,58.41998],[5.97846,58.41903],[5.97887,58.4175],[5.98103,58.41618],[5.98129,58.41514],[5.98222,58.41444],[5.98095,58.41362],[5.98029,58.41233]],[[5.99603,58.41919],[5.99488,58.42054],[5.99515,58.42213],[5.9938,58.42608]],[[5.98052,58.42818],[5.98535,58.42811],[5.98525,58.42573],[5.98793,58.42571],[5.98871,58.42538],[5.98888,58.42469]],[[5.94348,58.42434],[5.94242,58.42422],[5.94113,58.42502],[5.9386,58.42848],[5.93851,58.4294],[5.94153,58.42898],[5.94281,58.42745],[5.94649,58.42644],[5.94615,58.42605],[5.94485,58.42589],[5.94348,58.42434]],[[5.9938,58.42608],[5.99197,58.4283],[5.99061,58.43249],[5.99164,58.43411]],[[5.98077,58.43436],[5.98168,58.43386],[5.98338,58.43368],[5.98536,58.43414],[5.98609,58.43531],[5.98713,58.43567],[5.98796,58.4356],[5.98824,58.43516],[5.98578,58.43321],[5.98627,58.43154],[5.98453,58.42914],[5.98354,58.42869],[5.9813,58.42919],[5.98052,58.42818]],[[5.93953,58.43134],[5.94065,58.43087],[5.94039,58.43044],[5.93902,58.43026],[5.9377,58.43071],[5.93532,58.43082],[5.9359,58.43159],[5.93756,58.43119],[5.93677,58.43207],[5.93753,58.43249],[5.93953,58.43134]],[[5.90649,58.43248],[5.90941,58.43177],[5.90918,58.43104],[5.90714,58.43]],[[5.90649,58.43248],[5.90438,58.43153],[5.90104,58.43093],[5.90063,58.43112],[5.90131,58.43243],[5.90395,58.43346],[5.90615,58.4338]],[[5.99164,58.43411],[5.9899,58.43622],[5.9896,58.44093],[5.9901,58.44224]],[[5.98937,58.44504],[5.99037,58.44454],[5.99031,58.44238]],[[5.98937,58.44504],[5.98878,58.44552],[5.98898,58.44658]],[[5.98007,58.44661],[5.98175,58.44686],[5.98414,58.44543],[5.9849,58.4424],[5.98478,58.44149],[5.98262,58.44007],[5.98011,58.44058],[5.97799,58.43935],[5.97915,58.43883],[5.97891,58.43702],[5.97979,58.43635],[5.98116,58.4362],[5.98077,58.43436]],[[5.98898,58.44658],[5.98914,58.44717],[5.99405,58.44967]],[[5.90682,58.44368],[5.91057,58.44326],[5.91067,58.44287],[5.90884,58.44202],[5.90967,58.44157],[5.9085,58.43786],[5.90922,58.4369],[5.91093,58.43718],[5.91158,58.43675],[5.91076,58.43601],[5.91095,58.43419],[5.91041,58.43352],[5.90615,58.4338]],[[5.86283,58.43944],[5.86092,58.43948],[5.86039,58.43987],[5.8614,58.44067],[5.86322,58.44111],[5.86391,58.4409],[5.86381,58.44031],[5.86283,58.43944]],[[5.99405,58.44967],[5.99998,58.45245],[6.00147,58.45276]],[[5.98007,58.44661],[5.97938,58.44635],[5.978,58.44686],[5.97871,58.44883],[5.97688,58.45057],[5.97731,58.45115]],[[5.90714,58.43],[5.90492,58.42858],[5.90392,58.42632],[5.90151,58.42586],[5.89907,58.42661],[5.89734,58.42661],[5.89658,58.4259],[5.89809,58.42458],[5.89696,58.42406],[5.89478,58.42458],[5.89281,58.42355],[5.89108,58.42353],[5.88993,58.42427],[5.89162,58.42555],[5.88913,58.42563],[5.88726,58.42667],[5.88709,58.42752],[5.88555,58.42652],[5.88212,58.42552],[5.87795,58.42508],[5.87619,58.42546],[5.87475,58.42652],[5.87491,58.42708],[5.87725,58.42782],[5.87495,58.4284],[5.87595,58.42973],[5.87552,58.43073],[5.8763,58.43103],[5.87718,58.43086],[5.87885,58.43153],[5.88055,58.43385],[5.88935,58.43466],[5.88864,58.43285],[5.89201,58.43232],[5.89323,58.43336],[5.89162,58.43353],[5.891,58.43451],[5.8935,58.43518],[5.89219,58.4359],[5.8899,58.43524],[5.88803,58.43559],[5.88664,58.43518],[5.88119,58.43482],[5.88045,58.43557],[5.88109,58.43718],[5.88305,58.43858],[5.88683,58.4386],[5.88881,58.43914],[5.88543,58.44011],[5.88466,58.44081],[5.88059,58.43993],[5.87899,58.44016],[5.87766,58.44179],[5.8767,58.44153],[5.87698,58.4398],[5.88075,58.43875],[5.88036,58.43717],[5.87669,58.43646],[5.87361,58.43422],[5.87435,58.43326],[5.8731,58.43184],[5.87443,58.43145],[5.87411,58.43062],[5.87269,58.42986],[5.87265,58.42909],[5.87129,58.42895],[5.87001,58.42926],[5.87201,58.43064],[5.8704,58.4306],[5.86968,58.43172],[5.86918,58.43149],[5.86929,58.42953],[5.8687,58.42915],[5.86579,58.42939],[5.86338,58.43045],[5.86383,58.43196],[5.86561,58.43188],[5.86538,58.43299],[5.86647,58.43236],[5.8671,58.43261],[5.86702,58.43355],[5.86452,58.43356],[5.86325,58.43407],[5.86292,58.43484],[5.86449,58.43722],[5.86803,58.43801],[5.86569,58.43942],[5.86526,58.44043],[5.8672,58.44108],[5.86712,58.44239],[5.86797,58.4432],[5.86966,58.44335],[5.86935,58.44492],[5.87087,58.44539],[5.8716,58.44526],[5.87357,58.44603],[5.87653,58.44585],[5.87817,58.44535],[5.87947,58.44616],[5.882,58.44555],[5.88458,58.44572],[5.88692,58.44522],[5.88817,58.44432],[5.88824,58.44336],[5.88726,58.44231],[5.88765,58.4421],[5.89015,58.44372],[5.88915,58.44451],[5.88976,58.44657],[5.89263,58.44684]],[[5.98652,58.4561],[5.98639,58.4566]],[[5.98652,58.4561],[5.98767,58.45492],[5.98835,58.45299],[5.99079,58.45195],[5.99126,58.45101],[5.99021,58.45],[5.99139,58.44925],[5.99249,58.45073],[5.99781,58.45264],[6.00196,58.45776]],[[5.88527,58.44898],[5.88656,58.4493],[5.88598,58.44859],[5.8845,58.44849],[5.8839,58.44974],[5.88487,58.44978],[5.88527,58.44898]],[[5.89629,58.45151],[5.89539,58.45093],[5.89053,58.45034],[5.88985,58.44997],[5.8916,58.44881],[5.8906,58.44798],[5.89278,58.44694]],[[5.90682,58.44368],[5.9048,58.44366],[5.90387,58.44415],[5.90341,58.44579],[5.90467,58.44717],[5.90286,58.44842],[5.90433,58.44978],[5.90511,58.45193],[5.90677,58.45178],[5.9081,58.45235]],[[5.92268,58.45339],[5.92262,58.45161],[5.92168,58.45126],[5.92081,58.45139],[5.92006,58.45218],[5.91774,58.45196],[5.91864,58.4531]],[[5.93149,58.45402],[5.93107,58.45321],[5.92913,58.45322],[5.92865,58.45194],[5.92973,58.45095],[5.93086,58.45104],[5.93155,58.45035],[5.93353,58.44979],[5.93265,58.44891],[5.93347,58.4473],[5.93323,58.44576],[5.93498,58.4432],[5.93409,58.44163],[5.93579,58.44055],[5.93861,58.44046],[5.93994,58.44006],[5.93956,58.4394],[5.93655,58.43915],[5.93552,58.43869],[5.93524,58.43779],[5.93667,58.43429],[5.93881,58.43388],[5.93978,58.43287],[5.94167,58.43212],[5.94374,58.43017],[5.94373,58.42872],[5.9452,58.42734],[5.94725,58.42743],[5.94537,58.42827],[5.94673,58.42873],[5.9487,58.42796],[5.95105,58.42781],[5.95085,58.42726],[5.94935,58.42723],[5.94854,58.42681],[5.94805,58.42478],[5.94614,58.42488],[5.94493,58.42444],[5.94465,58.42327],[5.94628,58.42299],[5.94644,58.4216],[5.94823,58.42101],[5.95,58.42193],[5.95114,58.42182],[5.95371,58.42243],[5.95438,58.42162],[5.95376,58.42057],[5.95323,58.42044],[5.95216,58.42125],[5.95112,58.42131],[5.95086,58.42031],[5.95468,58.41945],[5.95788,58.42074],[5.95776,58.41992],[5.95525,58.41904],[5.95572,58.41786],[5.96164,58.41773],[5.96437,58.41546],[5.96759,58.4165],[5.96864,58.41591],[5.96943,58.41428],[5.97079,58.41444],[5.97366,58.41357],[5.97259,58.41303],[5.97069,58.41381],[5.96693,58.41339],[5.96648,58.41135]],[[5.97785,58.45732],[5.98033,58.45565],[5.98182,58.45519],[5.98116,58.45449],[5.98222,58.45246],[5.98169,58.44999],[5.98106,58.44964],[5.97993,58.44969],[5.97814,58.45117],[5.97731,58.45115]],[[5.98594,58.45837],[5.98681,58.45795]],[[5.92268,58.45339],[5.92357,58.45675],[5.92491,58.45536],[5.92709,58.45581],[5.92913,58.45404],[5.9302,58.45405],[5.93144,58.45508],[5.93374,58.45534],[5.93149,58.45402]],[[5.9081,58.45235],[5.90823,58.45403],[5.90906,58.45509],[5.9087,58.45547],[5.91153,58.45649]],[[5.91153,58.45649],[5.91468,58.45666],[5.91682,58.45639],[5.91799,58.45537],[5.91717,58.45425],[5.91864,58.4531]],[[5.89629,58.45151],[5.89536,58.45193],[5.89003,58.45195],[5.89082,58.45357],[5.88953,58.45445],[5.89043,58.45511],[5.8935,58.45606],[5.89567,58.45592],[5.89997,58.45755]],[[5.97142,58.46341],[5.97224,58.46339],[5.97282,58.46286],[5.97246,58.4623],[5.97585,58.46104],[5.97761,58.45986],[5.97785,58.45732]],[[5.98594,58.45837],[5.98435,58.45839],[5.98313,58.45912],[5.9805,58.45851],[5.97927,58.45979],[5.98052,58.4601],[5.98045,58.46052],[5.97893,58.46152],[5.97782,58.46062],[5.97704,58.46151],[5.97754,58.46226],[5.98128,58.46266],[5.98163,58.46348],[5.98295,58.46361],[5.98429,58.46475]],[[5.98417,58.46521],[5.98429,58.46475]],[[5.97778,58.46348],[5.97641,58.46279],[5.97553,58.46293],[5.97474,58.46411],[5.97576,58.46488],[5.97758,58.46451],[5.97778,58.46348]],[[5.96824,58.46522],[5.9714,58.46455],[5.97186,58.46413],[5.97142,58.46341]],[[5.96576,58.46556],[5.96824,58.46522]],[[5.89939,58.45978],[5.89859,58.46008],[5.89902,58.46119]],[[5.98417,58.46521],[5.98187,58.46669],[5.98288,58.46743],[5.98359,58.46745]],[[5.89902,58.46119],[5.90156,58.46198],[5.90476,58.46046],[5.90467,58.45982],[5.90285,58.45903],[5.90158,58.46059],[5.90038,58.46044],[5.89939,58.45978]],[[5.88281,58.45913],[5.8811,58.45901],[5.88219,58.45821],[5.88453,58.45934],[5.88513,58.4588],[5.88435,58.45806],[5.88109,58.45766],[5.87968,58.45787],[5.88094,58.46026],[5.88252,58.4612],[5.88338,58.461],[5.88381,58.46031],[5.88281,58.45913]],[[5.90022,58.45761],[5.90137,58.45784],[5.90247,58.45738],[5.9037,58.45878],[5.9093,58.46013],[5.9136,58.45992],[5.91645,58.46088],[5.91892,58.46262],[5.92242,58.4637],[5.92555,58.46369],[5.92775,58.46423],[5.9286,58.46487],[5.93797,58.4656]],[[5.95911,58.46727],[5.96181,58.46666],[5.96336,58.46736],[5.96585,58.46692],[5.96576,58.46556]],[[5.88857,58.45898],[5.88805,58.45872],[5.88709,58.45887],[5.88416,58.46059],[5.88472,58.46177],[5.88573,58.4623],[5.88895,58.46195],[5.88857,58.45898]],[[5.93797,58.4656],[5.94739,58.46707],[5.94994,58.46809],[5.9514,58.46826],[5.95428,58.46744],[5.95633,58.46831],[5.95864,58.46812],[5.95911,58.46727]],[[5.87592,58.46309],[5.87936,58.4629],[5.88084,58.46316],[5.88313,58.46189],[5.88087,58.46129],[5.87967,58.46133],[5.87926,58.46174],[5.87609,58.46119],[5.87441,58.46236],[5.87592,58.46309]],[[5.98303,58.46964],[5.98457,58.46958],[5.98525,58.47106],[5.98707,58.47218],[5.98746,58.47161],[5.99,58.47107],[5.98983,58.46976],[5.98895,58.46901],[5.98905,58.46788],[5.99117,58.46652],[5.99357,58.46721],[5.99423,58.46985],[5.9936,58.47139],[5.99221,58.47196],[5.99337,58.47307],[5.992,58.47352],[5.98828,58.47287],[5.98779,58.47306]],[[5.94434,58.46944],[5.94736,58.47027],[5.94823,58.47089],[5.95217,58.47058],[5.95775,58.47074],[5.9615,58.47147],[5.96623,58.46905],[5.96729,58.46912],[5.96827,58.47103],[5.97221,58.47016],[5.97453,58.46787],[5.97751,58.46754],[5.97939,58.46808],[5.98121,58.4681],[5.98172,58.46926],[5.98303,58.46964]],[[5.89764,58.46648],[5.89491,58.46757],[5.89401,58.46748],[5.89308,58.46691],[5.89282,58.46554],[5.89093,58.46466],[5.88977,58.46463],[5.88811,58.46488],[5.88448,58.46697]],[[5.99662,58.4769],[5.99719,58.47591],[5.9967,58.47339],[5.99716,58.47269],[5.99654,58.47109],[5.99758,58.46725],[5.99696,58.46479],[5.99849,58.46195],[5.99702,58.46168],[5.99392,58.46216],[5.99242,58.46311],[5.99167,58.46532],[5.98728,58.46621],[5.98359,58.46745]],[[5.98779,58.47306],[5.98895,58.47502],[5.99085,58.4766],[5.99228,58.47574],[5.99498,58.47586]],[[5.89764,58.46648],[5.90071,58.46603],[5.90515,58.46637],[5.90672,58.46693],[5.90748,58.46792],[5.90913,58.46736],[5.90939,58.46659],[5.91231,58.46674],[5.91229,58.46733],[5.91145,58.46767],[5.91283,58.46863],[5.91387,58.4706],[5.91324,58.47142],[5.9141,58.47169],[5.91486,58.47161],[5.91547,58.47009],[5.91493,58.46868],[5.91526,58.46732],[5.91718,58.46724],[5.91937,58.46647],[5.92109,58.46693],[5.92068,58.46977],[5.9216,58.47034],[5.92333,58.46777],[5.92719,58.46715],[5.93007,58.46761],[5.93133,58.46878],[5.9342,58.46822],[5.93821,58.46812],[5.94434,58.46944]],[[5.86867,58.46744],[5.86656,58.46544],[5.86218,58.46503],[5.86096,58.46522],[5.86011,58.46614],[5.85882,58.46567],[5.85685,58.46642],[5.85794,58.46804],[5.85951,58.46762],[5.85894,58.46702],[5.86213,58.46662],[5.86266,58.46755],[5.86177,58.46893],[5.86428,58.46976],[5.86789,58.46867],[5.86867,58.46744]],[[5.87551,58.47541],[5.88077,58.47588],[5.88354,58.47562]],[[5.88354,58.47562],[5.88498,58.47562],[5.88472,58.47623]],[[5.84926,58.47308],[5.85022,58.47216],[5.84801,58.47123],[5.84644,58.47176],[5.84634,58.47061],[5.84464,58.47007],[5.84472,58.47279],[5.84589,58.47253],[5.8489,58.47449],[5.84984,58.4744],[5.85099,58.47368],[5.84926,58.47308]],[[5.88448,58.46697],[5.88385,58.46627],[5.88625,58.46512],[5.88541,58.46472],[5.88145,58.4644],[5.87488,58.46461],[5.87318,58.46647],[5.87522,58.4679],[5.87278,58.46902],[5.87284,58.4699],[5.87206,58.47051],[5.8686,58.47059],[5.8663,58.47168],[5.86508,58.47157],[5.86495,58.47091],[5.86405,58.47087],[5.86137,58.47216],[5.86138,58.47413],[5.8607,58.47501],[5.86286,58.47551]],[[5.86286,58.47551],[5.86429,58.47589],[5.86452,58.47675],[5.86745,58.47808],[5.86862,58.47703],[5.87239,58.47683],[5.87551,58.47541]],[[5.87567,58.47919],[5.87394,58.47988]],[[5.82452,58.48086],[5.82543,58.48114],[5.82707,58.48018],[5.82768,58.4803],[5.82771,58.47895],[5.82497,58.47923],[5.82438,58.47894],[5.82365,58.47972],[5.82374,58.48116],[5.82452,58.48086]],[[5.81354,58.4859],[5.81308,58.48546],[5.81192,58.48575],[5.81188,58.48521],[5.81098,58.48508],[5.80958,58.48599],[5.81041,58.48669],[5.80998,58.48709],[5.81287,58.48648],[5.81354,58.4859]],[[5.80558,58.4887],[5.8068,58.48857],[5.80751,58.48986],[5.80808,58.48987],[5.80862,58.48854],[5.81144,58.48794],[5.81153,58.48726],[5.81393,58.48632],[5.81242,58.48445],[5.81675,58.48244],[5.81765,58.48274],[5.81748,58.48348],[5.81478,58.48374],[5.81444,58.48415],[5.81709,58.48585],[5.81893,58.4852],[5.81781,58.48415],[5.81892,58.48466],[5.82071,58.48479],[5.82505,58.48452],[5.82551,58.48418],[5.82514,58.48226],[5.82596,58.48153],[5.82736,58.48094],[5.82837,58.48124],[5.83042,58.48039],[5.83217,58.48096],[5.83459,58.48302],[5.83736,58.48098],[5.83994,58.48146],[5.84048,58.48238],[5.84415,58.48217],[5.84583,58.4827],[5.84672,58.48123],[5.8448,58.4807],[5.84606,58.47805],[5.84796,58.47739],[5.84691,58.47563],[5.84796,58.47525],[5.85104,58.47562],[5.85232,58.47461],[5.85311,58.47473],[5.85264,58.4768],[5.85327,58.47707],[5.85488,58.47713],[5.85526,58.47539],[5.85604,58.47531],[5.85676,58.47679],[5.85609,58.47939],[5.85752,58.48012],[5.85888,58.48021],[5.86171,58.47902],[5.86712,58.48049],[5.86989,58.47906],[5.87394,58.47988]],[[5.79804,58.48961],[5.79719,58.48923],[5.7959,58.48945]],[[5.80249,58.48993],[5.80337,58.48938],[5.80477,58.48939],[5.80558,58.4887]],[[5.7959,58.48945],[5.79636,58.49094],[5.80158,58.49078],[5.79996,58.48981],[5.79776,58.4899],[5.79804,58.48961]],[[5.80931,58.49138],[5.8081,58.49101],[5.8071,58.49184],[5.80851,58.49337],[5.80867,58.49222],[5.80938,58.4918],[5.811,58.49167],[5.80931,58.49138]],[[5.79218,58.50347],[5.79372,58.50262],[5.79439,58.50331],[5.79929,58.50292],[5.79941,58.50403],[5.79431,58.50467]],[[5.80249,58.48993],[5.80242,58.49131],[5.79768,58.49142],[5.79434,58.49053],[5.79236,58.49116],[5.79311,58.49191],[5.78982,58.49137],[5.78911,58.49195],[5.79075,58.49277],[5.78973,58.49351],[5.79158,58.49432],[5.79089,58.49515],[5.78926,58.49553],[5.78788,58.4952],[5.78365,58.49646],[5.78293,58.49717],[5.78323,58.49863],[5.78535,58.49862],[5.78618,58.49953],[5.78393,58.49988],[5.78337,58.50065],[5.78671,58.50079],[5.78915,58.50013],[5.78958,58.5003],[5.78808,58.50126],[5.78827,58.50208],[5.78646,58.50254],[5.78517,58.50416],[5.78397,58.50615],[5.78425,58.50733],[5.7853,58.50717],[5.78491,58.5061],[5.78579,58.50448],[5.78952,58.50482],[5.79218,58.50347]],[[5.79431,58.50467],[5.79033,58.5054],[5.78884,58.50693],[5.78989,58.50792],[5.79406,58.50744],[5.7947,58.50798],[5.79157,58.50957],[5.79199,58.50996],[5.79474,58.50996],[5.79539,58.51116],[5.79492,58.51337],[5.79349,58.51508],[5.7916,58.51627],[5.79233,58.51657]],[[5.77837,58.52065],[5.77846,58.51969],[5.77731,58.5191],[5.77606,58.51943],[5.77616,58.52013],[5.77287,58.52005],[5.77706,58.52093],[5.77837,58.52065]],[[5.76052,58.53206],[5.77336,58.52787],[5.77388,58.526],[5.77533,58.52537],[5.77666,58.52535],[5.77832,58.52443],[5.78162,58.52086],[5.78294,58.52],[5.78414,58.51987],[5.78396,58.51915],[5.78593,58.51983],[5.78704,58.51942],[5.78655,58.51828],[5.78962,58.51892],[5.78989,58.51797],[5.79349,58.51701]],[[5.70687,58.53537],[5.71486,58.53546],[5.72033,58.53609],[5.72188,58.53605],[5.72337,58.53549],[5.72556,58.53673],[5.72901,58.5368]],[[5.70687,58.53537],[5.70282,58.53552],[5.69377,58.53709],[5.69167,58.53985],[5.68483,58.54092],[5.68257,58.54177],[5.6795,58.54439],[5.68027,58.54488]],[[5.67383,58.54962],[5.67562,58.54946],[5.68056,58.54767],[5.68122,58.54678],[5.68027,58.54488]],[[5.67383,58.54962],[5.66948,58.54953],[5.66766,58.54987],[5.66683,58.55067],[5.66754,58.55111],[5.66718,58.55167],[5.66552,58.55148],[5.6611,58.55439],[5.6569,58.55804]],[[5.65508,58.55978],[5.6569,58.55804]],[[5.65508,58.55978],[5.65431,58.56165],[5.65479,58.56342],[5.65154,58.56561],[5.65072,58.56729],[5.65132,58.56821]],[[5.6517,58.57],[5.65134,58.57134],[5.64887,58.57273],[5.64652,58.57501],[5.64542,58.57851],[5.63972,58.58561]],[[5.62567,58.59599],[5.63484,58.58967],[5.63972,58.58561]],[[5.57938,58.64311],[5.58302,58.64133],[5.58657,58.64047],[5.58682,58.63707]],[[5.56542,58.65332],[5.56778,58.65207],[5.56672,58.65143],[5.56564,58.65157],[5.56556,58.65087],[5.5687,58.65042],[5.57264,58.64879],[5.57215,58.64738],[5.57348,58.6463],[5.57337,58.64474],[5.57573,58.64382],[5.57938,58.64311]],[[5.55716,58.65571],[5.55911,58.65337],[5.56406,58.6533]],[[5.55716,58.65571],[5.55518,58.65652],[5.55179,58.65699],[5.55083,58.65755],[5.55386,58.66076],[5.55377,58.66243],[5.55437,58.66323],[5.54982,58.66423],[5.54854,58.66598],[5.54554,58.66745],[5.54506,58.66821],[5.54634,58.6687],[5.5455,58.66972],[5.54609,58.67016]],[[5.54796,58.68376],[5.54591,58.68314],[5.54563,58.68268],[5.54717,58.68161],[5.54776,58.68036],[5.54694,58.67816],[5.54631,58.67762],[5.5432,58.67676],[5.54355,58.67527],[5.5451,58.67456],[5.54502,58.67361],[5.54326,58.67257],[5.54103,58.66958],[5.54215,58.66896],[5.54361,58.67072],[5.54536,58.671],[5.54631,58.67048]],[[5.54796,58.68376],[5.55017,58.68668],[5.5509,58.68882]],[[5.54867,58.69239],[5.55067,58.6904],[5.5509,58.68882]],[[5.54867,58.69239],[5.54627,58.69332],[5.54505,58.69447]],[[5.51739,58.72796],[5.51884,58.72673],[5.52103,58.72216],[5.51924,58.71979],[5.52049,58.7183],[5.52066,58.71711],[5.51923,58.71495],[5.51802,58.71044],[5.51996,58.70859],[5.52303,58.70781],[5.52336,58.70707],[5.52273,58.70617],[5.52339,58.70575],[5.52836,58.70502],[5.52857,58.70336],[5.53022,58.70332],[5.53053,58.70382],[5.53137,58.70396],[5.53362,58.70318],[5.53376,58.70176],[5.5316,58.70106],[5.53229,58.70023],[5.53627,58.69933],[5.53993,58.69745],[5.54228,58.69738],[5.54328,58.69687]],[[5.51245,58.73978],[5.51381,58.73747],[5.5144,58.73437],[5.51314,58.7322],[5.51566,58.73041],[5.51656,58.72902]],[[5.51245,58.73978],[5.50597,58.746]],[[5.49254,58.75182],[5.49896,58.74886],[5.49982,58.74712],[5.50415,58.74681],[5.50597,58.746]],[[5.49254,58.75182],[5.48932,58.75201],[5.48947,58.7535],[5.49243,58.75445],[5.49491,58.75702]],[[5.89278,58.44694],[5.89263,58.44684]],[[5.9901,58.44224],[5.99031,58.44238]],[[5.98681,58.45795],[5.98639,58.4566]],[[5.89997,58.45755],[5.90022,58.45761]],[[5.88472,58.47623],[5.88016,58.47671],[5.87694,58.47759],[5.87567,58.47919]],[[5.81208,58.48278],[5.81327,58.48249],[5.81466,58.4827],[5.81527,58.48229],[5.81306,58.48179],[5.80964,58.48293],[5.81083,58.48317],[5.81208,58.48278]],[[5.72989,58.53698],[5.73307,58.53725],[5.74539,58.53561],[5.75375,58.53397],[5.76052,58.53206]],[[5.65175,58.56931],[5.65132,58.56821]],[[5.6517,58.57],[5.65175,58.56931]],[[5.6111,58.6115],[5.61443,58.60843],[5.61538,58.60632],[5.61832,58.60283],[5.62567,58.59599]],[[5.59606,58.62566],[5.59966,58.62143],[5.60583,58.61733],[5.6111,58.6115]],[[5.59606,58.62566],[5.59204,58.62898],[5.5889,58.63253],[5.58728,58.63316],[5.58612,58.63517],[5.58682,58.63707]],[[5.56542,58.65332],[5.56406,58.6533]],[[5.54328,58.69687],[5.54505,58.69447]]]}}]}