{"type":"FeatureCollection","features":[{"type":"Feature","properties":{},"geometry":{"type":"MultiLineString","coordinates":[[[6.17581,58.83489],[6.17837,58.83556],[6.18507,58.83875]],[[6.23398,58.84277],[6.23777,58.84273],[6.24379,58.84328],[6.24741,58.84271],[6.24906,58.84171],[6.25631,58.84027],[6.26492,58.83959],[6.27792,58.83942]],[[6.28019,58.84397],[6.28003,58.84577],[6.28213,58.84601]],[[6.18527,58.83921],[6.1851,58.8417],[6.18838,58.84254],[6.19398,58.8429],[6.20227,58.84249],[6.21149,58.84287],[6.21678,58.84267],[6.22503,58.84317],[6.23398,58.84277]],[[6.23189,58.85099],[6.24037,58.85076],[6.24748,58.85123],[6.2566,58.85065],[6.26256,58.84951],[6.27059,58.84879],[6.2758,58.84735],[6.28224,58.84643],[6.28213,58.84601]],[[6.14551,58.84802],[6.14984,58.84383],[6.15238,58.84236],[6.16362,58.83863],[6.16611,58.83829],[6.169,58.83852],[6.17581,58.83489]],[[6.15124,58.85971],[6.15434,58.85722],[6.15886,58.85645],[6.16157,58.85547],[6.16358,58.85347],[6.16619,58.85275],[6.16947,58.85023],[6.17278,58.84909],[6.17656,58.84834],[6.18246,58.84901],[6.20369,58.84972],[6.21249,58.85113],[6.21852,58.85017],[6.22856,58.8505],[6.23189,58.85099]],[[6.15019,58.86038],[6.14731,58.86188],[6.14691,58.86283]],[[6.14094,58.86576],[6.14324,58.86489],[6.14634,58.86486],[6.14691,58.86283]],[[6.13187,58.87057],[6.13499,58.87066]],[[6.09208,58.8718],[6.09336,58.87075],[6.09585,58.87006],[6.09848,58.86654],[6.10574,58.86101],[6.10947,58.85917],[6.119,58.85613],[6.12134,58.85412],[6.12155,58.85214],[6.1226,58.85188],[6.12533,58.85359],[6.129,58.85506],[6.1341,58.85372],[6.13753,58.8538],[6.1396,58.85283],[6.14098,58.85091],[6.14354,58.84888],[6.14551,58.84802]],[[6.12302,58.87394],[6.12563,58.87265],[6.12936,58.8698],[6.13114,58.86977],[6.13187,58.87057]],[[6.12302,58.87394],[6.11985,58.87517],[6.11685,58.87566],[6.11693,58.87718],[6.11555,58.88085],[6.11162,58.88299],[6.10779,58.88433],[6.10551,58.88845],[6.10564,58.89025],[6.10345,58.89156],[6.10299,58.89246],[6.10333,58.89475],[6.09956,58.89564],[6.09725,58.8966]],[[6.04688,58.8922],[6.04808,58.89398],[6.04703,58.8953],[6.04819,58.89595],[6.04926,58.8959],[6.05545,58.89418],[6.05598,58.8937],[6.05924,58.89311],[6.06066,58.89255],[6.06086,58.89148],[6.06895,58.88884],[6.07051,58.8876],[6.07068,58.88649],[6.06885,58.8859],[6.0684,58.88438],[6.06387,58.88397],[6.06304,58.88318],[6.06336,58.88259],[6.06674,58.8822],[6.07028,58.8825],[6.07179,58.88222],[6.07408,58.88336],[6.07512,58.88272],[6.07559,58.88164],[6.07401,58.8804],[6.07384,58.87941],[6.08121,58.8776],[6.0861,58.87442],[6.08782,58.87351],[6.09048,58.8728],[6.09208,58.8718]],[[6.04602,58.89547],[6.0407,58.89617],[6.04066,58.89769],[6.04578,58.89639]],[[6.02633,58.89634],[6.02753,58.89694],[6.02831,58.89678],[6.0363,58.89445],[6.03758,58.89386],[6.03759,58.89335],[6.04023,58.89241],[6.04361,58.89235],[6.04578,58.89191],[6.04688,58.8922]],[[6.02056,58.89746],[6.02124,58.89666],[6.02525,58.89617],[6.02633,58.89634]],[[6.09725,58.8966],[6.09223,58.89757],[6.09011,58.89867],[6.08769,58.89911],[6.08632,58.90079],[6.09251,58.9035],[6.09519,58.90413],[6.09642,58.90552],[6.09792,58.90566],[6.09896,58.9053]],[[5.9967,58.89649],[6.00103,58.89683],[6.00327,58.89776],[6.00411,58.8992]],[[6.00411,58.8992],[6.00457,58.90127],[6.00908,58.90258],[6.01274,58.90266],[6.0149,58.90205],[6.01701,58.90016],[6.01982,58.89859],[6.02056,58.89746]],[[6.09896,58.9053],[6.10115,58.90567],[6.10301,58.90739],[6.1017,58.90977],[6.10244,58.91041],[6.10244,58.9114]],[[6.01701,58.9075],[6.01526,58.90805],[6.0144,58.90887],[6.01353,58.90881],[6.01228,58.908],[6.00919,58.90926],[6.00404,58.90886],[6.00039,58.90925],[5.99832,58.91041]],[[6.02553,58.91232],[6.02674,58.90985],[6.02599,58.90809],[6.02472,58.90706],[6.02596,58.90657],[6.02616,58.90521],[6.02413,58.9049],[6.01981,58.90573],[6.0171,58.9054],[6.01651,58.90624],[6.0189,58.90709],[6.01701,58.9075]],[[6.06237,58.91356],[6.06,58.91472]],[[6.07792,58.91597],[6.0782,58.91039],[6.0754,58.90761],[6.07481,58.90406],[6.07393,58.90364],[6.0722,58.90383],[6.06361,58.90914],[6.06259,58.91033],[6.06237,58.91356]],[[6.10325,58.91773],[6.10276,58.9155],[6.10044,58.9141],[6.10075,58.91298],[6.10244,58.9114]],[[6.07792,58.91597],[6.07862,58.91737],[6.08056,58.91871],[6.0832,58.92166],[6.08533,58.92241]],[[6.06,58.91472],[6.05581,58.91769],[6.05539,58.91894],[6.05606,58.92039]],[[6.05374,58.92217],[6.05592,58.92184],[6.05606,58.92039]],[[6.05374,58.92217],[6.05201,58.92225],[6.04853,58.92329],[6.04601,58.92494],[6.04398,58.92676],[6.04602,58.92869]],[[6.09773,58.93278],[6.09776,58.92845],[6.09723,58.9267],[6.09594,58.92529],[6.08883,58.92303],[6.08533,58.92241]],[[6.1137,58.93428],[6.11405,58.93269],[6.11181,58.93056],[6.11032,58.93038],[6.10697,58.93131],[6.10601,58.9329],[6.10652,58.9335],[6.10823,58.93376],[6.1088,58.93526],[6.11182,58.93548],[6.1135,58.93503],[6.1137,58.93428]],[[5.99861,58.91838],[6.0014,58.91684],[6.00276,58.91735],[6.00367,58.91831],[6.00267,58.91884],[6.0002,58.91879],[5.99834,58.91984]],[[5.99981,58.92539],[6.00218,58.92539],[6.00508,58.92419],[6.00816,58.92355],[6.0088,58.92234],[6.00839,58.92143],[6.00936,58.92047],[6.01892,58.91933],[6.02056,58.91846],[6.02193,58.91565],[6.02553,58.91232]],[[6.10325,58.91773],[6.1006,58.91931],[6.10147,58.92106],[6.10125,58.92205],[6.10435,58.92363],[6.10794,58.92638],[6.11095,58.92721],[6.11283,58.92868],[6.12036,58.93178],[6.12043,58.93435],[6.11986,58.93464],[6.11738,58.93467],[6.11552,58.93606],[6.11655,58.93799],[6.11918,58.93952],[6.12124,58.93985]],[[6.03648,58.93203],[6.03902,58.9332],[6.03924,58.9343],[6.04147,58.93428],[6.04174,58.93295],[6.04332,58.93198],[6.05014,58.93041],[6.05004,58.92943],[6.04709,58.92921],[6.04602,58.92869]],[[6.03561,58.93174],[6.03005,58.93042],[6.02797,58.93066],[6.0265,58.9323],[6.02627,58.93357],[6.0269,58.93446],[6.02855,58.93521]],[[6.12124,58.93985],[6.1207,58.94115],[6.12134,58.94169]],[[6.12134,58.94169],[6.12496,58.94326],[6.12614,58.94293],[6.12748,58.9434],[6.1272,58.94531],[6.13228,58.94343],[6.13474,58.94386],[6.13549,58.94549]],[[6.09773,58.93278],[6.09882,58.93348],[6.09909,58.93518],[6.09709,58.93864],[6.09882,58.94018],[6.09892,58.94217],[6.1004,58.94336],[6.10262,58.94401],[6.10331,58.94386],[6.10323,58.94316],[6.1045,58.94302],[6.10587,58.94442]],[[6.13434,58.94648],[6.13257,58.94815],[6.13316,58.94941],[6.13522,58.95],[6.13689,58.95006],[6.14003,58.9498],[6.14233,58.94903]],[[6.10587,58.94442],[6.1077,58.94549],[6.11014,58.94556],[6.11285,58.94693],[6.11515,58.94727],[6.11926,58.94972]],[[6.0203,58.94317],[6.01879,58.94209],[6.01942,58.94088],[6.02284,58.93945],[6.02369,58.93769],[6.02607,58.93639],[6.03088,58.93664],[6.03288,58.93806],[6.035,58.93768]],[[6.0203,58.94317],[6.02007,58.94337]],[[6.14233,58.94903],[6.14319,58.94875],[6.14489,58.94888],[6.14755,58.95035],[6.14689,58.95334],[6.147,58.95467],[6.14776,58.95512],[6.1499,58.95551],[6.15575,58.95443],[6.15808,58.95519],[6.16,58.95643],[6.16445,58.95614]],[[6.1492,58.96496],[6.14855,58.96472],[6.14962,58.96333],[6.14312,58.96107],[6.14004,58.95799],[6.13658,58.95709],[6.13332,58.95482],[6.12896,58.95305],[6.12564,58.95237],[6.12431,58.95142],[6.11926,58.94972]],[[6.15519,58.96639],[6.15414,58.96512],[6.1492,58.96496]],[[6.00407,58.95598],[6.00394,58.95526],[6.00508,58.95452],[6.01002,58.95409],[6.00988,58.95067],[6.01209,58.94955],[6.00989,58.94923],[6.00949,58.94862],[6.01063,58.94815],[6.01517,58.94797],[6.01605,58.94681],[6.01794,58.94627],[6.01848,58.9438],[6.02007,58.94337]],[[6.18787,58.96873],[6.18773,58.9672],[6.18618,58.96601],[6.1853,58.96433],[6.18103,58.96436],[6.17821,58.96401],[6.17598,58.96325],[6.17416,58.96177],[6.17183,58.95735],[6.1672,58.95759],[6.16627,58.9573],[6.16599,58.95639],[6.16445,58.95614]],[[6.20055,58.97349],[6.21076,58.97611]],[[6.21076,58.97611],[6.21629,58.97622]],[[6.15523,58.96648],[6.15616,58.96827],[6.15766,58.9693],[6.16147,58.9697],[6.17005,58.97211],[6.17341,58.97469],[6.17595,58.97527],[6.1797,58.97687],[6.18217,58.97882],[6.18717,58.98081],[6.19205,58.98467],[6.19539,58.98479],[6.19748,58.98541]],[[6.21629,58.97622],[6.22011,58.97658],[6.22564,58.98001],[6.23059,58.9819],[6.23222,58.98381],[6.23615,58.9855],[6.25094,58.98975],[6.25713,58.99182],[6.25884,58.99276],[6.26721,58.99336],[6.27072,58.9942],[6.27744,58.9969],[6.28133,58.99968]],[[6.28133,58.99968],[6.28334,59.00015]],[[6.28334,59.00015],[6.28955,58.99962],[6.29531,58.99973],[6.29903,58.9979],[6.30234,58.99775],[6.30621,58.9988],[6.31648,58.9997],[6.32276,59.00115]],[[6.2318,58.99964],[6.23158,58.99912],[6.2296,58.9983],[6.22471,58.9974],[6.22012,58.99527],[6.21629,58.99264],[6.21306,58.99163],[6.2089,58.99112],[6.20444,58.98997],[6.2027,58.98845],[6.20019,58.98742],[6.19883,58.98588],[6.19748,58.98541]],[[6.00407,58.95598],[6.00429,58.95798],[6.00483,58.95824],[6.00655,58.95799],[6.00654,58.95868],[6.00363,58.95978],[5.99977,58.95973]],[[5.99896,58.96029],[6.00187,58.96052],[6.00504,58.96003],[6.00642,58.96124],[6.00516,58.96199],[6.00447,58.96368],[5.997,58.96597]],[[5.99929,58.97341],[6.00094,58.9742],[6.00346,58.97431],[6.00349,58.97598],[6.00501,58.97634],[6.00773,58.97635],[6.00992,58.97556],[6.01518,58.97196],[6.01607,58.97178],[6.01775,58.97202],[6.01662,58.97317],[6.01713,58.97367],[6.02276,58.97293],[6.02203,58.97363],[6.01492,58.97475],[6.01303,58.97632],[6.00985,58.97724],[6.01558,58.97823],[6.01057,58.97916],[6.01157,58.97953],[6.01178,58.98106],[6.01473,58.98208],[6.015,58.98279],[6.01398,58.9834],[6.01448,58.98435],[6.01856,58.98628],[6.01929,58.98719],[6.01959,58.98839],[6.01829,58.98985],[6.01838,58.99084],[6.02096,58.99128]],[[6.00878,58.98941],[6.00833,58.9887],[6.00513,58.98886],[6.00175,58.99059],[6.00118,58.99229],[6.00339,58.99249],[6.00678,58.99145],[6.00878,58.98941]],[[5.99893,58.98434],[6.00151,58.98401],[6.00196,58.98289],[6.00338,58.9822],[6.0021,58.98179],[6.00195,58.9803],[6.00098,58.97925],[5.99928,58.97881]],[[6.2318,58.99964],[6.23226,59.0001]],[[6.01333,58.99576],[6.01075,58.99521],[6.00923,58.99548],[6.01023,58.99651],[6.01377,58.99708],[6.01427,58.99681],[6.01333,58.99576]],[[6.08276,58.99343],[6.08841,58.98764],[6.09145,58.9856],[6.09071,58.9845],[6.08709,58.9844],[6.0825,58.9867],[6.08076,58.9888],[6.07492,58.99161],[6.07311,58.99222],[6.07039,58.99233],[6.06734,58.99306],[6.06471,58.99531],[6.05969,58.99829],[6.05647,58.99968],[6.05218,58.99974],[6.04905,58.99849],[6.049,58.99745],[6.04985,58.99677],[6.04971,58.99521],[6.04899,58.99454],[6.04654,58.99409],[6.04275,58.99426],[6.04113,58.99542],[6.04111,58.99619],[6.03592,58.99682],[6.03443,58.9959],[6.0349,58.99504],[6.03414,58.99295],[6.03621,58.99062],[6.03532,58.98992],[6.03184,58.9905],[6.02912,58.98977],[6.02399,58.9911],[6.02096,58.99128]],[[6.07433,59.00104],[6.07521,58.99886],[6.07812,58.99743],[6.0807,58.99433],[6.08276,58.99343]],[[6.2808,58.83962],[6.27974,58.83929],[6.27792,58.83942]],[[6.2808,58.83962],[6.28148,58.84083]],[[6.28148,58.84083],[6.28121,58.84266]],[[6.14094,58.86576],[6.13642,58.86791],[6.13499,58.87066]],[[6.04578,58.89639],[6.04602,58.89547]],[[6.03648,58.93203],[6.03561,58.93174]],[[6.02855,58.93521],[6.0319,58.93599],[6.03555,58.93559]],[[6.035,58.93768],[6.03778,58.93679],[6.03701,58.93566],[6.03555,58.93559]],[[6.13549,58.94549],[6.13434,58.94648]],[[6.15523,58.96648],[6.15519,58.96639]],[[6.18787,58.96873],[6.18943,58.97021],[6.19366,58.97191]],[[6.19366,58.97191],[6.20055,58.97349]],[[6.37501,58.27802],[6.38366,58.2781]],[[6.39622,58.28272],[6.39459,58.28227],[6.39178,58.28052],[6.38779,58.27942],[6.38617,58.27857],[6.38366,58.2781]],[[6.39622,58.28272],[6.40113,58.28343],[6.40503,58.2834],[6.40699,58.28441],[6.41686,58.28715]],[[6.41686,58.28715],[6.42683,58.28926],[6.43025,58.29082],[6.43463,58.2909],[6.43728,58.29158]],[[6.43728,58.29158],[6.43862,58.29169],[6.43865,58.29126]],[[6.29699,58.29896],[6.29579,58.29843],[6.29443,58.29879]],[[6.30662,58.29962],[6.30783,58.29902],[6.3075,58.29791],[6.30544,58.29702],[6.30593,58.29571],[6.30849,58.29654],[6.30965,58.2956],[6.30867,58.295],[6.30738,58.29486],[6.30642,58.29235],[6.30457,58.29269],[6.30562,58.29379],[6.30419,58.29532],[6.30317,58.29502],[6.3028,58.29574],[6.30294,58.2964],[6.3044,58.29688],[6.30522,58.29791],[6.30302,58.29852],[6.30244,58.29933]],[[6.32437,58.30084],[6.32613,58.30061],[6.32394,58.29902],[6.32437,58.29828],[6.33497,58.29545],[6.3358,58.29442],[6.334,58.29331],[6.33321,58.29211],[6.3338,58.29124],[6.33745,58.29013],[6.33774,58.28939],[6.34009,58.29018],[6.33995,58.28926],[6.34264,58.28913],[6.34242,58.28815],[6.34344,58.28691],[6.34756,58.28564],[6.35708,58.28124],[6.35881,58.28086],[6.36061,58.28096],[6.36426,58.27994],[6.36519,58.27933],[6.36879,58.27931],[6.36891,58.2786],[6.36788,58.27812],[6.36916,58.27775],[6.37501,58.27802]],[[6.30244,58.29933],[6.3027,58.3],[6.30422,58.30059],[6.30574,58.30044],[6.30662,58.29962]],[[6.29443,58.29879],[6.29453,58.29985],[6.29605,58.30013],[6.29671,58.30002],[6.29699,58.29896]],[[6.30155,58.30536],[6.30048,58.303],[6.29943,58.30268],[6.29819,58.30345],[6.29838,58.30453],[6.29932,58.30513],[6.30011,58.30504],[6.30023,58.30603],[6.30121,58.30595],[6.30155,58.30536]],[[6.32437,58.30084],[6.32324,58.30117],[6.32269,58.30205],[6.32937,58.30722],[6.33261,58.30859],[6.33247,58.30914],[6.33134,58.30903],[6.3279,58.30964],[6.32808,58.3107],[6.32966,58.31111]],[[6.32966,58.31111],[6.33045,58.31089],[6.33257,58.31153],[6.33331,58.31361],[6.3355,58.31372],[6.3373,58.3147],[6.33682,58.31535],[6.33759,58.3164],[6.3389,58.31655],[6.34058,58.31763],[6.34363,58.31824],[6.34721,58.31772],[6.34869,58.3192]],[[6.2871,58.31561],[6.28429,58.31573],[6.28195,58.31646],[6.28486,58.31664],[6.2871,58.31561]],[[6.35201,58.3254],[6.35229,58.32408],[6.34859,58.32043],[6.34869,58.3192]],[[6.28587,58.3218],[6.28614,58.32131],[6.28936,58.32047],[6.28794,58.31887],[6.28964,58.31539],[6.29485,58.31453],[6.3021,58.31396],[6.3031,58.31421],[6.3054,58.31678],[6.30575,58.31634],[6.30486,58.31499],[6.30631,58.31475],[6.30772,58.31373],[6.31272,58.3125],[6.31504,58.31142],[6.3232,58.31032],[6.3306,58.31491],[6.33183,58.31846]],[[6.28561,58.32222],[6.28587,58.3218]],[[6.33183,58.31846],[6.33277,58.31938],[6.33936,58.32117],[6.34044,58.32191],[6.34238,58.32169],[6.34429,58.3223],[6.34983,58.32677],[6.35201,58.3254]],[[6.28481,58.32223],[6.28468,58.32235]],[[6.28543,58.32244],[6.28561,58.32222]],[[6.2577,58.33118],[6.2573,58.3272]],[[6.2573,58.3272],[6.25756,58.32475],[6.25648,58.32359],[6.25796,58.32267],[6.25672,58.32275],[6.25592,58.32227],[6.25436,58.32326],[6.25477,58.3237],[6.2541,58.32433],[6.25462,58.32482],[6.24887,58.3269],[6.24861,58.3282]],[[6.27402,58.32133],[6.27569,58.31972],[6.27426,58.32007],[6.27338,58.32081],[6.2728,58.32032],[6.27197,58.32049],[6.2719,58.32151],[6.27306,58.32182],[6.27402,58.32133]],[[6.27836,58.32221],[6.28107,58.3209],[6.28264,58.32081],[6.28502,58.32126],[6.28481,58.32223]],[[6.27004,58.32468],[6.26948,58.32549],[6.26993,58.32571],[6.27074,58.3249],[6.27179,58.32525],[6.27387,58.32496],[6.27373,58.32663],[6.2742,58.32679],[6.27586,58.32545],[6.27656,58.3237]],[[6.27004,58.32468],[6.27084,58.32091],[6.26971,58.32047],[6.26429,58.32149],[6.26338,58.32189],[6.2633,58.32244],[6.26213,58.32278],[6.26224,58.32386],[6.26118,58.32535],[6.25881,58.32603],[6.2596,58.3274],[6.26179,58.32827],[6.26152,58.33116]],[[6.21232,58.33015],[6.2109,58.32996],[6.21001,58.33035],[6.21055,58.33134],[6.21249,58.33108],[6.21232,58.33015]],[[6.24378,58.329],[6.24299,58.33008],[6.23908,58.33057],[6.23846,58.33211],[6.23609,58.33306],[6.23614,58.33346],[6.23904,58.33432],[6.24163,58.33398],[6.24137,58.33355],[6.23945,58.33332],[6.23937,58.33268],[6.24861,58.3282]],[[6.20956,58.33125],[6.20851,58.33097],[6.20753,58.33167],[6.2088,58.33255],[6.2101,58.33183],[6.20956,58.33125]],[[6.2577,58.33118],[6.25739,58.33246],[6.25581,58.33377],[6.25457,58.33407],[6.25182,58.33389],[6.25134,58.33434],[6.25185,58.33467],[6.25301,58.33462],[6.25441,58.33535],[6.25501,58.33799],[6.25712,58.33744],[6.25855,58.33788],[6.25959,58.34072],[6.2604,58.33923],[6.26129,58.339],[6.26151,58.33737],[6.2633,58.33588],[6.26334,58.33515],[6.26144,58.33432],[6.26108,58.33296],[6.25932,58.33287],[6.26122,58.33204],[6.26152,58.33116]],[[6.18827,58.33661],[6.18651,58.33612],[6.18441,58.33634]],[[6.20244,58.33759],[6.20267,58.33655],[6.19943,58.33334],[6.19766,58.33358],[6.19726,58.33452],[6.1965,58.33475],[6.19483,58.33422],[6.18975,58.33671]],[[6.20444,58.33773],[6.20217,58.3346],[6.20251,58.33347],[6.20433,58.33312],[6.20497,58.33158],[6.20614,58.33189],[6.20602,58.33281],[6.20665,58.33325],[6.20639,58.33373],[6.20492,58.33402],[6.20523,58.33666],[6.20768,58.33665],[6.2088,58.33612],[6.20901,58.3355],[6.21087,58.33606],[6.21132,58.33556],[6.21024,58.33424],[6.21109,58.33362],[6.21314,58.33411],[6.2129,58.33573],[6.21339,58.33593],[6.21757,58.33458],[6.21766,58.33351],[6.21651,58.33191],[6.21698,58.33053],[6.22181,58.32822],[6.22669,58.32786],[6.22771,58.32602],[6.22914,58.32595],[6.23051,58.32524],[6.23647,58.32577],[6.23701,58.32534],[6.23559,58.32452],[6.23815,58.32378],[6.23996,58.32387],[6.24035,58.32316],[6.24181,58.32346],[6.24683,58.32283],[6.24702,58.32381],[6.24802,58.32402],[6.24812,58.32312],[6.25067,58.32234],[6.2518,58.3234],[6.25162,58.32401],[6.24974,58.32464],[6.24843,58.32605],[6.24541,58.32755],[6.24378,58.329]],[[6.18883,58.33706],[6.18975,58.33671]],[[6.20224,58.33828],[6.20282,58.3388],[6.20444,58.33773]],[[6.09404,58.36481],[6.09237,58.36507],[6.09091,58.36591],[6.09114,58.36616],[6.09384,58.36674],[6.09482,58.36654],[6.0952,58.36573],[6.09404,58.36481]],[[6.09541,58.36685],[6.09733,58.36701],[6.09711,58.36477],[6.09774,58.36293],[6.09837,58.36331],[6.09893,58.36545],[6.10043,58.36617],[6.10075,58.3672],[6.10287,58.368],[6.10249,58.36693],[6.10059,58.36539],[6.10043,58.3634],[6.09946,58.36293],[6.09976,58.36197],[6.10133,58.3614],[6.10705,58.36045],[6.11043,58.35783],[6.11517,58.3571],[6.1151,58.3568],[6.11165,58.35653],[6.11276,58.35573],[6.11473,58.35567],[6.11706,58.35649],[6.12327,58.35245],[6.12444,58.35246],[6.12516,58.35303],[6.13165,58.35055],[6.13255,58.35058],[6.13422,58.35163],[6.13661,58.35099],[6.14172,58.34906],[6.14435,58.34748],[6.147,58.34683],[6.14835,58.34715],[6.15524,58.34391],[6.15846,58.34336],[6.15963,58.34217],[6.1613,58.34245],[6.16315,58.34218],[6.16329,58.34092],[6.16772,58.33976],[6.17373,58.33943],[6.17629,58.34117],[6.17787,58.34153],[6.17925,58.34078],[6.17872,58.34004],[6.17922,58.33895],[6.1833,58.33794],[6.18441,58.33634]],[[6.09541,58.36685],[6.09515,58.36789]],[[6.09505,58.36828],[6.09515,58.36789]],[[6.1003,58.36773],[6.10004,58.36732],[6.09752,58.36752],[6.09919,58.36905],[6.1003,58.36773]],[[6.09505,58.36828],[6.09452,58.36823],[6.09399,58.36683],[6.09289,58.36703],[6.09377,58.36873],[6.09275,58.37012],[6.09439,58.37089]],[[6.09408,58.37209],[6.09768,58.37138],[6.10088,58.37178],[6.10202,58.37128],[6.10035,58.3706],[6.09621,58.37107],[6.09439,58.37089]],[[6.09408,58.37209],[6.09378,58.37328]],[[6.07323,58.37373],[6.07249,58.37368]],[[6.07506,58.37386],[6.07507,58.37286],[6.07934,58.37225],[6.08172,58.37226],[6.0835,58.37328],[6.08415,58.37208],[6.08675,58.37157],[6.08889,58.37228],[6.0923,58.37247],[6.09284,58.37396],[6.09365,58.3738]],[[6.07323,58.37373],[6.0757,58.37531],[6.07598,58.37467],[6.07506,58.37386]],[[6.04064,58.37481],[6.03881,58.37591],[6.03966,58.37668],[6.04202,58.37575],[6.04064,58.37481]],[[6.01657,58.40797],[6.01499,58.40455],[6.01691,58.40442],[6.01721,58.40311],[6.01871,58.40323],[6.01849,58.39921],[6.01966,58.39883],[6.01966,58.39805],[6.02129,58.3974],[6.02222,58.39626],[6.02212,58.3932],[6.02293,58.39294],[6.02379,58.3934],[6.02447,58.39321],[6.02367,58.39064],[6.02445,58.39008],[6.02677,58.38966],[6.02612,58.38848],[6.02744,58.38736],[6.0315,58.38677],[6.03052,58.38594],[6.03117,58.38551],[6.03314,58.3857],[6.0346,58.38702],[6.03573,58.38693],[6.03485,58.38598],[6.03547,58.38206],[6.03951,58.38087],[6.04021,58.37904],[6.0464,58.37727],[6.04837,58.37609],[6.04939,58.37628],[6.04999,58.3759],[6.05173,58.37617],[6.05188,58.37508],[6.05266,58.37459],[6.05369,58.37459],[6.0541,58.3752],[6.05279,58.37655],[6.05415,58.37743],[6.05497,58.37703],[6.05553,58.37728],[6.05658,58.38192],[6.05944,58.38318],[6.06052,58.38201],[6.06293,58.38239],[6.0632,58.38329],[6.06217,58.38366],[6.06355,58.38387],[6.06433,58.38427],[6.06429,58.38489],[6.06573,58.38522],[6.06638,58.38433],[6.06594,58.3833],[6.06694,58.38235],[6.06556,58.38065],[6.07073,58.37819],[6.06957,58.37624],[6.07011,58.37434],[6.0707,58.37416],[6.07162,58.37465],[6.07249,58.37368]],[[6.00712,58.41423],[6.00552,58.41401],[6.00477,58.41219],[6.00567,58.4096],[6.00729,58.40975],[6.01013,58.40825],[6.01338,58.40915],[6.01351,58.40707],[6.01492,58.40743],[6.01534,58.40929],[6.01656,58.40928],[6.01685,58.4089]],[[6.00113,58.41577],[5.99907,58.41511]],[[5.99859,58.41761],[6.00042,58.41679],[6.00113,58.41577]],[[6.00712,58.41423],[6.00845,58.41459],[6.00987,58.41602],[6.01141,58.41574],[6.0131,58.41609],[6.01447,58.41829],[6.01191,58.41799],[6.01023,58.41825],[6.01306,58.4201],[6.01497,58.42047],[6.01623,58.41874],[6.01707,58.41851]],[[5.99818,58.42023],[6.00053,58.41936],[6.00319,58.41956]],[[6.01707,58.41851],[6.01755,58.41899],[6.01712,58.4198],[6.01871,58.42042],[6.01927,58.42222],[6.01794,58.42398]],[[6.00881,58.4274],[6.00979,58.42819],[6.01155,58.42713],[6.01076,58.42536],[6.01243,58.42297],[6.01106,58.41953],[6.00847,58.41855],[6.007,58.41892],[6.00602,58.4186],[6.00319,58.41956]],[[6.00881,58.4274],[6.00804,58.42727],[6.00688,58.42882]],[[6.00798,58.42938],[6.00919,58.42955],[6.01,58.42907],[6.01138,58.4292],[6.01054,58.43092],[6.01155,58.4309],[6.01229,58.43049],[6.0136,58.42723],[6.01794,58.42398]],[[6.01045,58.43675],[6.01252,58.43319],[6.01075,58.43188],[6.01023,58.43206],[6.01109,58.43291],[6.0095,58.43383],[6.00902,58.43476]],[[6.00902,58.43476],[6.00871,58.43746],[6.00935,58.43752],[6.01045,58.43675]],[[5.99998,58.45245],[6.00147,58.45276],[6.0027,58.4523],[6.00322,58.4526]],[[5.99781,58.45264],[6.00196,58.45776]],[[6.27836,58.32221],[6.27694,58.32271],[6.27656,58.3237]],[[6.21309,58.33605],[6.21178,58.33598],[6.21139,58.33706],[6.21383,58.33794],[6.21309,58.33605]],[[6.18827,58.33661],[6.18883,58.33706]],[[6.20244,58.33759],[6.20224,58.33823]],[[6.20224,58.33823],[6.20224,58.33828]],[[6.26229,58.34284],[6.25926,58.34244],[6.25948,58.34496],[6.26098,58.34737],[6.26183,58.3469],[6.26177,58.34539],[6.26307,58.34383],[6.26229,58.34284]],[[6.09365,58.3738],[6.09378,58.37328]],[[6.01657,58.40797],[6.01685,58.4089]],[[6.00688,58.42882],[6.00798,58.42938]],[[6.00316,58.45771],[6.00165,58.45357],[6.00293,58.45295]],[[6.00196,58.45776],[6.00201,58.45782]],[[6.89974,58.04088],[6.89923,58.04074],[6.89705,58.0417],[6.89658,58.0422],[6.8971,58.04249],[6.89828,58.04216],[6.89974,58.04088]],[[6.93358,58.04192],[6.93413,58.04094],[6.93317,58.03951],[6.93085,58.0397],[6.92961,58.04043],[6.9275,58.04055],[6.92711,58.03962],[6.92617,58.0396],[6.92155,58.04164],[6.91878,58.04138],[6.91605,58.04201],[6.91506,58.04274],[6.91494,58.04417]],[[6.91494,58.04417],[6.91547,58.04532],[6.91716,58.0459],[6.91573,58.04641],[6.91331,58.04633]],[[6.90455,58.04549],[6.90573,58.04547],[6.90643,58.04609],[6.90878,58.04543],[6.90904,58.04497],[6.90815,58.04414],[6.91097,58.04203],[6.91081,58.04156],[6.906,58.0407],[6.90172,58.04205],[6.90085,58.04325],[6.89914,58.04415],[6.90205,58.04585],[6.90314,58.04593],[6.90455,58.04549]],[[6.8955,58.04436],[6.89323,58.04428],[6.89397,58.04468],[6.89278,58.04519],[6.89307,58.04563],[6.89409,58.04578],[6.89543,58.04544],[6.8955,58.04436]],[[6.89886,58.04484],[6.89819,58.04464],[6.89653,58.04503],[6.89735,58.04629],[6.89908,58.04626],[6.89886,58.04484]],[[6.91331,58.04633],[6.90974,58.04649],[6.90747,58.04757],[6.90746,58.04887],[6.90902,58.0491],[6.90827,58.05024],[6.90882,58.05088],[6.91419,58.05059],[6.91898,58.04922],[6.92134,58.04909],[6.92555,58.04806]],[[6.88841,58.04974],[6.8868,58.04959],[6.88533,58.04877],[6.88354,58.04927],[6.8852,58.05039],[6.88841,58.04974]],[[6.89908,58.05101],[6.89681,58.05043],[6.89601,58.05098],[6.896,58.05241],[6.89856,58.05198],[6.89908,58.05101]],[[6.93047,58.05298],[6.9302,58.05125],[6.92846,58.05063],[6.9253,58.05043],[6.92286,58.05122],[6.92226,58.05191],[6.92381,58.053],[6.92269,58.05343],[6.91986,58.05327],[6.92019,58.05427],[6.92335,58.05502],[6.92487,58.05613],[6.92943,58.05597],[6.92942,58.05514]],[[6.88618,58.05172],[6.88266,58.05223],[6.88199,58.05262],[6.88224,58.05313],[6.88297,58.05353],[6.88396,58.0534],[6.88677,58.05208],[6.88618,58.05172]],[[6.87995,58.05266],[6.87964,58.05203],[6.87784,58.05235],[6.8723,58.04924],[6.86997,58.04972],[6.86892,58.05155],[6.87252,58.05381],[6.87452,58.05397],[6.87995,58.05266]],[[6.79603,58.04811],[6.7953,58.04818],[6.79438,58.04955],[6.7947,58.05006],[6.79631,58.05023],[6.79672,58.04924],[6.79603,58.04811]],[[6.83029,58.0533],[6.82833,58.05325],[6.828,58.0537],[6.8296,58.05492],[6.83076,58.05449],[6.83029,58.0533]],[[6.82771,58.05568],[6.82598,58.05523],[6.82431,58.05535],[6.82249,58.05413],[6.82101,58.05414],[6.81989,58.05494],[6.8213,58.05597],[6.82088,58.05689],[6.82525,58.05839],[6.82718,58.05808],[6.82836,58.05638],[6.82771,58.05568]],[[6.91205,58.05876],[6.9089,58.05967],[6.90762,58.05942],[6.9047,58.05985],[6.90288,58.06158],[6.90193,58.06149],[6.90193,58.06094],[6.90109,58.06065],[6.8971,58.06121],[6.89551,58.0618],[6.89611,58.06234],[6.90082,58.06205],[6.90046,58.06271],[6.89898,58.06329],[6.89924,58.06387],[6.90165,58.06371],[6.90446,58.06258],[6.90766,58.0634]],[[6.81204,58.05778],[6.81154,58.05625],[6.81021,58.05604],[6.80869,58.05494],[6.80759,58.05664],[6.80942,58.05709],[6.8108,58.05812],[6.81008,58.0589],[6.81127,58.05893],[6.81204,58.05778]],[[6.78331,58.0546],[6.78238,58.05428],[6.77888,58.05529],[6.77932,58.05736],[6.78113,58.05695],[6.78341,58.05504],[6.78331,58.0546]],[[6.76662,58.05634],[6.7657,58.05655],[6.76518,58.0575],[6.76639,58.05819],[6.76662,58.05634]],[[6.90766,58.0634],[6.91009,58.06466],[6.90756,58.06557],[6.90533,58.0656],[6.90426,58.06631],[6.90712,58.06715],[6.9114,58.06675],[6.91112,58.06803],[6.91427,58.0678],[6.91613,58.06716],[6.91617,58.06616],[6.91754,58.06553],[6.92149,58.06557],[6.92441,58.06396],[6.92538,58.06228],[6.92871,58.06087],[6.928,58.06053],[6.92786,58.05951],[6.92575,58.05959],[6.92318,58.05895],[6.92173,58.05984],[6.92,58.06006],[6.91806,58.06095],[6.92108,58.06308],[6.91694,58.06386],[6.9164,58.0636],[6.91752,58.0631],[6.91761,58.06155],[6.91543,58.06082],[6.91435,58.05881],[6.91205,58.05876]],[[6.84129,58.06217],[6.84064,58.06208],[6.83843,58.06283],[6.83736,58.06365],[6.83887,58.06399],[6.83887,58.06329],[6.84103,58.06297],[6.84129,58.06217]],[[6.81886,58.06286],[6.82039,58.06265],[6.82,58.05993],[6.8191,58.05968],[6.81869,58.05844],[6.81665,58.05766],[6.81541,58.05912],[6.81376,58.05933],[6.81295,58.05895],[6.81257,58.05969],[6.81069,58.06066],[6.8116,58.06105],[6.81278,58.06032],[6.81359,58.06189],[6.81886,58.06286]],[[6.79356,58.06131],[6.79442,58.0595],[6.79352,58.05892],[6.7936,58.0578],[6.79568,58.05695],[6.79579,58.05621],[6.79444,58.0563],[6.79414,58.05727],[6.79019,58.05738],[6.78857,58.0553],[6.78706,58.05579],[6.78602,58.05786],[6.78492,58.05778],[6.78409,58.05816],[6.78267,58.05963],[6.78408,58.0607]],[[6.861,58.06567],[6.8604,58.06449],[6.85938,58.06496],[6.85925,58.06556]],[[6.88116,58.0611],[6.88044,58.06021],[6.88064,58.05926],[6.879,58.05836],[6.87641,58.05879],[6.87422,58.06019],[6.87292,58.06012],[6.87175,58.06061],[6.87092,58.06129],[6.87198,58.06169],[6.87207,58.06251],[6.87081,58.06272],[6.87019,58.06365],[6.87249,58.06641]],[[6.88036,58.06691],[6.88249,58.06637],[6.87971,58.06559],[6.87947,58.06517],[6.8796,58.06404],[6.88126,58.06366],[6.88228,58.06238],[6.88116,58.0611]],[[6.85925,58.06556],[6.86046,58.06625],[6.861,58.06567]],[[6.87249,58.06641],[6.87309,58.06677],[6.87499,58.06684],[6.87557,58.06756],[6.8746,58.06832],[6.87274,58.06837],[6.87157,58.06891],[6.87109,58.07029]],[[6.80621,58.06356],[6.80568,58.06296],[6.80406,58.06297],[6.80331,58.06334],[6.80326,58.06452],[6.79994,58.0663],[6.79643,58.06618],[6.79357,58.06549],[6.79074,58.06385],[6.79054,58.06331],[6.79371,58.06169],[6.79356,58.06131]],[[6.82228,58.06875],[6.82499,58.06856],[6.82539,58.06753],[6.82383,58.06689],[6.82263,58.06709],[6.82116,58.06779],[6.82052,58.0689],[6.82137,58.06919],[6.82228,58.06875]],[[6.73243,58.06254],[6.73018,58.06164],[6.73024,58.06293],[6.73135,58.06399],[6.73195,58.06388],[6.73243,58.06254]],[[6.67526,58.05861],[6.6731,58.05738],[6.67208,58.05821],[6.66631,58.05845],[6.66503,58.05907],[6.66596,58.05985],[6.66883,58.06045],[6.67399,58.05982],[6.67526,58.05861]],[[6.76613,58.07049],[6.76841,58.07116],[6.77145,58.07131],[6.77671,58.07014],[6.77805,58.06903],[6.77861,58.06754],[6.78157,58.06636],[6.78276,58.0648],[6.78206,58.06313],[6.78021,58.06314],[6.77993,58.06286],[6.78079,58.0623],[6.78293,58.0621],[6.78408,58.0607]],[[6.82785,58.074],[6.827,58.0739],[6.82464,58.07576],[6.82757,58.07548],[6.82785,58.074]],[[6.84955,58.07801],[6.85047,58.07766],[6.85169,58.07781],[6.85465,58.07631],[6.86145,58.07421],[6.86234,58.0726],[6.86327,58.07214],[6.86491,58.07215],[6.86738,58.07001],[6.86958,58.06994],[6.87023,58.07111],[6.87115,58.07071],[6.87109,58.07029]],[[6.69777,58.06735],[6.69975,58.06644],[6.70077,58.06644],[6.70279,58.06774],[6.70823,58.06916],[6.71043,58.06939]],[[6.71043,58.06939],[6.71376,58.06963]],[[6.71376,58.06963],[6.71937,58.06945],[6.72391,58.06793],[6.72758,58.06732],[6.72823,58.06624],[6.72574,58.06306],[6.72658,58.06251],[6.72668,58.06154],[6.7276,58.06136],[6.72831,58.06152],[6.7288,58.06238],[6.72732,58.06307],[6.73018,58.06459],[6.73142,58.06585],[6.73391,58.06659],[6.73544,58.06666],[6.73685,58.06611],[6.73727,58.06501],[6.73862,58.06437],[6.74008,58.06509],[6.74148,58.06666],[6.74455,58.06779],[6.74621,58.06753],[6.74958,58.06586],[6.75321,58.06515],[6.7554,58.06627],[6.75863,58.0662],[6.76067,58.06524],[6.76138,58.06542],[6.76206,58.0665],[6.7633,58.06603],[6.76479,58.06606],[6.76569,58.06654],[6.76509,58.06765],[6.76622,58.06812],[6.76468,58.06908],[6.76613,58.07049]],[[6.83837,58.07261],[6.83948,58.07242],[6.83836,58.07161],[6.83514,58.07203],[6.83494,58.07416],[6.83788,58.07533],[6.83687,58.07642],[6.83798,58.07776],[6.83901,58.07784],[6.84067,58.07587],[6.83837,58.07261]],[[6.83387,58.07455],[6.83298,58.07432],[6.83157,58.07523],[6.83059,58.07721],[6.83321,58.07759],[6.83466,58.07622],[6.83387,58.07455]],[[6.88484,58.07987],[6.88053,58.07945],[6.87976,58.07972],[6.88227,58.08089],[6.88481,58.08059],[6.88484,58.07987]],[[6.84903,58.0803],[6.85121,58.08054],[6.85198,58.08023],[6.8545,58.08038],[6.85945,58.07987],[6.86479,58.07899],[6.86779,58.07788],[6.86869,58.07843],[6.86944,58.07834],[6.87242,58.07719],[6.87182,58.07642],[6.86872,58.07483],[6.869,58.07425],[6.87044,58.07412],[6.87127,58.07504],[6.87328,58.07465],[6.87624,58.07381],[6.88184,58.07123],[6.8823,58.07181],[6.88426,58.07197],[6.88436,58.07234],[6.8802,58.07419],[6.87992,58.07559],[6.88291,58.07538],[6.8831,58.07625],[6.88514,58.07676],[6.89423,58.07673],[6.89547,58.07622],[6.89565,58.07589],[6.89183,58.07382],[6.8869,58.07389],[6.88837,58.07181],[6.88785,58.06952],[6.8863,58.06923],[6.88427,58.06987],[6.88424,58.06923],[6.88201,58.06856],[6.88199,58.06787],[6.88036,58.06691]],[[6.84955,58.07801],[6.84871,58.07863],[6.84701,58.07836],[6.84606,58.07892],[6.8472,58.08045],[6.84903,58.0803]],[[6.8328,58.0802],[6.83119,58.08019],[6.83075,58.08064],[6.83053,58.08165],[6.83112,58.08203],[6.83281,58.08128],[6.8328,58.0802]],[[6.84069,58.08274],[6.84302,58.08198],[6.8432,58.0814],[6.83996,58.08025],[6.8387,58.08026],[6.837,58.08206],[6.83822,58.08265],[6.84069,58.08274]],[[6.82751,58.08164],[6.82643,58.08153],[6.82517,58.08249],[6.82543,58.08283],[6.82718,58.08282],[6.82751,58.08164]],[[6.64514,58.07101],[6.64824,58.0714],[6.64852,58.0725],[6.65066,58.07466]],[[6.7786,58.08342],[6.77718,58.08168],[6.7753,58.08121],[6.77328,58.08123],[6.77186,58.08029],[6.77164,58.0792],[6.77364,58.07823],[6.77563,58.07791],[6.77893,58.07945],[6.79536,58.08243],[6.79822,58.08232],[6.80381,58.08305],[6.80752,58.08137],[6.80784,58.08349],[6.81111,58.08419],[6.8135,58.08426],[6.81839,58.08224],[6.81892,58.0807],[6.82124,58.07983],[6.82127,58.07917],[6.81998,58.07951],[6.8193,58.07858],[6.82148,58.07565],[6.82011,58.07489],[6.82248,58.075],[6.82435,58.07402],[6.8264,58.07392],[6.82835,58.07213],[6.82806,58.0696],[6.82715,58.06927],[6.82209,58.06938],[6.82047,58.07035],[6.81759,58.07128],[6.81668,58.07349],[6.81854,58.07468],[6.81651,58.07544],[6.81425,58.07468],[6.81321,58.07476],[6.81115,58.07313],[6.81284,58.06978],[6.81394,58.06993],[6.81593,58.06935],[6.82065,58.0659],[6.81915,58.06468],[6.81678,58.06389],[6.8151,58.0637],[6.81379,58.06403],[6.81206,58.06344],[6.80778,58.06397],[6.80628,58.06385],[6.80621,58.06356]],[[6.84769,58.08611],[6.852,58.08535],[6.85282,58.08481],[6.852,58.08405],[6.85495,58.08366],[6.85758,58.0845],[6.85745,58.08513],[6.85617,58.08579],[6.8566,58.08633],[6.85932,58.08656],[6.8622,58.08485],[6.86521,58.08408],[6.86784,58.08179],[6.87328,58.08166],[6.8766,58.08291],[6.87967,58.08251],[6.87958,58.08303],[6.88254,58.0842],[6.88366,58.08379],[6.88345,58.08339],[6.88592,58.08075],[6.88749,58.08014],[6.88981,58.07991],[6.89052,58.0802],[6.89791,58.07952],[6.90089,58.08024],[6.90065,58.0816],[6.89879,58.08224],[6.89639,58.08459],[6.90553,58.08469],[6.9124,58.08249],[6.91641,58.08515],[6.91787,58.08531],[6.92037,58.08468],[6.92076,58.08417],[6.91316,58.08229],[6.91567,58.08164],[6.91596,58.08119],[6.91587,58.08069],[6.91289,58.0794],[6.9122,58.07811],[6.91415,58.0761],[6.90622,58.07568],[6.90332,58.07517],[6.90112,58.07378],[6.89868,58.07437],[6.89777,58.07375],[6.89511,58.07396],[6.89315,58.07332],[6.8964,58.07218],[6.90194,58.07237],[6.90368,58.07176],[6.90592,58.07293],[6.90766,58.07216],[6.90969,58.07215],[6.91213,58.07251],[6.91358,58.07312],[6.91575,58.07195],[6.91832,58.07225],[6.92052,58.07153],[6.92175,58.07244],[6.92112,58.073],[6.91934,58.07326],[6.9195,58.07451],[6.9211,58.07531],[6.92114,58.07579],[6.92012,58.07617],[6.91716,58.07615],[6.91667,58.07655],[6.91841,58.07747],[6.9189,58.07825],[6.91854,58.07907],[6.91997,58.08107],[6.92314,58.08122],[6.92322,58.08416],[6.92539,58.08631],[6.92566,58.0882],[6.92719,58.08853],[6.92896,58.08831],[6.93158,58.09024],[6.93115,58.09068],[6.92857,58.09068],[6.92777,58.09272],[6.92883,58.09362],[6.93107,58.09403]],[[6.65434,58.07642],[6.65969,58.07681],[6.66491,58.07625],[6.66836,58.07545]],[[6.79523,58.08682],[6.795,58.08531],[6.79144,58.0832],[6.78821,58.08215],[6.7863,58.08285],[6.78548,58.08229],[6.78583,58.0818],[6.78501,58.08162],[6.78333,58.082],[6.77982,58.08196],[6.77916,58.08338],[6.7786,58.08342]],[[6.64514,58.07101],[6.64394,58.07088],[6.64302,58.07008],[6.64281,58.06663],[6.64079,58.06627],[6.63873,58.06666],[6.6342,58.06796],[6.62791,58.07044],[6.62414,58.0736],[6.6217,58.07699]],[[6.80863,58.09265],[6.81047,58.09285],[6.81237,58.09107],[6.80987,58.09064],[6.80623,58.09311],[6.80818,58.09307],[6.80863,58.09265]],[[6.81333,58.09397],[6.81182,58.09389],[6.80899,58.09443],[6.80717,58.09498],[6.80682,58.09592],[6.80908,58.09603],[6.81145,58.0954],[6.81333,58.09397]],[[6.74684,58.09799],[6.7475,58.09765],[6.74854,58.09789],[6.74892,58.09705],[6.74764,58.09684]],[[6.6192,58.08725],[6.62126,58.08483],[6.62048,58.08292],[6.622,58.08149],[6.62443,58.08111],[6.62523,58.0803],[6.62163,58.07808],[6.6217,58.07699]],[[6.84769,58.08611],[6.8467,58.08647],[6.84718,58.08694],[6.84637,58.08857],[6.84209,58.08853],[6.84185,58.08728],[6.84039,58.08707],[6.83632,58.0893],[6.83411,58.08951],[6.83408,58.09035],[6.83532,58.09148],[6.83182,58.09128],[6.83127,58.09162],[6.83457,58.09325],[6.83194,58.09463],[6.83184,58.09565],[6.83083,58.09532],[6.8292,58.0929],[6.83009,58.09069],[6.82899,58.08964],[6.82533,58.09081],[6.81929,58.09465],[6.81664,58.09488],[6.81308,58.09613],[6.81431,58.09736],[6.81613,58.09783],[6.82575,58.0999],[6.83088,58.10029],[6.83092,58.10063],[6.82997,58.10077],[6.83042,58.10137],[6.83267,58.10121],[6.8353,58.10249],[6.84383,58.10291]],[[6.77055,58.09869],[6.77853,58.09834],[6.78427,58.09547],[6.7876,58.09487],[6.79129,58.09492],[6.79424,58.0959],[6.79618,58.09613],[6.80185,58.096],[6.80225,58.09664],[6.80611,58.09671],[6.80524,58.09452],[6.80626,58.08859],[6.80778,58.08752],[6.80687,58.08648],[6.80516,58.08615],[6.80322,58.08782],[6.79988,58.08852],[6.79746,58.0885],[6.79756,58.08717],[6.79523,58.08682]],[[6.74764,58.09684],[6.74545,58.09663],[6.74533,58.09701],[6.74684,58.09799]],[[6.8056,58.10065],[6.80356,58.10058],[6.80197,58.10168],[6.80471,58.10174],[6.80585,58.10116],[6.8056,58.10065]],[[6.59134,58.08944],[6.59397,58.08834],[6.59754,58.08564],[6.59956,58.08503],[6.60115,58.08523],[6.60416,58.08643],[6.60438,58.08701],[6.60298,58.08781],[6.60318,58.08877],[6.60427,58.08949],[6.60678,58.09012],[6.61136,58.0901],[6.61464,58.08939],[6.61706,58.0886],[6.6192,58.08725]],[[6.74662,58.09841],[6.74872,58.10115]],[[6.59087,58.09141],[6.59569,58.09182],[6.59629,58.09256]],[[6.59574,58.09345],[6.59629,58.09256]],[[6.73969,58.10293],[6.74059,58.10202],[6.73928,58.10078],[6.74252,58.10038],[6.74309,58.09986],[6.74266,58.0992],[6.74525,58.09831],[6.74662,58.09841]],[[6.74791,58.10346],[6.74872,58.10115]],[[6.76168,58.10436],[6.75966,58.10252],[6.76019,58.10083],[6.75964,58.0999],[6.76284,58.09956],[6.7639,58.10028],[6.76485,58.10027],[6.76879,58.0998],[6.77055,58.09869]],[[6.78572,58.10592],[6.78565,58.10422],[6.78769,58.10393],[6.79068,58.10216],[6.79621,58.10261],[6.7958,58.10346],[6.79729,58.10401],[6.79888,58.10336],[6.79894,58.1025],[6.79738,58.10114],[6.7937,58.10039],[6.79076,58.10041],[6.7907,58.09872],[6.78988,58.09834],[6.78599,58.09825],[6.77912,58.09996],[6.77491,58.10042],[6.77352,58.10086],[6.76899,58.10373],[6.76564,58.10462]],[[6.81977,58.10813],[6.81962,58.10745],[6.81758,58.10798]],[[6.85686,58.11052],[6.85914,58.10933],[6.85998,58.10794],[6.86106,58.10765],[6.86038,58.10707],[6.85962,58.10682],[6.85794,58.10742],[6.85624,58.10744],[6.85442,58.10653],[6.85144,58.10657],[6.84685,58.10529],[6.84641,58.10496],[6.84696,58.10445],[6.84976,58.10357],[6.85129,58.10358],[6.85176,58.10318],[6.8512,58.10285],[6.84383,58.10291]],[[6.58115,58.09569],[6.58353,58.09547],[6.5848,58.09591],[6.58554,58.09571],[6.5859,58.09537],[6.58485,58.09486],[6.58573,58.09339],[6.58266,58.09403],[6.58113,58.09512],[6.58115,58.09569]],[[6.58969,58.09638],[6.59365,58.09612],[6.59553,58.09485],[6.59487,58.09422],[6.59574,58.09345]],[[6.75725,58.10877],[6.75947,58.10814],[6.76174,58.10575],[6.76168,58.10436]],[[6.74791,58.10346],[6.74726,58.10446],[6.74557,58.10384],[6.74356,58.10471],[6.74343,58.10656],[6.74925,58.10675],[6.75038,58.10706],[6.7512,58.1083],[6.75497,58.10886],[6.75725,58.10877]],[[6.7569,58.11029],[6.76048,58.10993],[6.76024,58.10903],[6.76108,58.10748],[6.76397,58.10527],[6.76564,58.10462]],[[6.58969,58.09638],[6.58712,58.0955],[6.58716,58.09719],[6.58628,58.09754],[6.58506,58.09696],[6.58378,58.09755],[6.58364,58.1],[6.58214,58.10072],[6.58125,58.10002]],[[6.81977,58.10813],[6.81957,58.10977],[6.82051,58.11027],[6.823,58.11006],[6.82642,58.10905],[6.8277,58.10925],[6.82985,58.11082],[6.83026,58.1123],[6.83189,58.11377],[6.83701,58.11556],[6.84026,58.11844]],[[6.73969,58.10293],[6.73758,58.10443],[6.73495,58.10516],[6.73285,58.10443],[6.73134,58.10286],[6.72806,58.10266],[6.73026,58.10376],[6.73068,58.10493],[6.73365,58.10649],[6.7338,58.10781],[6.73662,58.10934],[6.73742,58.11087],[6.74063,58.11126],[6.74271,58.11351],[6.74491,58.11362],[6.74635,58.11411],[6.74899,58.1119],[6.74753,58.11143],[6.74745,58.11091],[6.74952,58.11006],[6.75158,58.11079],[6.7569,58.11029]],[[6.78572,58.10592],[6.78758,58.10614],[6.78818,58.10729],[6.79443,58.107],[6.79404,58.10924],[6.79184,58.11071],[6.78781,58.11147],[6.77954,58.11461],[6.7736,58.11269],[6.77044,58.11244],[6.76777,58.11161],[6.76589,58.11143],[6.76569,58.11172],[6.77155,58.11369],[6.77561,58.11363],[6.77617,58.11416],[6.7756,58.11463],[6.7759,58.11526],[6.77876,58.11661],[6.78151,58.11687],[6.784,58.11598],[6.78625,58.11602],[6.7885,58.11559],[6.78979,58.11408],[6.7939,58.11221],[6.80109,58.11273],[6.80367,58.11105],[6.80563,58.11067],[6.80677,58.10947],[6.80937,58.10934],[6.81002,58.10834],[6.81524,58.10818],[6.81649,58.1086],[6.81758,58.10798]],[[6.85686,58.11052],[6.85855,58.11164],[6.86351,58.11229],[6.86388,58.11259],[6.8633,58.11318],[6.868,58.11425],[6.86946,58.1154],[6.87437,58.11627],[6.8772,58.11746],[6.87732,58.11855],[6.87841,58.11902],[6.89496,58.12289],[6.89883,58.12451],[6.90301,58.12541],[6.90314,58.12622],[6.90418,58.1265],[6.90816,58.12657],[6.91007,58.12569],[6.91333,58.12519],[6.91461,58.12556],[6.91864,58.12559],[6.92412,58.12454]],[[6.92226,58.13272],[6.91935,58.13309],[6.91737,58.1339],[6.91223,58.13355],[6.91137,58.13224],[6.90932,58.13099],[6.90811,58.13237],[6.90982,58.1331],[6.90964,58.13352],[6.90371,58.13498]],[[6.90371,58.13498],[6.9015,58.13577],[6.89991,58.13757],[6.89777,58.1382]],[[6.58125,58.10002],[6.57696,58.10051],[6.57495,58.1015],[6.57386,58.10283],[6.57549,58.10568],[6.57489,58.10661],[6.56996,58.10609],[6.56766,58.10791],[6.56246,58.10921],[6.56094,58.10993],[6.55629,58.1132],[6.55764,58.11371],[6.5588,58.11345],[6.56147,58.11369],[6.56211,58.11418],[6.56176,58.11493],[6.55536,58.11635],[6.55333,58.11789],[6.55693,58.11979],[6.56126,58.12009],[6.56593,58.12158],[6.56785,58.12155],[6.56797,58.12033],[6.56917,58.11993],[6.57422,58.12018],[6.57459,58.12131],[6.5709,58.1232],[6.57108,58.12366],[6.57325,58.12391],[6.576,58.12335],[6.57809,58.12336],[6.57954,58.12502],[6.58119,58.12571],[6.58272,58.12575]],[[6.83351,58.14774],[6.8366,58.14779],[6.83875,58.14742],[6.84159,58.14611],[6.85119,58.14449],[6.85526,58.141],[6.85679,58.14058],[6.85963,58.13881],[6.86215,58.13644],[6.86608,58.13543],[6.86769,58.13435],[6.86747,58.13198],[6.86487,58.13009],[6.86344,58.12835],[6.86352,58.12721],[6.8624,58.12513],[6.86264,58.12298],[6.86195,58.12259],[6.85968,58.12328],[6.85769,58.12239],[6.85621,58.1184],[6.85301,58.11764],[6.85027,58.11798],[6.8459,58.11648],[6.84437,58.11737],[6.84492,58.11965],[6.84026,58.11844]],[[6.60056,58.1389],[6.60134,58.13691],[6.60063,58.13462],[6.59958,58.13386],[6.5978,58.13344],[6.59704,58.13115],[6.59387,58.1299],[6.59175,58.12778],[6.58901,58.12752],[6.58784,58.1266],[6.58529,58.12564],[6.58272,58.12575]],[[6.7421,58.1482],[6.74264,58.14672],[6.74147,58.14441],[6.74191,58.14378],[6.74384,58.14309],[6.74399,58.14141],[6.74116,58.14185],[6.74101,58.14044],[6.73921,58.13982],[6.73747,58.13852],[6.73864,58.13665],[6.73706,58.13587],[6.73335,58.13639],[6.7328,58.13725],[6.73366,58.13835],[6.73272,58.13896],[6.73185,58.1389],[6.72913,58.1371],[6.72612,58.13415],[6.72561,58.13114],[6.72593,58.13042],[6.72712,58.13027],[6.73289,58.13065],[6.73424,58.13109],[6.73492,58.13224],[6.73616,58.13256],[6.7391,58.13201],[6.73794,58.13024],[6.73989,58.12821],[6.74268,58.12749],[6.74472,58.12607],[6.74625,58.12053],[6.74679,58.11956],[6.74858,58.11845],[6.74893,58.11686],[6.75099,58.11762],[6.75075,58.11818],[6.74892,58.11883],[6.74876,58.11962],[6.75058,58.12327],[6.75005,58.12524],[6.74917,58.12749],[6.74623,58.12845],[6.7452,58.13019],[6.74388,58.13056],[6.7461,58.13249],[6.74638,58.13419],[6.74824,58.13611],[6.74847,58.13727],[6.75043,58.13811]],[[6.75638,58.14913],[6.7575,58.14812],[6.75647,58.14682],[6.75655,58.14514],[6.75453,58.14343],[6.75025,58.14113],[6.75095,58.14062],[6.75242,58.14054],[6.753,58.13972],[6.7524,58.13899],[6.75043,58.13811]],[[6.81794,58.15312],[6.81884,58.15195],[6.8273,58.14892],[6.83351,58.14774]],[[6.85258,58.15535],[6.85406,58.15417],[6.85728,58.15265],[6.86187,58.15098],[6.86774,58.15124],[6.87247,58.15081],[6.87865,58.14941],[6.87891,58.14885],[6.88047,58.14841],[6.88226,58.14835],[6.88425,58.14762],[6.88965,58.14676],[6.8907,58.14516],[6.88939,58.14277]],[[6.60056,58.1389],[6.6016,58.13931],[6.60354,58.13909]],[[6.81794,58.15312],[6.81737,58.1536],[6.81493,58.15377],[6.81348,58.15481],[6.80588,58.15601],[6.80412,58.15717]],[[6.76202,58.16272],[6.76162,58.16189],[6.75959,58.16142],[6.75533,58.159],[6.75585,58.15711],[6.75532,58.15572],[6.7568,58.15512],[6.7561,58.15436],[6.75694,58.15223],[6.75585,58.15029],[6.75638,58.14913]],[[6.76202,58.16272],[6.76024,58.16443],[6.7591,58.16488]],[[6.81505,58.16725],[6.81271,58.16791],[6.81203,58.16884],[6.81258,58.16983],[6.81334,58.16978],[6.8139,58.16827],[6.81505,58.16725]],[[6.7421,58.1482],[6.74144,58.15124],[6.74304,58.15443],[6.74216,58.16211],[6.73732,58.16669],[6.7367,58.16789],[6.73787,58.16887],[6.73936,58.16872],[6.74061,58.16928],[6.74061,58.1704],[6.74271,58.1712]],[[6.81004,58.18428],[6.81204,58.18179],[6.81481,58.18003],[6.81378,58.17849],[6.80977,58.17866],[6.80709,58.17945],[6.807,58.1821],[6.80758,58.18314],[6.80938,58.18433]],[[6.81004,58.18428],[6.81116,58.18529],[6.81535,58.18705],[6.81684,58.18708],[6.81797,58.18572],[6.82084,58.1863],[6.82169,58.18563],[6.81977,58.18101],[6.81946,58.17739],[6.82472,58.17686],[6.82668,58.17733]],[[6.6913,58.17922],[6.69239,58.17856],[6.69598,58.17776],[6.70663,58.17685],[6.71216,58.17551],[6.71458,58.17523],[6.71767,58.1754],[6.7189,58.17478],[6.71782,58.17365],[6.71619,58.1732],[6.71075,58.17439],[6.69882,58.17607],[6.69492,58.17733],[6.67391,58.17878],[6.67299,58.17709],[6.67142,58.17684],[6.66175,58.17618],[6.65666,58.17774],[6.65583,58.1775]],[[6.79906,58.18685],[6.79964,58.18635],[6.80237,58.18665],[6.8049,58.18631],[6.80597,58.18656],[6.80726,58.18769],[6.80813,58.18702],[6.80938,58.18433]],[[6.80345,58.1579],[6.80373,58.1591],[6.8069,58.16092],[6.80954,58.1617],[6.80958,58.16306],[6.81061,58.16419],[6.81269,58.16438],[6.8132,58.16489],[6.81035,58.16919],[6.81089,58.17087],[6.81008,58.17256],[6.80274,58.17527],[6.80019,58.17819],[6.79931,58.18029],[6.79628,58.18092],[6.79306,58.18281],[6.79341,58.18533],[6.79458,58.18609],[6.79631,58.18551],[6.79626,58.18678],[6.79724,58.18712]],[[6.74239,58.17259],[6.73945,58.17583],[6.73762,58.18047],[6.73897,58.18358],[6.73971,58.18405]],[[6.64242,58.17858],[6.64716,58.17946],[6.64939,58.17873],[6.65199,58.17905],[6.65338,58.17853],[6.65374,58.17748],[6.65583,58.1775]],[[6.60468,58.13917],[6.60634,58.14235],[6.60644,58.14435],[6.60921,58.1447],[6.61205,58.14617],[6.61159,58.14718],[6.6101,58.1479],[6.61205,58.15124],[6.61524,58.1536],[6.61706,58.15597],[6.61922,58.15614],[6.62165,58.15717],[6.62213,58.15834],[6.62146,58.15906],[6.62368,58.16191],[6.62142,58.16166],[6.62057,58.162],[6.62019,58.16298],[6.62253,58.16471],[6.62214,58.16609],[6.62364,58.16674],[6.62133,58.16832],[6.62273,58.17023],[6.62268,58.17311],[6.62394,58.17427],[6.62356,58.17585],[6.62159,58.17609],[6.62303,58.17883],[6.62408,58.17894],[6.62492,58.17832],[6.62652,58.17909],[6.62808,58.17896],[6.62792,58.17789],[6.62864,58.17767],[6.63275,58.17807],[6.63261,58.17895],[6.63485,58.1799],[6.63184,58.17966],[6.63076,58.17995],[6.63498,58.18074],[6.6358,58.18027],[6.63809,58.18028],[6.64013,58.1789],[6.64242,58.17858]],[[6.82668,58.17733],[6.83131,58.17773],[6.83487,58.18062],[6.83878,58.18267],[6.83943,58.18484],[6.84135,58.18547],[6.84353,58.18499],[6.84519,58.18508],[6.84622,58.1856],[6.84794,58.18806],[6.85,58.18855],[6.85092,58.18786],[6.8527,58.18911],[6.8569,58.18918],[6.86544,58.19012],[6.8651,58.1919],[6.86604,58.1931],[6.86607,58.19769],[6.86709,58.1988],[6.8701,58.19947],[6.87137,58.19922],[6.87474,58.19749],[6.87726,58.19846],[6.87739,58.19736],[6.87962,58.19598],[6.87431,58.19435],[6.87077,58.19214],[6.87072,58.19179],[6.87245,58.19122],[6.87275,58.18994],[6.86417,58.18642],[6.85586,58.18385],[6.85462,58.18273],[6.84898,58.18144],[6.84411,58.17839],[6.83743,58.1756],[6.83618,58.17417],[6.83686,58.17333],[6.83443,58.17218],[6.83519,58.17173],[6.83742,58.17146],[6.83818,58.17026],[6.83817,58.16837],[6.84121,58.16752],[6.84395,58.16531],[6.8442,58.16267],[6.84769,58.16182],[6.84847,58.16041],[6.85134,58.15896],[6.85258,58.15535]],[[6.73971,58.18405],[6.74123,58.18439],[6.74198,58.18506],[6.74182,58.18711],[6.74272,58.18897],[6.74623,58.19184],[6.74976,58.19191],[6.75492,58.19007],[6.75597,58.18933],[6.75618,58.18849],[6.75112,58.18669],[6.75262,58.18573],[6.75165,58.18344],[6.74971,58.1822],[6.75055,58.18086],[6.74928,58.17923],[6.74989,58.17784],[6.74956,58.17697],[6.7467,58.17474],[6.74535,58.17463],[6.74518,58.17384],[6.74601,58.17293],[6.74793,58.17275],[6.7481,58.17105],[6.74927,58.17027],[6.74772,58.16902],[6.74813,58.168],[6.75111,58.16711],[6.75357,58.16558],[6.7591,58.16488]],[[6.68101,58.18933],[6.6805,58.18901],[6.67702,58.18907]],[[6.6913,58.17922],[6.69096,58.17996],[6.69176,58.1811],[6.69131,58.1818],[6.68701,58.18438],[6.68627,58.18601],[6.68269,58.18777],[6.68228,58.18866]],[[6.68139,58.18975],[6.68201,58.18939]],[[6.67702,58.18907],[6.67531,58.18995],[6.67514,58.19145],[6.67661,58.19317],[6.67901,58.19441]],[[6.66248,58.20126],[6.66224,58.19995],[6.66127,58.19925],[6.65961,58.19855],[6.65847,58.19875],[6.65623,58.1982],[6.65432,58.1999],[6.65408,58.20137],[6.6511,58.20125],[6.65036,58.20181],[6.65085,58.2026]],[[6.62109,58.2037],[6.62038,58.20244],[6.62147,58.20195],[6.61785,58.20084],[6.61922,58.20345],[6.62055,58.20388]],[[6.67901,58.19441],[6.68098,58.19497],[6.68248,58.19485],[6.68783,58.19676],[6.69689,58.19796],[6.69878,58.1989],[6.69932,58.20189],[6.70027,58.20254],[6.7111,58.2046],[6.71772,58.2052],[6.71964,58.20587],[6.72104,58.20671],[6.72268,58.20936],[6.72847,58.21128],[6.7303,58.21302],[6.7327,58.21404]],[[6.62905,58.20414],[6.62927,58.20388],[6.63161,58.20396],[6.63183,58.20073],[6.63061,58.19932],[6.63033,58.19699],[6.62905,58.19606],[6.62488,58.19594],[6.62329,58.19619],[6.62185,58.19706],[6.62064,58.19842],[6.6208,58.19894],[6.61571,58.19945],[6.61519,58.20011],[6.61145,58.19978],[6.61014,58.1985],[6.60932,58.19838],[6.60435,58.19911],[6.59832,58.19937],[6.59762,58.20001],[6.59901,58.20041],[6.5977,58.20108],[6.59494,58.20129],[6.58338,58.20432],[6.58208,58.2068]],[[6.57087,58.20917],[6.57413,58.20625],[6.57558,58.20705],[6.57991,58.20504],[6.57705,58.2047],[6.57438,58.20574],[6.57363,58.20486],[6.57444,58.20314],[6.57278,58.20228],[6.57067,58.20262],[6.57143,58.20334],[6.56944,58.20477],[6.56998,58.20521],[6.57237,58.20536],[6.56986,58.20646],[6.56964,58.20892],[6.56886,58.20763],[6.56691,58.20693],[6.56414,58.20715],[6.56371,58.20785],[6.56496,58.20858],[6.56758,58.20927],[6.57087,58.20917]],[[6.56274,58.20966],[6.55963,58.20848],[6.55668,58.20858],[6.55586,58.20917],[6.55604,58.21035],[6.55796,58.21156],[6.55935,58.21179],[6.56006,58.21146],[6.56222,58.21183]],[[6.54053,58.20849],[6.53862,58.20835],[6.5396,58.20884],[6.53952,58.2094],[6.53839,58.20985],[6.53871,58.21041],[6.54156,58.21037],[6.54279,58.20989],[6.54285,58.20955],[6.54053,58.20849]],[[6.56222,58.21183],[6.5636,58.2122],[6.5647,58.21194],[6.56492,58.21059],[6.56274,58.20966]],[[6.55711,58.21246],[6.55813,58.21296],[6.55952,58.21258],[6.56201,58.21269]],[[6.67515,58.2302],[6.67878,58.22818],[6.68006,58.22646],[6.67959,58.22479],[6.68128,58.22288],[6.6817,58.22051],[6.68354,58.21823],[6.68358,58.21645],[6.68313,58.21586],[6.68024,58.2149],[6.67893,58.21403],[6.67802,58.21064],[6.67451,58.2077],[6.67034,58.20595],[6.66538,58.20278],[6.66344,58.20239],[6.66248,58.20126]],[[6.54351,58.22244],[6.54129,58.21919],[6.53954,58.21868],[6.53959,58.21973],[6.54145,58.22103],[6.54196,58.22223],[6.54344,58.2226]],[[6.67965,58.23098],[6.6793,58.23042],[6.67738,58.23071],[6.67654,58.23149],[6.67836,58.23167],[6.67965,58.23098]],[[6.55924,58.2243],[6.56035,58.22394],[6.56189,58.22418],[6.56461,58.22345],[6.56741,58.22039],[6.5667,58.21634],[6.56495,58.21603],[6.56392,58.21531],[6.56329,58.21431],[6.56459,58.21368],[6.56201,58.21269]],[[6.65085,58.2026],[6.65107,58.20333],[6.65004,58.2041],[6.65069,58.20614],[6.65526,58.2097],[6.65515,58.21069],[6.65419,58.21126],[6.65551,58.21265],[6.65396,58.21312],[6.65305,58.21589],[6.65359,58.21744],[6.65455,58.21808],[6.65417,58.22112],[6.65268,58.22229],[6.65344,58.22555],[6.65452,58.22693],[6.65774,58.2292],[6.65961,58.23015],[6.66555,58.23184]],[[6.66555,58.23184],[6.66662,58.23295],[6.67065,58.2336],[6.67221,58.23326],[6.67334,58.23252],[6.6748,58.2326],[6.67543,58.23185],[6.67515,58.2302]],[[6.51331,58.22334],[6.51169,58.22105],[6.51036,58.2205],[6.50815,58.22194],[6.50824,58.223]],[[6.52179,58.22391],[6.52184,58.2218],[6.51609,58.22095],[6.51372,58.22119],[6.51443,58.22342]],[[6.53334,58.22468],[6.53444,58.22319],[6.53487,58.22092],[6.53605,58.2211],[6.53766,58.22213],[6.53874,58.22141],[6.53664,58.22064],[6.53836,58.21975],[6.53563,58.2182],[6.53402,58.2159],[6.53951,58.21698],[6.54007,58.21585],[6.53975,58.21473],[6.54054,58.21373],[6.54248,58.21348],[6.54357,58.21199],[6.54576,58.21227],[6.54819,58.21159],[6.54728,58.21125],[6.54831,58.21058],[6.55067,58.21086],[6.55308,58.2124],[6.55629,58.2118],[6.55711,58.21246]],[[6.55833,58.22635],[6.55833,58.22472],[6.55924,58.2243]],[[6.58208,58.2068],[6.58308,58.20806],[6.58248,58.2088],[6.58111,58.20872],[6.58043,58.20922],[6.57936,58.21119],[6.57993,58.21126],[6.58042,58.21288],[6.58215,58.21362],[6.58263,58.21548],[6.58083,58.21724],[6.57805,58.21446],[6.57654,58.21469],[6.57403,58.21596],[6.57328,58.21678],[6.57313,58.21881],[6.57086,58.21907],[6.57041,58.22061],[6.56902,58.22187],[6.56952,58.22376],[6.56748,58.2242],[6.56643,58.22536],[6.56661,58.2269]],[[6.62199,58.23057],[6.6232,58.2301],[6.62481,58.23006],[6.62523,58.22878],[6.62661,58.2275],[6.63247,58.22373],[6.63273,58.22249],[6.63513,58.22007],[6.63481,58.21914],[6.63624,58.21848],[6.63652,58.21618],[6.63487,58.21513],[6.63542,58.21203],[6.63261,58.2126],[6.63189,58.20788],[6.63046,58.20717],[6.63123,58.20544],[6.62905,58.20414]],[[6.70093,58.23576],[6.70403,58.23206],[6.70891,58.22893],[6.70795,58.2274],[6.7111,58.2228],[6.71991,58.21992],[6.72479,58.22287],[6.72876,58.22352],[6.73006,58.22425],[6.73017,58.22484]],[[6.76401,58.23986],[6.7622,58.238],[6.76098,58.23818],[6.75982,58.23775],[6.75904,58.23626],[6.7574,58.23493],[6.75175,58.23544],[6.75017,58.2345],[6.75027,58.23376],[6.74836,58.23293],[6.74249,58.23323],[6.74101,58.23301],[6.73997,58.23212],[6.73581,58.23039],[6.73341,58.22511],[6.73125,58.22528],[6.73017,58.22484]],[[6.79963,58.24217],[6.79508,58.2408],[6.78806,58.23966],[6.78403,58.23785],[6.78359,58.23626],[6.78197,58.23539],[6.77957,58.23477],[6.77499,58.23498],[6.7683,58.23256],[6.76865,58.2299],[6.76537,58.22904],[6.76604,58.22786],[6.76394,58.2265],[6.76044,58.22654],[6.75883,58.22616],[6.75222,58.22395],[6.74984,58.2219],[6.74623,58.22135],[6.74559,58.22071],[6.74594,58.21895],[6.7417,58.21591],[6.73982,58.21377],[6.73706,58.21346],[6.7327,58.21404]],[[6.51331,58.22334],[6.51403,58.22491],[6.51443,58.22342]],[[6.79963,58.24217],[6.80591,58.24345],[6.81099,58.2451]],[[6.66488,58.23369],[6.66294,58.23379],[6.66358,58.23429],[6.66362,58.23577],[6.66685,58.23456],[6.66488,58.23369]],[[6.55731,58.23234],[6.55893,58.23142],[6.55944,58.22996],[6.55949,58.22907],[6.55807,58.22917]],[[6.52179,58.22391],[6.52219,58.23002],[6.52368,58.22937],[6.52466,58.22937],[6.5249,58.22832],[6.52603,58.22774],[6.52827,58.22815],[6.53031,58.22578],[6.53116,58.22611],[6.53107,58.22702],[6.53215,58.22867]],[[6.55345,58.22937],[6.55454,58.23024],[6.55488,58.23135],[6.55639,58.23242],[6.55731,58.23234]],[[6.53156,58.22891],[6.53246,58.22923],[6.53212,58.22979],[6.53264,58.23033],[6.53197,58.2314],[6.53695,58.23171]],[[6.51337,58.22988],[6.51594,58.2312],[6.52378,58.23208],[6.52462,58.23169],[6.52489,58.23009],[6.52767,58.23071],[6.52825,58.23035],[6.52787,58.22933],[6.52951,58.23024],[6.52941,58.22901],[6.53156,58.22891]],[[6.55319,58.22938],[6.55334,58.23102],[6.55457,58.23241],[6.55667,58.23342],[6.55685,58.23429]],[[6.50824,58.223],[6.50757,58.22502],[6.50418,58.22527],[6.50239,58.22669],[6.50319,58.22794],[6.50459,58.22798],[6.50459,58.22893],[6.50218,58.23021],[6.50107,58.2287],[6.49973,58.22882],[6.49906,58.22975],[6.49948,58.23081],[6.50107,58.23073],[6.50001,58.2319],[6.50133,58.23203],[6.50204,58.23045],[6.50347,58.23093],[6.50276,58.23163],[6.50376,58.23192],[6.50749,58.23128],[6.50968,58.23146],[6.51315,58.22989]],[[6.55685,58.23429],[6.55777,58.23597],[6.55805,58.2345],[6.55902,58.23502],[6.56055,58.23471],[6.56099,58.23394],[6.56,58.23244],[6.563,58.23083],[6.56661,58.2269]],[[6.53695,58.23171],[6.53819,58.23192],[6.53805,58.23243],[6.53352,58.23238],[6.53345,58.23351],[6.53185,58.23448]],[[6.62046,58.24123],[6.6252,58.24136],[6.63111,58.24213],[6.63301,58.24085],[6.63505,58.2402],[6.63626,58.24019],[6.64182,58.23677]],[[6.76401,58.23986],[6.76421,58.24029],[6.76859,58.24101],[6.76951,58.24244],[6.77118,58.24323],[6.7773,58.24417],[6.77869,58.24528],[6.77986,58.24464],[6.7842,58.24434],[6.78523,58.24467],[6.78526,58.24549],[6.78388,58.2466],[6.78413,58.24772],[6.78471,58.24814],[6.78699,58.24804],[6.78825,58.24903],[6.7891,58.25227],[6.79096,58.25375],[6.79315,58.25391],[6.79752,58.25271],[6.80313,58.25417],[6.80584,58.25404],[6.80882,58.25446]],[[6.52051,58.23388],[6.51956,58.23378],[6.51824,58.23447],[6.51693,58.23591],[6.5209,58.23563],[6.52107,58.23428],[6.52051,58.23388]],[[6.53185,58.23448],[6.53074,58.23468],[6.52942,58.23288],[6.52846,58.23245],[6.52686,58.23272],[6.52254,58.2357],[6.52386,58.23612],[6.52617,58.23778],[6.52936,58.2381],[6.53007,58.23856],[6.52885,58.23873]],[[6.55508,58.24166],[6.55586,58.241],[6.55686,58.24127],[6.56041,58.2402],[6.56183,58.24117],[6.56327,58.24139],[6.56735,58.241],[6.57439,58.24111],[6.5818,58.24006],[6.59435,58.23897],[6.59603,58.23808],[6.60102,58.23713],[6.60371,58.23755],[6.60852,58.23721],[6.6118,58.23767],[6.61245,58.23526],[6.61458,58.23412],[6.61909,58.23338],[6.62098,58.23099],[6.62199,58.23057]],[[6.57601,58.244],[6.58131,58.24306],[6.58389,58.24292],[6.58717,58.24353],[6.59047,58.24261],[6.59457,58.24278],[6.59937,58.24202],[6.60392,58.24212],[6.60784,58.24159],[6.61139,58.24194],[6.61557,58.24098],[6.61723,58.24138],[6.62046,58.24123]],[[6.67637,58.2499],[6.67727,58.24944],[6.67708,58.24866],[6.67449,58.24976],[6.67475,58.24889],[6.67428,58.24875],[6.67126,58.24965],[6.67096,58.25113],[6.67637,58.2499]],[[6.56943,58.24486],[6.57383,58.24475]],[[6.67081,58.24764],[6.66933,58.24751],[6.6653,58.24884],[6.66355,58.25017],[6.66405,58.25126],[6.66922,58.25096],[6.67081,58.24764]],[[6.53468,58.2438],[6.54936,58.24195],[6.55508,58.24166]],[[6.80882,58.25446],[6.81173,58.25555],[6.81246,58.25622],[6.81491,58.25618],[6.81634,58.25736],[6.81572,58.2582],[6.81409,58.25898],[6.81368,58.26071],[6.8149,58.26231],[6.81724,58.26249]],[[6.50346,58.24022],[6.5059,58.24024],[6.50695,58.23955],[6.50685,58.23788],[6.50813,58.23787],[6.50999,58.23727],[6.5107,58.23763],[6.51302,58.23741],[6.5121,58.23686],[6.51049,58.23685],[6.5113,58.23449],[6.50939,58.23434],[6.50725,58.23543],[6.50483,58.23589],[6.50094,58.23565],[6.4996,58.23587],[6.49946,58.23656],[6.49795,58.23617],[6.49618,58.23645],[6.49904,58.24123],[6.50091,58.24164],[6.50346,58.24022]],[[6.56526,58.24617],[6.56705,58.24512],[6.56943,58.24486]],[[6.55387,58.24672],[6.55841,58.24558],[6.56155,58.24608],[6.56304,58.24569],[6.56526,58.24617]],[[6.52885,58.23873],[6.5259,58.23844],[6.52538,58.23865],[6.5256,58.23933],[6.52374,58.23969],[6.5232,58.24126],[6.524,58.24267],[6.52108,58.24356],[6.52118,58.24431],[6.52297,58.24401],[6.5253,58.24432],[6.52819,58.24353],[6.52925,58.24393],[6.52786,58.24491],[6.52902,58.24542],[6.53204,58.24487],[6.53468,58.2438]],[[6.50914,58.24265],[6.51007,58.24269],[6.51054,58.24317],[6.51305,58.24224],[6.5153,58.24235],[6.51531,58.24169],[6.51209,58.24153],[6.51094,58.24016],[6.50887,58.24055],[6.50332,58.24299],[6.5039,58.24459],[6.50598,58.24434],[6.50914,58.24265]],[[6.81099,58.2451],[6.81491,58.24639],[6.81504,58.24778],[6.81685,58.24956],[6.81825,58.2499],[6.82459,58.25003],[6.82985,58.2516],[6.84057,58.2568],[6.84427,58.2591],[6.84832,58.2605],[6.85428,58.26214],[6.86585,58.26409],[6.87764,58.26777],[6.88322,58.26892],[6.8892,58.27134]],[[6.88967,58.27504],[6.88786,58.2734],[6.88884,58.27317]],[[6.66199,58.25891],[6.66228,58.2576],[6.66008,58.25872],[6.65972,58.25797],[6.65839,58.25791],[6.65688,58.26023],[6.65746,58.26141],[6.65842,58.26125],[6.66199,58.25891]],[[6.88347,58.27808],[6.88289,58.27707],[6.8834,58.27621],[6.8877,58.27554],[6.88951,58.27575]],[[6.55152,58.24723],[6.55022,58.24807],[6.54447,58.2481],[6.53869,58.25044],[6.5339,58.2503],[6.53191,58.25112],[6.53009,58.2509],[6.52958,58.2505],[6.53005,58.24945],[6.53171,58.24935],[6.53245,58.24859],[6.5309,58.24848],[6.52757,58.24912],[6.52568,58.24987],[6.52624,58.25071],[6.52793,58.25151],[6.52707,58.25345],[6.52612,58.25347]],[[6.81877,58.26253],[6.82187,58.26166],[6.82475,58.26159],[6.83111,58.25917],[6.83487,58.26068],[6.83941,58.25963],[6.84157,58.26069],[6.84028,58.26129],[6.84103,58.26227],[6.84167,58.26258],[6.8441,58.26216],[6.84289,58.26339],[6.84464,58.26396],[6.84581,58.26393],[6.84645,58.26533],[6.84804,58.26578],[6.85221,58.26542],[6.85473,58.26608],[6.85575,58.26589],[6.86068,58.26779],[6.86087,58.26863],[6.85999,58.26973],[6.86123,58.27052],[6.86325,58.27045],[6.86431,58.27094],[6.86584,58.27105],[6.87221,58.27008],[6.8724,58.27076],[6.8748,58.27154],[6.87707,58.27321],[6.876,58.27596],[6.87907,58.27767],[6.88347,58.27808]],[[6.51399,58.25396],[6.51248,58.25377],[6.51105,58.25415],[6.51086,58.25475],[6.5138,58.2548],[6.51441,58.25451],[6.51399,58.25396]],[[6.52117,58.2588],[6.52173,58.25817],[6.5215,58.25617],[6.52008,58.25512],[6.52001,58.25444],[6.52349,58.25369],[6.52147,58.25357],[6.5213,58.25233],[6.52285,58.25221],[6.52438,58.25337],[6.52612,58.25347]],[[6.51745,58.25993],[6.51749,58.26096],[6.51811,58.26103],[6.52117,58.2588]],[[6.45727,58.26471],[6.45743,58.26262],[6.45565,58.2619],[6.45443,58.26186],[6.45283,58.2606],[6.45166,58.26117],[6.45449,58.26276],[6.45397,58.2632],[6.45205,58.26323],[6.44865,58.26221],[6.44557,58.26207],[6.44205,58.26287],[6.44067,58.26359]],[[6.46217,58.26504],[6.46258,58.26314],[6.45991,58.26251],[6.45826,58.263],[6.45975,58.26488]],[[6.46447,58.2652],[6.46755,58.26241],[6.47054,58.26161],[6.47177,58.26198],[6.47177,58.26034],[6.4757,58.25668],[6.48142,58.25547],[6.48261,58.25551],[6.48355,58.25625],[6.48729,58.25569],[6.49198,58.25577],[6.49267,58.25537],[6.4924,58.25446],[6.49516,58.25383],[6.49858,58.25419],[6.49973,58.25531],[6.50259,58.25629],[6.50363,58.25619],[6.50454,58.25513],[6.50696,58.25481],[6.50934,58.25666],[6.50916,58.25793],[6.51168,58.25782],[6.51607,58.25586],[6.51759,58.25814],[6.51745,58.25993]],[[6.64894,58.27747],[6.64966,58.2761],[6.64805,58.27287],[6.64868,58.27128],[6.64759,58.27109],[6.64582,58.27146],[6.64446,58.27073],[6.64471,58.26947],[6.64735,58.26612],[6.64699,58.26417],[6.65715,58.25677],[6.65832,58.255],[6.65922,58.25124],[6.66298,58.24856],[6.66304,58.24634],[6.66678,58.24171],[6.66724,58.24037],[6.66602,58.23987],[6.66479,58.24024],[6.66101,58.23939],[6.65795,58.24007],[6.6568,58.23945],[6.65709,58.23846],[6.65428,58.23844],[6.65223,58.23733],[6.65139,58.2377],[6.65161,58.23943],[6.64995,58.23986],[6.6495,58.23799],[6.65005,58.23739],[6.64855,58.23591],[6.64818,58.23398],[6.64746,58.23365],[6.64686,58.23424],[6.64709,58.23634],[6.64586,58.23608],[6.64547,58.23495],[6.64369,58.23414],[6.64288,58.23538],[6.644,58.23577],[6.64182,58.23677]],[[6.67176,58.27897],[6.67042,58.27717],[6.66333,58.27326],[6.66329,58.27188],[6.65899,58.26721],[6.65687,58.26577],[6.65757,58.26445],[6.65865,58.26381],[6.6593,58.26404],[6.65817,58.26585],[6.65926,58.26671],[6.66031,58.26601],[6.66225,58.26208],[6.66295,58.26181],[6.66482,58.2619],[6.66534,58.26227],[6.66728,58.26199],[6.66867,58.26229],[6.66868,58.26093],[6.67082,58.2581],[6.67144,58.25788],[6.67411,58.25816],[6.67573,58.25753],[6.67713,58.25856],[6.67617,58.25981],[6.67702,58.26262],[6.67818,58.26327],[6.6829,58.26363],[6.6838,58.2634],[6.68363,58.26167],[6.68197,58.25828],[6.68297,58.25722],[6.68626,58.25622],[6.68749,58.25308],[6.69184,58.25068],[6.69534,58.25187],[6.69743,58.25421],[6.70042,58.25493],[6.70097,58.25625],[6.70353,58.25628],[6.69792,58.25149],[6.69684,58.24987],[6.69509,58.24908],[6.69331,58.24741],[6.69325,58.24612],[6.6947,58.24312],[6.69807,58.24038],[6.69829,58.23893],[6.70124,58.23674],[6.70093,58.23576]],[[6.45975,58.26488],[6.46126,58.26593],[6.46217,58.26504]],[[6.46447,58.2652],[6.46427,58.26648],[6.46502,58.26673]],[[6.45993,58.26838],[6.4603,58.26921],[6.4614,58.26924]],[[6.4614,58.26924],[6.46274,58.26959]],[[6.45727,58.26471],[6.45632,58.26568],[6.45664,58.2663],[6.46054,58.26651],[6.45993,58.26838]],[[6.46274,58.26959],[6.46904,58.26978]],[[6.46904,58.26978],[6.47111,58.27035],[6.47237,58.26886],[6.46502,58.26673]],[[6.66222,58.29267],[6.65973,58.2899],[6.65883,58.28778],[6.66313,58.28723],[6.66644,58.28442],[6.66937,58.28429],[6.67044,58.2838],[6.67026,58.28276],[6.67181,58.28231],[6.67264,58.28119],[6.67176,58.27897]],[[6.38014,58.27567],[6.37666,58.27575],[6.38022,58.27675],[6.38014,58.27567]],[[6.44067,58.26359],[6.44035,58.26423],[6.44217,58.26483],[6.44072,58.26603],[6.43882,58.26643],[6.43853,58.26762],[6.43626,58.26934],[6.43468,58.26953],[6.43312,58.269],[6.43351,58.26824],[6.43648,58.26738],[6.43609,58.26635],[6.42938,58.26718],[6.42897,58.26762],[6.43004,58.26798],[6.42912,58.26822],[6.42522,58.26732],[6.41999,58.26784],[6.41889,58.26836],[6.41618,58.26772],[6.41095,58.26763],[6.40556,58.26964],[6.40385,58.27085],[6.39456,58.27103],[6.39246,58.27149],[6.38745,58.27343],[6.38497,58.27389],[6.38447,58.27432],[6.38537,58.27553],[6.38249,58.2742],[6.38094,58.27493],[6.38089,58.27574],[6.38212,58.27719],[6.38423,58.27757]],[[6.64894,58.27747],[6.64881,58.28019],[6.65019,58.28091],[6.65142,58.28489],[6.65451,58.28475],[6.65523,58.2842],[6.65718,58.28458],[6.65003,58.28849],[6.6493,58.28945],[6.65166,58.29019],[6.6508,58.29141],[6.64883,58.29178],[6.64686,58.29422],[6.64779,58.2954],[6.65246,58.29637]],[[6.65246,58.29637],[6.65473,58.29611],[6.656,58.29491],[6.65885,58.29484],[6.66058,58.29398],[6.66238,58.29503],[6.66172,58.29387],[6.66275,58.29327],[6.66222,58.29267]],[[6.38423,58.27757],[6.38981,58.27858],[6.3939,58.278],[6.39501,58.2785],[6.3942,58.27975],[6.39499,58.28035],[6.39586,58.27987],[6.39738,58.27972],[6.39784,58.28035],[6.39932,58.28077],[6.40218,58.28089],[6.40261,58.28142],[6.40482,58.28217],[6.41071,58.28276],[6.41344,58.28371],[6.41724,58.28354]],[[6.41724,58.28354],[6.42207,58.28445],[6.42267,58.28591],[6.42541,58.28612]],[[6.43749,58.29056],[6.43191,58.28883],[6.42599,58.2881],[6.42699,58.28712],[6.42541,58.28612]],[[6.66034,58.3024],[6.6617,58.30081],[6.66144,58.29878],[6.6619,58.29841],[6.66355,58.29831],[6.66415,58.29978],[6.66564,58.3004],[6.66438,58.30198],[6.66189,58.30263],[6.66184,58.30392],[6.66332,58.30469],[6.66644,58.30516],[6.67113,58.30318],[6.67235,58.30207],[6.67425,58.30258],[6.67199,58.30555],[6.67018,58.30601],[6.66971,58.30683]],[[6.66034,58.3024],[6.65873,58.30351],[6.65918,58.31293],[6.65874,58.31532],[6.65662,58.31916],[6.65832,58.31968],[6.65975,58.32101],[6.66131,58.32121],[6.66237,58.32047],[6.66424,58.32051],[6.66512,58.31979],[6.66511,58.31772],[6.66735,58.31732],[6.66774,58.31689],[6.66712,58.31605],[6.66493,58.31586],[6.66437,58.31435],[6.66502,58.31322],[6.66697,58.31242],[6.66731,58.31174],[6.66377,58.30996],[6.66351,58.30926],[6.66938,58.3076],[6.66971,58.30683]],[[6.88107,58.04973],[6.88005,58.04969],[6.87975,58.05054],[6.87841,58.05103],[6.8787,58.05138],[6.88068,58.05088],[6.88107,58.04973]],[[6.69374,58.06809],[6.69777,58.06735]],[[6.68122,58.0695],[6.69374,58.06809]],[[6.68122,58.0695],[6.67865,58.07036],[6.6709,58.07459],[6.66836,58.07545]],[[6.65434,58.07642],[6.65226,58.0759],[6.65066,58.07466]],[[6.59134,58.08944],[6.59034,58.09052],[6.59087,58.09141]],[[6.92226,58.13272],[6.92269,58.13273]],[[6.89777,58.1382],[6.89107,58.13993],[6.88961,58.14148],[6.88939,58.14277]],[[6.60468,58.13917],[6.60354,58.13909]],[[6.80345,58.1579],[6.80412,58.15717]],[[6.74239,58.17259],[6.74303,58.1718],[6.74271,58.1712]],[[6.68201,58.18939],[6.68228,58.18866]],[[6.68101,58.18933],[6.68139,58.18975]],[[6.62055,58.20388],[6.62109,58.2037]],[[6.54344,58.2226],[6.54351,58.22244]],[[6.55848,58.22747],[6.55869,58.22657]],[[6.55833,58.22635],[6.55869,58.22657]],[[6.53334,58.22468],[6.53254,58.2258],[6.53279,58.22662]],[[6.55848,58.22747],[6.55762,58.22849],[6.55807,58.22917]],[[6.55319,58.22938],[6.55345,58.22937]],[[6.53215,58.22867],[6.53373,58.22817],[6.53279,58.22662]],[[6.66458,58.23751],[6.6634,58.23733],[6.66279,58.23836],[6.66336,58.23875],[6.66488,58.23847],[6.66458,58.23751]],[[6.51315,58.22989],[6.51337,58.22988]],[[6.57383,58.24475],[6.57601,58.244]],[[6.55387,58.24672],[6.55152,58.24723]],[[6.88951,58.27575],[6.88967,58.27504]],[[6.98533,57.99923],[6.98197,58.00186],[6.98317,58.00374],[6.98558,58.00368],[6.98858,58.00216],[6.98966,58.00097],[6.98917,57.99942]],[[6.98758,58.00989],[6.98672,58.00876],[6.98587,58.00876],[6.98474,58.00936],[6.98758,58.00989]],[[7.001,58.00923],[6.99775,58.00855],[6.99784,58.00654],[6.99863,58.00587],[7.00074,58.00625]],[[7.00074,58.00625],[6.99977,58.0077],[7.00105,58.00833]],[[6.99898,57.99931],[6.99924,58.00076],[7.00192,58.00089]],[[7.001,58.00266],[6.99912,58.00239],[6.99816,58.00311],[6.99832,58.00349],[6.99973,58.00384],[6.99974,58.00434],[6.99786,58.00532],[6.99481,58.00544],[6.99337,58.00282],[6.99263,58.00255],[6.98793,58.00579],[6.98852,58.0063],[6.99101,58.00659],[6.99246,58.00603],[6.9933,58.00669],[6.99333,58.00771],[6.99627,58.01],[6.99808,58.00965],[7.00054,58.01093]],[[6.99741,58.01809],[6.99901,58.01643],[6.99919,58.01446],[6.99791,58.01382],[6.99286,58.01357],[6.99175,58.01433],[6.99121,58.01393]],[[6.99121,58.01393],[6.99078,58.01323],[6.98912,58.01314],[6.98789,58.01446],[6.98692,58.01448],[6.98717,58.01233],[6.98519,58.01229],[6.98046,58.01527],[6.98087,58.01573],[6.97993,58.01748],[6.98045,58.01817],[6.98137,58.01834],[6.98278,58.01771],[6.98383,58.01789],[6.98484,58.01933],[6.98629,58.01826],[6.98926,58.0184],[6.99061,58.02039],[6.99379,58.02152],[6.99626,58.0196],[6.99697,58.0195],[6.9981,58.02052],[6.99711,58.0216],[6.99888,58.02251],[6.99758,58.02377],[6.99857,58.02409],[6.99952,58.02357],[7.00015,58.02032]],[[7.00015,58.02032],[6.99873,58.02021],[6.99925,58.01937],[6.99789,58.01912],[6.99741,58.01809]],[[6.98256,58.02338],[6.98042,58.02327],[6.97933,58.02405],[6.98243,58.02527],[6.9832,58.0246],[6.98256,58.02338]],[[6.96731,58.02736],[6.97033,58.02577],[6.97133,58.02445],[6.96831,58.02541],[6.96691,58.02693],[6.96721,58.02735]],[[6.97888,58.02809],[6.97917,58.02682],[6.97465,58.02481],[6.97375,58.02518],[6.97395,58.02588],[6.97186,58.02608],[6.96955,58.0275]],[[6.98693,58.0286],[6.98834,58.02701],[6.98737,58.02463],[6.98652,58.02437],[6.98416,58.0249],[6.98348,58.02569],[6.98583,58.02853]],[[6.99519,58.02912],[6.99419,58.02906]],[[6.99926,58.02938],[6.99876,58.02845],[6.99605,58.02918]],[[6.98583,58.02853],[6.98693,58.0286]],[[6.99519,58.02912],[6.9957,58.03002],[6.99652,58.02969],[6.99605,58.02918]],[[6.96955,58.0275],[6.96965,58.02927],[6.97155,58.02992],[6.97552,58.02941],[6.97617,58.0303],[6.98008,58.02996],[6.98094,58.02949],[6.98091,58.02904],[6.9788,58.02954],[6.97699,58.02928],[6.97888,58.02809]],[[6.96737,58.03268],[6.96712,58.03241],[6.96399,58.03305],[6.96142,58.03416],[6.96072,58.03531],[6.96189,58.03557],[6.96454,58.03459],[6.96737,58.03268]],[[6.99419,58.02906],[6.9929,58.02954],[6.99054,58.02901],[6.98908,58.02913],[6.98693,58.02984],[6.98674,58.03044],[6.98863,58.03181],[6.98827,58.0323],[6.98738,58.0323],[6.9856,58.0307],[6.98368,58.03057],[6.98216,58.03107],[6.98076,58.03518],[6.98509,58.03661],[6.98298,58.03772],[6.98307,58.03804],[6.9858,58.0375]],[[6.98403,58.04066],[6.98556,58.04012],[6.98467,58.03891],[6.98605,58.03778],[6.9858,58.0375]],[[6.9402,58.05377],[6.94032,58.05327]],[[6.98403,58.04066],[6.98216,58.0397],[6.98113,58.03733],[6.97665,58.03704],[6.97552,58.03739],[6.9747,58.03854],[6.97555,58.03972],[6.97702,58.04029],[6.9789,58.04027],[6.97986,58.04062],[6.97788,58.04299],[6.97897,58.04411],[6.97692,58.04529],[6.97482,58.04567],[6.97457,58.04607],[6.9784,58.0479],[6.98114,58.04816],[6.98087,58.04929],[6.98197,58.0498],[6.98693,58.05039],[6.98933,58.04993]],[[6.9624,58.05214],[6.96266,58.05098],[6.96179,58.05],[6.95827,58.04881],[6.95572,58.04963],[6.95381,58.04906],[6.9514,58.04936],[6.94919,58.05106],[6.94933,58.05219]],[[6.94111,58.04979],[6.94024,58.04979],[6.93859,58.05081],[6.94031,58.05326]],[[6.94933,58.05219],[6.94887,58.05294],[6.94602,58.0542],[6.94495,58.05115],[6.94301,58.05018],[6.94111,58.04979]],[[6.93454,58.0567],[6.93237,58.05604],[6.93024,58.0568],[6.93374,58.05769],[6.93445,58.05753],[6.93454,58.0567]],[[7.00266,58.0584],[6.99925,58.05793],[6.99715,58.0581],[6.99808,58.05733],[6.99763,58.0562],[6.99909,58.05567],[6.99646,58.05464],[6.99492,58.0553],[6.99661,58.05599],[6.99505,58.05645],[6.99501,58.05842],[6.99075,58.06071],[6.99075,58.06159],[6.99186,58.06279]],[[6.93987,58.05856],[6.93961,58.05889],[6.94223,58.05975]],[[6.94223,58.05975],[6.94393,58.06064],[6.94667,58.06059],[6.94718,58.06017],[6.94636,58.05902],[6.94706,58.05759],[6.94584,58.0553],[6.94482,58.05581],[6.94537,58.05734],[6.94229,58.05742],[6.94164,58.0579],[6.94203,58.05855],[6.93987,58.05856]],[[6.9402,58.05377],[6.9381,58.0543],[6.93693,58.05731],[6.93797,58.05835],[6.93556,58.05881],[6.93508,58.05937],[6.938,58.06149]],[[6.938,58.06149],[6.93841,58.06169]],[[6.99186,58.06279],[6.99384,58.06381],[6.99567,58.06637],[6.99714,58.06674],[6.99924,58.06661],[7.00193,58.06542]],[[6.9379,58.06392],[6.93986,58.06396],[6.94093,58.0635],[6.93928,58.0629],[6.93813,58.06291]],[[6.93754,58.06553],[6.93373,58.06572],[6.9337,58.06615],[6.93496,58.06661],[6.93724,58.06686]],[[6.93724,58.06686],[6.94062,58.06681],[6.93942,58.06655],[6.93861,58.06549],[6.93754,58.06553]],[[6.93586,58.07046],[6.93469,58.07027],[6.93381,58.06953],[6.93148,58.06959],[6.93139,58.07018]],[[6.94376,58.07097],[6.94239,58.06967],[6.94498,58.06891],[6.94786,58.06866],[6.95175,58.06905],[6.95672,58.07133],[6.95668,58.07019],[6.95904,58.06955],[6.95941,58.06882],[6.95883,58.06859],[6.95576,58.06885],[6.95447,58.06771],[6.95186,58.06658],[6.94877,58.06649],[6.94562,58.06569],[6.94449,58.06467],[6.94536,58.06354],[6.94404,58.06328],[6.94189,58.06348],[6.93841,58.06169]],[[6.98684,58.0737],[6.98886,58.07178],[6.98875,58.07071],[6.98816,58.07044],[6.98396,58.06975],[6.97692,58.07162],[6.97591,58.07241],[6.97511,58.07197],[6.97711,58.07062],[6.97654,58.07007],[6.97477,58.07007],[6.97348,58.07068],[6.97259,58.07033],[6.97176,58.06903],[6.97383,58.06867],[6.97405,58.06754],[6.9761,58.0668],[6.97579,58.06637],[6.97373,58.06605],[6.97312,58.06558],[6.97506,58.06269],[6.97274,58.05953],[6.97452,58.05892],[6.97593,58.05764],[6.97594,58.05694],[6.97419,58.05522],[6.97274,58.05558],[6.96904,58.05546],[6.9675,58.05462],[6.96315,58.05566],[6.96068,58.05347],[6.9624,58.05214]],[[7.0008,58.05415],[6.99746,58.05439],[6.99021,58.0533],[6.99362,58.05305],[6.99695,58.05352],[6.99972,58.05281],[7.00228,58.05281]],[[7.00193,58.05216],[6.99834,58.05227],[6.99355,58.0518],[6.99348,58.05115],[6.99065,58.05098],[6.9897,58.05066],[6.98933,58.04993]],[[6.93139,58.07018],[6.93298,58.07046],[6.93428,58.07157],[6.93614,58.0717]],[[6.98684,58.0737],[6.98696,58.07477],[6.99003,58.07589],[6.98951,58.07724],[6.99085,58.07871]],[[6.99828,58.07925],[6.99776,58.07843],[6.99677,58.07831],[6.99339,58.07872],[6.99281,58.07908],[6.99085,58.07871]],[[6.93393,58.08143],[6.93739,58.08137],[6.93781,58.081],[6.93714,58.08044],[6.93818,58.08009],[6.93978,58.08032],[6.9394,58.08122],[6.94141,58.08196],[6.94263,58.0819],[6.9428,58.08134],[6.94406,58.08085],[6.9457,58.08074],[6.95123,58.08299],[6.95262,58.08295],[6.95517,58.0817],[6.95841,58.08212],[6.95882,58.08275],[6.96073,58.08327],[6.96473,58.08239],[6.9592,58.08113],[6.95907,58.08064],[6.96026,58.08034],[6.95882,58.07979],[6.94579,58.07714],[6.9433,58.07704],[6.94054,58.07642],[6.94002,58.07591],[6.94099,58.07477],[6.93894,58.07401],[6.93915,58.07333],[6.94161,58.07279],[6.94466,58.073],[6.94614,58.07391],[6.94785,58.07346],[6.94784,58.07283],[6.9461,58.07172],[6.94376,58.07097]],[[6.93261,58.08723],[6.93445,58.08682],[6.93297,58.08564]],[[6.99828,58.07925],[7.00121,58.08093]],[[6.93107,58.09403],[6.93637,58.09488],[6.93812,58.09664],[6.93775,58.09785],[6.93948,58.09972],[6.94131,58.09953],[6.94107,58.09861],[6.94238,58.09805],[6.94325,58.09821],[6.9436,58.09875],[6.94481,58.09845],[6.94497,58.09805],[6.94301,58.09742],[6.94407,58.09693],[6.94808,58.09699],[6.9498,58.09757],[6.95082,58.09842],[6.95203,58.10129],[6.95423,58.10426],[6.95331,58.10532],[6.95103,58.10551],[6.95085,58.10582],[6.95313,58.10711],[6.95543,58.10646],[6.95666,58.10496],[6.95583,58.10319],[6.95858,58.10078],[6.95814,58.09998],[6.95543,58.09892],[6.95391,58.0974],[6.95138,58.09635],[6.95324,58.09463],[6.94928,58.09269],[6.94571,58.09222],[6.93639,58.08834],[6.93657,58.08775],[6.93804,58.08727],[6.93845,58.08637],[6.93732,58.08588],[6.93507,58.08603],[6.93319,58.08468]],[[6.96166,58.11721],[6.95873,58.11627],[6.9599,58.11534],[6.96218,58.11514],[6.96194,58.11473],[6.95435,58.11282],[6.94978,58.11364],[6.94898,58.11417],[6.94913,58.11462],[6.95174,58.11463],[6.95261,58.11664]],[[6.96166,58.11721],[6.9621,58.11791],[6.96005,58.11825],[6.95909,58.11909],[6.96113,58.11969],[6.9617,58.12089],[6.96286,58.12128],[6.9671,58.1208],[6.96771,58.12018],[6.96747,58.11933],[6.96881,58.11856],[6.97107,58.1192],[6.96998,58.12084],[6.96891,58.12124],[6.96957,58.12187],[6.97224,58.12178],[6.97397,58.12266],[6.97805,58.12312],[6.98163,58.12275],[6.98711,58.12284],[6.99215,58.12214],[6.9945,58.12218],[7.00048,58.1234]],[[6.92412,58.12454],[6.94065,58.12351],[6.94559,58.1226],[6.94737,58.12263],[6.9482,58.12139],[6.95004,58.12053],[6.95261,58.11664]],[[6.99378,58.13416],[6.98833,58.13071],[6.98517,58.13146],[6.98262,58.13082],[6.98218,58.13007],[6.98145,58.12998],[6.9798,58.13149]],[[6.99378,58.13416],[6.99523,58.13475],[6.99768,58.13462],[7.00087,58.13694]],[[6.92269,58.13273],[6.92369,58.13248],[6.92369,58.13165],[6.92514,58.1311],[6.92779,58.13077],[6.93007,58.12972],[6.93428,58.12902],[6.94081,58.12882],[6.94693,58.12944],[6.94981,58.12939],[6.95149,58.12827],[6.95516,58.12798],[6.95779,58.12802],[6.96387,58.129],[6.9705,58.12856],[6.97154,58.12878],[6.97217,58.13017],[6.97386,58.13107],[6.97881,58.13194],[6.9798,58.13149]],[[6.92555,58.04806],[6.92548,58.04696],[6.92738,58.04634],[6.92966,58.04458],[6.93127,58.04399],[6.93358,58.04192]],[[6.92942,58.05514],[6.93047,58.05298]],[[6.93183,58.08077],[6.93165,58.08041],[6.92915,58.08039],[6.92797,58.07977],[6.92689,58.08011],[6.92629,58.08132],[6.92992,58.08143],[6.93183,58.08077]],[[6.93393,58.08143],[6.93244,58.0818],[6.93141,58.08266],[6.93175,58.0838],[6.93319,58.08468]],[[6.93297,58.08564],[6.92994,58.08549],[6.92934,58.08577],[6.92957,58.08629],[6.93261,58.08723]],[[6.96721,58.02735],[6.96731,58.02736]],[[6.99926,58.02938],[7.00146,58.0317]],[[6.96503,58.04979],[6.96428,58.04928],[6.96316,58.0494],[6.96303,58.04875],[6.9618,58.04903],[6.96199,58.04967],[6.96414,58.05038],[6.96479,58.05037],[6.96503,58.04979]],[[6.94031,58.05326],[6.94032,58.05327]],[[6.93813,58.06291],[6.93581,58.06346],[6.9379,58.06392]],[[6.93586,58.07046],[6.9364,58.07055]],[[6.93614,58.0717],[6.93687,58.07094],[6.9364,58.07055]]]}}]}