{"type":"FeatureCollection","features":[{"type":"Feature","properties":{},"geometry":{"type":"MultiLineString","coordinates":[[[7.45,58.00294],[7.44912,58.00269],[7.44884,58.00164],[7.44775,58.00129],[7.44581,58.00189],[7.44421,58.00364],[7.44466,58.00386],[7.44599,58.00358],[7.44823,58.00275],[7.44757,58.00366],[7.44586,58.00419],[7.44681,58.00465],[7.44938,58.00373],[7.45,58.00294]],[[7.40447,58.00054],[7.40057,58.00089],[7.39927,58.00172],[7.40036,58.00215],[7.40404,58.0019],[7.40447,58.00054]],[[7.36268,57.99922],[7.35861,58.0003],[7.35781,58.00111]],[[7.35194,58.00172],[7.35225,58.00215],[7.35781,58.00111]],[[7.33518,58.00044],[7.3315,58.00045],[7.3315,58.00137],[7.33518,58.00044]],[[7.38445,58.00449],[7.38595,58.00454],[7.38596,58.00369],[7.3874,58.00292],[7.38612,58.0022],[7.38361,58.00356],[7.37938,58.00389],[7.38007,58.00475],[7.38239,58.00532],[7.38445,58.00449]],[[7.35194,58.00172],[7.35273,58.00096],[7.35128,58.00006],[7.3486,58.00036],[7.3448,57.99925]],[[7.32629,57.99835],[7.32935,58.00066],[7.32765,58.00182],[7.32929,58.00189],[7.32956,58.00236],[7.33212,58.00188],[7.33315,58.00231],[7.33384,58.00217],[7.33666,58.00072],[7.33587,58.00018],[7.33813,57.99972]],[[7.39796,58.00424],[7.40004,58.00317],[7.39961,58.00276],[7.39776,58.00272],[7.3971,58.00408],[7.39341,58.00434],[7.39292,58.00511],[7.39522,58.00676],[7.39738,58.00666],[7.39796,58.00424]],[[7.43369,58.00951],[7.43527,58.0087],[7.43356,58.00861],[7.43373,58.0079],[7.4367,58.00763],[7.43871,58.00614],[7.43024,58.00757],[7.4295,58.00793],[7.42969,58.0084],[7.42817,58.00887],[7.42927,58.00931],[7.43208,58.00914],[7.43268,58.00952],[7.43369,58.00951]],[[7.30943,58.00194],[7.30926,58.00119],[7.30845,58.00143],[7.30801,57.99944]],[[7.30698,57.99937],[7.30682,58.00039],[7.3053,58.00082],[7.30469,58.00167],[7.30943,58.00194]],[[7.34211,57.999],[7.34196,58.00104],[7.34112,58.0015],[7.33963,58.00112],[7.33971,58.00266],[7.3375,58.00279],[7.3368,58.00328],[7.33929,58.00347],[7.33897,58.00417],[7.34062,58.0044],[7.34082,58.00362],[7.34461,58.00223],[7.34995,58.00288]],[[7.34662,58.00578],[7.35037,58.00328],[7.34995,58.00288]],[[7.36218,58.00672],[7.36689,58.00449],[7.36785,58.0035],[7.36887,58.00325],[7.37138,58.00369],[7.37302,58.00347],[7.37159,58.00165],[7.3732,58.00039],[7.3728,57.99902]],[[7.36454,58.00686],[7.37304,58.00545],[7.37578,58.00606]],[[7.37657,58.00759],[7.37676,58.00692],[7.37578,58.00606]],[[7.41457,58.00987],[7.41056,58.00789],[7.40838,58.0081],[7.40646,58.00754],[7.40374,58.00828],[7.40271,58.00916]],[[7.42405,58.01044],[7.42269,58.00939],[7.42343,58.0084],[7.42622,58.00834],[7.4252,58.00759],[7.42212,58.00758],[7.42214,58.00828],[7.4163,58.00997]],[[7.37538,58.00791],[7.37534,58.00812]],[[7.41457,58.00987],[7.41297,58.01065],[7.4132,58.01126],[7.41518,58.01114],[7.4163,58.00997]],[[7.44127,58.01147],[7.43975,58.01218],[7.44015,58.01289],[7.44426,58.01288],[7.44442,58.01193],[7.44383,58.01162]],[[7.37503,58.00956],[7.37577,58.00882],[7.37534,58.00812]],[[7.38377,58.00893],[7.38204,58.00894],[7.38119,58.01043],[7.38523,58.00979],[7.38377,58.00893]],[[7.38967,58.01109],[7.38891,58.01067],[7.38746,58.01127],[7.3878,58.01211],[7.38712,58.01301],[7.38891,58.01259],[7.38967,58.01109]],[[7.20398,57.99993],[7.20591,58.00117],[7.20538,58.00162],[7.20669,58.00238]],[[7.20669,58.00238],[7.20793,58.00253],[7.20717,58.00214],[7.20781,58.00081],[7.20724,57.99989]],[[7.34662,58.00578],[7.34433,58.00665],[7.34431,58.00945],[7.34362,58.0096],[7.34195,58.00892],[7.34005,58.00926],[7.33976,58.00959],[7.34107,58.01078],[7.3389,58.0111],[7.33994,58.01161],[7.34384,58.01102],[7.34427,58.01162],[7.34637,58.01136],[7.34869,58.01211],[7.34853,58.01259],[7.34637,58.01219],[7.34415,58.01338]],[[7.19349,58.00159],[7.19203,58.00102],[7.19061,58.00111],[7.18962,58.00006],[7.18803,58.00002],[7.1867,58.0014],[7.18771,58.0014],[7.18848,58.00087],[7.18942,58.00123],[7.18773,58.00225],[7.1873,58.00349],[7.189,58.00452],[7.19035,58.00481],[7.19373,58.00427],[7.19444,58.00371],[7.19349,58.00159]],[[7.37299,58.01907],[7.37644,58.01819],[7.37968,58.01915],[7.38101,58.01728],[7.38341,58.01714],[7.38484,58.01796],[7.38843,58.018],[7.38894,58.01674],[7.39177,58.01506],[7.39029,58.01468],[7.39014,58.0143],[7.40077,58.01081],[7.40271,58.00916]],[[7.33217,58.01506],[7.33022,58.0152],[7.33068,58.01568],[7.32914,58.01611],[7.32902,58.01687],[7.33058,58.01686],[7.33219,58.01608],[7.33217,58.01506]],[[7.42405,58.01044],[7.42611,58.01115],[7.42606,58.0116],[7.42437,58.01202],[7.4231,58.01309],[7.42033,58.0142],[7.41603,58.01508],[7.41481,58.01409],[7.41291,58.0139],[7.41304,58.01521],[7.4106,58.01602],[7.40705,58.01657],[7.40536,58.01644],[7.40746,58.0153],[7.40816,58.0143],[7.41028,58.01411],[7.41135,58.01359],[7.41115,58.01198],[7.40828,58.0117],[7.40526,58.0109],[7.40584,58.01189],[7.40173,58.01232],[7.39928,58.01322],[7.39968,58.01353],[7.40324,58.01306],[7.40409,58.01334],[7.40397,58.01419],[7.40131,58.01414],[7.40052,58.01484],[7.40098,58.0153],[7.40234,58.01519],[7.40347,58.01574],[7.40339,58.01637],[7.39729,58.01891],[7.3953,58.0209],[7.4011,58.02005],[7.40594,58.01752],[7.40714,58.01794],[7.40722,58.01851],[7.40326,58.02135]],[[7.42051,58.02277],[7.42356,58.02245],[7.42661,58.0211],[7.4287,58.02143],[7.42952,58.02093],[7.42934,58.02019],[7.42851,58.01977],[7.42703,58.01997],[7.4262,58.02094],[7.4247,58.02094],[7.42403,58.01996],[7.42127,58.01993],[7.41725,58.01838],[7.41328,58.01744],[7.40889,58.01708],[7.40839,58.01881],[7.40559,58.02093],[7.4037,58.02159]],[[7.19814,58.01042],[7.19792,58.00987],[7.19907,58.00929]],[[7.34197,58.02004],[7.34429,58.01949],[7.34572,58.01961],[7.35031,58.01898],[7.35512,58.0169],[7.35534,58.01645],[7.3663,58.01375],[7.36757,58.01236],[7.37048,58.01195],[7.37503,58.00956]],[[7.35277,58.02084],[7.35571,58.01997],[7.35804,58.01821],[7.35406,58.01824],[7.34804,58.0202],[7.34824,58.02052],[7.35099,58.02093],[7.35277,58.02084]],[[7.34415,58.01338],[7.342,58.01504],[7.34162,58.01571],[7.34219,58.01654],[7.33949,58.01726],[7.33869,58.01891],[7.33673,58.02066],[7.33801,58.021],[7.34197,58.02004]],[[7.19907,58.00929],[7.20037,58.00851],[7.20231,58.00832],[7.20397,58.00741],[7.20118,58.00618],[7.20159,58.00398],[7.2002,58.0023],[7.19879,58.00178],[7.19554,58.0035],[7.19439,58.00444],[7.19431,58.00527],[7.19141,58.00678],[7.1938,58.0082],[7.19369,58.009],[7.19186,58.00878],[7.18969,58.00732],[7.1885,58.0071],[7.18766,58.0076],[7.19124,58.01007],[7.19214,58.01158],[7.19468,58.01298],[7.19981,58.01373],[7.20269,58.01358],[7.20278,58.01292],[7.20148,58.01196],[7.20179,58.01077],[7.20023,58.01029],[7.19814,58.01042]],[[7.45422,58.02118],[7.44865,58.02001],[7.44374,58.01814],[7.44455,58.01698],[7.44144,58.01649],[7.44106,58.01613],[7.44097,58.0154],[7.4426,58.01459],[7.44238,58.01429],[7.43955,58.01491],[7.4351,58.01464],[7.43379,58.01491],[7.42831,58.01827],[7.42856,58.01886],[7.42989,58.01851],[7.43067,58.01895],[7.43078,58.02052],[7.43221,58.02183],[7.43231,58.02321],[7.43105,58.02383],[7.426,58.02429],[7.42378,58.02606],[7.42399,58.02692],[7.42503,58.02767]],[[7.33005,58.02231],[7.3336,58.02197],[7.33583,58.02136],[7.33723,58.01834],[7.33421,58.01921],[7.33008,58.01963],[7.32949,58.01837],[7.3274,58.01966],[7.32878,58.0202],[7.32868,58.02087],[7.32767,58.02085],[7.3273,58.02023],[7.32538,58.02056],[7.32532,58.02111],[7.32688,58.02105],[7.32681,58.02153],[7.32841,58.02218],[7.33005,58.02231]],[[7.27205,58.01729],[7.27022,58.01706],[7.26938,58.01751],[7.27074,58.01874],[7.27205,58.01729]],[[7.42051,58.02277],[7.41255,58.02333],[7.4039,58.02712],[7.40525,58.02762],[7.40729,58.02728],[7.40839,58.02794],[7.41006,58.02749],[7.40963,58.02629],[7.41162,58.02549],[7.41622,58.02524],[7.41934,58.02558],[7.41957,58.02626],[7.41782,58.02621],[7.41299,58.02863],[7.40808,58.02887],[7.4064,58.02933],[7.40683,58.0297],[7.4102,58.02948],[7.41331,58.03004],[7.41701,58.02994],[7.41822,58.03034]],[[7.16858,58.0137],[7.16775,58.01333],[7.16521,58.01411],[7.16588,58.01532],[7.1683,58.01679],[7.16926,58.01568],[7.16858,58.0137]],[[7.33083,58.02615],[7.32859,58.02571],[7.32644,58.02677],[7.32835,58.02713],[7.33096,58.02665],[7.33083,58.02615]],[[7.30634,58.02399],[7.30513,58.02403],[7.30271,58.02498],[7.30223,58.02562],[7.30436,58.02639],[7.30528,58.02637],[7.30623,58.02516],[7.30527,58.02445],[7.30634,58.02399]],[[7.11578,58.01516],[7.11663,58.01442],[7.11639,58.01389],[7.11391,58.01298],[7.11444,58.01202],[7.11388,58.01105],[7.11165,58.01029],[7.11249,58.00914],[7.11128,58.00841],[7.11151,58.00727],[7.10895,58.00652]],[[7.42509,58.03454],[7.42429,58.03375],[7.42667,58.0341],[7.42824,58.03367],[7.42889,58.03311],[7.42724,58.03307],[7.42708,58.03271],[7.43099,58.03193],[7.43157,58.03107],[7.43033,58.03085],[7.42858,58.02985],[7.42684,58.02988],[7.42563,58.03032],[7.42332,58.02985],[7.42287,58.02944],[7.42395,58.02868],[7.4236,58.02835],[7.41995,58.02961],[7.41946,58.03029],[7.41822,58.03034]],[[7.43133,58.03584],[7.42786,58.03594],[7.42707,58.0366],[7.43001,58.03727],[7.43133,58.03584]],[[7.2246,58.02377],[7.22212,58.02383],[7.22154,58.02464],[7.22384,58.02443],[7.2246,58.02377]],[[7.2515,58.0262],[7.25148,58.02487],[7.25095,58.02467],[7.24977,58.0246],[7.24716,58.02551],[7.24718,58.02591],[7.24866,58.02603],[7.24866,58.02663],[7.24976,58.02695],[7.2515,58.0262]],[[7.30432,58.02974],[7.30259,58.02992],[7.30239,58.03039],[7.30479,58.03153],[7.30567,58.03112],[7.30412,58.03037],[7.30432,58.02974]],[[7.21403,58.02454],[7.21057,58.02472],[7.21018,58.02569],[7.21298,58.02649],[7.21451,58.02573],[7.21471,58.02491],[7.21403,58.02454]],[[7.23173,58.0273],[7.23484,58.02782],[7.23775,58.02646],[7.23818,58.0256],[7.23447,58.02557],[7.2334,58.02616],[7.23243,58.02537],[7.22878,58.02511],[7.22846,58.02646],[7.2268,58.02771]],[[7.2268,58.02771],[7.22551,58.02803]],[[7.25887,58.02982],[7.25617,58.0291],[7.25503,58.02827],[7.25199,58.02776],[7.25111,58.02799],[7.25084,58.029],[7.2532,58.03031],[7.2545,58.03025],[7.25594,58.02959],[7.25664,58.03038],[7.25765,58.03066],[7.25968,58.03014],[7.25887,58.02982]],[[7.1477,58.02346],[7.14672,58.02375],[7.14594,58.02513],[7.14731,58.02585],[7.14862,58.02475],[7.1477,58.02346]],[[7.1189,58.02828],[7.11633,58.02978],[7.11566,58.03119]],[[7.42509,58.03454],[7.42626,58.03484],[7.42654,58.0353],[7.4189,58.03934],[7.41654,58.04001],[7.41573,58.04192],[7.41442,58.04258]],[[7.22238,58.03013],[7.2266,58.03015],[7.22809,58.02975],[7.22834,58.03119],[7.23031,58.03139],[7.23219,58.03005],[7.23081,58.02944],[7.23289,58.02945],[7.2335,58.02901],[7.23159,58.02776],[7.22942,58.02934],[7.22887,58.0293],[7.23104,58.02728],[7.23173,58.0273]],[[7.22551,58.02803],[7.22346,58.02796],[7.22043,58.02889],[7.22035,58.02815],[7.22159,58.02741],[7.21967,58.02607],[7.2171,58.02586],[7.21527,58.02672],[7.21533,58.02712],[7.22,58.02972],[7.21871,58.0308],[7.22033,58.03091],[7.22238,58.03013]],[[7.20053,58.03053],[7.20216,58.03041],[7.20259,58.03004],[7.20232,58.02858],[7.20165,58.02846],[7.20085,58.02911]],[[7.20497,58.02806],[7.20427,58.02778],[7.20334,58.02829],[7.20583,58.03058],[7.20667,58.03097],[7.20817,58.03061],[7.20819,58.02939],[7.20533,58.02861],[7.20497,58.02806]],[[7.26669,58.03486],[7.26706,58.03419],[7.26628,58.03304],[7.26779,58.03216],[7.2661,58.03155],[7.26568,58.03074],[7.268,58.02937],[7.26797,58.02627],[7.26693,58.02613],[7.2623,58.02754],[7.26349,58.02882],[7.26316,58.02957],[7.2647,58.03059],[7.26437,58.03128],[7.26338,58.03156],[7.26186,58.03105],[7.26,58.03117]],[[7.20085,58.02911],[7.2003,58.02909],[7.19956,58.02754],[7.19885,58.02733],[7.198,58.02911],[7.19827,58.03074],[7.20053,58.03053]],[[7.16814,58.02586],[7.16398,58.02618],[7.16261,58.02673],[7.16229,58.02743],[7.16434,58.02865],[7.16446,58.02926],[7.16577,58.02942],[7.1668,58.02862],[7.16805,58.02738],[7.16731,58.02641],[7.16814,58.02586]],[[7.13753,58.0264],[7.13594,58.0269],[7.13707,58.0276],[7.13713,58.02826],[7.13853,58.02813],[7.13948,58.02727],[7.13753,58.0264]],[[7.26692,58.03739],[7.26598,58.03604],[7.26669,58.03486]],[[7.41442,58.04258],[7.41175,58.04332],[7.40792,58.04506],[7.4085,58.0466],[7.40995,58.04681]],[[7.40995,58.04681],[7.41361,58.047],[7.41745,58.04613],[7.41751,58.04471],[7.41982,58.04306],[7.4252,58.04081],[7.42632,58.04093],[7.42982,58.03997],[7.42983,58.03943],[7.42726,58.03888],[7.42726,58.03857],[7.43205,58.03778],[7.43187,58.03842],[7.43254,58.03892],[7.43394,58.03906],[7.43751,58.03772],[7.44493,58.03629]],[[7.20032,58.0315],[7.19862,58.0312],[7.19796,58.03222],[7.19843,58.03387],[7.19957,58.03494]],[[7.21374,58.03341],[7.21135,58.03384],[7.21237,58.03236],[7.21102,58.03224],[7.21087,58.03118],[7.20981,58.03065],[7.2073,58.03235],[7.20432,58.03567]],[[7.12717,58.03106],[7.12707,58.02951],[7.12427,58.02932],[7.12422,58.02705],[7.12282,58.02718],[7.12175,58.02675],[7.1225,58.02567],[7.12007,58.02559],[7.11918,58.0259],[7.1187,58.02651],[7.11952,58.02747],[7.1189,58.02828]],[[7.1807,58.03156],[7.18165,58.03036],[7.18058,58.02727],[7.17655,58.02604],[7.17329,58.02632],[7.17199,58.02555],[7.17145,58.0262],[7.1723,58.02656],[7.17081,58.02773],[7.17028,58.02971],[7.16933,58.03011],[7.17103,58.03343],[7.17239,58.03396]],[[7.19957,58.03494],[7.20033,58.03502],[7.2017,58.03658],[7.2026,58.03641],[7.20506,58.0327],[7.20432,58.03037],[7.20265,58.03198],[7.20154,58.03233],[7.20032,58.0315]],[[7.28599,58.02847],[7.28818,58.02891],[7.28804,58.03045],[7.28676,58.03078],[7.2877,58.03132],[7.28852,58.03132],[7.28929,58.03065],[7.2952,58.02951],[7.29641,58.02993],[7.29613,58.03133],[7.29693,58.0318],[7.30149,58.03116],[7.29669,58.03295],[7.29469,58.03557],[7.29621,58.03665],[7.29493,58.03796],[7.29513,58.03884],[7.29577,58.04001],[7.29712,58.04035],[7.29982,58.03923],[7.29912,58.03777],[7.29778,58.03683],[7.30313,58.03588],[7.30173,58.03518],[7.30305,58.03503],[7.3032,58.03442],[7.3015,58.03418],[7.30048,58.03338],[7.30117,58.03246],[7.30481,58.03192],[7.30945,58.03214],[7.30989,58.03158],[7.30732,58.03032],[7.3088,58.03018],[7.30942,58.02951],[7.30853,58.02882],[7.30459,58.02861],[7.30264,58.02942],[7.30094,58.02954],[7.29966,58.02917],[7.29983,58.02877],[7.30343,58.02708],[7.30483,58.02709],[7.30497,58.02763],[7.30578,58.02786],[7.30832,58.02808],[7.31377,58.02727],[7.31691,58.02631],[7.31601,58.02545],[7.31653,58.02513],[7.31936,58.02561],[7.32082,58.0267],[7.32127,58.02803],[7.31957,58.03155],[7.31729,58.03413],[7.31846,58.03873],[7.31672,58.0418],[7.31909,58.04445],[7.31917,58.04637],[7.32001,58.04663],[7.32316,58.04498],[7.32411,58.04139],[7.32504,58.04057],[7.32442,58.03886],[7.32693,58.03832],[7.32723,58.03699],[7.32909,58.03696],[7.33777,58.03865],[7.33849,58.03828],[7.33348,58.03661],[7.33481,58.03552],[7.33108,58.03429],[7.3329,58.03389],[7.33269,58.03232],[7.33409,58.03193],[7.33307,58.03111],[7.33373,58.03039],[7.33523,58.03038],[7.33546,58.03161],[7.33609,58.0318],[7.33758,58.03116],[7.33683,58.0297],[7.33822,58.02814],[7.34089,58.02786],[7.34324,58.02713],[7.34874,58.02721],[7.35159,58.02594],[7.35635,58.02477],[7.35721,58.02497],[7.35864,58.02464],[7.35991,58.02518],[7.36117,58.02322],[7.36324,58.02375],[7.36472,58.02467],[7.36564,58.02062],[7.36843,58.01942],[7.37299,58.01907]],[[7.11465,58.03444],[7.11414,58.03344],[7.11527,58.03166]],[[7.17239,58.03396],[7.17236,58.03507],[7.17144,58.0354],[7.17145,58.03673],[7.17392,58.03825],[7.1756,58.0381],[7.17677,58.03711],[7.17821,58.03818],[7.1807,58.03156]],[[7.10671,58.03613],[7.10685,58.03369],[7.10643,58.03309],[7.10516,58.03338],[7.10484,58.03301],[7.10618,58.02844],[7.11237,58.02211],[7.11296,58.01935],[7.1146,58.01878],[7.11597,58.01769],[7.1152,58.01565],[7.11578,58.01516]],[[7.1244,58.03723],[7.12448,58.03602],[7.12646,58.03468],[7.12579,58.0336],[7.12745,58.03207],[7.12717,58.03106]],[[7.12697,58.03739],[7.12673,58.03707],[7.12575,58.03732]],[[7.13027,58.0376],[7.12942,58.03755]],[[7.14563,58.03855],[7.14756,58.03617],[7.14733,58.03531],[7.14577,58.03453],[7.14787,58.03086],[7.14767,58.03021],[7.14607,58.0298],[7.14589,58.02923],[7.14357,58.02924],[7.14428,58.02847],[7.144,58.02787],[7.14284,58.02801],[7.14106,58.0295],[7.13904,58.02968],[7.1385,58.02836],[7.13704,58.02945],[7.13773,58.03083],[7.13846,58.03117],[7.13956,58.0309],[7.14011,58.03132],[7.13826,58.03478],[7.14049,58.03649],[7.14154,58.0383]],[[7.15371,58.03905],[7.15443,58.03804],[7.1537,58.0378],[7.1496,58.03807],[7.15026,58.03884]],[[7.1812,58.04076],[7.18258,58.04062],[7.18623,58.03886],[7.18912,58.03438],[7.19139,58.03351],[7.19007,58.03214],[7.18958,58.02963],[7.18828,58.02918],[7.18844,58.0272],[7.18674,58.02685],[7.1839,58.02701],[7.18184,58.02603],[7.18127,58.02646],[7.18157,58.0276],[7.18307,58.02797],[7.18336,58.02848],[7.18329,58.03106],[7.18202,58.03368],[7.18156,58.03688],[7.17899,58.03817],[7.18011,58.04034],[7.18098,58.04074]],[[7.24584,58.04473],[7.24466,58.0436],[7.24262,58.04385],[7.24234,58.04304],[7.23912,58.04277],[7.239,58.04197],[7.23822,58.04158],[7.23871,58.04013],[7.23703,58.0398],[7.23317,58.03807],[7.23182,58.03844],[7.23152,58.03907],[7.22973,58.03854],[7.22723,58.04012],[7.22648,58.03988],[7.2273,58.03906],[7.22706,58.0378],[7.22294,58.03884],[7.2239,58.03748],[7.22733,58.03476],[7.22659,58.0339],[7.22461,58.0336],[7.22466,58.03259],[7.22187,58.03351],[7.22032,58.03243],[7.21888,58.03411],[7.21609,58.03277],[7.21374,58.03341]],[[7.25381,58.03558],[7.25429,58.03614],[7.25173,58.03733],[7.25209,58.03883],[7.25284,58.03943],[7.2538,58.03889],[7.25492,58.03925],[7.25472,58.04017],[7.25598,58.04097],[7.25406,58.04185],[7.25994,58.04381],[7.258,58.04493],[7.25864,58.04552]],[[7.26833,58.04611],[7.26639,58.04471],[7.26977,58.04245],[7.27112,58.04081],[7.26969,58.03959],[7.27022,58.03787],[7.26692,58.03739]],[[7.27919,58.04677],[7.27726,58.04454],[7.27745,58.04366],[7.27595,58.04185],[7.27706,58.03921],[7.27521,58.03814],[7.27618,58.03504],[7.2749,58.03358],[7.27769,58.03307],[7.27813,58.03241],[7.27712,58.03163],[7.27686,58.03022],[7.27513,58.02785],[7.27581,58.02694],[7.27542,58.02618],[7.27658,58.02561],[7.28067,58.02568],[7.28177,58.02623],[7.28139,58.0271],[7.28024,58.02706],[7.2802,58.02664],[7.27856,58.02676],[7.28064,58.0273],[7.27935,58.02846],[7.28345,58.02916],[7.28599,58.02847]],[[7.15239,58.04135],[7.15107,58.04097],[7.15371,58.03905]],[[7.12942,58.03755],[7.12894,58.03807],[7.13001,58.04017],[7.1325,58.04],[7.13302,58.03949],[7.13179,58.03912],[7.13027,58.0376]],[[7.14563,58.03855],[7.14554,58.03995],[7.14839,58.04022],[7.14798,58.0414],[7.14982,58.04093],[7.14945,58.03991],[7.15026,58.03884]],[[7.14154,58.0383],[7.1411,58.04001],[7.1427,58.04119],[7.14281,58.04197],[7.14407,58.04146],[7.145,58.04182]],[[7.19726,58.04175],[7.19451,58.04334],[7.19376,58.04425],[7.19427,58.04472],[7.19633,58.0449],[7.19718,58.04581]],[[7.10671,58.03613],[7.10726,58.03651],[7.10499,58.03939],[7.10535,58.04031],[7.1061,58.04062],[7.10986,58.0382],[7.11133,58.03642]],[[7.12697,58.03739],[7.12498,58.03896],[7.1254,58.03918],[7.12626,58.03888],[7.12677,58.03917],[7.12638,58.04064],[7.12795,58.04082],[7.13123,58.04266],[7.13579,58.04358],[7.13461,58.04384],[7.13648,58.04415]],[[7.13648,58.04415],[7.14091,58.04342],[7.14212,58.0427],[7.14288,58.04295]],[[7.15239,58.04135],[7.1534,58.04139],[7.15437,58.04041],[7.15492,58.04044],[7.15522,58.04158],[7.15465,58.0426],[7.15524,58.0432],[7.1542,58.04423],[7.15494,58.04477],[7.15771,58.04503],[7.16009,58.04443],[7.16081,58.04471],[7.16098,58.04573],[7.16215,58.04605]],[[7.17345,58.04626],[7.17371,58.04566],[7.17252,58.04571],[7.17236,58.04537],[7.17594,58.04487],[7.17762,58.04249],[7.17703,58.04244],[7.17571,58.04375],[7.17495,58.04365],[7.1746,58.04296],[7.17377,58.04379],[7.17287,58.04383],[7.17174,58.04292],[7.17339,58.04068],[7.17162,58.04045],[7.16763,58.04156],[7.16894,58.0442],[7.16795,58.04551],[7.16215,58.04605]],[[7.24584,58.04473],[7.24496,58.04724],[7.24595,58.04841],[7.24511,58.04953],[7.24504,58.05121],[7.24893,58.05082],[7.24973,58.04921],[7.25263,58.04899],[7.25358,58.04804],[7.25577,58.04766],[7.25576,58.04735],[7.25452,58.04709],[7.25692,58.04541],[7.25773,58.04612],[7.25726,58.04726],[7.26168,58.04703],[7.26293,58.04725],[7.2621,58.04629],[7.25864,58.04552]],[[7.26833,58.04611],[7.26738,58.047],[7.26564,58.04743],[7.26645,58.0479],[7.26622,58.04879],[7.26796,58.05029],[7.26935,58.05288],[7.2702,58.05316],[7.2722,58.05213],[7.27394,58.05352]],[[7.19605,58.05097],[7.19787,58.05122],[7.19994,58.05031],[7.19943,58.04949],[7.19657,58.04861]],[[7.14376,58.04807],[7.14495,58.04751],[7.14759,58.0477],[7.14813,58.04803]],[[7.14141,58.0537],[7.1436,58.05383],[7.14496,58.05273],[7.14464,58.05118],[7.14269,58.04966],[7.14376,58.04807]],[[7.17345,58.04626],[7.17513,58.04637],[7.17396,58.04765],[7.17555,58.04825],[7.17457,58.04917],[7.17488,58.04962],[7.17714,58.0492],[7.17779,58.048],[7.17882,58.0478],[7.17791,58.05021],[7.1745,58.05508],[7.17759,58.05529],[7.17665,58.05688],[7.17842,58.05859],[7.18009,58.0587],[7.18113,58.058],[7.18012,58.05383],[7.18352,58.05135],[7.18764,58.05039],[7.1905,58.05082],[7.19323,58.05031],[7.19412,58.04969],[7.19635,58.0496]],[[7.10958,58.05734],[7.11336,58.05841],[7.11333,58.06074],[7.11695,58.06231],[7.11866,58.06404],[7.12451,58.066],[7.12628,58.06797],[7.12736,58.06819],[7.12906,58.0677],[7.13265,58.06766],[7.13446,58.06872],[7.13734,58.06948],[7.14423,58.07043],[7.14567,58.07206],[7.1473,58.07216],[7.14969,58.07378],[7.15104,58.07336],[7.15084,58.07273],[7.14919,58.07167],[7.14751,58.07169],[7.14871,58.06848],[7.14788,58.06717],[7.1487,58.06607],[7.14658,58.06243],[7.14417,58.06088],[7.14211,58.06081],[7.14147,58.06039],[7.14408,58.05809],[7.14413,58.05736],[7.14355,58.0566],[7.14134,58.05671],[7.14034,58.05608],[7.14129,58.05512],[7.14141,58.0537]],[[7.10551,58.07566],[7.10669,58.07624],[7.10757,58.07766],[7.10859,58.0758],[7.10991,58.07508],[7.10848,58.07343],[7.10577,58.07451]],[[7.15283,58.0841],[7.15285,58.08188],[7.14955,58.07706],[7.14738,58.07718],[7.14687,58.07755],[7.14533,58.07747],[7.1451,58.07704],[7.14586,58.07648],[7.14512,58.0755],[7.14321,58.07522],[7.14738,58.07468],[7.14813,58.07375],[7.14413,58.07203],[7.13827,58.07128],[7.13498,58.07195],[7.13231,58.07153],[7.12998,58.07326],[7.12601,58.07109],[7.12514,58.07282],[7.12524,58.07427],[7.12591,58.07484],[7.12738,58.07545],[7.13054,58.07594],[7.13285,58.07693],[7.13518,58.07856],[7.13609,58.0803],[7.13085,58.08036],[7.1274,58.07646],[7.12559,58.07521],[7.12333,58.07481],[7.1194,58.07554],[7.11841,58.07659],[7.11902,58.07837],[7.11678,58.07972],[7.11552,58.07977],[7.11577,58.07752],[7.11514,58.07741],[7.11411,58.07861],[7.11441,58.07999],[7.11354,58.08051],[7.11277,58.0805],[7.11202,58.07953],[7.10977,58.07924],[7.1093,58.0786],[7.10806,58.07916],[7.10806,58.08029],[7.1068,58.08124]],[[7.1687,58.08508],[7.17011,58.08292],[7.16721,58.08023],[7.16697,58.07839],[7.16612,58.07767],[7.16597,58.07709],[7.16718,58.07597],[7.16535,58.07411],[7.16201,58.07289],[7.161,58.0715],[7.16159,58.0693],[7.15759,58.06579],[7.15565,58.06517],[7.15474,58.06442],[7.15453,58.0619],[7.1553,58.06125],[7.15762,58.06068],[7.15772,58.06022],[7.15339,58.05518],[7.15124,58.05424],[7.14924,58.05221],[7.14813,58.04803]],[[7.1687,58.08508],[7.17422,58.09307],[7.17401,58.09481],[7.1711,58.09544],[7.17002,58.09628],[7.17267,58.09811],[7.17324,58.10187],[7.17553,58.10308],[7.17741,58.10478],[7.18385,58.10649]],[[7.17248,58.10748],[7.1702,58.1077],[7.17036,58.10876],[7.17132,58.10883],[7.17248,58.10748]],[[7.15283,58.0841],[7.15173,58.08789],[7.1497,58.08925],[7.14811,58.09116],[7.15012,58.09569],[7.15316,58.09844],[7.1553,58.09934],[7.1579,58.09955],[7.15867,58.1029],[7.16254,58.10445],[7.16616,58.10865],[7.17143,58.10981],[7.17304,58.11132],[7.17515,58.11178],[7.17736,58.11077],[7.17926,58.11073],[7.18103,58.11555],[7.18174,58.11608]],[[7.18036,58.12234],[7.18201,58.1213],[7.18234,58.11823],[7.18174,58.11608]],[[7.1771,58.1307],[7.17684,58.12954],[7.17897,58.12461],[7.17891,58.1234],[7.18036,58.12234]],[[7.18597,58.13124],[7.18561,58.12916],[7.18656,58.12828],[7.18639,58.12738],[7.18457,58.1265],[7.18244,58.12679],[7.18151,58.12646],[7.18315,58.12536],[7.18486,58.12284],[7.18863,58.12125],[7.18915,58.11907],[7.18671,58.11741],[7.18863,58.11672],[7.18907,58.11451],[7.19064,58.11333],[7.19035,58.11288],[7.1864,58.11134],[7.18653,58.11074],[7.18861,58.11056],[7.18885,58.10979],[7.18385,58.10649]],[[7.17738,58.13585],[7.1797,58.13636],[7.18089,58.13626],[7.18235,58.13529],[7.18524,58.13434],[7.18597,58.13124]],[[7.1771,58.1307],[7.1767,58.13514],[7.17738,58.13585]],[[7.42876,58.00762],[7.42821,58.00673],[7.42631,58.00623],[7.4264,58.00715],[7.42714,58.00711],[7.42824,58.00783],[7.42876,58.00762]],[[7.41072,58.0055],[7.40922,58.00531],[7.408,58.00659],[7.40901,58.00697],[7.40999,58.00672],[7.41072,58.0055]],[[7.44383,58.01162],[7.4423,58.01119],[7.44127,58.01147]],[[7.37538,58.00791],[7.37657,58.00759]],[[7.36218,58.00672],[7.36254,58.00717],[7.36454,58.00686]],[[7.45634,58.02077],[7.45422,58.02118]],[[7.4037,58.02159],[7.40326,58.02135]],[[7.26,58.03117],[7.25757,58.03185],[7.25761,58.0331],[7.25693,58.03374],[7.25369,58.03375],[7.25293,58.03469],[7.25381,58.03558]],[[7.11527,58.03166],[7.11566,58.03119]],[[7.11432,58.03597],[7.11556,58.03601],[7.11581,58.0357],[7.11465,58.03444]],[[7.11179,58.03601],[7.11432,58.03597]],[[7.11133,58.03642],[7.11179,58.03601]],[[7.19726,58.04175],[7.19813,58.04148]],[[7.19896,58.04185],[7.19813,58.04148]],[[7.20432,58.03567],[7.20293,58.03751],[7.20299,58.03888],[7.20069,58.04024],[7.20004,58.04192]],[[7.18098,58.04074],[7.1812,58.04076]],[[7.19896,58.04185],[7.20004,58.04192]],[[7.1244,58.03723],[7.12526,58.03761],[7.12575,58.03732]],[[7.27919,58.04677],[7.28143,58.04949]],[[7.14288,58.04295],[7.14362,58.04288],[7.145,58.04182]],[[7.19699,58.0467],[7.19718,58.04581]],[[7.28493,58.05264],[7.28516,58.0505],[7.28312,58.04965],[7.28143,58.04949]],[[7.19699,58.0467],[7.19596,58.04793],[7.19657,58.04861]],[[7.2756,58.05347],[7.27752,58.05259],[7.27841,58.05272]],[[7.19611,58.05069],[7.1968,58.05018],[7.19635,58.0496]],[[7.19611,58.05069],[7.19605,58.05097]],[[7.42503,58.02767],[7.42648,58.02785],[7.4298,58.02993],[7.43287,58.03078],[7.43213,58.0317],[7.43366,58.03304],[7.43916,58.03402],[7.44246,58.03336],[7.44672,58.03429],[7.44705,58.03526],[7.44493,58.03629]],[[7.65793,57.99861],[7.65659,58.00011],[7.65858,58.00057],[7.66012,58.00001],[7.66232,57.99996]],[[7.6463,58.0004],[7.64928,58.00092],[7.65131,58.00065],[7.65113,57.99996]],[[7.64369,57.99962],[7.64346,58.00018],[7.64533,58.00097],[7.6463,58.0004]],[[7.61518,58.00011],[7.61458,57.99971]],[[7.61458,57.99971],[7.61375,58.0002],[7.61212,58.00037],[7.61416,58.00184],[7.61614,58.00143],[7.61518,58.00011]],[[7.62288,57.99968],[7.61744,58.00031],[7.61888,58.00217],[7.61988,58.00213],[7.62127,58.00133],[7.62307,58.00011],[7.62288,57.99968]],[[7.57383,57.99935],[7.57695,58.0001],[7.57976,58.0003],[7.58101,58.0002],[7.58339,57.99922]],[[7.73396,58.00509],[7.73201,58.00492],[7.72912,58.00557],[7.7292,58.00655],[7.72835,58.007],[7.72879,58.00976],[7.72945,58.01028],[7.73202,58.01051],[7.73769,58.00883],[7.73801,58.00814],[7.73661,58.00634],[7.73396,58.00509]],[[7.56073,58],[7.56129,58.00039],[7.55986,58.00111],[7.56242,58.00172],[7.56356,58.00142],[7.56348,57.99936]],[[7.55207,57.99995],[7.55361,58.00134],[7.55298,58.00317],[7.55341,58.00375],[7.55406,58.00411],[7.55715,58.00433],[7.55925,58.0037],[7.55986,58.00308],[7.55962,58.00254],[7.55751,58.00196],[7.55791,58.00135],[7.55596,57.99887]],[[7.5998,58.00425],[7.59601,58.00432],[7.5941,58.00614],[7.59558,58.00689],[7.60096,58.00701],[7.60176,58.00652],[7.60165,58.00597],[7.5998,58.00425]],[[7.54582,58.00518],[7.54754,58.00513],[7.5503,58.00418],[7.55045,58.00309],[7.55219,58.00282],[7.55219,58.00205],[7.55109,58.0018],[7.54917,58.00246],[7.54914,58.00306],[7.54627,58.00299]],[[7.54627,58.00299],[7.54528,58.0029],[7.54388,58.00373],[7.542,58.00389],[7.54307,58.00317],[7.54251,58.00285],[7.54109,58.00376],[7.54229,58.0048],[7.54582,58.00518]],[[7.51448,58.00292],[7.51507,58.00353],[7.51865,58.00278],[7.52229,58.00081],[7.52292,58.00104],[7.52329,58.00031],[7.52896,58.00073],[7.53117,57.99945]],[[7.57489,58.00693],[7.5771,58.0065],[7.58124,58.00289],[7.57613,58.00292],[7.57627,58.00379],[7.57545,58.00462],[7.57327,58.00401],[7.57285,58.00341],[7.57096,58.00357],[7.56906,58.00557],[7.56909,58.00626],[7.57017,58.00669],[7.57489,58.00693]],[[7.50555,57.99982],[7.5078,58.00043],[7.5055,58.00148],[7.50387,58.00133],[7.50265,58.0017],[7.50269,58.00238],[7.50425,58.00215],[7.50538,58.00248],[7.50442,58.00346],[7.51448,58.00292]],[[7.59537,58.00772],[7.59448,58.00715],[7.59168,58.00721],[7.59181,58.00601],[7.5933,58.00471],[7.59613,58.00374],[7.59802,58.00236],[7.59793,58.0014],[7.59595,58.00105],[7.58929,58.00095],[7.58815,58.00153],[7.58684,58.00099],[7.58424,58.00167],[7.5811,58.00406],[7.58185,58.0049],[7.58331,58.00511],[7.5836,58.00548],[7.58175,58.00564],[7.58069,58.00529],[7.58025,58.00647],[7.58308,58.00737],[7.59175,58.0087],[7.59458,58.00857],[7.59537,58.00772]],[[7.63011,58.00817],[7.62631,58.00829],[7.62622,58.00935],[7.6273,58.01092]],[[7.55638,58.0064],[7.55437,58.00645],[7.55426,58.00742],[7.55509,58.00801],[7.55638,58.0064]],[[7.6273,58.01092],[7.62924,58.01238]],[[7.53072,58.00573],[7.52881,58.00552],[7.52639,58.00602],[7.52576,58.00677],[7.5301,58.00711],[7.531,58.00681],[7.53072,58.00573]],[[7.54554,58.00649],[7.54649,58.0079],[7.54983,58.00858],[7.55105,58.0083],[7.55062,58.0071],[7.54822,58.00606],[7.54558,58.00631]],[[7.52421,58.00606],[7.52256,58.00593],[7.52044,58.00685],[7.52259,58.00682],[7.52421,58.00606]],[[7.53882,58.00759],[7.53827,58.00815],[7.53588,58.00824]],[[7.62924,58.01238],[7.62965,58.01297],[7.63163,58.01382],[7.63392,58.01409],[7.63526,58.0138],[7.63779,58.01425],[7.63827,58.01378],[7.63726,58.01154],[7.63636,58.01055],[7.63432,58.00953]],[[7.54492,58.00948],[7.54857,58.00929],[7.55366,58.00979],[7.55571,58.00851],[7.55849,58.00922],[7.5625,58.00792],[7.56937,58.00826],[7.5768,58.00783],[7.57933,58.00829],[7.58066,58.00813],[7.58191,58.00855],[7.58416,58.00798],[7.58956,58.0091],[7.59186,58.00897],[7.59309,58.00958],[7.59286,58.01015],[7.59678,58.01031],[7.59798,58.01145],[7.60169,58.01148],[7.6029,58.0109],[7.60457,58.0108],[7.60574,58.01214],[7.60778,58.01251],[7.60926,58.01231],[7.60915,58.01169],[7.61055,58.0109],[7.61842,58.0088],[7.62098,58.00932],[7.62201,58.01087],[7.62505,58.01044],[7.62793,58.01281],[7.62883,58.01436]],[[7.67214,58.0156],[7.67086,58.01528],[7.66885,58.01609],[7.66891,58.01694],[7.67195,58.01652],[7.67214,58.0156]],[[7.53882,58.00759],[7.53858,58.00669],[7.53956,58.00615],[7.54274,58.00618],[7.5444,58.00699],[7.54488,58.00777],[7.54453,58.00856],[7.54232,58.00926],[7.54404,58.0097],[7.54492,58.00948]],[[7.73172,58.02022],[7.73388,58.02038],[7.73731,58.02147],[7.73947,58.02113],[7.73874,58.01982],[7.73549,58.01822],[7.73212,58.01878],[7.72926,58.01833],[7.73349,58.01649],[7.73631,58.01581],[7.73564,58.01479],[7.73856,58.01412],[7.73937,58.01329],[7.73946,58.01178],[7.738,58.0118],[7.73399,58.01339],[7.73463,58.01145],[7.73417,58.01117],[7.73193,58.01107],[7.7275,58.0116],[7.72649,58.01271],[7.72364,58.01387],[7.72238,58.01366],[7.7214,58.01424],[7.72165,58.01564],[7.72285,58.01595],[7.72209,58.01731],[7.72257,58.01754],[7.72642,58.01664],[7.73119,58.01413],[7.73252,58.01407],[7.73211,58.01535],[7.73004,58.01594],[7.72719,58.0176],[7.72769,58.01856],[7.72597,58.0192],[7.72878,58.0197],[7.72888,58.0201],[7.72724,58.0206],[7.72773,58.02096],[7.73095,58.02097],[7.73172,58.02022]],[[7.78802,58.02254],[7.78657,58.02199],[7.78482,58.02253],[7.78562,58.0251],[7.78885,58.0248],[7.78962,58.0241],[7.78953,58.0235],[7.78802,58.02254]],[[7.48801,58.00408],[7.4876,58.00263],[7.48417,58.00381],[7.48372,58.00343],[7.4841,58.00281],[7.48345,58.00254],[7.48114,58.00369],[7.48225,58.00515],[7.48415,58.00637],[7.48446,58.00796],[7.48822,58.00752],[7.49005,58.00671],[7.49077,58.00519],[7.48801,58.00408]],[[7.76595,58.02218],[7.76432,58.022],[7.76378,58.02228],[7.76437,58.02445],[7.76693,58.02507],[7.76756,58.02434],[7.76595,58.02218]],[[7.62968,58.01689],[7.63094,58.01788],[7.63186,58.018],[7.63498,58.0171],[7.63761,58.0155],[7.63596,58.01452],[7.63084,58.01467],[7.62935,58.01526]],[[7.69099,58.01965],[7.68996,58.01975],[7.6901,58.02066],[7.69367,58.02173],[7.69099,58.01965]],[[7.66064,58.02027],[7.66166,58.0204],[7.66364,58.01875],[7.66447,58.01888],[7.66591,58.01836],[7.66562,58.01732],[7.66785,58.01679],[7.66892,58.01351],[7.66623,58.01311],[7.66393,58.0133],[7.66131,58.01384],[7.66043,58.01464]],[[7.62796,58.01861],[7.6284,58.01684],[7.62968,58.01689]],[[7.48747,58.01023],[7.48714,58.00941],[7.48459,58.00815],[7.48172,58.00981],[7.48236,58.01014],[7.48411,58.00997],[7.48542,58.01047],[7.48747,58.01023]],[[7.72978,58.02466],[7.73105,58.02461],[7.73224,58.02532],[7.7354,58.02477],[7.73578,58.02435],[7.73331,58.02346],[7.72855,58.02353],[7.73007,58.02195],[7.72805,58.02154],[7.7253,58.02175],[7.72745,58.02225],[7.72743,58.02252],[7.72337,58.02265],[7.7232,58.02348],[7.72437,58.02388],[7.72786,58.02385],[7.72951,58.0261],[7.73078,58.02607],[7.72978,58.02466]],[[7.62796,58.01861],[7.62735,58.01867],[7.62671,58.01792],[7.62487,58.01791],[7.62291,58.0172],[7.62342,58.01615],[7.6258,58.01651],[7.62646,58.01555],[7.62606,58.01527],[7.62406,58.01561],[7.62329,58.01272],[7.62222,58.01278],[7.62104,58.01355],[7.61768,58.01264],[7.61575,58.01312],[7.61441,58.01403],[7.61325,58.01569],[7.61368,58.01667],[7.616,58.01612],[7.61978,58.01694],[7.62129,58.01746],[7.62211,58.01853],[7.62642,58.01921],[7.62689,58.01953],[7.62637,58.02029],[7.62763,58.0202]],[[7.79077,58.02732],[7.78946,58.02734],[7.78852,58.02818],[7.78972,58.02876],[7.78908,58.02944],[7.78981,58.0298],[7.79161,58.02951],[7.79259,58.02871],[7.79077,58.02732]],[[7.66043,58.01464],[7.65958,58.01539],[7.65833,58.01421],[7.65568,58.01435],[7.65554,58.01563],[7.65343,58.01529],[7.65218,58.01551],[7.65234,58.01678],[7.65156,58.01707],[7.64757,58.01484],[7.64641,58.01558],[7.64668,58.0168],[7.64597,58.01837],[7.64464,58.01804],[7.6439,58.01708],[7.64012,58.01739],[7.63908,58.01814],[7.63816,58.01747],[7.63608,58.01749],[7.63455,58.01821],[7.63241,58.02179],[7.62833,58.02016],[7.62763,58.0202]],[[7.47139,58.01326],[7.47196,58.01165],[7.47375,58.01137],[7.47535,58.0113],[7.48209,58.01277],[7.48335,58.01182],[7.48412,58.01186],[7.48494,58.01235],[7.48512,58.01331],[7.48216,58.0139]],[[7.50109,58.01503],[7.5034,58.01307],[7.50132,58.01298],[7.49991,58.01246],[7.49914,58.01148],[7.50236,58.00999],[7.50321,58.00907],[7.49923,58.008],[7.49891,58.00707],[7.50008,58.00637],[7.50583,58.00554],[7.50716,58.00614],[7.50956,58.00862],[7.51015,58.00865],[7.51053,58.00818],[7.50748,58.00532],[7.51104,58.00378],[7.51403,58.00362],[7.51361,58.00423],[7.51021,58.00489],[7.51175,58.00542],[7.5143,58.00466],[7.5182,58.00468],[7.51846,58.00512],[7.51678,58.00626],[7.51696,58.0067],[7.51827,58.00699],[7.51637,58.00869],[7.51739,58.00908],[7.51851,58.0091],[7.51864,58.00806],[7.52101,58.00731],[7.52427,58.00718],[7.52688,58.00782],[7.53017,58.00755],[7.53141,58.00816],[7.53279,58.00814],[7.53372,58.00773],[7.53325,58.00646],[7.53411,58.00566],[7.53506,58.00596],[7.53475,58.00789],[7.53588,58.00824]],[[7.62275,58.02218],[7.62222,58.02127],[7.62138,58.02153],[7.62143,58.0221]],[[7.62458,58.02228],[7.62422,58.02106],[7.62529,58.02068],[7.62506,58.02037],[7.62053,58.02045],[7.61891,58.02111],[7.62001,58.02147],[7.61959,58.02199]],[[7.65333,58.02395],[7.65533,58.02344],[7.65929,58.02039],[7.66064,58.02027]],[[7.6772,58.02534],[7.67635,58.02338],[7.67515,58.02277],[7.67374,58.02275],[7.67379,58.02246],[7.67604,58.02208],[7.67558,58.02114],[7.67073,58.01946],[7.66566,58.02107],[7.66562,58.02169],[7.66665,58.02227],[7.66591,58.02377],[7.66374,58.02424],[7.66227,58.02355],[7.65999,58.0234],[7.65793,58.02422]],[[7.69083,58.02612],[7.69181,58.02551],[7.6936,58.02518],[7.69222,58.02396],[7.68525,58.02328],[7.68238,58.02444],[7.68351,58.02559],[7.6861,58.02536],[7.68681,58.02589]],[[7.68681,58.02589],[7.68743,58.02629],[7.69025,58.02668],[7.69108,58.02645],[7.69083,58.02612]],[[7.62143,58.0221],[7.62159,58.02262],[7.62098,58.02272],[7.61976,58.02217],[7.61924,58.02244],[7.62188,58.02383],[7.62251,58.02364],[7.62275,58.02218]],[[7.65333,58.02395],[7.65244,58.02408],[7.65153,58.02485],[7.65366,58.02554],[7.65768,58.02521],[7.65835,58.02615],[7.66113,58.02573],[7.65793,58.02422]],[[7.49608,58.01667],[7.49782,58.01815],[7.50018,58.01807],[7.50192,58.01957],[7.50313,58.01885],[7.50141,58.01566]],[[7.47139,58.01326],[7.47335,58.01476],[7.47366,58.01628],[7.47727,58.01669],[7.47752,58.01743],[7.47635,58.0179],[7.47676,58.01848],[7.47785,58.01866],[7.4814,58.01824],[7.48263,58.017],[7.48216,58.0139]],[[7.6802,58.02921],[7.67871,58.02863],[7.67615,58.0287],[7.67434,58.02938],[7.6725,58.03081],[7.67285,58.03132],[7.67636,58.0314],[7.67895,58.03048],[7.6802,58.02921]],[[7.45814,58.01822],[7.46094,58.01854],[7.45996,58.01741],[7.46358,58.01634],[7.46477,58.01681],[7.46354,58.01761],[7.46395,58.0196],[7.46848,58.01815],[7.47103,58.01976],[7.47299,58.01967]],[[7.69422,58.03137],[7.69577,58.03097],[7.69828,58.03132],[7.7003,58.0308],[7.70084,58.02963],[7.70037,58.02862],[7.69133,58.02864],[7.6918,58.02982],[7.69004,58.03002],[7.68925,58.03081],[7.69125,58.03304],[7.69277,58.03306],[7.6923,58.03235],[7.69422,58.03137]],[[7.45814,58.01822],[7.45667,58.01872],[7.45659,58.01967],[7.45729,58.02022]],[[7.75907,58.03697],[7.7569,58.03613],[7.75622,58.03638],[7.75586,58.03749],[7.75632,58.03785],[7.75772,58.03782],[7.75876,58.03756],[7.75907,58.03697]],[[7.47756,58.02184],[7.47971,58.02185],[7.48018,58.0211],[7.48173,58.02075],[7.48119,58.01966],[7.48296,58.01914],[7.48472,58.01966],[7.48902,58.01975],[7.49001,58.01623],[7.49417,58.01595],[7.49608,58.01667]],[[7.47299,58.01967],[7.47542,58.01901],[7.47604,58.01916],[7.47687,58.02027],[7.47642,58.02139],[7.47756,58.02184]],[[7.62458,58.02228],[7.62371,58.02419],[7.62574,58.02677],[7.62469,58.02714],[7.62245,58.02695],[7.61996,58.02802],[7.62058,58.02959],[7.62537,58.03111]],[[7.72432,58.03835],[7.72118,58.03841],[7.72011,58.03914],[7.72178,58.03945],[7.72367,58.03928],[7.72432,58.03835]],[[7.75439,58.04088],[7.75332,58.04078],[7.75253,58.04159],[7.75387,58.04325],[7.75476,58.04205],[7.75439,58.04088]],[[7.62425,58.03652],[7.62595,58.03659],[7.62799,58.03571],[7.62762,58.03519],[7.62606,58.03499],[7.62485,58.03381],[7.62569,58.03213],[7.62537,58.03111]],[[7.7636,58.04322],[7.76302,58.04218],[7.76101,58.0422],[7.7606,58.04067],[7.75787,58.04053],[7.75847,58.04216],[7.76072,58.04229],[7.76018,58.04345],[7.76151,58.04518],[7.7636,58.04322]],[[7.78022,58.04529],[7.777,58.04486],[7.77682,58.04591],[7.77772,58.04706],[7.77982,58.04697],[7.78022,58.04529]],[[7.62425,58.03652],[7.6222,58.0365],[7.6214,58.03704],[7.62264,58.03874],[7.62381,58.03862]],[[7.62363,58.03952],[7.62834,58.03891],[7.62947,58.03802],[7.62887,58.03734],[7.62691,58.03698],[7.62613,58.03723],[7.62593,58.03802],[7.62381,58.03862]],[[7.72358,58.04234],[7.72024,58.04193],[7.7188,58.04233],[7.71808,58.04323],[7.71933,58.0442],[7.71822,58.04471],[7.71862,58.04518],[7.72083,58.04511],[7.7232,58.04353],[7.72358,58.04234]],[[7.62363,58.03952],[7.62315,58.03968],[7.6235,58.04013]],[[7.78732,58.04744],[7.78398,58.04777],[7.78532,58.0494],[7.7869,58.04957],[7.79057,58.04915],[7.79002,58.04848],[7.78732,58.04744]],[[7.74097,58.04632],[7.74315,58.04579],[7.74444,58.04606],[7.7455,58.04566],[7.74545,58.04514],[7.73924,58.04494],[7.73824,58.04565],[7.73859,58.04708],[7.7395,58.04709],[7.74097,58.04632]],[[7.69725,58.04388],[7.69775,58.04318],[7.69952,58.04493],[7.70082,58.04493],[7.69937,58.04275],[7.69704,58.04243],[7.69664,58.04197],[7.69914,58.04094],[7.69929,58.03928],[7.69408,58.04001],[7.69244,58.0409],[7.69297,58.04464],[7.6948,58.04537],[7.69607,58.04538],[7.69725,58.04388]],[[7.61985,58.04005],[7.61912,58.03968],[7.61664,58.03977],[7.61834,58.04146],[7.62094,58.04118],[7.61985,58.04005]],[[7.706,58.04575],[7.70401,58.0464],[7.70414,58.04753],[7.70679,58.04686],[7.706,58.04575]],[[7.74832,58.04941],[7.74595,58.04941],[7.74554,58.05004],[7.74704,58.05085],[7.74877,58.05059],[7.74901,58.05002],[7.74832,58.04941]],[[7.78702,58.05257],[7.78671,58.05127],[7.78351,58.05228],[7.78067,58.05004],[7.77927,58.05008],[7.78031,58.05269],[7.7859,58.05293],[7.78702,58.05257]],[[7.63292,58.04354],[7.62974,58.04363],[7.62966,58.04464],[7.6308,58.04491],[7.63399,58.04454],[7.63292,58.04354]],[[7.61959,58.02199],[7.61887,58.02248],[7.61956,58.02342],[7.61837,58.02407],[7.61967,58.02506],[7.61949,58.02564],[7.61562,58.02676],[7.61649,58.03026],[7.61902,58.0317],[7.61927,58.03296],[7.61814,58.03395],[7.61964,58.03444],[7.62253,58.03409],[7.62352,58.03477],[7.62268,58.03538],[7.61928,58.03611],[7.62007,58.03706],[7.62005,58.03882],[7.6178,58.03921],[7.61435,58.03922],[7.61375,58.03971],[7.61461,58.04106],[7.61365,58.04155],[7.60978,58.04212],[7.60915,58.04283],[7.60964,58.04442]],[[7.62259,58.04456],[7.62413,58.0448],[7.62519,58.04597],[7.6275,58.04606],[7.62874,58.04519],[7.63805,58.04474],[7.64109,58.04375],[7.63907,58.04289],[7.63361,58.04268],[7.62981,58.04304],[7.6305,58.04213],[7.62964,58.04153],[7.627,58.04146],[7.62417,58.04076],[7.6235,58.04013]],[[7.61104,58.04544],[7.61227,58.0455],[7.61402,58.0444],[7.61642,58.04442],[7.61947,58.04529],[7.62048,58.04436],[7.62259,58.04456]],[[7.73468,58.05043],[7.73344,58.05],[7.73199,58.05138],[7.73589,58.05298],[7.7371,58.0522],[7.7373,58.05134],[7.73468,58.05043]],[[7.71807,58.05085],[7.71969,58.05116],[7.72234,58.04992],[7.72483,58.05052],[7.72724,58.05017],[7.72696,58.04972],[7.7246,58.04903],[7.72294,58.04933],[7.72099,58.04876],[7.72005,58.04892],[7.71899,58.04841],[7.72204,58.04721],[7.71881,58.04676],[7.72107,58.04617],[7.71927,58.04549],[7.71565,58.04588],[7.71656,58.04665],[7.71905,58.04745],[7.71593,58.04788],[7.71818,58.0487],[7.71785,58.0497],[7.71717,58.05001],[7.71662,58.04951],[7.71549,58.04957],[7.71584,58.05039],[7.71491,58.05066],[7.71475,58.04971],[7.7131,58.04937],[7.71239,58.04963],[7.71391,58.05095],[7.71603,58.05192],[7.71807,58.05085]],[[7.7668,58.05403],[7.76545,58.05342],[7.76457,58.05441],[7.76817,58.05596],[7.7668,58.05403]],[[7.79039,58.05539],[7.78571,58.05451],[7.78561,58.05743],[7.78618,58.05771],[7.78996,58.05753]],[[7.77925,58.05483],[7.77983,58.05473],[7.78115,58.05576],[7.78236,58.05506],[7.78085,58.05341],[7.77938,58.05404],[7.77807,58.05341],[7.77519,58.05367],[7.77555,58.05217],[7.7782,58.05251],[7.77863,58.05219],[7.77692,58.04965],[7.77485,58.04916],[7.77391,58.04962],[7.77192,58.04919],[7.77087,58.0495],[7.77115,58.05099],[7.76953,58.05126],[7.7703,58.0526],[7.76896,58.05253],[7.76828,58.05321],[7.76942,58.0541],[7.77033,58.05388],[7.77134,58.05433],[7.77253,58.054],[7.77289,58.0544],[7.77177,58.05653],[7.7743,58.05715],[7.77825,58.05697],[7.77911,58.05624],[7.77925,58.05483]],[[7.78996,58.05753],[7.79126,58.0582],[7.79214,58.0579],[7.7922,58.05681],[7.79039,58.05539]],[[7.7132,58.05069],[7.71095,58.05088],[7.71136,58.05191],[7.7091,58.05291],[7.70983,58.05377],[7.71307,58.05264],[7.71168,58.05161],[7.71337,58.05097],[7.7132,58.05069]],[[7.70549,58.0548],[7.70703,58.0538],[7.70829,58.05147],[7.7066,58.04938]],[[7.6772,58.02534],[7.67624,58.02643],[7.67195,58.02676],[7.67212,58.02704],[7.67446,58.02716],[7.67554,58.0279],[7.67067,58.02972],[7.66925,58.03063],[7.67141,58.03121],[7.66984,58.03219],[7.67284,58.03186],[7.67542,58.03217],[7.67574,58.03304],[7.67741,58.03388],[7.67753,58.03519],[7.68081,58.03539],[7.68195,58.03713],[7.6813,58.03873],[7.67654,58.04072],[7.67493,58.04096],[7.67304,58.04026],[7.67006,58.04003],[7.66407,58.04196],[7.66207,58.04315],[7.66418,58.04438],[7.66696,58.04453],[7.66716,58.04479],[7.65405,58.04916],[7.65325,58.04966],[7.65357,58.05079],[7.6568,58.05219],[7.65797,58.05225],[7.6588,58.05149],[7.66246,58.0503],[7.65822,58.04978],[7.65831,58.04857],[7.66205,58.04752],[7.66454,58.04739],[7.66589,58.04608],[7.67025,58.04432],[7.67692,58.04387],[7.67852,58.04271],[7.68152,58.04282],[7.68324,58.04174],[7.6878,58.04286],[7.69089,58.0455],[7.68797,58.04673],[7.68136,58.04683],[7.68071,58.04875],[7.68197,58.04936],[7.68458,58.04861],[7.68815,58.04873],[7.69386,58.04829],[7.69793,58.04883],[7.70254,58.04797],[7.70424,58.04885],[7.70596,58.04881],[7.7066,58.04938]],[[7.74664,58.05878],[7.74503,58.05779],[7.74373,58.05798],[7.74247,58.05704],[7.74095,58.0571],[7.73856,58.05806],[7.74277,58.05855],[7.74279,58.05974],[7.74436,58.06002],[7.74664,58.05878]],[[7.77976,58.06047],[7.77908,58.05865],[7.77799,58.05876],[7.77738,58.05934],[7.77612,58.05889],[7.7754,58.05915],[7.77726,58.06112],[7.77613,58.06335],[7.7765,58.0639],[7.77998,58.06327],[7.77976,58.06047]],[[7.79343,58.06402],[7.79351,58.06288],[7.78996,58.06212],[7.79026,58.06337],[7.79123,58.06333],[7.79245,58.06462],[7.79507,58.06551],[7.79506,58.06487],[7.79348,58.06436],[7.79343,58.06402]],[[7.78606,58.0635],[7.78328,58.06347],[7.78548,58.06555],[7.78639,58.06465],[7.78606,58.0635]],[[7.70481,58.0581],[7.70189,58.06016],[7.70128,58.06121],[7.70364,58.06354],[7.7022,58.06449],[7.70318,58.06607]],[[7.74652,58.06228],[7.74389,58.06181],[7.74189,58.06228],[7.74382,58.06295],[7.74282,58.06342],[7.74233,58.06456],[7.74428,58.06492],[7.74537,58.06477],[7.74685,58.06276],[7.74652,58.06228]],[[7.7549,58.06531],[7.75424,58.06536],[7.75482,58.06605],[7.75677,58.06629],[7.75698,58.06544],[7.7549,58.06531]],[[7.76846,58.06683],[7.76773,58.06627],[7.76669,58.0666],[7.76309,58.06491],[7.763,58.0645],[7.76425,58.06416],[7.76305,58.06331],[7.76439,58.0633],[7.76483,58.06288],[7.76823,58.06313],[7.77012,58.06284],[7.77121,58.06064],[7.76991,58.05865],[7.76581,58.0581],[7.76285,58.05817],[7.76226,58.05976],[7.76166,58.05849],[7.75918,58.05812],[7.75905,58.05989],[7.76209,58.06282],[7.76168,58.06395],[7.76242,58.0656],[7.76412,58.06589],[7.76443,58.06679],[7.7658,58.06722],[7.76846,58.06683]],[[7.70298,58.06703],[7.70356,58.06652],[7.70318,58.06607]],[[7.79559,58.07311],[7.79501,58.07038],[7.79219,58.06737],[7.78803,58.06705]],[[7.75146,58.07129],[7.753,58.0712],[7.75457,58.07181],[7.75623,58.0719],[7.7567,58.07144],[7.75564,58.07037],[7.75433,58.07009],[7.75014,58.07018],[7.74933,58.07048],[7.74897,58.07102],[7.75,58.07155],[7.75146,58.07129]],[[7.78803,58.06705],[7.78638,58.06697],[7.78537,58.06754],[7.78338,58.06784],[7.78465,58.07049],[7.78439,58.07395],[7.78613,58.07643]],[[7.7737,58.07531],[7.76829,58.07371],[7.76965,58.07314],[7.76898,58.06964],[7.76397,58.06779],[7.76233,58.06809],[7.76195,58.06933],[7.75947,58.06846],[7.75767,58.06914],[7.75821,58.07064],[7.75755,58.07163],[7.75855,58.07277],[7.75804,58.07405],[7.75642,58.07467],[7.75298,58.07461],[7.75379,58.07399],[7.75652,58.0738],[7.75679,58.07309],[7.75587,58.07263],[7.75316,58.07262],[7.75053,58.07177],[7.74877,58.07174],[7.74752,58.07116],[7.7474,58.07043],[7.75256,58.06787],[7.75206,58.06604],[7.75314,58.06489],[7.75556,58.06482],[7.75534,58.06438],[7.75335,58.06385],[7.75647,58.06285],[7.75677,58.06182],[7.75597,58.06131],[7.75441,58.06142],[7.75432,58.06222],[7.7522,58.06181],[7.75143,58.06266],[7.74941,58.06293],[7.74953,58.06372],[7.75053,58.06385],[7.74976,58.06448],[7.74956,58.06591],[7.74826,58.0665],[7.74793,58.06722],[7.74694,58.06748],[7.74519,58.06738],[7.74596,58.06683],[7.74496,58.06586],[7.74303,58.06722],[7.74352,58.06581],[7.7428,58.06554],[7.7366,58.0667],[7.73364,58.06613],[7.73299,58.06442],[7.73407,58.06382],[7.73557,58.06444],[7.73697,58.06428],[7.73772,58.06365],[7.73778,58.06175],[7.73368,58.06041],[7.73261,58.06092],[7.73185,58.06073],[7.732,58.06],[7.73429,58.05903],[7.7341,58.05836],[7.7326,58.05836],[7.73313,58.05899],[7.73238,58.05953],[7.7308,58.05946],[7.73029,58.05902],[7.73293,58.0577],[7.73296,58.0573],[7.72782,58.05829],[7.72742,58.05785],[7.72844,58.05643],[7.73012,58.05654],[7.73206,58.05602],[7.73167,58.05491],[7.73331,58.05469],[7.73508,58.05375],[7.73169,58.05237],[7.73047,58.05252],[7.72977,58.05483],[7.72866,58.05554],[7.7258,58.05434],[7.72226,58.05517],[7.71858,58.05461],[7.71826,58.05407],[7.72213,58.05407],[7.72316,58.05335],[7.72134,58.052],[7.7175,58.0519],[7.71198,58.05492],[7.71055,58.05485],[7.70822,58.05565],[7.70963,58.05677],[7.70984,58.05784],[7.70719,58.05814],[7.70712,58.0591],[7.706,58.05941],[7.70527,58.05903],[7.70606,58.05829],[7.70481,58.0581]],[[7.68739,58.071],[7.69063,58.06924],[7.69086,58.06782],[7.69317,58.06606],[7.69129,58.06447],[7.695,58.0635],[7.69816,58.06175],[7.69898,58.06049],[7.7034,58.05729],[7.70376,58.05649],[7.70285,58.05612],[7.70549,58.0548]],[[7.69582,58.07148],[7.69779,58.07027],[7.70185,58.07021],[7.70176,58.06808],[7.70298,58.06703]],[[7.68889,58.07109],[7.68825,58.07165],[7.68889,58.07214],[7.69061,58.07118]],[[7.68739,58.071],[7.68716,58.07202],[7.68886,58.07412],[7.68996,58.07389],[7.69255,58.0713]],[[7.70113,58.07605],[7.70106,58.0764]],[[7.78505,58.08187],[7.78618,58.07897],[7.78739,58.07794],[7.78631,58.07667]],[[7.77795,58.07619],[7.77884,58.07662],[7.77846,58.0777],[7.78205,58.07817],[7.78391,58.079],[7.78386,58.08194]],[[7.70081,58.07764],[7.70147,58.07682],[7.70106,58.0764]],[[7.70034,58.07993],[7.70169,58.07974],[7.70172,58.08072],[7.70276,58.08098],[7.7034,58.07966],[7.70513,58.08005],[7.70793,58.0778],[7.7104,58.07747],[7.71174,58.07676],[7.71086,58.07642],[7.71126,58.07572],[7.70881,58.07486],[7.7041,58.07397],[7.70294,58.0728],[7.70113,58.07605]],[[7.69582,58.07148],[7.69549,58.07295],[7.69273,58.07664],[7.69345,58.07888],[7.68789,58.08171],[7.68606,58.08452],[7.68614,58.08565],[7.68714,58.0858],[7.68952,58.08494],[7.69366,58.08267],[7.70081,58.07764]],[[7.67418,58.09643],[7.67379,58.09602],[7.67815,58.09522],[7.68065,58.0933],[7.68512,58.09186],[7.68527,58.09053],[7.6877,58.09009],[7.68793,58.08763],[7.69024,58.08555],[7.69316,58.08489],[7.69652,58.08591],[7.69744,58.08569],[7.69779,58.08468],[7.69673,58.08429],[7.69632,58.0835],[7.69786,58.08147],[7.70034,58.07993]],[[7.69473,58.07142],[7.69344,58.07355],[7.6911,58.07572],[7.68595,58.07797],[7.68291,58.08194],[7.68159,58.08196],[7.67969,58.08294],[7.68073,58.08399],[7.67871,58.08474],[7.6777,58.08559],[7.6794,58.08594],[7.67932,58.08671],[7.67443,58.09135],[7.67443,58.09191],[7.67595,58.09231],[7.676,58.09315],[7.67112,58.0973],[7.66793,58.09811],[7.66687,58.10132],[7.66343,58.10273],[7.66339,58.10351],[7.66448,58.10367],[7.66923,58.102],[7.67213,58.10013],[7.67313,58.09821],[7.67474,58.09698]],[[7.61151,58.00004],[7.60934,58.0001],[7.60985,58.00106],[7.61111,58.00093],[7.61185,58.00036],[7.61151,58.00004]],[[7.63985,58.01227],[7.63911,58.01221],[7.63854,58.01284],[7.63902,58.01416],[7.64029,58.01402],[7.64072,58.01348],[7.63985,58.01227]],[[7.63432,58.00953],[7.63011,58.00817]],[[7.54558,58.00631],[7.54554,58.00649]],[[7.50133,58.00278],[7.50045,58.00269],[7.49914,58.00326],[7.49953,58.0039],[7.5031,58.00414],[7.50133,58.00278]],[[7.62935,58.01526],[7.62883,58.01436]],[[7.62205,58.01416],[7.6209,58.0137],[7.62018,58.01415],[7.62098,58.01497],[7.62318,58.0156],[7.62205,58.01416]],[[7.68951,58.02194],[7.68833,58.02183],[7.68851,58.02259],[7.68967,58.02312],[7.6911,58.02315],[7.69105,58.02234],[7.68951,58.02194]],[[7.69585,58.024],[7.69481,58.02392],[7.69452,58.02421],[7.6951,58.02528],[7.69605,58.02557],[7.69742,58.0249],[7.69585,58.024]],[[7.50109,58.01503],[7.50141,58.01566]],[[7.78805,58.04064],[7.78644,58.04082],[7.7863,58.04234],[7.78824,58.04192],[7.78805,58.04064]],[[7.77112,58.04183],[7.76735,58.04203],[7.76701,58.04264],[7.76819,58.04328],[7.76945,58.04267],[7.77164,58.04247],[7.77112,58.04183]],[[7.70752,58.04489],[7.70759,58.04456]],[[7.70759,58.04456],[7.70532,58.04417],[7.70494,58.04457],[7.70612,58.04526],[7.70752,58.04489]],[[7.74401,58.04688],[7.74141,58.04715],[7.74086,58.0477],[7.74417,58.04791],[7.74401,58.04688]],[[7.76536,58.05226],[7.76661,58.05217],[7.76706,58.05265],[7.76748,58.05188],[7.76663,58.05095],[7.76435,58.05027],[7.76388,58.05206],[7.76475,58.05285],[7.76536,58.05226]],[[7.74341,58.05113],[7.74147,58.0503],[7.74074,58.05058],[7.7421,58.0518],[7.74317,58.05166],[7.74341,58.05113]],[[7.60964,58.04442],[7.61104,58.04544]],[[7.72753,58.05304],[7.72857,58.05272],[7.72951,58.05293],[7.72959,58.05199],[7.7279,58.05148],[7.72723,58.05169],[7.72712,58.05235],[7.72493,58.05211],[7.72582,58.05294],[7.72753,58.05304]],[[7.7706,58.05501],[7.76893,58.05483],[7.77044,58.05686],[7.77091,58.05664],[7.7706,58.05501]],[[7.74578,58.05482],[7.74436,58.05468],[7.74336,58.0551],[7.7431,58.05581],[7.74423,58.05611],[7.74532,58.05594],[7.74578,58.05482]],[[7.74125,58.0597],[7.73921,58.05959],[7.73789,58.06063],[7.74054,58.06041],[7.74125,58.0597]],[[7.74406,58.06071],[7.74271,58.06034],[7.74199,58.06077],[7.74213,58.06177],[7.74444,58.06113],[7.74406,58.06071]],[[7.77548,58.07605],[7.77394,58.07541]],[[7.73974,58.06121],[7.73823,58.06109],[7.73875,58.06195],[7.73983,58.06238],[7.73983,58.06352],[7.74046,58.06368],[7.74156,58.06322],[7.74134,58.06188],[7.73974,58.06121]],[[7.7737,58.07531],[7.77394,58.07541]],[[7.69061,58.07118],[7.69006,58.07026],[7.68889,58.07109]],[[7.69473,58.07142],[7.69368,58.07097],[7.69255,58.0713]],[[7.77795,58.07619],[7.7767,58.07612]],[[7.78631,58.07667],[7.78613,58.07643]],[[7.77548,58.07605],[7.7767,58.07612]],[[7.79882,58.01371],[7.79818,58.01453],[7.79524,58.01523],[7.79436,58.01632],[7.79455,58.01694],[7.79583,58.01756],[7.79818,58.01685]],[[7.79818,58.01685],[7.80067,58.01612],[7.80184,58.01404],[7.80161,58.01366],[7.79997,58.01344],[7.79882,58.01371]],[[7.8099,58.01764],[7.81134,58.0163],[7.81078,58.01611],[7.81118,58.01461],[7.81048,58.01418],[7.80511,58.01461],[7.80196,58.01648],[7.80243,58.0169],[7.80457,58.01709],[7.80372,58.01794],[7.80402,58.01874],[7.80664,58.01882],[7.8099,58.01764]],[[7.79678,58.02382],[7.79604,58.0243],[7.79652,58.02507]],[[7.79652,58.02507],[7.79866,58.02603],[7.80138,58.02497],[7.80411,58.02567],[7.80643,58.02421],[7.8046,58.02403],[7.80578,58.02289],[7.80703,58.02247],[7.81208,58.02258],[7.81416,58.02228],[7.81624,58.02112],[7.81527,58.02038],[7.81297,58.02048],[7.80978,58.01997],[7.80383,58.02183],[7.79956,58.02377],[7.79678,58.02382]],[[7.81466,58.04201],[7.81371,58.04161],[7.81142,58.04166],[7.81038,58.04327],[7.81337,58.04328],[7.81466,58.04286],[7.81514,58.04216],[7.81466,58.04201]],[[7.81048,58.04066],[7.80837,58.04012],[7.80552,58.04085],[7.80486,58.04222],[7.80805,58.04325],[7.80966,58.04255],[7.80963,58.0417],[7.81105,58.04106],[7.81048,58.04066]],[[7.8408,58.04285],[7.83648,58.0415],[7.83415,58.04281],[7.83764,58.04565],[7.84098,58.0447],[7.8408,58.04285]],[[7.82713,58.04981],[7.82698,58.04895],[7.8259,58.04858],[7.82453,58.04889],[7.8231,58.04874],[7.82388,58.0475],[7.82096,58.04686],[7.81905,58.04695],[7.81587,58.048],[7.81612,58.04883],[7.81722,58.04917],[7.8249,58.0499],[7.82713,58.04981]],[[7.85293,58.05282],[7.85481,58.05311],[7.85689,58.05285],[7.857,58.05191],[7.85217,58.04971],[7.85309,58.04886],[7.85276,58.04794],[7.84937,58.04699],[7.84492,58.04675],[7.8438,58.04709],[7.84409,58.04779],[7.84303,58.04849],[7.84503,58.05073],[7.84355,58.05215],[7.84014,58.05076],[7.84028,58.04996],[7.84254,58.04913],[7.84224,58.04821],[7.84144,58.04836],[7.83833,58.04756],[7.83775,58.04788],[7.83809,58.04914],[7.83622,58.04888],[7.83409,58.04937],[7.83226,58.05071],[7.83478,58.05164],[7.83603,58.05114],[7.83951,58.05247],[7.84384,58.05283]],[[7.92576,58.05686],[7.92407,58.05541],[7.91887,58.05596],[7.92065,58.055],[7.92025,58.0546],[7.91715,58.05489],[7.91522,58.05584],[7.9155,58.05628],[7.92181,58.05746],[7.92531,58.05725],[7.92576,58.05686]],[[7.85754,58.05397],[7.8569,58.05345],[7.85264,58.05322],[7.85206,58.05369],[7.85226,58.05416],[7.85607,58.05534],[7.85736,58.05495],[7.85754,58.05397]],[[7.84384,58.05283],[7.84491,58.05432],[7.84736,58.05595],[7.8483,58.05604],[7.84976,58.05567],[7.85033,58.05395],[7.84646,58.05332],[7.84639,58.05294],[7.85293,58.05282]],[[7.87558,58.05452],[7.8677,58.05464],[7.86641,58.05542],[7.86955,58.05686],[7.87277,58.0569],[7.87438,58.05717],[7.87494,58.05772]],[[7.87494,58.05772],[7.87942,58.05695],[7.88049,58.05595],[7.87558,58.05452]],[[7.95903,58.06236],[7.95791,58.06344],[7.95878,58.06366]],[[7.95878,58.06366],[7.96103,58.06301],[7.96271,58.06297],[7.96171,58.06236],[7.95903,58.06236]],[[7.81597,58.05404],[7.82011,58.05427],[7.82163,58.05335],[7.82517,58.05271],[7.8226,58.05209],[7.8198,58.05047],[7.81547,58.04965],[7.81298,58.05078],[7.81346,58.0521],[7.81298,58.05243],[7.80939,58.05154],[7.80981,58.05277],[7.80933,58.05367],[7.81199,58.05527],[7.81409,58.05558],[7.81483,58.05553],[7.81528,58.0542],[7.81597,58.05404]],[[8.0005,58.06299],[7.99736,58.06185],[7.99527,58.06184],[7.99417,58.06231]],[[7.97151,58.06377],[7.97157,58.06272],[7.97067,58.06142],[7.97286,58.05996],[7.9722,58.05923],[7.96871,58.06067],[7.964,58.06445],[7.96493,58.06466],[7.96701,58.06366],[7.96848,58.06489]],[[7.86517,58.05604],[7.86342,58.05599],[7.86262,58.05639],[7.85954,58.0586],[7.85957,58.05902],[7.86387,58.05984],[7.86496,58.05932],[7.86683,58.05936],[7.86866,58.05879],[7.86949,58.05785],[7.86863,58.05699],[7.86517,58.05604]],[[7.803,58.05712],[7.80225,58.05672],[7.80001,58.05684],[7.79891,58.05776],[7.80275,58.05813],[7.80362,58.05761],[7.803,58.05712]],[[7.99417,58.06231],[7.9937,58.06248],[7.99214,58.06187],[7.99034,58.06201],[7.98858,58.06364],[7.98496,58.06358],[7.98316,58.0606],[7.98459,58.05945],[7.98028,58.05888],[7.98139,58.06135],[7.98068,58.06195],[7.97808,58.0622],[7.97717,58.06263],[7.97735,58.06325],[7.97865,58.06356],[7.97919,58.06423],[7.97678,58.06415],[7.97696,58.06512],[7.97859,58.06608],[7.97658,58.06887],[7.97316,58.06524],[7.97024,58.06573],[7.96938,58.06538],[7.97052,58.06493],[7.97151,58.06377]],[[7.83796,58.06126],[7.83748,58.06077],[7.83559,58.06031],[7.83593,58.05964],[7.83752,58.05933],[7.83857,58.0602],[7.84045,58.06033],[7.84117,58.05972],[7.83996,58.05928],[7.84314,58.05793],[7.84415,58.05651],[7.84379,58.05515],[7.84183,58.05425],[7.84092,58.05313],[7.83839,58.0529],[7.83808,58.05237],[7.83665,58.05238],[7.83528,58.0533],[7.83096,58.05428],[7.8277,58.05359],[7.82493,58.05477],[7.82283,58.05717],[7.82297,58.05834],[7.83049,58.05998],[7.834,58.06026],[7.83323,58.06088],[7.83019,58.06087],[7.83015,58.06122],[7.8314,58.06158],[7.83752,58.06165],[7.83796,58.06126]],[[7.80204,58.05869],[7.79996,58.05853],[7.79965,58.05925],[7.80137,58.0602],[7.80352,58.06083],[7.80453,58.06077],[7.80501,58.05949],[7.80309,58.05924],[7.80204,58.05869]],[[7.87334,58.06572],[7.87134,58.0664],[7.86797,58.06369],[7.8663,58.06307],[7.86366,58.06343],[7.86281,58.06425]],[[7.84063,58.06293],[7.83928,58.06236],[7.83711,58.06241],[7.83641,58.06294],[7.8379,58.06401],[7.84179,58.06489],[7.84362,58.06364],[7.84063,58.06293]],[[7.96846,58.06492],[7.96704,58.06498],[7.9657,58.06664],[7.96322,58.06714],[7.96171,58.06871],[7.9646,58.06972],[7.96257,58.07045],[7.96514,58.07356]],[[7.9328,58.06935],[7.93578,58.06848],[7.93581,58.06792],[7.93434,58.06748],[7.92987,58.06756],[7.92892,58.0679],[7.92789,58.06726],[7.92422,58.0673],[7.92207,58.06778],[7.9207,58.06864],[7.92108,58.06894],[7.92303,58.06882],[7.92351,58.06959],[7.92538,58.0703],[7.9328,58.06935]],[[7.87268,58.069],[7.87462,58.06856],[7.87706,58.06873],[7.8796,58.06753],[7.87932,58.06707],[7.87635,58.06705],[7.87753,58.06571],[7.87585,58.06558],[7.87548,58.06478],[7.87334,58.06572]],[[7.86281,58.06425],[7.86163,58.06615],[7.85756,58.06747],[7.85731,58.06787],[7.85935,58.06844],[7.86193,58.06776],[7.8677,58.06781]],[[7.8677,58.06781],[7.86593,58.06828],[7.86475,58.06923],[7.86573,58.06938],[7.86774,58.06853],[7.87268,58.069]],[[7.80045,58.06473],[7.80132,58.06525],[7.80206,58.06493],[7.80135,58.06377],[7.80224,58.0619],[7.80188,58.0611],[7.79984,58.06091],[7.79825,58.06126],[7.79759,58.06193],[7.79798,58.06308],[7.79743,58.06465],[7.79874,58.06749],[7.8005,58.06745],[7.80045,58.06473]],[[7.87193,58.07277],[7.87201,58.07314],[7.87284,58.07326],[7.87444,58.0723],[7.87622,58.07238],[7.8776,58.07201],[7.87839,58.0727],[7.87738,58.07338]],[[7.96514,58.07356],[7.96807,58.07611],[7.97025,58.07682],[7.96987,58.07742],[7.96856,58.07774],[7.96878,58.07839],[7.97036,58.07887],[7.97477,58.07863],[7.97607,58.07934],[7.97732,58.07927],[7.97792,58.07883],[7.97875,58.07968],[7.98235,58.08065],[7.98457,58.07972],[7.98532,58.07819],[7.98662,58.07721],[7.98606,58.07497],[7.98537,58.07433],[7.98407,58.07426],[7.98318,58.07333],[7.9835,58.07196],[7.9868,58.07289],[7.98853,58.0746],[7.98884,58.07585],[7.99066,58.07627]],[[7.87425,58.07436],[7.87149,58.07495]],[[7.85539,58.07411],[7.85557,58.07323],[7.85471,58.07252],[7.85848,58.07001],[7.85986,58.07122],[7.85738,58.07276],[7.85776,58.07298],[7.8596,58.07261],[7.86259,58.07095],[7.86382,58.07082],[7.86535,58.07126],[7.86715,58.07094],[7.86939,58.07181],[7.86892,58.07237],[7.86706,58.0726],[7.86677,58.07355],[7.87105,58.07257],[7.87193,58.07277]],[[7.79731,58.06937],[7.79688,58.06822],[7.79558,58.06836],[7.79584,58.07024],[7.79722,58.07095],[7.7977,58.0707],[7.79731,58.06937]],[[7.9286,58.07883],[7.93288,58.07904],[7.93455,58.0786],[7.93076,58.07726],[7.92671,58.07668],[7.92596,58.07722],[7.9286,58.07883]],[[7.99066,58.07627],[7.99375,58.07671],[7.99116,58.0775],[7.99004,58.07896],[7.98735,58.08045],[7.9872,58.08209],[7.98922,58.08232],[7.99196,58.08165],[7.99274,58.08193],[7.99534,58.08074],[7.99739,58.08034],[7.999,58.0812],[7.9958,58.08328]],[[7.87114,58.07672],[7.87303,58.07666],[7.87425,58.07436]],[[7.9912,58.08262],[7.98801,58.08278],[7.98775,58.08322],[7.98867,58.08357],[7.98817,58.08463],[7.9912,58.08262]],[[7.80358,58.07215],[7.803,58.07207],[7.80228,58.07258],[7.80194,58.07424],[7.80405,58.07389],[7.80358,58.07215]],[[7.86282,58.07771],[7.87114,58.07672]],[[7.88627,58.07682],[7.88865,58.07697],[7.88895,58.07568],[7.88146,58.07533],[7.87545,58.07651],[7.87483,58.07782],[7.87552,58.07852],[7.8769,58.07865],[7.88627,58.07682]],[[7.87149,58.07495],[7.86842,58.07573],[7.86643,58.07532],[7.86477,58.07549],[7.86299,58.07684],[7.8607,58.07761],[7.86282,58.07771]],[[7.95483,58.08362],[7.95679,58.08334],[7.95697,58.08199],[7.95899,58.08096],[7.95899,58.08022],[7.95755,58.07996],[7.95727,58.07899],[7.95588,58.0783]],[[7.79559,58.07311],[7.79885,58.07433],[7.79981,58.07547]],[[7.9629,58.08459],[7.96434,58.08387],[7.96896,58.08446],[7.96966,58.08417],[7.96906,58.08336],[7.96346,58.08299],[7.96148,58.0836],[7.96125,58.08439],[7.9629,58.08459]],[[7.98448,58.08465],[7.98363,58.0846],[7.98252,58.08545],[7.9829,58.08617],[7.98449,58.08663],[7.98579,58.08584],[7.9847,58.08543],[7.98448,58.08465]],[[7.81802,58.07766],[7.81687,58.07546],[7.82172,58.07356],[7.82376,58.07204],[7.82292,58.07104],[7.8218,58.07183],[7.81843,58.07048],[7.81852,58.06996],[7.81985,58.06972],[7.81642,58.06765],[7.81758,58.06689],[7.81634,58.0657],[7.81808,58.06511],[7.82174,58.06605],[7.82256,58.06581],[7.82228,58.06533],[7.82524,58.0657],[7.82817,58.06532],[7.8275,58.06466],[7.82813,58.06435],[7.83105,58.06424],[7.83301,58.06494],[7.83705,58.06463],[7.8394,58.06554],[7.84007,58.06622],[7.83951,58.06772],[7.83865,58.06789],[7.83795,58.0687],[7.83846,58.06952],[7.83938,58.06888],[7.84139,58.06898],[7.84144,58.06963],[7.84035,58.0698],[7.84101,58.07084],[7.83853,58.07091],[7.83724,58.06986],[7.83419,58.06902],[7.83303,58.06917],[7.83263,58.07008],[7.83345,58.07078],[7.83819,58.07173],[7.83881,58.07245],[7.83816,58.07359],[7.83963,58.07402],[7.84118,58.0739],[7.84227,58.07486],[7.84072,58.07551],[7.84211,58.07587],[7.84427,58.07564],[7.84699,58.076],[7.84863,58.07576],[7.85092,58.07596],[7.85358,58.07536],[7.85345,58.07449],[7.85539,58.07411]],[[7.9392,58.08254],[7.93831,58.08215],[7.93732,58.08278],[7.93747,58.08352],[7.93804,58.08427],[7.93962,58.0845],[7.94004,58.08422],[7.9392,58.08254]],[[7.80832,58.07699],[7.80828,58.07776],[7.80898,58.07791],[7.80887,58.07702],[7.81026,58.07664],[7.8097,58.07567],[7.81067,58.07563],[7.81366,58.07634],[7.81564,58.07795]],[[7.80226,58.07757],[7.79981,58.07547]],[[7.80621,58.0778],[7.80647,58.0772],[7.80832,58.07699]],[[7.92607,58.08454],[7.92292,58.08181],[7.92021,58.08125],[7.91631,58.08154],[7.9173,58.08071],[7.92163,58.08005],[7.92309,58.07891],[7.92281,58.07773],[7.92092,58.07587],[7.91958,58.07574],[7.91718,58.07631],[7.915,58.07572],[7.91818,58.07458],[7.91787,58.07341],[7.91524,58.07158],[7.91107,58.07165],[7.91241,58.07081],[7.91059,58.06991],[7.90705,58.07042],[7.90652,58.06996],[7.90451,58.07005],[7.90486,58.07302],[7.89655,58.07444],[7.89622,58.07414],[7.89745,58.07357],[7.89538,58.07307],[7.89354,58.07177],[7.88701,58.07278],[7.8862,58.07398],[7.88483,58.07444],[7.88444,58.07424],[7.88573,58.07236],[7.88545,58.07179],[7.88222,58.07336],[7.88027,58.07312],[7.87784,58.0741],[7.87738,58.07338]],[[7.94301,58.08549],[7.94284,58.08444],[7.94162,58.08311],[7.94488,58.08003],[7.9487,58.07908],[7.94834,58.07879],[7.94418,58.07929],[7.94309,58.07876],[7.94322,58.07799],[7.94531,58.07657],[7.94648,58.077],[7.94861,58.07611],[7.95108,58.07568],[7.95206,58.07627],[7.95263,58.07776],[7.95136,58.07823],[7.9501,58.07805],[7.94998,58.07862],[7.95101,58.07883],[7.95442,58.07816],[7.95588,58.0783]],[[7.95195,58.08598],[7.95235,58.08519],[7.95402,58.08462],[7.95483,58.08362]],[[7.95848,58.08635],[7.95636,58.08623]],[[7.96878,58.08692],[7.97082,58.08645],[7.9691,58.08553],[7.96793,58.08583],[7.96722,58.08516],[7.96618,58.08501],[7.96088,58.08518],[7.96106,58.08649]],[[7.9958,58.08328],[7.99483,58.08457],[7.99275,58.08513],[7.99084,58.08705],[7.99125,58.08758],[7.99176,58.08751],[7.99186,58.0882]],[[7.95848,58.08635],[7.96033,58.08678],[7.96106,58.08649]],[[7.95195,58.08598],[7.95304,58.08707],[7.95412,58.08721]],[[7.95412,58.08721],[7.95636,58.08623]],[[7.80226,58.07757],[7.80363,58.08018],[7.8046,58.08018],[7.8049,58.07948],[7.8061,58.0794],[7.80621,58.0778]],[[7.99186,58.0882],[7.99223,58.08883],[7.99433,58.08949],[7.99434,58.0899],[7.99526,58.09022],[7.99585,58.09103],[7.99458,58.09149],[7.99478,58.09246],[7.99657,58.09303],[8.00137,58.09248]],[[8.0021,58.09369],[7.99868,58.09401],[7.99889,58.09512],[8.0002,58.09505]],[[7.92607,58.08454],[7.92624,58.08552],[7.92399,58.08671],[7.92689,58.08736],[7.92738,58.08813],[7.92462,58.09112],[7.92546,58.09143],[7.92778,58.09052],[7.93001,58.09111],[7.93052,58.0925],[7.93221,58.09341],[7.93277,58.09586],[7.93463,58.09446],[7.93459,58.09353],[7.93306,58.09181],[7.93406,58.09075],[7.93348,58.09016],[7.93264,58.09094],[7.93172,58.09092],[7.93101,58.09038],[7.93133,58.08963],[7.93401,58.08941],[7.93547,58.08888],[7.93715,58.08764],[7.93853,58.08731],[7.9391,58.08602],[7.94301,58.08549]],[[7.97126,58.09951],[7.97453,58.09766],[7.97326,58.09469],[7.9772,58.09365],[7.97772,58.09252],[7.97575,58.09141],[7.97517,58.08979],[7.97384,58.09002],[7.97208,58.08953],[7.97236,58.08913],[7.97461,58.08868],[7.97443,58.08749],[7.972,58.08762],[7.97035,58.08877],[7.96852,58.08863],[7.96878,58.08692]],[[7.97126,58.09951],[7.97099,58.09994],[7.97203,58.09999],[7.97533,58.09944],[7.97831,58.09959],[7.97898,58.1],[7.98284,58.10064],[7.98462,58.10061],[7.98581,58.10005],[7.98509,58.099],[7.9865,58.09873],[7.98743,58.0991],[7.98767,58.10097],[7.9894,58.10137],[7.98764,58.10179]],[[7.98417,58.10228],[7.98131,58.10478],[7.98159,58.10522],[7.98613,58.10501],[7.98941,58.10443],[7.98977,58.10366],[7.98727,58.10369],[7.99033,58.10255],[7.98764,58.10179]],[[7.93293,58.09743],[7.93231,58.09746],[7.9323,58.0993],[7.93394,58.1004],[7.93312,58.10133],[7.93346,58.10253],[7.93509,58.10286],[7.93633,58.10224],[7.93661,58.10039],[7.93293,58.09743]],[[7.99779,58.10879],[7.99607,58.10869],[7.99515,58.10787],[7.99389,58.10778],[7.99444,58.10943],[7.99687,58.10962],[7.99779,58.10879]],[[7.99295,58.10935],[7.98935,58.10946],[7.98916,58.11133],[7.99373,58.11051],[7.99295,58.10935]],[[7.95906,58.11226],[7.96259,58.11483],[7.96474,58.1156],[7.96678,58.1148],[7.9692,58.11554],[7.97026,58.11507],[7.9718,58.11305],[7.97289,58.11337]],[[7.98417,58.10228],[7.98174,58.10208],[7.97998,58.10245],[7.9787,58.10326],[7.97724,58.10485],[7.97678,58.10587],[7.97721,58.1064],[7.9755,58.1079],[7.97577,58.10908],[7.973,58.11145],[7.97395,58.11198],[7.97726,58.11129],[7.97763,58.11066],[7.97676,58.11],[7.97685,58.10902],[7.97783,58.10778],[7.98503,58.10789],[7.98642,58.10716],[7.99083,58.10638],[7.99114,58.10679],[7.98958,58.10772],[7.99027,58.10805],[7.98979,58.10881],[7.9833,58.1123],[7.98333,58.11283],[7.98464,58.11324],[7.98765,58.11248],[7.98876,58.11373],[7.98703,58.11464],[7.98353,58.11429],[7.98157,58.1154],[7.98007,58.11542],[7.97925,58.11441],[7.97617,58.11525],[7.97458,58.1164],[7.97418,58.11548],[7.97295,58.11511],[7.97394,58.11339],[7.97349,58.11312],[7.97289,58.11337]],[[7.99058,58.12134],[7.99062,58.12245],[7.99766,58.12155],[7.99929,58.12163],[8.0002,58.12144]],[[8.00194,58.11958],[7.99677,58.12056],[7.99635,58.12032]],[[7.95906,58.11226],[7.95618,58.11236],[7.95547,58.11315],[7.95591,58.11483],[7.96105,58.11549],[7.96269,58.11611],[7.9633,58.11733],[7.96618,58.11793],[7.96609,58.11872],[7.96532,58.11885],[7.96347,58.11896],[7.96089,58.11848],[7.95991,58.12035],[7.96077,58.12088],[7.96776,58.12104]],[[7.99635,58.12032],[7.99762,58.11947],[8.00024,58.11928]],[[8.00021,58.11617],[7.99965,58.11572],[8.00183,58.11544]],[[8.00105,58.11436],[7.99733,58.11483],[7.99593,58.11574],[7.99207,58.11552],[7.98675,58.1159],[7.98481,58.11672],[7.98351,58.11888],[7.98265,58.11881],[7.98405,58.12052],[7.98379,58.12099],[7.98502,58.12194],[7.98411,58.12251],[7.98426,58.12299],[7.98635,58.12313],[7.98547,58.12422],[7.98581,58.12462],[7.98709,58.12501],[7.98969,58.1251],[7.99021,58.1237],[7.98901,58.12276],[7.98927,58.12191],[7.98708,58.12175],[7.99058,58.12134]],[[8.00277,58.12525],[7.99712,58.12643],[7.99557,58.12748],[8.00045,58.12731]],[[7.9749,58.12841],[7.97537,58.12809],[7.97822,58.12793],[7.97795,58.12667],[7.97609,58.12582],[7.9711,58.12579],[7.97104,58.12488],[7.97293,58.12506],[7.97377,58.1242],[7.97102,58.1235],[7.97143,58.12157],[7.9708,58.12109],[7.96952,58.1208],[7.96776,58.12104]],[[7.9749,58.12841],[7.97992,58.12996],[7.97998,58.1307],[7.97594,58.13207],[7.97259,58.13201],[7.97183,58.13171],[7.97156,58.13213]],[[8.00229,58.13114],[7.99866,58.13363]],[[7.97156,58.13213],[7.97231,58.13303],[7.97135,58.1337],[7.96563,58.13495]],[[7.99866,58.13363],[7.99943,58.135],[7.9976,58.13603],[7.99624,58.13932],[7.99563,58.13931]],[[7.99733,58.14139],[7.99908,58.14049],[8.00003,58.14099]],[[7.97846,58.14038],[7.97608,58.13992],[7.97559,58.13915],[7.97677,58.13847],[7.97637,58.13721],[7.97066,58.13718],[7.96942,58.13688],[7.96911,58.13603],[7.96563,58.13495]],[[7.98916,58.14431],[7.99085,58.14409],[7.99198,58.14324],[7.99133,58.14153],[7.99369,58.14057],[7.99396,58.14009],[7.99341,58.1399],[7.98969,58.141],[7.9887,58.14024],[7.98894,58.13986],[7.99489,58.13842],[7.99563,58.13931]],[[7.97846,58.14038],[7.98204,58.14132],[7.98396,58.14238],[7.98623,58.14481],[7.98916,58.14431]],[[7.99733,58.14139],[7.9976,58.14185],[8.00105,58.14318]],[[7.79583,58.0285],[7.7951,58.02889],[7.79554,58.02993]],[[7.79554,58.02993],[7.79685,58.03041],[7.79972,58.02903],[7.79583,58.0285]],[[7.85929,58.05],[7.85792,58.04973],[7.8566,58.05004],[7.8566,58.05106],[7.85816,58.05102],[7.85929,58.05]],[[7.96557,58.05519],[7.96499,58.05523],[7.96492,58.0574],[7.9655,58.05757],[7.96752,58.05624],[7.96748,58.05583],[7.96591,58.05563],[7.96557,58.05519]],[[7.90044,58.05569],[7.90241,58.05522],[7.90058,58.05451],[7.89803,58.05543],[7.89836,58.05578],[7.90044,58.05569]],[[7.91049,58.05796],[7.90782,58.05814],[7.90634,58.05896],[7.90963,58.0589],[7.91069,58.05847],[7.91049,58.05796]],[[7.96848,58.06489],[7.96846,58.06492]],[[7.84511,58.05724],[7.8443,58.05721],[7.84414,58.05831],[7.84632,58.05855],[7.84671,58.0577],[7.84511,58.05724]],[[7.82243,58.06187],[7.82129,58.06191],[7.8212,58.06239],[7.82291,58.06285],[7.82459,58.06254],[7.82445,58.06221],[7.82243,58.06187]],[[7.91883,58.06713],[7.91665,58.06761],[7.91543,58.0683],[7.91909,58.06774],[7.91883,58.06713]],[[7.94478,58.06972],[7.94333,58.06944],[7.94356,58.07134],[7.94409,58.07152],[7.94501,58.07073],[7.94478,58.06972]],[[7.90024,58.07205],[7.89788,58.07206],[7.89874,58.07315],[7.90136,58.07291],[7.90024,58.07205]],[[7.93299,58.07622],[7.93013,58.07605],[7.93041,58.0765],[7.93314,58.07717],[7.93361,58.07695],[7.93299,58.07622]],[[7.94209,58.08544],[7.94263,58.08509],[7.9401,58.08468],[7.93897,58.08493],[7.93909,58.08527]],[[7.93909,58.08527],[7.94015,58.08559],[7.94209,58.08544]],[[7.97845,58.11642],[7.97873,58.11502],[7.97798,58.11545],[7.9764,58.11537],[7.97603,58.11619],[7.97794,58.11665],[7.97845,58.11642]],[[7.10393,58.00394],[7.10462,58.00135],[7.10099,57.99986]],[[7.10895,58.00652],[7.10738,58.00585],[7.10739,58.00481],[7.10831,58.0044],[7.10701,58.0036],[7.10544,58.00443],[7.10393,58.00394]],[[7.03202,57.99976],[7.0343,58.00166],[7.03349,58.00307],[7.03643,58.00402]],[[7.03779,58.00494],[7.03779,58.00458],[7.03643,58.00402]],[[7.03598,58.00602],[7.0371,58.0062],[7.03779,58.00494]],[[7.03598,58.00602],[7.03489,58.00572],[7.03363,58.00633],[7.03557,58.00786]],[[7.03509,58.01001],[7.03655,58.00936],[7.03557,58.00786]],[[7.03509,58.01001],[7.03426,58.01076],[7.03481,58.01124]],[[7.00146,58.00997],[7.001,58.00923],[6.99775,58.00855]],[[6.99863,58.00587],[7.00074,58.00625],[6.99977,58.0077]],[[6.99977,58.0077],[7.00105,58.00833],[7.00282,58.00753],[7.00453,58.00588],[7.0036,58.0037],[7.00481,58.00191],[7.00405,58.00069],[7.00596,57.99944]],[[6.99924,58.00076],[7.00192,58.00089],[7.00231,58.0014],[7.001,58.00266],[6.99912,58.00239]],[[6.99808,58.00965],[7.00054,58.01093],[7.00144,58.01059],[7.00146,58.00997]],[[7.03481,58.01124],[7.0384,58.01709],[7.03815,58.01767]],[[7.02465,58.01793],[7.02419,58.0173],[7.02443,58.01385],[7.02273,58.01331],[7.02062,58.01395],[7.02028,58.01525],[7.01815,58.01707]],[[7.01811,58.01708],[7.01728,58.01694],[7.01631,58.01576],[7.01784,58.01508],[7.01863,58.01291],[7.01745,58.01231],[7.01355,58.01215],[7.01198,58.01671],[7.01582,58.01893]],[[7.01582,58.01893],[7.01904,58.01988],[7.02139,58.02014],[7.02145,58.02042],[7.01846,58.02126],[7.0149,58.02021],[7.01406,58.02044],[7.01414,58.02109],[7.01317,58.02171],[7.01106,58.02254],[7.01047,58.02184],[7.01096,58.02031],[7.01179,58.0198]],[[6.99952,58.02357],[7.00015,58.02032],[6.99873,58.02021]],[[7.01179,58.0198],[7.00929,58.01776],[7.0084,58.01601],[7.01003,58.01518],[7.00873,58.01351],[7.00785,58.01331],[7.00698,58.01373],[7.00737,58.01502],[7.00665,58.0153],[7.00489,58.01457],[7.00304,58.01477],[7.0027,58.0155],[7.0039,58.01675],[7.00389,58.01764],[7.00193,58.01909],[7.00128,58.02198],[7.00039,58.02308],[7.00403,58.02513],[7.00519,58.02515],[7.00555,58.02604],[7.00699,58.02641],[7.00377,58.02745],[7.00339,58.02833],[7.0073,58.02922],[7.00905,58.03]],[[7.02007,58.0307],[7.01974,58.02998],[7.01524,58.02816],[7.02066,58.02774],[7.02099,58.02679],[7.02404,58.0266],[7.02461,58.02622],[7.0246,58.02536],[7.02376,58.02501],[7.02427,58.02344],[7.02289,58.02043],[7.02491,58.01857],[7.02465,58.01793]],[[7.05098,58.03264],[7.04527,58.02874],[7.04501,58.02736],[7.04127,58.0244],[7.04014,58.02252],[7.03789,58.02142],[7.03789,58.02101],[7.03998,58.01998],[7.03967,58.01945],[7.03729,58.01836],[7.03815,58.01767]],[[7.00905,58.03],[7.01318,58.03138]],[[7.01318,58.03138],[7.01748,58.03238],[7.01859,58.03231],[7.02014,58.03192],[7.02007,58.0307]],[[7.00396,58.03245],[7.00809,58.03207],[7.00977,58.03255],[7.01474,58.03287],[7.01707,58.03372],[7.01727,58.0357],[7.02034,58.03587],[7.02149,58.03695],[7.02536,58.03801],[7.02546,58.03922],[7.02704,58.03904],[7.0285,58.03944]],[[7.02838,58.03999],[7.02898,58.03984],[7.0285,58.03944]],[[7.02838,58.03999],[7.02675,58.04013],[7.02679,58.04135],[7.02789,58.04217]],[[7.05739,58.05161],[7.05616,58.0508],[7.05538,58.04911],[7.05424,58.04945],[7.05263,58.04809],[7.05222,58.04944],[7.0527,58.05032],[7.05369,58.05101],[7.05547,58.05107],[7.05738,58.05298],[7.05804,58.05293],[7.05844,58.05234],[7.05739,58.05161]],[[7.05098,58.03264],[7.05274,58.03412],[7.05512,58.03506],[7.05663,58.03648],[7.05998,58.03718],[7.06127,58.03968],[7.06336,58.04173],[7.06986,58.04471],[7.07018,58.04534],[7.07369,58.04624],[7.07787,58.04885],[7.08084,58.04935],[7.08298,58.0502],[7.0845,58.05186],[7.08727,58.05322],[7.09237,58.05449],[7.09667,58.0548],[7.09738,58.05435],[7.09748,58.0525],[7.0994,58.05223],[7.10019,58.05256],[7.10006,58.05364],[7.09859,58.05444],[7.09874,58.0551],[7.10061,58.05556],[7.10175,58.05542],[7.10958,58.05734]],[[7.10764,58.06418],[7.10719,58.06335],[7.10443,58.06355],[7.10362,58.06254],[7.10261,58.06263],[7.10206,58.06409],[7.10275,58.06544],[7.10764,58.06418]],[[7.00869,58.06238],[7.00764,58.06107],[7.00655,58.0614],[7.00635,58.06195],[7.00497,58.06174],[7.00416,58.0624],[7.00466,58.06308],[7.00725,58.06332],[7.00824,58.06304],[7.00869,58.06238]],[[7.00317,58.05937],[7.00266,58.0584],[6.99925,58.05793]],[[6.99924,58.06661],[7.00193,58.06542],[7.00301,58.06399],[7.00289,58.06241],[7.00433,58.06145],[7.00317,58.05937]],[[7.02789,58.04217],[7.02896,58.04217],[7.02893,58.041],[7.03147,58.04102],[7.03276,58.04174],[7.03224,58.04213],[7.03257,58.04406],[7.03418,58.04486],[7.03694,58.04457],[7.04084,58.0465],[7.0417,58.04725],[7.04138,58.04792],[7.043,58.04871],[7.04282,58.05197],[7.04393,58.05356],[7.04697,58.05378],[7.05124,58.05782],[7.05289,58.05771],[7.05408,58.05654],[7.05641,58.05635],[7.05635,58.05549],[7.0572,58.05516],[7.059,58.05704],[7.06294,58.05832],[7.06357,58.05951],[7.06532,58.0604],[7.06708,58.06274],[7.06845,58.06134],[7.06858,58.05891],[7.07298,58.05865],[7.07449,58.05824],[7.07638,58.05978],[7.07883,58.06028],[7.08215,58.06317],[7.08482,58.06336],[7.08548,58.06434],[7.08827,58.0653],[7.09019,58.06876],[7.0926,58.06852],[7.09447,58.06949],[7.09334,58.07124],[7.09487,58.07332],[7.09444,58.07536],[7.0952,58.07539],[7.09576,58.0745],[7.09813,58.07383],[7.09888,58.07252],[7.10197,58.07212],[7.10157,58.07179],[7.09939,58.07178],[7.09754,58.07079],[7.09857,58.06959],[7.09857,58.06752],[7.09963,58.06754],[7.10026,58.06832],[7.10149,58.06874],[7.10323,58.06834],[7.10496,58.0686],[7.10589,58.06906],[7.10647,58.07046],[7.10446,58.07531],[7.1052,58.07651],[7.10282,58.07687],[7.10209,58.07778],[7.10362,58.07825],[7.10421,58.07911],[7.10487,58.07854]],[[7.10458,58.07983],[7.10586,58.08006],[7.10704,58.0792],[7.1064,58.07815],[7.10487,58.07854]],[[7.00682,58.07496],[7.00524,58.07399],[7.00498,58.07293],[7.00751,58.07135],[7.01018,58.07065],[7.01017,58.06998],[7.01183,58.06905],[7.0126,58.06711],[7.01253,58.06624],[7.01124,58.06537],[7.01174,58.06455],[7.01131,58.06357],[7.00799,58.06017],[7.00881,58.05972],[7.01073,58.06],[7.0117,58.05976],[7.01078,58.05886],[7.00343,58.05594],[7.00218,58.05439],[7.0008,58.05415],[6.99746,58.05439]],[[6.99972,58.05281],[7.00228,58.05281],[7.00193,58.05216],[6.99834,58.05227]],[[7.00682,58.07496],[7.00724,58.07573],[7.0085,58.0762],[7.01561,58.07705],[7.01731,58.07774],[7.01754,58.0783]],[[7.10379,58.08341],[7.10421,58.08401],[7.10629,58.08234],[7.1068,58.08124]],[[7.01754,58.0783],[7.01533,58.07871],[7.01628,58.08096]],[[7.01628,58.08096],[7.0162,58.08186],[7.01464,58.08188],[7.01337,58.08247],[7.01273,58.0837],[7.0141,58.08555],[7.01774,58.08741]],[[6.99828,58.07925],[7.00121,58.08093],[7.00236,58.08307],[7.00608,58.08448],[7.00717,58.08726],[7.00919,58.08832],[7.01038,58.08968],[7.0108,58.09076],[7.01006,58.09512],[7.00931,58.09617],[7.00735,58.09666],[7.0075,58.09756],[7.01021,58.09808],[7.01251,58.09768],[7.0153,58.09826]],[[7.05229,58.12234],[7.0585,58.12078],[7.06137,58.1193],[7.06079,58.11794],[7.05853,58.11676],[7.05941,58.11367],[7.05701,58.1131],[7.0569,58.11262],[7.04732,58.10745],[7.04549,58.10588],[7.03994,58.103],[7.03807,58.10104],[7.03568,58.09963],[7.03277,58.09624],[7.03309,58.09428],[7.03545,58.09327],[7.03214,58.09298],[7.03069,58.09249],[7.02952,58.09294],[7.0279,58.09299],[7.02709,58.09241],[7.02709,58.09162],[7.02505,58.09121],[7.02199,58.08928],[7.01774,58.08741]],[[7.0153,58.09826],[7.01659,58.09873],[7.01922,58.09832],[7.02016,58.09906],[7.02245,58.09791],[7.02393,58.09872],[7.02472,58.10001],[7.02384,58.1049],[7.02511,58.10668],[7.0266,58.10697],[7.02701,58.10625],[7.02784,58.10627],[7.0278,58.10842],[7.02958,58.10998],[7.02828,58.11113],[7.02511,58.11215],[7.02592,58.11325],[7.02786,58.11365],[7.031,58.11358],[7.03104,58.11425],[7.0298,58.11402],[7.02897,58.11445],[7.02894,58.11491],[7.02999,58.11509],[7.03107,58.11511],[7.03333,58.11394],[7.03406,58.11401],[7.03558,58.11467],[7.03603,58.1163],[7.04224,58.11503],[7.04405,58.11551],[7.04447,58.11652],[7.0433,58.11717],[7.04447,58.11893],[7.04548,58.11908],[7.04485,58.12207],[7.04616,58.12254]],[[7.04616,58.12254],[7.05229,58.12234]],[[6.9945,58.12218],[7.00048,58.1234],[7.00173,58.12425],[7.0072,58.12556],[7.00894,58.12649]],[[7.00894,58.12649],[7.01485,58.12779],[7.01879,58.12803],[7.02313,58.12915],[7.02706,58.12925],[7.03116,58.12982],[7.0339,58.13101],[7.03503,58.13112]],[[7.03503,58.13112],[7.03545,58.13266]],[[6.99768,58.13462],[7.00087,58.13694],[7.00298,58.13776],[7.00642,58.13767]],[[7.03545,58.13266],[7.03299,58.13675],[7.02794,58.14017],[7.03342,58.14019],[7.03978,58.13899]],[[7.03193,58.14284],[7.03494,58.14195],[7.03487,58.14166],[7.0301,58.14219],[7.02741,58.14188],[7.02671,58.14258],[7.02737,58.14292],[7.03193,58.14284]],[[7.03589,58.14478],[7.03801,58.14426]],[[7.02947,58.14581],[7.02952,58.14497],[7.03154,58.14418],[7.03381,58.14413],[7.03589,58.14478]],[[7.00642,58.13767],[7.01115,58.13935],[7.01299,58.14104],[7.01604,58.14262],[7.0217,58.14311],[7.02638,58.14564],[7.02795,58.146]],[[7.01815,58.01707],[7.01811,58.01708]],[[6.99926,58.02938],[7.00146,58.0317],[7.00396,58.03245]],[[7.10577,58.07451],[7.10494,58.07501],[7.10551,58.07566]],[[7.10396,58.08106],[7.10458,58.07983]],[[7.10396,58.08106],[7.10379,58.08341]]]}}]}