{"type":"FeatureCollection","features":[{"type":"Feature","properties":{},"geometry":{"type":"MultiLineString","coordinates":[[[10.99976,59.06672],[11.00104,59.06415],[11.00115,59.06003],[11.00392,59.05876],[11.00131,59.05797],[10.99902,59.05604]],[[11.03769,59.06728],[11.03747,59.07032],[11.03654,59.07132],[11.03847,59.07253],[11.04019,59.07218],[11.04097,59.07382]],[[11.04311,59.07388],[11.04299,59.07262],[11.03968,59.06789]],[[11.0699,59.0747],[11.0681,59.0742],[11.06554,59.07438]],[[11.0763,59.07489],[11.0776,59.07431],[11.07793,59.07263],[11.08361,59.07237],[11.08322,59.07158],[11.08103,59.07103],[11.07967,59.07169],[11.07649,59.07195],[11.07555,59.0733],[11.0739,59.07341]],[[11.08939,59.07529],[11.08866,59.0733],[11.08709,59.0725],[11.08877,59.07213],[11.0893,59.07096],[11.08711,59.06845],[11.08787,59.06746],[11.08705,59.06636],[11.08308,59.06305],[11.08021,59.06219],[11.07972,59.06106],[11.07573,59.05742]],[[11.11177,59.07596],[11.11,59.07531],[11.10942,59.07589]],[[11.39067,59.08403],[11.39132,59.08195],[11.39241,59.08117],[11.39343,59.07723],[11.39672,59.07372],[11.40148,59.07141],[11.40256,59.0715],[11.40273,59.07257],[11.40366,59.07337],[11.40509,59.07372],[11.40651,59.0735],[11.40892,59.07248],[11.40941,59.07069],[11.41072,59.0703],[11.4095,59.06831],[11.4124,59.06405],[11.41387,59.06281],[11.41417,59.06081],[11.41375,59.0604],[11.4122,59.0603],[11.41118,59.06144],[11.40928,59.0621],[11.40746,59.06192],[11.4062,59.06138],[11.40555,59.05808],[11.40711,59.05582],[11.41142,59.05518],[11.41281,59.05593],[11.4131,59.0573],[11.415,59.0576],[11.41803,59.05739],[11.41932,59.0554],[11.41899,59.05423],[11.42158,59.05325],[11.42416,59.05486],[11.42485,59.05668]],[[11.06138,59.07507],[11.06388,59.07452]],[[11.07361,59.07596],[11.0763,59.07489]],[[11.10942,59.07589],[11.11109,59.07743],[11.11326,59.07806],[11.11358,59.07733],[11.11177,59.07596]],[[11.04311,59.07388],[11.0435,59.07452],[11.04786,59.07499],[11.05042,59.07712],[11.05163,59.07728],[11.05273,59.07687],[11.05568,59.0767],[11.05779,59.07771],[11.05877,59.07653],[11.06138,59.07507]],[[11.09546,59.07576],[11.09416,59.07565],[11.09387,59.07593],[11.09367,59.07786],[11.0971,59.08044],[11.09828,59.07954],[11.09546,59.07576]],[[11.0904,59.07862],[11.08938,59.07869],[11.0889,59.07941],[11.08958,59.08033],[11.08884,59.08078],[11.08974,59.0812],[11.09107,59.08081],[11.09128,59.0793],[11.0904,59.07862]],[[10.99687,59.07246],[11.0011,59.07447],[10.99949,59.0744]],[[11.07361,59.07596],[11.07269,59.07639],[11.06854,59.07676],[11.06672,59.07768],[11.06617,59.07911],[11.06654,59.0811],[11.07077,59.08296],[11.07052,59.08499],[11.07182,59.08491],[11.07266,59.0843]],[[11.0477,59.08398],[11.04808,59.08336],[11.04545,59.08234],[11.04563,59.08121],[11.04511,59.08085],[11.04457,59.08068],[11.04298,59.0811],[11.04255,59.08228],[11.04352,59.08363],[11.04564,59.08416],[11.04606,59.08478],[11.0477,59.08398]],[[11.07266,59.0843],[11.07715,59.08217],[11.07921,59.08287],[11.08224,59.08171],[11.08415,59.08277],[11.0828,59.08306],[11.08122,59.08454],[11.08143,59.08606],[11.08513,59.08532],[11.0851,59.08355],[11.08613,59.08358],[11.08647,59.0845],[11.08768,59.08435],[11.08842,59.08371],[11.08806,59.08322],[11.08512,59.08196],[11.08579,59.08146],[11.08783,59.08243],[11.08848,59.08227],[11.087,59.07918],[11.08855,59.07783],[11.08939,59.07529]],[[11.23311,59.09186],[11.23159,59.09048],[11.23053,59.09023],[11.22729,59.09225],[11.22604,59.09227]],[[11.23311,59.09186],[11.23498,59.09297],[11.24102,59.09253],[11.24633,59.09339]],[[11.05991,59.08749],[11.06196,59.08711],[11.06208,59.08511],[11.06342,59.08487],[11.06425,59.08515],[11.06593,59.08354],[11.06778,59.08371],[11.06645,59.0819],[11.06431,59.08034],[11.06493,59.07921],[11.06233,59.07773],[11.06082,59.07829],[11.0581,59.07808],[11.05051,59.07906],[11.05006,59.07944],[11.05078,59.08149],[11.05044,59.08369],[11.05197,59.08622],[11.05698,59.08805],[11.05951,59.08793],[11.05991,59.08749]],[[11.05581,59.08839],[11.0538,59.08808],[11.05441,59.08993],[11.0577,59.09134],[11.06036,59.09169],[11.06145,59.09016],[11.05581,59.08839]],[[11.19949,59.0975],[11.19915,59.09638],[11.19794,59.09576],[11.19733,59.09733],[11.19632,59.09685],[11.19499,59.09708],[11.19465,59.09756],[11.19571,59.09951],[11.19875,59.10033],[11.20019,59.09962],[11.19949,59.0975]],[[11.00622,59.09308],[11.00734,59.09188],[11.00725,59.09005],[11.00472,59.08916],[11.00134,59.0893],[11.00019,59.09006],[11.00179,59.09264],[10.99992,59.09267]],[[10.99966,59.0931],[11.0024,59.09466],[11.00399,59.09499],[11.00622,59.09308]],[[11.07835,58.99951],[11.07696,59.00042]],[[11.06285,59.00238],[11.06231,59.00252],[11.06254,59.00416],[11.06331,59.00548],[11.06519,59.00585],[11.06599,59.00478],[11.06564,59.00412],[11.06285,59.00238]],[[11.03246,59.00511],[11.03314,59.00351],[11.03182,59.00204],[11.03155,59.00068],[11.02845,58.99869]],[[11.0274,58.99925],[11.02854,59.0007],[11.0279,59.00212],[11.02979,59.00328],[11.02907,59.00368],[11.02759,59.00364],[11.02741,59.00435],[11.02866,59.00505],[11.02977,59.00496],[11.03131,59.00551],[11.03246,59.00511]],[[11.07696,59.00042],[11.07429,58.99957]],[[11.07429,58.99957],[11.0748,59.00062],[11.07358,59.00163],[11.07141,59.00028],[11.0691,59.00048],[11.06831,59.00362],[11.06901,59.00706]],[[11.04155,59.00575],[11.04677,59.00721],[11.04993,59.00687],[11.05088,59.00653],[11.05131,59.00559],[11.05408,59.00482],[11.05663,59.00467],[11.05744,59.00368],[11.0566,59.00287],[11.05674,59.00195],[11.0558,59.00102],[11.0532,59.00015],[11.05315,58.99939]],[[11.04164,58.99997],[11.03924,59.00182],[11.04073,59.00504],[11.03953,59.00536],[11.0378,59.0045],[11.03573,59.00406],[11.03455,59.00479],[11.03504,59.00609],[11.03863,59.00841],[11.04177,59.00937],[11.04313,59.00869],[11.04184,59.00775],[11.04155,59.00575]],[[11.06901,59.00706],[11.06623,59.01078],[11.06488,59.01086]],[[11.04385,59.01238],[11.04225,59.01112],[11.04031,59.012],[11.03838,59.01177],[11.03793,59.01075],[11.03691,59.0105],[11.03565,59.01123],[11.0379,59.01275],[11.04116,59.0132],[11.04428,59.01419],[11.04473,59.01311],[11.04385,59.01238]],[[11.01697,59.0135],[11.01772,59.01178],[11.01583,59.00992],[11.01728,59.00959],[11.01631,59.00869],[11.01754,59.00619],[11.01568,59.00468],[11.01417,59.00551],[11.01382,59.007],[11.01262,59.00655],[11.01149,59.00703],[11.0102,59.00703],[11.0109,59.00584],[11.01268,59.00528],[11.01171,59.00299],[11.01267,59.002],[11.01054,59.00084],[11.00955,59.00199],[11.01006,59.00344],[11.00634,59.00215],[11.00491,59.00216],[11.00349,59.00299],[11.00298,59.00452],[11.00445,59.00588],[11.00405,59.0072],[11.00717,59.0081],[11.00901,59.0077],[11.00932,59.00874],[11.01403,59.00773],[11.01525,59.00879],[11.01013,59.00915],[11.01202,59.01113],[11.0117,59.01298],[11.01339,59.0137],[11.0147,59.01329],[11.01556,59.01416],[11.01697,59.0135]],[[11.06411,59.01061],[11.06454,59.00847],[11.06377,59.00768],[11.06511,59.0068],[11.0643,59.00622],[11.06202,59.00614],[11.06027,59.00692],[11.05946,59.00899],[11.05784,59.00938],[11.05757,59.01174],[11.05967,59.01427],[11.05784,59.01439],[11.05898,59.01615],[11.06075,59.01634],[11.06234,59.01455]],[[11.06437,59.01494],[11.06409,59.01631],[11.06502,59.01825],[11.06863,59.01864],[11.07063,59.01997],[11.07599,59.02144],[11.07833,59.02149],[11.0799,59.02089]],[[11.03268,59.02228],[11.03042,59.0195],[11.03066,59.01894],[11.02752,59.01725],[11.023,59.01742],[11.02145,59.01892]],[[11.0799,59.02089],[11.08328,59.02073],[11.08636,59.02173],[11.08733,59.02134],[11.08915,59.02134],[11.09559,59.02342],[11.09921,59.02381],[11.10224,59.02502],[11.10648,59.02407],[11.11052,59.02438],[11.11311,59.02328],[11.11375,59.02201],[11.11287,59.02114],[11.11159,59.02125],[11.11052,59.02074],[11.11112,59.01783],[11.1099,59.01651],[11.10429,59.01672],[11.1026,59.01606],[11.10261,59.01454],[11.10183,59.01405],[11.09699,59.01336],[11.09391,59.01221],[11.09056,59.01268],[11.08866,59.01247],[11.08548,59.00902],[11.0836,59.00872],[11.08319,59.00785],[11.08559,59.0073],[11.08623,59.00512],[11.08576,59.00434],[11.0833,59.00299],[11.08275,59.00206],[11.084,59.00113],[11.08463,58.99941]],[[11.04343,59.0227],[11.04342,59.02226],[11.04252,59.02239],[11.04125,59.02162],[11.03983,59.0189],[11.04058,59.01854],[11.04053,59.01772],[11.03864,59.0173],[11.03673,59.01861],[11.03883,59.02238],[11.04205,59.0232],[11.04343,59.0227]],[[11.02145,59.01892],[11.02089,59.01982],[11.01921,59.02014],[11.01878,59.01985],[11.01961,59.01841],[11.01803,59.01741],[11.01656,59.01718],[11.01452,59.01779],[11.01396,59.0187],[11.01268,59.01901],[11.01164,59.02118],[11.01441,59.02247],[11.01565,59.02222]],[[11.03268,59.02228],[11.03361,59.02241],[11.03479,59.02175],[11.03519,59.02262],[11.03443,59.02321],[11.03561,59.02389],[11.03716,59.02407],[11.03839,59.02526],[11.0406,59.02557],[11.04083,59.02606],[11.0427,59.02613],[11.04418,59.02568]],[[11.42674,59.03856],[11.4295,59.03776],[11.42992,59.03694],[11.43255,59.03744],[11.43507,59.03045],[11.43624,59.02903],[11.43885,59.02828],[11.44013,59.02686],[11.4459,59.02523],[11.44593,59.02416],[11.44383,59.023],[11.44279,59.02056],[11.44433,59.01737],[11.44458,59.01413],[11.44638,59.01316],[11.45023,59.0134],[11.45287,59.01265],[11.45357,59.01197],[11.45458,59.00791],[11.46266,59.0022],[11.46352,59.00028],[11.46663,58.99827]],[[11.01565,59.02222],[11.01749,59.02206],[11.01796,59.02429],[11.01678,59.02578],[11.01226,59.02562],[11.01064,59.02514],[11.00734,59.0256],[11.00764,59.02678],[11.01263,59.02799]],[[11.05743,59.02937],[11.05673,59.02832],[11.05531,59.02798],[11.05438,59.02832],[11.05434,59.02902],[11.05298,59.02906],[11.05141,59.02818],[11.05173,59.02735],[11.05019,59.02593],[11.04818,59.02519],[11.04536,59.02469],[11.04418,59.02568]],[[11.07999,59.03005],[11.07906,59.02954],[11.07963,59.0287],[11.08022,59.02867],[11.08044,59.02927],[11.08107,59.02893],[11.0792,59.02697]],[[11.08281,59.03014],[11.0818,59.02942],[11.08157,59.0301]],[[11.10676,59.03086],[11.10627,59.0301],[11.10146,59.02874],[11.10002,59.02916],[11.09822,59.02866],[11.09648,59.02866],[11.09401,59.02789],[11.09109,59.02842],[11.08972,59.02693],[11.08738,59.02553],[11.08591,59.02519],[11.08014,59.02489],[11.07941,59.02519]],[[11.41948,59.03989],[11.42674,59.03856]],[[11.07999,59.03005],[11.08132,59.03048],[11.08157,59.0301]],[[10.99933,59.02902],[11.00188,59.0282],[11.00704,59.02868],[11.00607,59.03196],[11.01043,59.03248],[11.0131,59.03202],[11.01505,59.03119],[11.0142,59.02884],[11.01263,59.02799]],[[11.05265,59.03897],[11.05482,59.03873],[11.05445,59.03807],[11.05559,59.03762],[11.05458,59.0366],[11.05182,59.03778],[11.0517,59.0388],[11.05265,59.03897]],[[11.41948,59.03989],[11.42004,59.04109],[11.41836,59.04143],[11.41788,59.04207],[11.42029,59.04371],[11.42105,59.04586],[11.42011,59.04706],[11.42536,59.05186]],[[11.11719,59.04505],[11.11629,59.04449],[11.11882,59.04483],[11.12016,59.04451],[11.12048,59.04314],[11.11806,59.04001],[11.11556,59.03852],[11.11515,59.04023],[11.11356,59.04147],[11.11418,59.04447],[11.11551,59.04526],[11.11719,59.04544],[11.11719,59.04505]],[[11.08351,59.0414],[11.0821,59.03996],[11.08078,59.03953],[11.08035,59.04025],[11.0814,59.04116],[11.0801,59.04146],[11.07955,59.04276],[11.08211,59.04441],[11.0837,59.0449],[11.08458,59.04467],[11.08351,59.0414]],[[11.05743,59.02937],[11.05644,59.03072],[11.0583,59.03278],[11.05832,59.0341],[11.06004,59.03513],[11.06086,59.03726],[11.05961,59.03866],[11.05702,59.03828],[11.0571,59.03904],[11.05611,59.03933],[11.05736,59.0398],[11.06222,59.04411],[11.05968,59.04725],[11.05905,59.04741],[11.0569,59.04673],[11.05109,59.04359],[11.04797,59.04399],[11.04426,59.04192],[11.04231,59.04193],[11.03988,59.04119],[11.03752,59.042]],[[11.06948,59.04964],[11.06651,59.04909],[11.06511,59.04925],[11.06659,59.05042],[11.06872,59.05079],[11.0706,59.05173],[11.07124,59.05113],[11.06948,59.04964]],[[11.42419,59.06305],[11.42601,59.06143],[11.42589,59.05889],[11.42485,59.05668]],[[11.08281,59.03014],[11.08349,59.03131],[11.08644,59.0327],[11.09058,59.03177],[11.0904,59.03501],[11.09302,59.03503],[11.09422,59.03553],[11.09313,59.03636],[11.09411,59.03808],[11.09207,59.03868],[11.09147,59.04051],[11.09263,59.04334],[11.09206,59.04343],[11.08988,59.04231],[11.08938,59.04247],[11.09054,59.0432],[11.09035,59.04443],[11.09228,59.04523],[11.09714,59.04409],[11.09961,59.04449],[11.10028,59.04652],[11.10119,59.04721],[11.10127,59.04967],[11.1034,59.05],[11.10452,59.04943],[11.10606,59.05043],[11.10604,59.05116],[11.10525,59.05164],[11.10635,59.05333],[11.10448,59.05285],[11.10376,59.05304],[11.1036,59.05363],[11.10677,59.0543],[11.10882,59.05188],[11.10798,59.05133],[11.11017,59.05059],[11.11166,59.0489],[11.11151,59.04836],[11.1137,59.04787],[11.11397,59.04735],[11.11083,59.04432],[11.11105,59.04291],[11.11009,59.04267],[11.11162,59.04064],[11.11093,59.03887],[11.11137,59.03606],[11.11018,59.03596],[11.10863,59.03692],[11.10609,59.03763],[11.10471,59.03666],[11.10527,59.03578],[11.10711,59.03552],[11.10835,59.03428],[11.10676,59.03086]],[[11.07673,59.04866],[11.07229,59.04932],[11.07283,59.0536],[11.07435,59.05476],[11.07606,59.05449]],[[11.42419,59.06305],[11.42294,59.06407],[11.42254,59.06539],[11.42383,59.06655]],[[11.42383,59.06655],[11.42474,59.06611],[11.42452,59.06519],[11.4255,59.06468],[11.42891,59.06588],[11.4297,59.06322],[11.4319,59.06436],[11.43404,59.06352],[11.43022,59.05827],[11.42832,59.05657],[11.42708,59.05458],[11.4272,59.05294],[11.42536,59.05186]],[[11.03706,59.0423],[11.03709,59.0442],[11.03906,59.04596],[11.04227,59.04615],[11.04361,59.04574],[11.04418,59.04523],[11.04348,59.04405],[11.04449,59.04376],[11.04996,59.0461],[11.05588,59.04767],[11.05719,59.04903],[11.06018,59.05017],[11.06285,59.04968],[11.06378,59.05029],[11.06738,59.05121],[11.07028,59.05297],[11.0704,59.0549],[11.07132,59.05587],[11.07573,59.05742]],[[11.07606,59.05449],[11.07853,59.05286],[11.08005,59.05315],[11.08031,59.05388],[11.07844,59.05464],[11.07684,59.05717],[11.08052,59.05988],[11.08256,59.0601],[11.08325,59.05969],[11.08236,59.05835],[11.08448,59.05741],[11.08484,59.0556],[11.08368,59.05484],[11.08383,59.05408],[11.08245,59.05217],[11.08157,59.05171],[11.07932,59.05197],[11.07804,59.05005],[11.07848,59.04911],[11.07673,59.04866]],[[10.99793,59.06359],[11.00013,59.06053],[10.99974,59.0592]],[[11.03769,59.06728],[11.03968,59.06789]],[[10.99602,59.08547],[11.00812,59.08994],[11.00973,59.08975],[11.01093,59.08863],[11.01186,59.08848],[11.01279,59.09073],[11.01433,59.09139],[11.01602,59.09103],[11.01774,59.09177],[11.0203,59.0906],[11.02072,59.09125],[11.02006,59.09237],[11.0215,59.09224],[11.02639,59.09283],[11.03023,59.09206],[11.03088,59.09106],[11.03161,59.09101],[11.0316,59.09607],[11.03176,59.09661],[11.03273,59.09682],[11.03357,59.09597],[11.0375,59.09558],[11.03798,59.09414],[11.03998,59.09508],[11.04044,59.0945],[11.039,59.09335],[11.03789,59.09343],[11.03762,59.09239],[11.04071,59.09278],[11.04126,59.09224],[11.04093,59.09167],[11.04223,59.09123],[11.04314,59.09026],[11.04221,59.08866],[11.03998,59.08812],[11.03959,59.08745],[11.04033,59.08709],[11.04345,59.08768],[11.04408,59.08696],[11.04004,59.08525],[11.04004,59.08402],[11.03933,59.0839],[11.03783,59.08468],[11.03733,59.08447],[11.03765,59.08337],[11.03992,59.08123],[11.0388,59.07932],[11.0387,59.07625],[11.04162,59.07699],[11.04333,59.07648],[11.04452,59.07696],[11.04519,59.07656],[11.04377,59.07544],[11.04149,59.07458],[11.04097,59.07382]],[[11.13756,59.09596],[11.13665,59.09517],[11.13559,59.09587],[11.13462,59.09543],[11.13396,59.09559],[11.1363,59.09889],[11.13789,59.10008],[11.14077,59.10096],[11.14036,59.09858],[11.13756,59.09596]],[[11.09316,59.10012],[11.09155,59.09955],[11.09316,59.10157]],[[11.09316,59.10157],[11.09429,59.10208],[11.09485,59.1015],[11.09316,59.10012]],[[11.04753,59.09574],[11.04513,59.09542],[11.04434,59.09628],[11.04471,59.09775],[11.04706,59.09996],[11.04988,59.10095],[11.05043,59.10056],[11.04942,59.09748],[11.0475,59.09649],[11.04753,59.09574]],[[11.04393,59.0982],[11.04347,59.09792],[11.04152,59.09824],[11.03884,59.10043],[11.04414,59.1027],[11.04576,59.10197],[11.04393,59.0982]],[[11.38658,59.11375],[11.38639,59.11177],[11.38546,59.11161],[11.38265,59.11209],[11.38152,59.11174],[11.38054,59.11056],[11.38044,59.10913],[11.37637,59.10505],[11.37608,59.10408],[11.37392,59.10329],[11.37506,59.10142],[11.37453,59.1006],[11.37511,59.09935],[11.3772,59.09869],[11.38025,59.09601],[11.38218,59.09561],[11.38261,59.09684],[11.38616,59.09699],[11.38654,59.09583],[11.38536,59.09148],[11.38809,59.08979],[11.38776,59.08677],[11.38891,59.08533],[11.39026,59.08491],[11.39067,59.08403]],[[11.0106,59.10054],[11.00934,59.10041],[11.00705,59.10143],[11.00864,59.10298],[11.01195,59.10381],[11.0106,59.10054]],[[11.24633,59.09339],[11.24703,59.09347],[11.24715,59.09318],[11.24933,59.09375],[11.24893,59.09402],[11.25555,59.09678],[11.25772,59.09703],[11.26036,59.09803],[11.2636,59.09815],[11.26742,59.0977],[11.27188,59.09816],[11.27382,59.099],[11.27951,59.0993],[11.27968,59.10006],[11.27881,59.10056],[11.28002,59.10197],[11.28167,59.10214],[11.28496,59.10046],[11.28838,59.10078],[11.28953,59.10146],[11.29304,59.10614],[11.29615,59.10855],[11.2998,59.10995],[11.29992,59.10946],[11.29798,59.10844],[11.2979,59.10798],[11.29929,59.10761],[11.30033,59.10842],[11.29998,59.10872],[11.30307,59.10952],[11.30288,59.11006],[11.3041,59.11068],[11.3087,59.11162],[11.30908,59.11332]],[[11.38658,59.11375],[11.38636,59.11648]],[[11.38131,59.11505],[11.38165,59.11369],[11.37827,59.11006],[11.37568,59.10885],[11.37336,59.10907],[11.37358,59.11025],[11.37518,59.11181],[11.37373,59.11476],[11.37546,59.11624]],[[11.10243,59.10395],[11.10143,59.10389],[11.09999,59.1055],[11.09971,59.10692],[11.10437,59.1086],[11.10567,59.10619],[11.10243,59.10395]],[[11.35948,59.11041],[11.35661,59.11029],[11.35109,59.11176],[11.34968,59.11305],[11.35005,59.11532],[11.35759,59.11591],[11.35855,59.11647],[11.36344,59.11559],[11.36561,59.11361],[11.36495,59.11236],[11.36317,59.11131],[11.35948,59.11041]],[[11.07884,59.10368],[11.07807,59.10335],[11.07711,59.10407],[11.07887,59.10631],[11.08125,59.10796],[11.08378,59.10843],[11.08426,59.10773],[11.0831,59.10627],[11.07884,59.10368]],[[11.32155,59.11458],[11.32216,59.11451],[11.32336,59.11559],[11.32471,59.11522],[11.32591,59.11357],[11.32708,59.11321],[11.32655,59.11237],[11.32479,59.11218],[11.3216,59.11283],[11.31943,59.11473],[11.32014,59.11553],[11.32125,59.11531],[11.32155,59.11458]],[[11.30908,59.11332],[11.31179,59.11498],[11.31402,59.11573],[11.31644,59.11468]],[[11.07034,59.10451],[11.0695,59.10468],[11.06903,59.10564],[11.06985,59.10881]],[[11.38131,59.11505],[11.38166,59.11649],[11.38029,59.11784],[11.38184,59.11747],[11.38493,59.11793]],[[11.06985,59.10881],[11.07452,59.10892],[11.07526,59.10848],[11.07352,59.1068],[11.07302,59.10549],[11.07034,59.10451]],[[11.38493,59.11793],[11.38675,59.11879],[11.388,59.11864],[11.38636,59.11648]],[[11.36974,59.11833],[11.37364,59.1172],[11.37695,59.11788],[11.37905,59.11881],[11.38037,59.11866],[11.37546,59.11624]],[[11.33109,59.11765],[11.3328,59.11838]],[[11.31644,59.11468],[11.32039,59.11756],[11.32249,59.11821],[11.32375,59.11811],[11.32842,59.11588],[11.33023,59.11629],[11.33109,59.11765]],[[11.20755,59.11257],[11.20652,59.11222],[11.20568,59.11272],[11.20667,59.11484],[11.20761,59.11506],[11.20882,59.11474],[11.20902,59.11423],[11.20755,59.11257]],[[11.3328,59.11838],[11.33485,59.11916],[11.34116,59.11713],[11.34373,59.11698],[11.34447,59.1175],[11.34603,59.11769],[11.3469,59.1168],[11.34924,59.11753],[11.35419,59.11825],[11.35849,59.11805],[11.36164,59.11751]],[[11.36164,59.11751],[11.36393,59.11795],[11.36476,59.11884],[11.36755,59.12014],[11.36892,59.11995],[11.36927,59.1188]],[[11.01849,59.11808],[11.01758,59.11663],[11.01617,59.11668],[11.01425,59.11597],[11.01434,59.11552],[11.01645,59.11526],[11.01605,59.11464],[11.01385,59.11307],[11.01171,59.11283],[11.01218,59.11789]],[[11.12855,59.12142],[11.13019,59.11881],[11.1312,59.1182],[11.13332,59.11897],[11.13455,59.12067],[11.13539,59.12088],[11.1361,59.12042],[11.13596,59.11986],[11.13764,59.11956],[11.13923,59.11978],[11.13962,59.11882],[11.14323,59.11884],[11.14402,59.11802],[11.14564,59.11857],[11.14606,59.11814],[11.14374,59.1164],[11.14301,59.11613],[11.14137,59.11642],[11.14039,59.11456],[11.13793,59.11323],[11.13799,59.11217],[11.13938,59.11107],[11.13925,59.10959],[11.14063,59.10944],[11.14069,59.10808],[11.13907,59.10509],[11.13542,59.10218],[11.13258,59.10104],[11.13177,59.09909],[11.13075,59.09841],[11.13242,59.0981],[11.13385,59.09865],[11.13339,59.09735],[11.13171,59.09664],[11.12905,59.09631],[11.12873,59.09661],[11.13017,59.09796],[11.12774,59.09783],[11.12614,59.09858],[11.12653,59.09963],[11.1274,59.09948],[11.12781,59.10004],[11.12705,59.10351],[11.12809,59.10409],[11.12844,59.105],[11.12792,59.10508],[11.12585,59.10388],[11.12438,59.10471],[11.12359,59.10585],[11.1233,59.10479],[11.12133,59.10388],[11.12047,59.10595],[11.11864,59.10602],[11.11762,59.1074],[11.11719,59.11147],[11.11779,59.11351],[11.12035,59.11516],[11.12164,59.11558],[11.12261,59.11449],[11.12377,59.11472],[11.12256,59.11692],[11.12484,59.1185],[11.12711,59.11855],[11.1279,59.12027],[11.12737,59.12138]],[[11.20354,59.12363],[11.1999,59.11972],[11.19563,59.1172],[11.19437,59.11749],[11.19426,59.11608],[11.19337,59.11539],[11.19297,59.11608],[11.19152,59.1164],[11.19305,59.11841],[11.19448,59.11821],[11.19378,59.11995],[11.19293,59.12031],[11.19191,59.12031],[11.19075,59.11914],[11.18913,59.1185],[11.18793,59.11991],[11.18685,59.11837],[11.18485,59.11826],[11.1838,59.11735],[11.18306,59.11762],[11.18293,59.12005],[11.18568,59.12311]],[[11.21642,59.12401],[11.21309,59.1207],[11.20728,59.11741],[11.20087,59.11199],[11.198,59.11331],[11.19758,59.11211],[11.19616,59.11156],[11.19536,59.11424],[11.19625,59.11577],[11.19784,59.11695],[11.20059,59.11753],[11.20589,59.1237]],[[11.21888,59.12408],[11.21328,59.1193],[11.21314,59.11844],[11.21438,59.1165],[11.21346,59.11482],[11.21296,59.11083],[11.21148,59.11009],[11.21018,59.11047],[11.2096,59.10993],[11.20992,59.10943],[11.20813,59.10784],[11.20695,59.10846],[11.20588,59.10824],[11.2054,59.10759],[11.20591,59.10609],[11.20446,59.10108],[11.20255,59.09782],[11.20028,59.09629],[11.19955,59.09383],[11.19987,59.09218],[11.20023,59.09173],[11.2018,59.09213],[11.20386,59.09156],[11.20757,59.09418],[11.21148,59.09864],[11.2137,59.10385],[11.21723,59.10474],[11.21976,59.10464],[11.22134,59.10569],[11.22238,59.10575],[11.22351,59.10544],[11.22352,59.10422],[11.21976,59.10197],[11.21896,59.10016],[11.21912,59.09855],[11.22099,59.09673],[11.2233,59.09611],[11.2252,59.09374],[11.22411,59.09354],[11.22171,59.09534],[11.21951,59.0948],[11.21608,59.09697],[11.21269,59.09511],[11.20985,59.08932],[11.21087,59.08914],[11.21286,59.08964],[11.21432,59.09049],[11.22144,59.0887],[11.22576,59.08839],[11.22693,59.08898],[11.22741,59.09003],[11.22557,59.09176],[11.22604,59.09227]],[[11.18568,59.12311],[11.18747,59.12316]],[[11.12737,59.12138],[11.12788,59.12198],[11.12855,59.12142]],[[11.20354,59.12363],[11.20422,59.12562],[11.20481,59.12566],[11.20549,59.12497],[11.20669,59.12613],[11.20711,59.12463],[11.20589,59.1237]],[[11.01218,59.11789],[11.01232,59.11892],[11.01577,59.1213],[11.01589,59.12212],[11.01814,59.1225],[11.01861,59.12227],[11.01813,59.12115],[11.01911,59.12087],[11.01849,59.11808]],[[11.06815,59.12364],[11.06807,59.12428]],[[11.10219,59.1229],[11.10167,59.12258],[11.09984,59.12264],[11.09853,59.12382],[11.09886,59.12457],[11.10095,59.12553],[11.10214,59.12442],[11.10219,59.1229]],[[11.06793,59.12557],[11.0704,59.12579],[11.06807,59.12428]],[[11.06793,59.12557],[11.0677,59.1275]],[[11.11308,59.12892],[11.11371,59.12728],[11.11277,59.12599],[11.10844,59.12421],[11.10768,59.12425],[11.10704,59.1247],[11.10736,59.12579],[11.10522,59.12548],[11.10446,59.12748],[11.1053,59.12834],[11.10693,59.12885],[11.10825,59.12849],[11.10865,59.12955],[11.11083,59.13118],[11.11122,59.13022],[11.11274,59.12957],[11.11308,59.12892]],[[11.21888,59.12408],[11.22349,59.12774],[11.22517,59.12839],[11.22574,59.13003],[11.23009,59.13292],[11.22927,59.13329],[11.22606,59.13197],[11.22512,59.1309],[11.22421,59.1312],[11.22471,59.13322],[11.22695,59.13506],[11.22746,59.1362],[11.2296,59.13733]],[[11.21642,59.12401],[11.21859,59.12586],[11.22051,59.1291],[11.21944,59.13057],[11.22039,59.13335],[11.22111,59.13361],[11.22216,59.13293],[11.22318,59.1333],[11.22716,59.13737],[11.22923,59.13838]],[[11.22923,59.13838],[11.23038,59.13817],[11.2296,59.13733]],[[11.11907,59.13233],[11.11822,59.13234],[11.11762,59.1329],[11.11789,59.13529],[11.11898,59.13611],[11.12049,59.13629],[11.12312,59.13489],[11.1231,59.1342],[11.12238,59.13348],[11.11907,59.13233]],[[11.14406,59.13352],[11.14342,59.1336],[11.14272,59.1361],[11.14307,59.13887],[11.14427,59.13851],[11.14482,59.13768],[11.14406,59.13352]],[[11.01338,59.13422],[11.01077,59.13425],[11.01054,59.13481],[11.01143,59.13579],[11.01249,59.13537],[11.01338,59.13422]],[[11.06674,59.13593],[11.0681,59.13919],[11.07016,59.14015],[11.07103,59.1401],[11.07184,59.13924],[11.06987,59.13608],[11.07093,59.13531],[11.06969,59.13187],[11.06979,59.12982],[11.0677,59.1275]],[[11.12981,59.14198],[11.13139,59.14213],[11.13121,59.14264]],[[11.15323,59.1446],[11.15268,59.14475],[11.15306,59.14613]],[[11.19087,59.14625],[11.18983,59.14608],[11.18878,59.14671],[11.18903,59.14754],[11.19049,59.148],[11.19172,59.147],[11.19087,59.14625]],[[11.15297,59.14693],[11.15066,59.1457],[11.15021,59.14424],[11.14506,59.14124],[11.14155,59.14571],[11.1393,59.14569],[11.14007,59.14496],[11.13987,59.14249],[11.14101,59.14047],[11.14134,59.13805],[11.13781,59.1385],[11.13985,59.13607],[11.13921,59.13513],[11.13599,59.13354],[11.13529,59.13456],[11.1346,59.13467],[11.13354,59.13302],[11.13203,59.13234],[11.13104,59.13297],[11.1299,59.1382],[11.12846,59.1387],[11.12725,59.1373],[11.12621,59.1378],[11.12682,59.13886],[11.12605,59.13957],[11.12624,59.14068],[11.12893,59.142],[11.12981,59.14198]],[[11.12469,59.14365],[11.1242,59.14477],[11.12731,59.14625],[11.12841,59.14623],[11.12808,59.14484],[11.12469,59.14365]],[[11.15306,59.14613],[11.15633,59.1473],[11.15757,59.14579],[11.15626,59.14452],[11.15323,59.1446]],[[11.18163,59.15002],[11.18116,59.14844],[11.1838,59.14728],[11.18397,59.14661],[11.1804,59.14614],[11.17612,59.14661],[11.1769,59.14995],[11.17976,59.15012],[11.18196,59.15103],[11.18278,59.15074],[11.18163,59.15002]],[[11.13121,59.14264],[11.13051,59.14349],[11.13145,59.14583],[11.13456,59.14675],[11.13518,59.14753],[11.13746,59.1467],[11.13768,59.15061],[11.13942,59.15108],[11.1419,59.15063]],[[11.15244,59.15163],[11.15444,59.15146],[11.15634,59.14881],[11.15297,59.14693]],[[11.11701,59.1449],[11.11556,59.14484],[11.11448,59.14558],[11.11538,59.14777],[11.11307,59.14849],[11.11274,59.14945],[11.11425,59.15051],[11.11524,59.15042],[11.11542,59.14921],[11.11741,59.14776],[11.11767,59.14592],[11.11701,59.1449]],[[11.14724,59.15104],[11.15006,59.1524],[11.15162,59.15248],[11.15244,59.15163]],[[11.1419,59.15063],[11.14537,59.15096],[11.14369,59.15277],[11.14381,59.15332],[11.1452,59.15239],[11.14659,59.15231],[11.14676,59.15158],[11.14585,59.15104],[11.14724,59.15104]],[[11.13703,59.15499],[11.14036,59.15512]],[[11.15164,59.15873],[11.14988,59.15882],[11.1484,59.15943],[11.14722,59.15921],[11.14572,59.15855],[11.14594,59.15665],[11.14467,59.15505],[11.14466,59.15542],[11.14323,59.15484],[11.14206,59.15534],[11.14036,59.15512]],[[11.15625,59.159],[11.15549,59.15909],[11.15309,59.15815],[11.15164,59.15873]],[[11.00794,59.15275],[11.00705,59.15233],[11.00606,59.15254],[11.00355,59.15098],[11.00196,59.15096],[11.00155,59.15178],[11.00302,59.15356],[11.00567,59.1551],[11.00849,59.15609],[11.01037,59.15541],[11.00794,59.15275]],[[11.10325,59.15996],[11.10445,59.15987],[11.10527,59.16022],[11.1073,59.16002],[11.10781,59.15957],[11.10739,59.15766],[11.10847,59.15656],[11.10726,59.15007],[11.10854,59.14558],[11.11064,59.1432],[11.10975,59.14244],[11.10761,59.14329],[11.10528,59.14256],[11.10409,59.1415],[11.10485,59.13935],[11.10352,59.13794],[11.10531,59.13548],[11.1063,59.13556],[11.10742,59.1364],[11.10799,59.1363],[11.10763,59.134],[11.10554,59.13254],[11.10428,59.13236],[11.10354,59.13284],[11.10261,59.13262],[11.10013,59.13084],[11.09651,59.13126],[11.09483,59.13234],[11.09359,59.13236],[11.09049,59.1278],[11.08893,59.12744],[11.08903,59.12658],[11.08794,59.12537],[11.08415,59.12352],[11.08308,59.1237],[11.08563,59.1262],[11.08384,59.12702],[11.08167,59.12577],[11.07838,59.12538],[11.07409,59.12267],[11.07282,59.1225],[11.07057,59.12359],[11.06815,59.12364]],[[11.01732,59.15414],[11.01838,59.15124],[11.01687,59.1492],[11.01771,59.14767],[11.0173,59.14718],[11.01637,59.14679],[11.01556,59.14706],[11.01402,59.14688],[11.0148,59.14965],[11.01432,59.14982],[11.01357,59.14953],[11.01262,59.14754],[11.00941,59.14644],[11.00922,59.1456],[11.00769,59.14529],[11.00617,59.14621],[11.00574,59.14779],[11.01071,59.1532],[11.01293,59.15437],[11.01355,59.15554],[11.01468,59.15568],[11.01635,59.15833]],[[11.01839,59.15472],[11.01945,59.15424],[11.02097,59.15433],[11.02087,59.15137],[11.02152,59.15136],[11.02309,59.15236],[11.02425,59.15062],[11.02549,59.14992],[11.02664,59.15004],[11.0306,59.15229],[11.02851,59.15469],[11.02914,59.15569],[11.03118,59.15565],[11.03176,59.15637],[11.03372,59.15619],[11.03534,59.15758],[11.03595,59.15725],[11.03602,59.15618],[11.03729,59.15632],[11.0387,59.15796],[11.04087,59.15881],[11.04222,59.16143]],[[11.04424,59.16199],[11.04469,59.16149],[11.04309,59.1601],[11.04258,59.15705],[11.03808,59.15377],[11.03711,59.15236],[11.03714,59.15169],[11.03849,59.1519],[11.04041,59.15123],[11.03645,59.14775],[11.03545,59.14606],[11.03709,59.14472],[11.03506,59.14128],[11.03612,59.14073],[11.03753,59.14068],[11.03635,59.13856],[11.03719,59.13747],[11.0326,59.1359],[11.03224,59.13378],[11.03031,59.13093],[11.03038,59.13015],[11.03298,59.1297],[11.03269,59.12816],[11.03461,59.12838],[11.03568,59.12976],[11.03489,59.13096],[11.03546,59.131],[11.03632,59.13001],[11.03715,59.12992],[11.03812,59.13137],[11.04026,59.13238],[11.0405,59.13427],[11.04262,59.13408],[11.04415,59.13465],[11.04501,59.13579],[11.046,59.13563],[11.04622,59.13335],[11.0475,59.1325],[11.04827,59.13247],[11.04927,59.13282],[11.04982,59.1341],[11.05158,59.13341],[11.05229,59.13474],[11.05564,59.13597],[11.05651,59.13695],[11.05842,59.13735],[11.05972,59.1372],[11.06118,59.13811],[11.06202,59.13756],[11.06107,59.13489],[11.06225,59.13519],[11.0639,59.13482],[11.06674,59.13593]],[[11.04222,59.16143],[11.04284,59.16236],[11.04424,59.16199]],[[11.00016,59.16247],[10.99749,59.15997]],[[11.01841,59.16303],[11.01856,59.16103],[11.01924,59.16065],[11.01889,59.15829]],[[11.10325,59.15996],[11.10122,59.16082],[11.09887,59.16304],[11.09836,59.16478],[11.09891,59.16548]],[[11.11245,59.16589],[11.1132,59.16515],[11.11522,59.16513],[11.11676,59.16425],[11.11918,59.16166],[11.11933,59.16043],[11.11634,59.1587],[11.11683,59.15719],[11.11609,59.1556],[11.11769,59.15421],[11.11722,59.15206],[11.11867,59.14967],[11.1193,59.14644],[11.12049,59.14484],[11.12254,59.14528],[11.12398,59.14618],[11.12843,59.14661],[11.13226,59.14771],[11.13398,59.14967],[11.13362,59.15265],[11.13435,59.1543],[11.13703,59.15499]],[[11.16465,59.16744],[11.16449,59.16339],[11.16509,59.16246],[11.16706,59.16308],[11.16647,59.16073],[11.16462,59.15989],[11.16247,59.15799],[11.15875,59.15666],[11.15737,59.15656],[11.15687,59.1583]],[[11.1791,59.16787],[11.17703,59.1611],[11.17413,59.15874],[11.17518,59.157],[11.17581,59.15346],[11.17786,59.15307],[11.18189,59.15368],[11.18961,59.15281],[11.19052,59.15218],[11.19057,59.1506],[11.19607,59.14953],[11.19613,59.14901],[11.19504,59.14851],[11.19638,59.14718],[11.2,59.14747],[11.20376,59.15048],[11.20479,59.15081],[11.20565,59.15061],[11.20636,59.14897],[11.21461,59.14745],[11.20747,59.14413],[11.20622,59.13806],[11.20412,59.13708],[11.20325,59.13596],[11.20166,59.13514],[11.20123,59.13533],[11.20448,59.14148],[11.20431,59.14418],[11.2031,59.14525],[11.20069,59.14455],[11.19724,59.14425],[11.19475,59.14491],[11.19162,59.14519],[11.19115,59.1444],[11.18916,59.14405],[11.18551,59.14554],[11.18464,59.14529],[11.18325,59.14293],[11.18105,59.1423],[11.17994,59.14299],[11.17953,59.14497],[11.17687,59.14395],[11.17647,59.14172],[11.1745,59.1399],[11.17687,59.13997],[11.17813,59.14117],[11.18074,59.14195],[11.18099,59.14006],[11.17997,59.13884],[11.17773,59.13791],[11.17726,59.13731],[11.17837,59.13675],[11.17986,59.13693],[11.18088,59.13555],[11.17663,59.13373],[11.17601,59.13443],[11.17546,59.13436],[11.17483,59.13352],[11.17557,59.13253],[11.17417,59.13071],[11.1738,59.12813],[11.17463,59.12727],[11.17692,59.12707],[11.18606,59.1286],[11.18621,59.12826],[11.17915,59.12512],[11.18119,59.1249],[11.18245,59.12401],[11.18354,59.12382],[11.18596,59.12573],[11.18711,59.12606],[11.18932,59.12473],[11.18803,59.12318]],[[10.99909,59.16373],[11.00004,59.16326],[11.00016,59.16247]],[[11.00796,59.16794],[11.00721,59.16621],[11.00564,59.16482],[11.00429,59.16621],[11.00215,59.16565],[11.00209,59.16655],[11.00091,59.1677],[11.00175,59.1684],[11.00359,59.16774],[11.00454,59.16799],[11.00433,59.16853],[11.00496,59.16894],[11.00782,59.16848],[11.00796,59.16794]],[[11.00971,59.17011],[11.0094,59.16838],[11.01015,59.16715],[11.00919,59.16454],[11.01141,59.16521],[11.01396,59.16511],[11.01471,59.16491],[11.01454,59.16388],[11.01543,59.16345],[11.01697,59.16549],[11.01858,59.16609],[11.01958,59.16399],[11.01841,59.16303]],[[11.00971,59.17011],[11.00895,59.17136]],[[11.17086,59.17771],[11.16959,59.1769],[11.16753,59.17705],[11.1667,59.17754],[11.16496,59.17643],[11.16395,59.17732],[11.16632,59.17864],[11.16855,59.17887],[11.16973,59.17877],[11.17086,59.17771]],[[11.09913,59.18373],[11.10074,59.18218],[11.10128,59.17908],[11.10581,59.17495],[11.10566,59.174],[11.10824,59.17309],[11.10816,59.17174],[11.1098,59.17271],[11.11147,59.17207],[11.11245,59.16589]],[[11.08326,59.18565],[11.08464,59.18498],[11.08835,59.1853],[11.09197,59.18364],[11.09355,59.18333],[11.09552,59.18406]],[[11.18549,59.19062],[11.18585,59.18505],[11.18732,59.18417],[11.1868,59.18255],[11.18861,59.1796],[11.18579,59.17857],[11.17979,59.17321],[11.1791,59.16787]],[[11.00895,59.17136],[11.00656,59.1717],[11.00586,59.1723],[11.00804,59.17573],[11.0065,59.17543],[11.00419,59.17394],[11.00364,59.17414],[11.00557,59.17563],[11.00728,59.1796],[11.01205,59.18132],[11.01514,59.18336],[11.01974,59.18433],[11.02021,59.1854],[11.01978,59.18558],[11.01568,59.18468],[11.01417,59.18541],[11.01361,59.18638]],[[11.14788,59.19212],[11.15174,59.1911],[11.1527,59.19013],[11.15546,59.18953],[11.15789,59.18706],[11.15828,59.18267],[11.1554,59.18103],[11.1551,59.17987],[11.15531,59.17936],[11.15827,59.17804],[11.15709,59.1769],[11.15737,59.1764],[11.15946,59.17533],[11.16012,59.17443],[11.16208,59.17387],[11.16249,59.17121],[11.16468,59.17067],[11.16465,59.16744]],[[11.14788,59.19212],[11.14496,59.19203]],[[10.99892,59.17861],[11.00131,59.18184],[11.00447,59.18208],[11.0082,59.18519],[11.00954,59.18575],[11.01014,59.18687],[11.01153,59.18752],[11.01303,59.18754],[11.01361,59.18638]],[[11.14765,59.19558],[11.15052,59.19604],[11.15134,59.1958],[11.15305,59.1931],[11.15479,59.19172],[11.15622,59.19126],[11.16222,59.19082],[11.16394,59.18975],[11.16631,59.19003],[11.16663,59.18952],[11.16946,59.18828],[11.17587,59.18689],[11.17857,59.18665],[11.18077,59.18742],[11.1817,59.18849],[11.18165,59.19001]],[[11.18017,59.196],[11.18149,59.19697],[11.18286,59.19711],[11.18435,59.19675],[11.18495,59.19368],[11.18608,59.19322],[11.18549,59.19062]],[[11.14496,59.19203],[11.14446,59.19236],[11.1455,59.19266],[11.14544,59.19311],[11.14234,59.19416],[11.14156,59.19549],[11.1417,59.19698],[11.14228,59.19736],[11.14342,59.19718],[11.14606,59.19571],[11.14749,59.19558]],[[11.09891,59.16548],[11.09928,59.16733],[11.10146,59.16739],[11.10127,59.16887],[11.0991,59.17048],[11.09453,59.17083],[11.09294,59.17265],[11.09197,59.17295],[11.09167,59.17348],[11.09322,59.17585],[11.09336,59.17718],[11.09192,59.1801],[11.08329,59.18254],[11.0818,59.1833],[11.08109,59.18576],[11.07675,59.18853],[11.07733,59.19118],[11.07457,59.19321],[11.07383,59.1958],[11.07524,59.19375],[11.07783,59.19213],[11.07856,59.19115]],[[11.07417,59.19807],[11.07341,59.20005],[11.07434,59.20385],[11.07557,59.20467],[11.07525,59.20687],[11.07587,59.20776],[11.07884,59.20828],[11.07933,59.20871]],[[11.06545,59.20942],[11.06678,59.20759],[11.06573,59.20333],[11.06715,59.20273],[11.07098,59.20234],[11.07224,59.20121],[11.07346,59.19775]],[[11.07789,59.2098],[11.07932,59.20877]],[[11.06355,59.21154],[11.06545,59.20942]],[[11.06355,59.21154],[11.06164,59.21295],[11.06113,59.21478],[11.06191,59.21705],[11.06415,59.21756]],[[11.06415,59.21756],[11.06653,59.21712],[11.06721,59.21544],[11.06841,59.2144],[11.075,59.21295],[11.07454,59.21274],[11.07563,59.21248],[11.07797,59.21288],[11.07952,59.21247],[11.07789,59.2098]],[[11.06488,59.01086],[11.06411,59.01061]],[[11.05138,59.00932],[11.05029,59.00916],[11.04968,59.00979],[11.0518,59.01059],[11.05238,59.01006],[11.05138,59.00932]],[[11.00514,59.0085],[11.00387,59.00811],[11.00273,59.00856],[11.00352,59.00966],[11.00568,59.00927],[11.00514,59.0085]],[[11.06234,59.01455],[11.06437,59.01494]],[[11.07941,59.02519],[11.07881,59.02559],[11.0792,59.02697]],[[11.07057,59.02627],[11.0687,59.02588],[11.06976,59.0271],[11.07126,59.02742],[11.0716,59.02707],[11.07057,59.02627]],[[11.07325,59.03249],[11.07064,59.03128],[11.07007,59.03142],[11.07034,59.03259],[11.07376,59.03302],[11.07325,59.03249]],[[11.08726,59.03401],[11.08894,59.0342],[11.08905,59.03337],[11.08633,59.033],[11.0831,59.03321],[11.08405,59.03505],[11.08726,59.03401]],[[11.06188,59.03452],[11.0608,59.03452],[11.06092,59.03578],[11.06223,59.03669],[11.063,59.03592],[11.06188,59.03452]],[[11.03706,59.0423],[11.03752,59.042]],[[11.08571,59.04203],[11.08485,59.04212],[11.08493,59.04332],[11.0866,59.04431],[11.08571,59.04203]],[[11.07218,59.04433],[11.06889,59.04366],[11.06939,59.04496],[11.07094,59.04565],[11.07338,59.04536],[11.07218,59.04433]],[[11.1149,59.04958],[11.11455,59.04813],[11.11223,59.0482],[11.11203,59.04888],[11.11306,59.04943],[11.11298,59.04999],[11.11202,59.05031],[11.11246,59.0514],[11.11396,59.05131],[11.11423,59.05081],[11.11368,59.05051],[11.1149,59.04958]],[[11.11057,59.05874],[11.10958,59.05876],[11.1097,59.05952],[11.11095,59.06038],[11.11169,59.05998],[11.11057,59.05874]],[[11.08777,59.06266],[11.08636,59.06166],[11.08701,59.06119],[11.08479,59.06064],[11.08533,59.06261],[11.08624,59.0625],[11.08762,59.06316],[11.08777,59.06266]],[[11.06554,59.07438],[11.06388,59.07452]],[[11.07193,59.07476],[11.0739,59.07341]],[[11.0699,59.0747],[11.07193,59.07476]],[[11.10416,59.07845],[11.10313,59.07842],[11.10236,59.07984],[11.10427,59.08048],[11.10492,59.07968],[11.10416,59.07845]],[[11.04755,59.08018],[11.04971,59.07995],[11.04979,59.07949],[11.04716,59.07903],[11.04649,59.07979],[11.04755,59.08018]],[[11.05069,59.08665],[11.04851,59.08676],[11.04817,59.08716],[11.04982,59.0886],[11.05127,59.08871],[11.05184,59.08766],[11.05069,59.08665]],[[11.05299,59.08893],[11.05194,59.08889],[11.05124,59.08973],[11.05331,59.09073],[11.05299,59.08893]],[[11.01711,59.09743],[11.01742,59.0968],[11.0195,59.09754],[11.02057,59.09722],[11.01896,59.09609],[11.01553,59.09602],[11.01546,59.09684],[11.01635,59.09763],[11.01711,59.09743]],[[11.00511,59.0982],[11.00356,59.09809],[11.00314,59.09842],[11.00455,59.10071],[11.00563,59.09936],[11.00511,59.0982]],[[11.00291,59.09962],[11.00096,59.0991],[11.00099,59.1005],[11.00157,59.1008],[11.00298,59.10075],[11.00291,59.09962]],[[11.20769,59.10987],[11.20569,59.1098],[11.20655,59.11142],[11.20761,59.11168],[11.20812,59.11055],[11.20769,59.10987]],[[11.17051,59.11022],[11.16908,59.11052],[11.16924,59.11213],[11.17055,59.11105],[11.17051,59.11022]],[[11.05203,59.10815],[11.05139,59.10803],[11.05023,59.10869],[11.05214,59.10995],[11.05313,59.10973],[11.05315,59.10934],[11.05203,59.10815]],[[11.18803,59.12318],[11.18747,59.12316]],[[11.08945,59.12183],[11.08888,59.12138],[11.08646,59.12202],[11.08763,59.12265],[11.08891,59.12277],[11.08945,59.12183]],[[11.03759,59.12317],[11.03631,59.12313],[11.03603,59.12393],[11.0385,59.12451],[11.03897,59.12397],[11.03759,59.12317]],[[11.19761,59.13041],[11.19566,59.12984],[11.19668,59.1311],[11.19798,59.13168],[11.19899,59.13323],[11.19973,59.13253],[11.19949,59.13183],[11.19761,59.13041]],[[11.01839,59.15472],[11.01764,59.15521],[11.01732,59.15414]],[[11.12833,59.13351],[11.12709,59.13311],[11.12649,59.13359],[11.12679,59.13439],[11.12796,59.13499],[11.12833,59.13351]],[[11.15625,59.159],[11.15687,59.1583]],[[11.11373,59.15976],[11.11281,59.15951],[11.11164,59.16026],[11.11231,59.16109],[11.11371,59.16046],[11.11373,59.15976]],[[11.01635,59.15833],[11.01807,59.15783],[11.01889,59.15829]],[[11.09552,59.18406],[11.09913,59.18373]],[[11.08213,59.1864],[11.08326,59.18565]],[[11.08213,59.1864],[11.07858,59.18895],[11.07856,59.19115]],[[11.18165,59.19001],[11.18148,59.19182],[11.17962,59.19534]],[[11.14749,59.19558],[11.14765,59.19558]],[[11.07417,59.19807],[11.07419,59.19669],[11.07346,59.19775]],[[11.07932,59.20877],[11.07933,59.20871]]]}}]}