{"type":"FeatureCollection","features":[{"type":"Feature","properties":{},"geometry":{"type":"MultiLineString","coordinates":[[[4.8943,59.29963],[4.89372,59.29845],[4.89257,59.29902],[4.89192,59.29855],[4.89227,59.29715],[4.89164,59.2967],[4.89219,59.29636],[4.89144,59.29533],[4.8902,59.29535],[4.89004,59.29487],[4.88633,59.29399],[4.88499,59.29426],[4.88542,59.29558],[4.88255,59.29561],[4.88238,59.29613],[4.88386,59.29661],[4.88236,59.2964],[4.8834,59.29804],[4.88092,59.29785],[4.88126,59.30047],[4.879,59.30011],[4.87851,59.29947]],[[4.87851,59.29947],[4.87789,59.29789],[4.87558,59.29684],[4.87399,59.29764],[4.8726,59.29637],[4.86799,59.29651],[4.86694,59.29857],[4.86583,59.29926],[4.8653,59.30067],[4.8659,59.30143],[4.86498,59.30203],[4.86387,59.30216],[4.8629,59.30179],[4.86299,59.30212],[4.86254,59.30189],[4.86194,59.30215],[4.86226,59.30254],[4.86028,59.30416],[4.86043,59.30609],[4.85819,59.30427],[4.85838,59.30377],[4.85725,59.30351],[4.85588,59.30433],[4.85494,59.30634],[4.85529,59.30759],[4.85705,59.30798],[4.85643,59.30843],[4.85798,59.30974],[4.85728,59.30965],[4.8575,59.31038],[4.85957,59.31008],[4.85847,59.31127],[4.86018,59.31298],[4.86185,59.31359],[4.86215,59.31316],[4.86221,59.31371],[4.8641,59.31428],[4.86416,59.31398],[4.86553,59.3152],[4.86793,59.31519],[4.86795,59.3148],[4.87029,59.31455],[4.86995,59.31435],[4.87392,59.31473]],[[4.87392,59.31473],[4.87465,59.31464],[4.87475,59.31495],[4.87364,59.31614],[4.87437,59.31647],[4.87541,59.31613],[4.87411,59.31695],[4.87354,59.31812],[4.87445,59.31879],[4.87593,59.31739],[4.8755,59.3192],[4.87707,59.31984],[4.87976,59.31936],[4.87913,59.31802],[4.88056,59.31839],[4.88047,59.31692],[4.882,59.31626],[4.88171,59.3158],[4.88261,59.31476],[4.88345,59.3147],[4.88381,59.31376],[4.88298,59.31221],[4.88409,59.31067],[4.88575,59.31121],[4.88692,59.31092],[4.8864,59.31186],[4.88601,59.3113],[4.88517,59.31131],[4.88474,59.312],[4.88664,59.31219],[4.88694,59.31376],[4.88987,59.31501],[4.88819,59.31559],[4.88732,59.31675],[4.8885,59.31693],[4.88835,59.31733],[4.88674,59.31715],[4.88646,59.31827],[4.88911,59.31897],[4.89038,59.31841],[4.89051,59.31972],[4.8911,59.31952],[4.89166,59.32001],[4.89298,59.32002],[4.89389,59.31888],[4.89411,59.31946],[4.89461,59.31915],[4.89562,59.31991],[4.90113,59.31903],[4.90094,59.31851],[4.90227,59.31846],[4.90533,59.31671],[4.90621,59.31694],[4.90657,59.31646],[4.90696,59.31676],[4.90789,59.31611],[4.90758,59.31577],[4.9094,59.31623],[4.90884,59.31501],[4.90822,59.31516],[4.90809,59.31315],[4.90712,59.3127],[4.90658,59.31283],[4.90609,59.31226],[4.90669,59.31221],[4.90496,59.31035],[4.90695,59.3085],[4.90676,59.30801],[4.90925,59.30768],[4.90952,59.30744],[4.9088,59.30747],[4.90962,59.30726],[4.90995,59.30662],[4.90928,59.30659],[4.91012,59.30647],[4.91193,59.30492],[4.91428,59.30387],[4.91343,59.30336],[4.91238,59.30392],[4.91158,59.30324],[4.91104,59.3034],[4.91188,59.3027],[4.91058,59.30228],[4.91069,59.29956],[4.90954,59.29925],[4.90823,59.29949],[4.9087,59.30161],[4.90803,59.30209],[4.90573,59.30057],[4.90553,59.2998],[4.90632,59.29946],[4.90584,59.29866],[4.90477,59.29856],[4.90521,59.29839],[4.90252,59.29724],[4.9022,59.29757],[4.90188,59.29698],[4.90148,59.29825]],[[4.90148,59.29825],[4.89839,59.29803],[4.89456,59.29983],[4.8943,59.29963]]]}}]}