{"type":"FeatureCollection","features":[{"type":"Feature","properties":{},"geometry":{"type":"MultiLineString","coordinates":[[[6.29459,59.60814],[6.29437,59.60676],[6.29316,59.60525],[6.29331,59.60265],[6.2913,59.60104],[6.2899,59.60083],[6.28895,59.59995],[6.28653,59.59486],[6.28823,59.59328],[6.2882,59.59208],[6.28908,59.59196],[6.29347,59.59271],[6.29636,59.59264],[6.30202,59.59117],[6.30399,59.59026],[6.30405,59.58865],[6.30242,59.58659],[6.30186,59.58388],[6.30327,59.58087],[6.30599,59.57884],[6.30639,59.57629],[6.3058,59.57538],[6.3041,59.57478],[6.29911,59.57442],[6.29613,59.57366],[6.29584,59.57214],[6.2948,59.57099],[6.29398,59.57069],[6.2897,59.57054],[6.28678,59.56742],[6.28072,59.56715],[6.27949,59.56592],[6.28038,59.56483],[6.27842,59.56418],[6.27777,59.56186]],[[6.32979,59.61049],[6.33044,59.60746],[6.33004,59.60251],[6.33094,59.60073],[6.33037,59.59837],[6.33189,59.59533],[6.33108,59.59252],[6.32901,59.5903],[6.33005,59.58917],[6.32882,59.58672],[6.33115,59.58535],[6.33123,59.58457],[6.32837,59.58108],[6.32823,59.57972],[6.32313,59.5768],[6.32323,59.57589],[6.31837,59.57222],[6.31479,59.56777],[6.31208,59.56632]],[[6.29459,59.60814],[6.2924,59.61011],[6.29175,59.61192],[6.29032,59.6131],[6.28864,59.61739],[6.28935,59.61896],[6.29203,59.62139],[6.2922,59.62382],[6.29315,59.62555],[6.29618,59.6274]],[[6.32979,59.61049],[6.33048,59.61345],[6.32962,59.61693],[6.33088,59.61793],[6.33154,59.6195],[6.32938,59.62097],[6.32932,59.62386],[6.33167,59.62706],[6.33288,59.62761],[6.3358,59.62805],[6.34019,59.62716],[6.34289,59.62745],[6.34467,59.62812],[6.3487,59.63068],[6.3513,59.63133],[6.35249,59.63229],[6.35305,59.63394],[6.35525,59.63489],[6.35717,59.63665],[6.36099,59.63718],[6.3652,59.63892],[6.366,59.63997],[6.36536,59.64094]],[[6.30516,59.63735],[6.30464,59.63539],[6.30302,59.63486],[6.3024,59.63283],[6.30045,59.63148],[6.30069,59.62944],[6.29946,59.62918],[6.29897,59.62831],[6.29681,59.62817],[6.29618,59.6274]],[[6.31336,59.64128],[6.31215,59.64093],[6.31116,59.63975],[6.30951,59.63978],[6.30706,59.63883],[6.30516,59.63735]],[[6.31336,59.64128],[6.31765,59.64081],[6.32489,59.64246],[6.32728,59.64236],[6.3296,59.6417],[6.33079,59.64192]],[[6.33079,59.64192],[6.33456,59.64372],[6.33754,59.64337],[6.33933,59.64388],[6.33746,59.64528],[6.33793,59.64645],[6.33912,59.64699],[6.34132,59.64716],[6.34302,59.64884],[6.34612,59.64861],[6.34632,59.64773],[6.34766,59.64699],[6.3494,59.64674],[6.35239,59.64712]],[[6.30701,59.56382],[6.31208,59.56632]],[[6.36536,59.64094],[6.36376,59.64112],[6.36333,59.64187],[6.36389,59.64228],[6.36268,59.64241],[6.36224,59.64391],[6.35423,59.64654]],[[6.21583,59.3902],[6.21725,59.39099],[6.21817,59.39036]],[[6.04904,59.37878],[6.05136,59.38065],[6.05626,59.38232]],[[5.9995,59.37865],[6.00023,59.37804],[6.00358,59.37851],[6.00414,59.37784],[6.00693,59.3769]],[[6.05626,59.38232],[6.0576,59.38278],[6.05813,59.38398],[6.0606,59.38572],[6.06325,59.38657],[6.06522,59.38633],[6.06544,59.38557],[6.06684,59.38611],[6.07012,59.38653],[6.07751,59.38495],[6.07898,59.38503],[6.07907,59.38642],[6.07805,59.38755],[6.07843,59.38811],[6.08115,59.38858],[6.08102,59.38928],[6.08176,59.38954],[6.08407,59.3892],[6.08699,59.38804],[6.08673,59.38892],[6.08838,59.38994],[6.0879,59.39044],[6.08511,59.39076],[6.08203,59.39207],[6.08565,59.39387],[6.08637,59.39475],[6.09105,59.39354]],[[6.05648,59.38726],[6.05511,59.38595],[6.05395,59.38554],[6.04714,59.38585],[6.04314,59.38444],[6.04102,59.38497],[6.04297,59.38617],[6.04451,59.38893],[6.04838,59.3904],[6.04789,59.39097],[6.0483,59.39145],[6.05223,59.3926],[6.05576,59.39223],[6.0594,59.38978],[6.05931,59.38913],[6.05648,59.38726]],[[6.09047,59.39571],[6.08809,59.39666],[6.08992,59.39779]],[[6.0424,59.39374],[6.04619,59.39362],[6.03712,59.38623],[6.03487,59.38571],[6.03446,59.38512],[6.0333,59.38526],[6.03237,59.38753],[6.03238,59.39005],[6.03158,59.3913],[6.03329,59.39185],[6.03259,59.39287],[6.03424,59.39387],[6.03893,59.39464],[6.0424,59.39374]],[[6.08965,59.39883],[6.09028,59.39815],[6.08992,59.39779]],[[6.08965,59.39883],[6.08929,59.40018]],[[6.08929,59.40018],[6.09023,59.40152],[6.09165,59.40185],[6.09064,59.40374],[6.09234,59.4044],[6.09728,59.40352],[6.10083,59.40227],[6.09867,59.39916],[6.09855,59.39809],[6.09702,59.39742],[6.09375,59.39771],[6.09299,59.39733],[6.09313,59.39692],[6.09547,59.39648],[6.09587,59.39574],[6.09524,59.39517],[6.09431,59.39494],[6.09203,59.39578],[6.09047,59.39571]],[[6.12248,59.40828],[6.12153,59.40781],[6.12066,59.40796],[6.12126,59.40929],[6.12258,59.4091],[6.12248,59.40828]],[[6.0047,59.40453],[6.00553,59.40464],[6.00701,59.40586],[6.01062,59.40698],[6.0108,59.40764]],[[6.21765,59.42233],[6.21653,59.42049],[6.217,59.41817],[6.21508,59.41342],[6.21142,59.40996],[6.2078,59.40758],[6.20265,59.40606],[6.20111,59.40756],[6.20119,59.40889],[6.20199,59.4096],[6.20359,59.40983],[6.20589,59.41178],[6.2064,59.41407],[6.20719,59.4149],[6.20868,59.41531],[6.21033,59.41943],[6.21096,59.4201],[6.21343,59.42104],[6.2131,59.42202]],[[6.0248,59.40911],[6.0249,59.40798],[6.02238,59.40665],[6.02376,59.40538],[6.02343,59.40396],[6.02416,59.40259],[6.03004,59.40043],[6.03254,59.39846],[6.04143,59.39765],[6.04369,59.39702],[6.04329,59.39599],[6.04919,59.39561],[6.05151,59.39661],[6.05378,59.39873],[6.05802,59.40003],[6.06029,59.4015],[6.05751,59.4027],[6.05589,59.40228],[6.04883,59.40288],[6.04879,59.40318],[6.05396,59.40542],[6.05862,59.40548],[6.06318,59.40622],[6.06788,59.40623],[6.07044,59.40568],[6.07395,59.40778],[6.07481,59.40753],[6.07465,59.40702],[6.07599,59.40585],[6.07926,59.40591],[6.08227,59.40749],[6.08098,59.40873],[6.08082,59.41006],[6.08169,59.41055],[6.08654,59.41055]],[[6.12372,59.41593],[6.12183,59.41285],[6.12007,59.41202],[6.11983,59.40927],[6.12092,59.40623],[6.1203,59.40558],[6.11818,59.40514],[6.11419,59.40463],[6.11116,59.40504],[6.11003,59.40629],[6.10844,59.40657],[6.10171,59.40969],[6.09683,59.40939],[6.09366,59.41002],[6.09129,59.40914],[6.08938,59.40892],[6.0881,59.41002],[6.08654,59.41055]],[[6.1334,59.41659],[6.13262,59.4162],[6.13278,59.4126],[6.12843,59.41103],[6.12699,59.40966],[6.12745,59.40897],[6.13081,59.40733],[6.13343,59.40729],[6.13509,59.40566],[6.13821,59.40495],[6.13766,59.40329],[6.13461,59.40154],[6.1294,59.39942],[6.12622,59.39921],[6.12551,59.39804],[6.12461,59.39772],[6.12107,59.39853],[6.11778,59.39833],[6.1173,59.3979],[6.11783,59.39705],[6.11693,59.3969],[6.1116,59.39783],[6.11112,59.39977],[6.10951,59.40016],[6.10726,59.40014],[6.1057,59.40127],[6.10388,59.40126],[6.10133,59.3997],[6.10079,59.39883],[6.10216,59.39775],[6.10419,59.39773],[6.10608,59.39688],[6.10586,59.39469],[6.10438,59.39451],[6.10036,59.39518],[6.09931,59.39505],[6.0975,59.394],[6.09558,59.39411],[6.09105,59.39354]],[[6.01186,59.40821],[6.01501,59.41031],[6.01557,59.41016],[6.01523,59.40952],[6.01743,59.40965],[6.01703,59.40925],[6.02003,59.41068],[6.02191,59.41087],[6.02382,59.41172],[6.02438,59.41158],[6.0248,59.40911]],[[6.17228,59.42145],[6.17129,59.4233],[6.16989,59.42354],[6.17104,59.42428],[6.17067,59.42478],[6.17136,59.42496]],[[6.1334,59.41659],[6.13567,59.4172],[6.14225,59.41764],[6.15289,59.41956],[6.15471,59.42044],[6.15486,59.42147],[6.16309,59.42277],[6.16192,59.42422],[6.16391,59.42697],[6.16671,59.42836],[6.17034,59.42886]],[[6.17034,59.42886],[6.17361,59.42924],[6.17603,59.42895],[6.17675,59.43076],[6.18037,59.43189],[6.18147,59.43176],[6.18219,59.43107],[6.18218,59.42954],[6.18016,59.42909],[6.1792,59.42843],[6.17969,59.42644],[6.17904,59.42571],[6.1742,59.42409],[6.17136,59.42496]],[[6.12372,59.41593],[6.12285,59.41685],[6.12087,59.41648],[6.12,59.41728],[6.12012,59.41816],[6.12242,59.42009],[6.12377,59.41987],[6.12667,59.42047],[6.1296,59.42147],[6.13273,59.42343],[6.1374,59.42447],[6.1472,59.42553],[6.1484,59.42535],[6.15412,59.42578],[6.15587,59.42642],[6.15908,59.42901],[6.16339,59.43114],[6.16559,59.43543],[6.16814,59.43721]],[[6.17228,59.42145],[6.17305,59.42096],[6.17489,59.4211],[6.17668,59.41994],[6.17777,59.4198],[6.17841,59.42024],[6.1783,59.42161],[6.17722,59.42257],[6.17815,59.42328],[6.18012,59.42345],[6.18131,59.42447],[6.18301,59.42504],[6.18659,59.42547],[6.18856,59.4297],[6.19404,59.43195],[6.1956,59.43438],[6.19698,59.43544],[6.20161,59.43766],[6.20356,59.43814],[6.20335,59.43898],[6.20163,59.43941],[6.2013,59.44011],[6.20444,59.44197],[6.21299,59.4448],[6.21436,59.4444],[6.21571,59.44255],[6.21462,59.43373],[6.21267,59.43112],[6.21046,59.42991],[6.21145,59.42867],[6.21094,59.42559],[6.21223,59.42426],[6.2121,59.42357],[6.21092,59.42289],[6.21162,59.42231],[6.2131,59.42202]],[[6.21765,59.42233],[6.21905,59.42314],[6.21937,59.42388],[6.21911,59.42471],[6.21796,59.42535],[6.21805,59.42832],[6.22071,59.42947],[6.22191,59.43369],[6.22735,59.43806],[6.22864,59.44109],[6.22824,59.44196],[6.22987,59.44268],[6.23152,59.44265],[6.23258,59.44438],[6.23393,59.44534],[6.23388,59.44674],[6.23679,59.44805],[6.2367,59.4486],[6.23859,59.45063],[6.24074,59.45205],[6.24032,59.45289],[6.23799,59.4543],[6.23854,59.45559],[6.24119,59.45747],[6.24334,59.45803],[6.24453,59.45924],[6.24707,59.46035],[6.24817,59.46141],[6.24798,59.4625],[6.24997,59.46345]],[[6.05087,59.45609],[6.04914,59.45474],[6.04519,59.45463],[6.04026,59.4512],[6.03772,59.45096],[6.03322,59.45141],[6.03023,59.45046],[6.02553,59.45067],[6.02562,59.44896],[6.02152,59.4492],[6.01929,59.44855],[6.01632,59.44631],[6.01385,59.44533],[6.01208,59.44519],[6.00748,59.44706],[6.00337,59.4483],[6.00107,59.44861],[5.99433,59.44839]],[[6.20366,59.46654],[6.19908,59.46303],[6.18878,59.45724],[6.18708,59.45582],[6.18406,59.45446],[6.18366,59.45236],[6.18024,59.45112],[6.18121,59.45008],[6.1772,59.44833],[6.17547,59.44689],[6.17542,59.44403],[6.17412,59.44083],[6.16814,59.43721]],[[6.05087,59.45609],[6.05392,59.457],[6.06344,59.45715],[6.06477,59.45791],[6.0679,59.4581],[6.07345,59.45992]],[[6.2463,59.47755],[6.2553,59.47003]],[[6.07345,59.45992],[6.07997,59.46036],[6.08386,59.46124],[6.09152,59.46156],[6.09393,59.46234],[6.0982,59.46222],[6.10003,59.46262],[6.10162,59.46402],[6.10575,59.46483],[6.11157,59.46392],[6.11797,59.46518],[6.12083,59.46523],[6.12399,59.4663],[6.12708,59.46652],[6.1289,59.46845],[6.13304,59.46887],[6.13851,59.46885],[6.13956,59.46948],[6.14435,59.46919],[6.1462,59.46943],[6.15169,59.47079],[6.15525,59.47087],[6.15661,59.47282],[6.15872,59.47306]],[[6.2463,59.47755],[6.24389,59.47944],[6.24546,59.48077]],[[6.03674,59.4682],[6.0319,59.46853],[6.03071,59.46904],[6.02996,59.47015],[6.02759,59.47097],[6.03084,59.47069],[6.03327,59.46996],[6.03674,59.4682]],[[6.06979,59.47366],[6.08027,59.47456],[6.08692,59.47441],[6.08922,59.47527],[6.09436,59.47528],[6.09952,59.47639],[6.10622,59.47664],[6.11546,59.4787],[6.12867,59.4793],[6.13357,59.4785],[6.14018,59.47951],[6.15687,59.48006]],[[6.16346,59.48197],[6.16204,59.48222],[6.16218,59.48349],[6.16345,59.48394],[6.16504,59.48385],[6.16558,59.48306],[6.16346,59.48197]],[[6.15687,59.48006],[6.15961,59.48044],[6.15946,59.48103],[6.15827,59.48111],[6.15761,59.48174],[6.15804,59.48224],[6.15936,59.48175],[6.16009,59.48203],[6.15941,59.48266],[6.15931,59.48523],[6.16061,59.48657],[6.16596,59.4872],[6.16867,59.48868],[6.17335,59.48645],[6.17454,59.48733],[6.17661,59.48559],[6.18029,59.48528],[6.18096,59.48405],[6.18691,59.48344],[6.19179,59.48368],[6.19577,59.48164],[6.19757,59.48155],[6.19741,59.48068],[6.19946,59.47975],[6.19725,59.47786],[6.19757,59.47676],[6.19652,59.47574],[6.19318,59.474],[6.18661,59.47297],[6.17754,59.47246],[6.17502,59.47134],[6.17213,59.47302],[6.17008,59.47332],[6.16639,59.47289],[6.15872,59.47306]],[[6.25082,59.4814],[6.2489,59.4824],[6.25022,59.48471],[6.24907,59.48514],[6.24675,59.4849],[6.24678,59.48641],[6.24772,59.48805],[6.24781,59.49059],[6.24902,59.49187],[6.24797,59.49322],[6.2485,59.49417],[6.25194,59.49548],[6.25329,59.49651]],[[5.99994,59.47762],[6.00239,59.47923],[6.00618,59.47966],[6.00735,59.47956],[6.00914,59.47854],[6.01277,59.47791],[6.01364,59.47732],[6.02141,59.47742],[6.02316,59.47635],[6.03105,59.47644],[6.03372,59.47723],[6.03555,59.47663],[6.03549,59.47588],[6.03226,59.4747],[6.03399,59.47393],[6.03597,59.47412],[6.03636,59.47389],[6.0342,59.47305],[6.03,59.47267],[6.0298,59.47239],[6.0374,59.46983],[6.04397,59.46937],[6.04929,59.47021],[6.04924,59.4711],[6.05031,59.47146],[6.05689,59.47114],[6.06078,59.47192],[6.06079,59.47256],[6.04658,59.47509],[6.04208,59.47516],[6.04074,59.47571],[6.03803,59.47571],[6.03774,59.47618],[6.03942,59.47667],[6.03738,59.47774],[6.03801,59.47866],[6.03883,59.47867],[6.04104,59.47752],[6.04694,59.47572],[6.04935,59.47579],[6.04969,59.47612],[6.04759,59.47777],[6.05209,59.47685],[6.05289,59.4771],[6.05297,59.47768],[6.05012,59.47807],[6.05267,59.47829],[6.05813,59.47717],[6.05993,59.47583],[6.05837,59.47546],[6.05778,59.4748],[6.06052,59.47402],[6.06257,59.47424],[6.06979,59.47366]],[[6.25329,59.49651],[6.25325,59.49752],[6.25638,59.49957],[6.26247,59.50091],[6.271,59.50586],[6.28498,59.5089],[6.29533,59.51028],[6.29946,59.51118],[6.30688,59.51082],[6.31297,59.51243],[6.31904,59.51557],[6.32498,59.51655]],[[6.23423,59.51377],[6.23335,59.51295],[6.22428,59.50918],[6.21791,59.50739],[6.21246,59.50322],[6.20781,59.50128],[6.20596,59.4994],[6.20638,59.49449],[6.20523,59.49151],[6.20242,59.48729],[6.20256,59.48552],[6.20288,59.48504],[6.20492,59.4848],[6.20571,59.4856],[6.20933,59.48654],[6.21238,59.48549],[6.21287,59.48607],[6.2138,59.48603],[6.21505,59.47902],[6.21796,59.47484],[6.21802,59.47388],[6.21507,59.47193],[6.20883,59.46933],[6.20366,59.46654]],[[6.3548,59.52185],[6.35297,59.52097],[6.34681,59.5196],[6.34246,59.51951],[6.33756,59.51816],[6.3287,59.51676],[6.32498,59.51655]],[[6.3548,59.52185],[6.36486,59.52585],[6.36738,59.52631],[6.37006,59.5266],[6.37353,59.52522],[6.37804,59.52452],[6.39227,59.52649],[6.39333,59.52686],[6.39436,59.52847],[6.39366,59.52969],[6.39883,59.53178],[6.39995,59.53318],[6.40579,59.53493],[6.40898,59.53547]],[[6.32166,59.52936],[6.32441,59.5304],[6.32311,59.53235],[6.32475,59.53362],[6.32613,59.5338],[6.32957,59.53273],[6.33596,59.53415],[6.33781,59.53407],[6.33928,59.53356],[6.34167,59.53372],[6.34432,59.53494],[6.34551,59.53479],[6.35081,59.53693],[6.35443,59.53666],[6.35718,59.53711],[6.35999,59.53948],[6.35612,59.54167],[6.35598,59.54258],[6.35769,59.5431],[6.36282,59.54319],[6.36559,59.54428],[6.36838,59.5461],[6.37183,59.54585],[6.37523,59.54627],[6.38002,59.54565],[6.38834,59.54533],[6.39504,59.54664],[6.39657,59.54737],[6.4026,59.54722],[6.40589,59.54751]],[[6.27777,59.56186],[6.27693,59.56095],[6.27176,59.56012],[6.27019,59.55917],[6.26979,59.55728],[6.2678,59.55618],[6.26811,59.55496],[6.26743,59.55372],[6.26509,59.55168],[6.26587,59.54776],[6.26852,59.54458],[6.26856,59.54344],[6.26722,59.54143],[6.26879,59.53758],[6.26818,59.53674],[6.26598,59.5357],[6.26358,59.53604],[6.26065,59.53394],[6.26268,59.5319],[6.26235,59.53111],[6.2609,59.53092],[6.25962,59.53126],[6.26017,59.53178],[6.25946,59.53236],[6.25799,59.53237],[6.25704,59.53185],[6.25465,59.52601],[6.25429,59.52347],[6.25161,59.52195],[6.25154,59.5209],[6.25022,59.51985],[6.2459,59.51756],[6.23661,59.51467]],[[6.30701,59.56382],[6.3039,59.56261],[6.29721,59.56097],[6.29412,59.55939],[6.29452,59.55604],[6.28897,59.55084],[6.28572,59.54633],[6.28359,59.54507],[6.282,59.53761],[6.27951,59.53524],[6.27527,59.52939],[6.27017,59.52465],[6.27007,59.52157],[6.26816,59.51931],[6.26902,59.51793],[6.27135,59.51751],[6.2748,59.51813],[6.28007,59.5184],[6.286,59.51979],[6.28885,59.52176],[6.29254,59.52295],[6.29562,59.52451],[6.29862,59.52448],[6.30633,59.52562],[6.30808,59.52535],[6.31312,59.52721],[6.31743,59.52787],[6.32166,59.52936]],[[6.19536,59.33323],[6.20081,59.33385],[6.20393,59.33561],[6.20968,59.33659],[6.2109,59.33727],[6.21043,59.33872],[6.21124,59.33993],[6.21293,59.34067]],[[6.18706,59.33462],[6.18668,59.33528],[6.18882,59.33681],[6.18997,59.34043],[6.19317,59.3416]],[[6.20726,59.34307],[6.20963,59.34271],[6.21044,59.34221],[6.2139,59.3419],[6.21398,59.34131],[6.21293,59.34067]],[[6.227,59.34474],[6.2293,59.34443],[6.22712,59.34303],[6.22595,59.34288],[6.22645,59.34465],[6.227,59.34474]],[[6.21682,59.34486],[6.22099,59.34429],[6.22065,59.34246],[6.21871,59.34152],[6.21832,59.34083],[6.22328,59.33989],[6.22628,59.34017],[6.22853,59.33957],[6.22909,59.33881],[6.22885,59.33719]],[[6.20184,59.34428],[6.20496,59.34329],[6.20726,59.34307]],[[6.19323,59.34161],[6.19441,59.34156],[6.19449,59.34087],[6.19649,59.34108],[6.19761,59.34291],[6.19701,59.34356],[6.19909,59.34498],[6.20104,59.34525],[6.20184,59.34428]],[[6.02599,59.33758],[6.02518,59.33803],[6.0217,59.33783],[6.02089,59.3406]],[[6.09937,59.32448],[6.10234,59.32721],[6.10193,59.32798],[6.10046,59.32868],[6.10227,59.3314],[6.10184,59.33164],[6.09966,59.33093],[6.09822,59.33173],[6.09933,59.33259],[6.10189,59.3329],[6.10428,59.33568],[6.10236,59.33665],[6.0976,59.3356],[6.09455,59.33608],[6.09336,59.33711],[6.09429,59.33759],[6.09507,59.33961],[6.09454,59.34057],[6.09537,59.34158],[6.09757,59.34287],[6.10017,59.34265],[6.10116,59.34427],[6.10168,59.34938],[6.1006,59.35182],[6.10177,59.35293]],[[6.10128,59.35479],[6.10383,59.35516],[6.10642,59.35618],[6.10677,59.3576],[6.10932,59.35701],[6.10968,59.3554],[6.10862,59.35458],[6.10648,59.35401],[6.10447,59.35417],[6.10177,59.35293]],[[6.10128,59.35479],[6.09838,59.35421],[6.09854,59.35555],[6.10062,59.35728]],[[6.02599,59.33758],[6.02699,59.33681],[6.02719,59.33298],[6.02998,59.33207],[6.03301,59.33181],[6.03436,59.33322],[6.03411,59.33489],[6.03505,59.33642],[6.03731,59.33579],[6.03988,59.33566],[6.03869,59.33367],[6.03971,59.33142],[6.03823,59.32893],[6.03844,59.32848],[6.04098,59.32785],[6.04141,59.32735],[6.04499,59.3275],[6.04803,59.32668],[6.05119,59.32782],[6.05311,59.32741],[6.05923,59.32777],[6.06418,59.3292],[6.06682,59.32939],[6.07036,59.32829],[6.07335,59.32862],[6.07721,59.3297],[6.08006,59.33133],[6.08098,59.33083],[6.08034,59.32981],[6.08125,59.32957],[6.08307,59.32682],[6.08275,59.32596],[6.08461,59.32565],[6.08561,59.32636],[6.08588,59.32903],[6.08373,59.33148],[6.08754,59.33326],[6.08924,59.33495],[6.08905,59.33715],[6.09038,59.33898],[6.09144,59.3425],[6.0901,59.34289],[6.09021,59.34408],[6.09126,59.34392],[6.09194,59.34611],[6.09155,59.34705],[6.09082,59.34704],[6.08973,59.34627],[6.08929,59.34456],[6.08817,59.34425],[6.08694,59.34314],[6.08354,59.34393],[6.08111,59.34302],[6.08022,59.34375],[6.07988,59.3464],[6.08222,59.3474],[6.08367,59.3474],[6.08516,59.34817],[6.08649,59.3499],[6.08878,59.35128],[6.08917,59.35262],[6.09077,59.35275],[6.09054,59.35389],[6.09114,59.35469],[6.09438,59.35588],[6.09539,59.35713],[6.09719,59.35696],[6.09974,59.36064]],[[6.09974,59.36064],[6.10123,59.3621],[6.10385,59.36111],[6.10676,59.36357],[6.1074,59.3636],[6.10583,59.36092],[6.10062,59.35728]],[[6.11535,59.3691],[6.11476,59.36834],[6.11611,59.36797],[6.11637,59.36739],[6.11359,59.36693],[6.11078,59.36511],[6.10858,59.36447],[6.11255,59.3676],[6.11215,59.36888],[6.11278,59.36913],[6.11408,59.36881],[6.115,59.36933],[6.11535,59.3691]],[[6.03969,59.36497],[6.03998,59.36464],[6.0412,59.365],[6.04235,59.36443],[6.04292,59.36302],[6.04178,59.36112],[6.03872,59.3586],[6.03562,59.35767],[6.03295,59.35627],[6.03119,59.35411],[6.02892,59.35355],[6.02696,59.35223],[6.02087,59.34186],[6.02089,59.3406]],[[6.11679,59.37029],[6.1155,59.3694],[6.11545,59.3702]],[[6.21574,59.37704],[6.21925,59.37323],[6.21822,59.36879],[6.22011,59.36632],[6.22174,59.36572],[6.22276,59.36472],[6.2246,59.35871],[6.22694,59.35684],[6.22835,59.35474],[6.22816,59.35403],[6.22723,59.35368],[6.22447,59.35453],[6.22153,59.35468],[6.21902,59.35395],[6.22128,59.35061],[6.22032,59.34931],[6.21779,59.34991],[6.21627,59.3495],[6.21787,59.347],[6.21769,59.34603],[6.21642,59.34534],[6.21682,59.34486]],[[6.22487,59.37766],[6.22565,59.37327],[6.22716,59.37142],[6.2274,59.36842],[6.23214,59.36061],[6.23098,59.35793],[6.23106,59.35583],[6.23436,59.34852],[6.23664,59.34795]],[[6.11545,59.3702],[6.11821,59.37375],[6.12017,59.37398],[6.12045,59.37343],[6.11933,59.37206],[6.11679,59.37029]],[[6.03969,59.36497],[6.03858,59.36787],[6.04053,59.36942],[6.04399,59.37025],[6.0457,59.37154]],[[6.0457,59.37154],[6.04628,59.37239],[6.0442,59.37329],[6.04423,59.37376],[6.04544,59.37429],[6.04769,59.37447],[6.04858,59.37517],[6.04802,59.37635],[6.04623,59.37645],[6.04558,59.3769],[6.04878,59.37818],[6.04904,59.37878]],[[6.01274,59.37626],[6.01049,59.37527],[6.00922,59.37538],[6.00874,59.37598]],[[6.21817,59.39036],[6.22066,59.38918],[6.22106,59.38823],[6.22037,59.38586],[6.22236,59.38387],[6.22311,59.38032],[6.22487,59.37766]],[[6.0047,59.40453],[6.00403,59.40331],[6.00472,59.40104],[6.00311,59.4007],[6.00232,59.39989],[6.00427,59.39892],[6.00598,59.39873],[6.00769,59.39925],[6.0106,59.40147],[6.01823,59.40491],[6.01926,59.40095],[6.01621,59.39922],[6.01697,59.39848],[6.01801,59.3984],[6.01979,59.39736],[6.02017,59.39599],[6.01918,59.39504],[6.02225,59.39221],[6.02182,59.39171],[6.01976,59.39188],[6.0191,59.39108],[6.01808,59.39082],[6.01552,59.39123],[6.01629,59.39267],[6.01473,59.39319],[6.01344,59.39305],[6.01248,59.3918],[6.00759,59.39189],[6.00768,59.39154],[6.01072,59.39115],[6.01475,59.39006],[6.01912,59.38979],[6.02017,59.38875],[6.01997,59.38518],[6.01924,59.3847],[6.01684,59.38525],[6.01464,59.38658],[6.01201,59.3874],[6.01094,59.38702],[6.01099,59.38653],[6.01436,59.38428],[6.01774,59.38334],[6.01995,59.3834],[6.02062,59.38186],[6.01844,59.37927],[6.01677,59.37861],[6.0128,59.37901],[6.01238,59.37854],[6.01322,59.37706],[6.01274,59.37626]],[[6.05098,59.38441],[6.04885,59.38436],[6.04779,59.38485],[6.0499,59.38546],[6.05213,59.3849],[6.05098,59.38441]],[[6.01186,59.40821],[6.0108,59.40764]],[[6.2553,59.47003],[6.25549,59.46899],[6.25391,59.46697],[6.24997,59.46345]],[[6.24546,59.48077],[6.24886,59.48098]],[[6.23423,59.51377],[6.23661,59.51467]],[[6.21574,59.37704],[6.21691,59.37823],[6.2168,59.37931],[6.21514,59.3803],[6.21402,59.38303],[6.21428,59.3845],[6.2166,59.38751],[6.21583,59.3902]],[[6.00874,59.37598],[6.00803,59.37719],[6.00693,59.3769]],[[6.19577,59.33053],[6.19613,59.33028]],[[6.19323,59.34161],[6.19317,59.3416]],[[6.23762,59.34743],[6.24034,59.34587],[6.24231,59.34175],[6.24356,59.34083],[6.24331,59.33634],[6.24697,59.33512],[6.24825,59.33409]],[[6.28133,58.99968],[6.28334,59.00015],[6.28955,58.99962]],[[6.31648,58.9997],[6.32276,59.00115],[6.32539,59.00236],[6.3406,59.0031],[6.35204,59.00301],[6.36302,59.00355],[6.36765,59.00435]],[[6.36765,59.00435],[6.37926,59.00626],[6.38567,59.00689],[6.3922,59.00825],[6.39503,59.00941],[6.40173,59.01006],[6.40414,59.01098],[6.4046,59.01175],[6.40655,59.0122],[6.4084,59.01202],[6.41279,59.01249],[6.41916,59.01495],[6.41972,59.01611],[6.42231,59.01592],[6.42298,59.01503],[6.42478,59.01438],[6.42901,59.01467],[6.43919,59.01737],[6.44507,59.01806],[6.44838,59.01804],[6.45142,59.01932]],[[6.27339,59.01264],[6.27815,59.01213]],[[6.2318,58.99964],[6.23226,59.0001],[6.23545,59.00081],[6.23494,59.00253],[6.23595,59.00356],[6.23892,59.00394],[6.24503,59.00554],[6.25001,59.00619],[6.25562,59.0089],[6.25927,59.00998],[6.26246,59.01183],[6.26484,59.0125],[6.27339,59.01264]],[[6.45142,59.01932],[6.45865,59.02011],[6.46604,59.02257],[6.47497,59.02347],[6.48779,59.02612],[6.50183,59.02729],[6.50825,59.02889],[6.51032,59.0292],[6.51166,59.02882],[6.51588,59.02993],[6.52375,59.02984],[6.53083,59.02852],[6.53272,59.02856],[6.53643,59.02951]],[[6.28255,59.0125],[6.28806,59.01336],[6.2925,59.0132],[6.29803,59.01429],[6.31871,59.01678],[6.32214,59.0164],[6.34063,59.01696],[6.3546,59.0187],[6.36352,59.02071]],[[6.53643,59.02951],[6.54262,59.03093],[6.54484,59.03231],[6.55491,59.03517]],[[6.06429,59.00535],[6.06688,59.00463],[6.06791,59.00374],[6.06912,59.00342],[6.07018,59.00212],[6.07433,59.00104],[6.07521,58.99886]],[[6.44195,59.03104],[6.43501,59.03041],[6.43342,59.02996],[6.42865,59.02983],[6.40907,59.02699],[6.39702,59.02626],[6.39327,59.02564],[6.39136,59.02412],[6.38938,59.02415],[6.38724,59.02474],[6.37872,59.02418],[6.36352,59.02071]],[[6.58051,59.04018],[6.57637,59.03679],[6.56084,59.03567],[6.55885,59.03585],[6.55491,59.03517]],[[6.5901,59.04094],[6.59357,59.04201],[6.59784,59.0424]],[[6.58051,59.04018],[6.58255,59.04208],[6.58809,59.04094],[6.5901,59.04094]],[[6.59784,59.0424],[6.59948,59.04249],[6.60488,59.04399],[6.61936,59.04617]],[[6.44833,59.03167],[6.45609,59.03363],[6.47094,59.03615],[6.47769,59.03767],[6.47999,59.03859],[6.48485,59.03923],[6.48704,59.03905],[6.48846,59.03842],[6.49207,59.03817],[6.49847,59.04034],[6.50206,59.04105],[6.51101,59.04119],[6.5136,59.04028],[6.51682,59.03999],[6.51979,59.039],[6.52405,59.03869],[6.5282,59.03894],[6.53385,59.03994]],[[6.64478,59.0508],[6.64446,59.05039],[6.64084,59.04961],[6.63147,59.04851],[6.61989,59.04624]],[[6.06429,59.00535],[6.05921,59.0069],[6.05696,59.00694],[6.0555,59.00835],[6.04963,59.00876],[6.04719,59.01158]],[[6.53385,59.03994],[6.53645,59.0403],[6.53999,59.04214],[6.54844,59.04442],[6.5504,59.04445],[6.55559,59.04367],[6.56101,59.04384],[6.57057,59.04485],[6.57375,59.0458],[6.57537,59.04588],[6.57809,59.04744],[6.58615,59.04936],[6.59323,59.04942],[6.6,59.0503],[6.60256,59.04949],[6.60483,59.04939],[6.60625,59.04962],[6.60816,59.05071],[6.6186,59.05148]],[[6.64537,59.05391],[6.64501,59.05202]],[[6.02406,59.01005],[6.02603,59.01017],[6.02487,59.0094],[6.0229,59.0091],[6.02194,59.01111],[6.02292,59.0136],[6.02404,59.01407],[6.02521,59.01393],[6.02555,59.013],[6.02468,59.01237],[6.02406,59.01005]],[[6.6186,59.05148],[6.6294,59.054],[6.64321,59.05591],[6.64511,59.05567],[6.64537,59.05391]],[[6.04719,59.01158],[6.04512,59.01307],[6.04455,59.01487],[6.04298,59.01621],[6.04346,59.0165]],[[6.03423,59.00991],[6.03175,59.00969],[6.02938,59.01002],[6.02889,59.01085],[6.03057,59.01197],[6.02933,59.0149],[6.02999,59.01639],[6.03227,59.01633],[6.03372,59.01241],[6.03629,59.01215],[6.03599,59.01105],[6.03423,59.00991]],[[6.04022,59.01829],[6.04241,59.01833],[6.04366,59.01702]],[[6.04022,59.01829],[6.03887,59.01749],[6.03955,59.01639],[6.03794,59.01543],[6.03376,59.01716],[6.0303,59.01958],[6.03045,59.02132]],[[6.01247,59.02361],[6.00505,59.0224],[6.00311,59.02162]],[[6.00311,59.02162],[6.00121,59.02102],[5.9981,59.02158]],[[6.01247,59.02361],[6.01495,59.02403],[6.02828,59.02254],[6.03012,59.02194],[6.03045,59.02132]],[[6.27815,59.01213],[6.28255,59.0125]],[[6.44195,59.03104],[6.44833,59.03167]],[[6.61936,59.04617],[6.61989,59.04624]],[[6.40898,59.53547],[6.4274,59.53737],[6.43356,59.53833],[6.44294,59.5422],[6.44636,59.54403],[6.45572,59.54677],[6.46102,59.5473],[6.46386,59.54855],[6.4682,59.54848],[6.47604,59.549],[6.48853,59.55048],[6.49431,59.54949]],[[6.49431,59.54949],[6.50021,59.55],[6.50435,59.55117],[6.50699,59.55095],[6.51339,59.54881],[6.51785,59.54862],[6.52141,59.54946],[6.52505,59.55095],[6.5293,59.55123],[6.5406,59.55324],[6.54505,59.55343],[6.5526,59.55298],[6.55941,59.55468],[6.5644,59.55527],[6.56523,59.5557],[6.56826,59.55476],[6.57198,59.55548],[6.58166,59.55571]],[[6.58055,59.56012],[6.58234,59.56018],[6.5848,59.55949],[6.59616,59.56044],[6.60036,59.55907],[6.60001,59.55845],[6.59737,59.55778],[6.59184,59.5577],[6.58593,59.55581],[6.5841,59.55549],[6.58166,59.55571]],[[6.49192,59.55888],[6.49501,59.55877],[6.49755,59.55793],[6.49953,59.55785],[6.50079,59.55715],[6.50633,59.55697],[6.51545,59.5579],[6.51713,59.55751],[6.51912,59.55815],[6.5217,59.55757],[6.52538,59.55835],[6.53064,59.55809],[6.54041,59.55971],[6.54432,59.55915],[6.54653,59.55806],[6.55383,59.55774],[6.56452,59.55903],[6.5674,59.55925],[6.56883,59.559],[6.58055,59.56012]],[[6.40589,59.54751],[6.41169,59.54945],[6.41947,59.54979],[6.42432,59.5521],[6.42584,59.5537],[6.43274,59.55571],[6.43715,59.55654],[6.44846,59.55784],[6.45233,59.55744],[6.45355,59.55781],[6.45724,59.55775],[6.46498,59.55864],[6.47478,59.5579],[6.47833,59.55677],[6.48015,59.5566],[6.48556,59.55824],[6.48881,59.55882],[6.49192,59.55888]],[[6.07729,59.23207],[6.07415,59.23132],[6.07303,59.22914],[6.07183,59.22813],[6.07089,59.22824],[6.06991,59.22921],[6.07058,59.23099],[6.06993,59.23157]],[[6.15943,59.23347],[6.16138,59.23253],[6.16288,59.23266]],[[6.13637,59.22691],[6.13824,59.22937],[6.14127,59.23125],[6.14424,59.23109],[6.14979,59.23297]],[[6.16288,59.23266],[6.16388,59.23293],[6.16524,59.23415],[6.16954,59.23379],[6.17656,59.23497]],[[6.14979,59.23297],[6.15093,59.23391],[6.15121,59.23499],[6.15372,59.23572],[6.15943,59.23347]],[[6.0924,59.23312],[6.09016,59.23246],[6.0875,59.23261],[6.08502,59.23195],[6.08325,59.23204]],[[6.18002,59.23913],[6.18033,59.23818],[6.17894,59.23741],[6.17838,59.23591],[6.17656,59.23497]],[[6.0924,59.23312],[6.09561,59.23334]],[[6.07729,59.23207],[6.07987,59.2326],[6.08196,59.2324]],[[6.18002,59.23913],[6.1787,59.2424],[6.17534,59.24585],[6.17503,59.24774]],[[5.99805,59.2334],[6.00249,59.23486],[6.00737,59.23581],[6.01283,59.23561],[6.01595,59.23468],[6.01738,59.23488],[6.01924,59.23586],[6.0224,59.2359],[6.02407,59.23729],[6.02599,59.23803],[6.03086,59.23793],[6.03474,59.23843],[6.04369,59.2385]],[[6.17503,59.24774],[6.17716,59.24857],[6.18135,59.25184],[6.19073,59.25561],[6.19041,59.25689],[6.19186,59.25792],[6.20166,59.25896],[6.20458,59.2603],[6.20849,59.26088],[6.21364,59.26293]],[[6.21364,59.26293],[6.21584,59.26367],[6.21678,59.2661],[6.2251,59.26691],[6.2292,59.26834],[6.23286,59.26804],[6.23487,59.26728],[6.23703,59.26788],[6.24254,59.26789],[6.24979,59.2694],[6.25361,59.26863],[6.26159,59.26941],[6.26534,59.26863],[6.26985,59.26886],[6.2716,59.26942],[6.27368,59.27078],[6.27698,59.27163],[6.27769,59.27299],[6.27937,59.27427],[6.28473,59.27561],[6.28657,59.2752],[6.2898,59.27682],[6.29786,59.2784]],[[6.15186,59.26446],[6.15448,59.26138],[6.15575,59.26088],[6.1575,59.26078],[6.1589,59.26124],[6.15967,59.26185],[6.15933,59.26262],[6.16077,59.26288],[6.16361,59.26156],[6.1673,59.2614],[6.17158,59.26311],[6.17603,59.26557],[6.17863,59.26637],[6.17961,59.26761],[6.1823,59.26868],[6.18442,59.26895],[6.18666,59.2708],[6.19041,59.27201],[6.19315,59.27243],[6.19747,59.27178],[6.20412,59.27241],[6.21085,59.27368]],[[6.29786,59.2784],[6.30083,59.2787],[6.30147,59.27949],[6.30329,59.28006],[6.30808,59.28053],[6.31107,59.28017],[6.31235,59.27974],[6.31678,59.27535],[6.3222,59.2724],[6.32975,59.27016],[6.33235,59.27134]],[[6.14062,59.27685],[6.14301,59.27394],[6.14618,59.2729],[6.14791,59.27188],[6.15131,59.26685]],[[6.09242,59.27828],[6.10104,59.27204],[6.10386,59.26894],[6.1052,59.26126],[6.10027,59.25589],[6.09966,59.25439],[6.09772,59.2535],[6.09515,59.25316],[6.09426,59.25104],[6.08864,59.25018],[6.08226,59.24981],[6.07749,59.24721],[6.07106,59.24506],[6.06923,59.24407],[6.06592,59.24322],[6.06351,59.24202],[6.0624,59.24195],[6.06124,59.2425],[6.04994,59.23912],[6.04626,59.2397],[6.04453,59.23949],[6.04369,59.2385]],[[6.27491,59.29074],[6.27385,59.28995],[6.27321,59.28847],[6.26872,59.28559],[6.26385,59.2857],[6.26161,59.28533],[6.25292,59.28273],[6.25214,59.28167],[6.24795,59.28012],[6.24593,59.27973],[6.24266,59.27958],[6.24184,59.27989],[6.23936,59.27958],[6.23302,59.278],[6.22411,59.27657],[6.21619,59.27451],[6.21371,59.27456],[6.21085,59.27368]],[[6.35989,59.29644],[6.35746,59.29511],[6.35132,59.29282],[6.34328,59.29097],[6.33858,59.29065],[6.33169,59.28951],[6.32763,59.28805],[6.32517,59.28638],[6.32401,59.28378],[6.32603,59.28132],[6.32703,59.27848],[6.32921,59.27633],[6.33499,59.27397],[6.33408,59.27292],[6.3328,59.27273],[6.33235,59.27192]],[[6.28669,59.29153],[6.29383,59.29408]],[[6.35989,59.29644],[6.36943,59.30099],[6.37645,59.30297],[6.3797,59.30348]],[[6.11854,59.28924],[6.12148,59.28549],[6.12392,59.28465],[6.12555,59.28511]],[[6.49358,59.31488],[6.50378,59.31524],[6.51473,59.315],[6.52458,59.31591],[6.53109,59.31608],[6.53337,59.31542],[6.53666,59.31541],[6.55247,59.31859]],[[6.55829,59.32035],[6.55372,59.3189]],[[6.48791,59.31625],[6.48995,59.31611],[6.49358,59.31488]],[[6.47059,59.31556],[6.47573,59.31553],[6.48791,59.31625]],[[6.11854,59.28924],[6.11772,59.29034],[6.11783,59.29193]],[[6.46477,59.3162],[6.47059,59.31556]],[[6.3797,59.30348],[6.38449,59.30311],[6.38586,59.30392],[6.38988,59.30464],[6.39333,59.30606],[6.40418,59.30855],[6.41066,59.30946],[6.41496,59.31083],[6.41779,59.31237],[6.4236,59.31367],[6.43863,59.31424],[6.45153,59.31516],[6.45665,59.31585],[6.46477,59.3162]],[[6.54658,59.32104],[6.54344,59.32042],[6.53696,59.31994],[6.53248,59.31858],[6.53059,59.31873],[6.51908,59.31801],[6.51583,59.3184],[6.50952,59.31785],[6.506,59.31941],[6.50389,59.31982]],[[6.55175,59.32147],[6.55689,59.32328],[6.55863,59.32272],[6.55822,59.32069]],[[6.48845,59.32151],[6.48976,59.3211],[6.49218,59.32142],[6.49308,59.32117],[6.4931,59.32072],[6.49139,59.32008],[6.49152,59.31902],[6.49313,59.31848],[6.4969,59.31927],[6.50026,59.31929],[6.50389,59.31982]],[[6.46279,59.32402],[6.47558,59.32334],[6.48214,59.32127],[6.48765,59.32195],[6.48845,59.32151]],[[6.46279,59.32402],[6.45876,59.32451],[6.4578,59.32377],[6.45368,59.32222]],[[6.43932,59.32354],[6.44541,59.3216],[6.44945,59.32086],[6.45269,59.32143],[6.45368,59.32222]],[[6.02918,59.29328],[6.03176,59.29299],[6.03506,59.29325],[6.03679,59.29451],[6.04072,59.29623],[6.04456,59.29673],[6.04583,59.29726],[6.05122,59.29727],[6.05651,59.29671],[6.05845,59.29568],[6.06123,59.29283],[6.06501,59.29111],[6.06846,59.28859],[6.07542,59.28559],[6.08169,59.28389],[6.08305,59.28267],[6.08506,59.2827],[6.08728,59.28183],[6.09141,59.27942],[6.09242,59.27828]],[[5.99302,59.29077],[6.00533,59.29151],[6.00895,59.29335],[6.01048,59.29317],[6.01042,59.29257],[6.01104,59.29235],[6.01673,59.29302],[6.02047,59.29266],[6.02525,59.29329],[6.02918,59.29328]],[[6.43355,59.32404],[6.43932,59.32354]],[[6.11723,59.29423],[6.11354,59.30226],[6.11492,59.30302]],[[6.29383,59.29408],[6.29478,59.29464],[6.30244,59.2944],[6.30702,59.29519],[6.31122,59.29664],[6.32063,59.30181],[6.32572,59.30237],[6.32789,59.30162],[6.3315,59.30256],[6.33381,59.30489],[6.33734,59.3063],[6.34479,59.31121],[6.34547,59.31208],[6.34444,59.31371],[6.34732,59.31469],[6.34855,59.31649],[6.35735,59.31903],[6.36645,59.32],[6.3751,59.32149]],[[6.42639,59.32527],[6.42779,59.32473],[6.4309,59.32477]],[[6.3751,59.32149],[6.38463,59.32219],[6.38862,59.32104],[6.4,59.32222],[6.40389,59.32307],[6.40786,59.32255],[6.41378,59.32318],[6.41989,59.32401],[6.42269,59.32523],[6.42639,59.32527]],[[6.11492,59.30302],[6.12391,59.30714],[6.12967,59.30768],[6.13227,59.30856],[6.14211,59.30801],[6.14469,59.30724],[6.14553,59.30738],[6.1472,59.30699],[6.14934,59.30618],[6.15115,59.3067],[6.15316,59.30655],[6.15514,59.30591],[6.15721,59.30581],[6.15998,59.30625],[6.16455,59.30587],[6.17366,59.30649],[6.17876,59.30802],[6.19018,59.3094],[6.19442,59.3104],[6.20124,59.31064]],[[6.20124,59.31064],[6.21563,59.31091],[6.21757,59.31135],[6.23192,59.31143],[6.23295,59.31179],[6.23728,59.31189],[6.23778,59.31316],[6.24404,59.31391],[6.24651,59.31367],[6.24839,59.31263],[6.25204,59.31255],[6.25783,59.3117],[6.26056,59.30735],[6.26543,59.30424],[6.26568,59.30246],[6.26726,59.30066],[6.27186,59.29791],[6.27332,59.29766],[6.27502,59.29808],[6.27556,59.29909],[6.27211,59.29999],[6.27098,59.30105],[6.27235,59.30245],[6.27383,59.30311],[6.27438,59.30452],[6.27194,59.30748],[6.26916,59.30959],[6.27071,59.31006],[6.27158,59.31173],[6.27338,59.31229],[6.27702,59.31218],[6.28433,59.31115],[6.28514,59.31138],[6.28519,59.31195],[6.28425,59.313],[6.28242,59.31347],[6.27979,59.31355],[6.27554,59.31293],[6.27089,59.31389],[6.26896,59.31454],[6.26764,59.31558],[6.2665,59.31574],[6.26685,59.31749],[6.27023,59.31856],[6.27491,59.31914],[6.27846,59.31853],[6.28538,59.31814],[6.28782,59.31741]],[[6.28706,59.32033],[6.28887,59.31976],[6.29024,59.31867],[6.29009,59.31801],[6.28782,59.31741]],[[6.19889,59.31968],[6.18947,59.31779],[6.18776,59.3182],[6.1871,59.31876],[6.1871,59.32271],[6.18913,59.32332],[6.18902,59.32497],[6.19042,59.32591],[6.1924,59.326],[6.19424,59.32679],[6.19706,59.3267]],[[6.11924,59.32079],[6.11831,59.32173],[6.1147,59.32239],[6.1127,59.32235],[6.11007,59.32144]],[[6.19613,59.33028],[6.19901,59.32929],[6.20046,59.32784],[6.20223,59.32725],[6.20145,59.32636],[6.19978,59.32592],[6.19706,59.3267]],[[6.09923,59.32392],[6.10009,59.32279],[6.10312,59.32132],[6.11007,59.32144]],[[6.18438,59.32975],[6.18464,59.32895],[6.18611,59.3285],[6.18735,59.3273],[6.18762,59.32595],[6.18513,59.32346],[6.18246,59.32327],[6.17899,59.31842],[6.17588,59.31664],[6.17248,59.31608],[6.1707,59.31674],[6.16897,59.3168],[6.16712,59.31538],[6.16302,59.31428],[6.15666,59.31494],[6.15234,59.31447],[6.15309,59.31361],[6.15263,59.31339],[6.14516,59.31463],[6.13598,59.3142],[6.12594,59.31736]],[[6.19024,59.33015],[6.19082,59.329],[6.18995,59.32784],[6.18928,59.32869],[6.18812,59.32912],[6.18903,59.33007]],[[6.2332,59.33307],[6.2338,59.33149],[6.23663,59.33103],[6.23777,59.33008],[6.2353,59.3282],[6.23492,59.32605],[6.22628,59.32344],[6.22357,59.32357],[6.21592,59.32213],[6.21462,59.32217],[6.2121,59.3232],[6.21103,59.32316],[6.20598,59.32209],[6.20374,59.32074],[6.19889,59.31968]],[[6.24825,59.33409],[6.25012,59.33155],[6.25404,59.32872],[6.25618,59.32794],[6.25803,59.32615],[6.26331,59.32476],[6.2654,59.32295],[6.27076,59.32087],[6.27508,59.32011],[6.28706,59.32033]],[[6.18903,59.33007],[6.19024,59.33015]],[[6.09923,59.32392],[6.09937,59.32448]],[[6.19577,59.33053],[6.19348,59.33172],[6.19432,59.33288],[6.19536,59.33323]],[[6.18438,59.32975],[6.18524,59.33141],[6.18456,59.33287],[6.18683,59.33393],[6.18706,59.33462]],[[6.08284,59.23213],[6.08325,59.23204]],[[6.15186,59.26446],[6.15131,59.26685]],[[6.13981,59.27703],[6.14062,59.27685]],[[6.13068,59.28092],[6.13667,59.27701],[6.13981,59.27703]],[[6.28669,59.29153],[6.28473,59.2914]],[[6.27491,59.29074],[6.27663,59.29121],[6.27844,59.29108],[6.28319,59.29161],[6.28473,59.2914]],[[6.13068,59.28092],[6.12657,59.28382],[6.12651,59.28461]],[[6.12555,59.28511],[6.12651,59.28461]],[[6.54658,59.32104],[6.55175,59.32147]],[[6.55247,59.31859],[6.55372,59.3189]],[[6.11723,59.29423],[6.11801,59.29297],[6.11783,59.29193]],[[6.12594,59.31736],[6.12225,59.31768],[6.12242,59.31908]],[[6.12242,59.31908],[6.12018,59.31994],[6.11924,59.32079]],[[6.22885,59.33719],[6.2332,59.33307]],[[6.22879,59.34033],[6.22632,59.34064],[6.22579,59.34135],[6.22782,59.34196],[6.22896,59.34182],[6.22879,59.34033]],[[5.99952,59.11764],[6.00102,59.1167],[6.00258,59.11637],[6.00493,59.11728],[6.00975,59.11583],[6.01379,59.11623],[6.01516,59.11565]],[[6.0264,59.12264],[6.0245,59.12267],[6.02375,59.12313],[6.02476,59.12333],[6.02509,59.12408],[6.02912,59.12487],[6.0291,59.12356],[6.0264,59.12264]],[[6.08216,59.12966],[6.08716,59.1292],[6.09032,59.1302],[6.09519,59.13016],[6.09794,59.13147],[6.09353,59.1323]],[[6.15824,59.13723],[6.1658,59.13713],[6.17157,59.13833]],[[6.01516,59.11565],[6.01731,59.11507],[6.02667,59.11432],[6.0323,59.11512],[6.04121,59.11717],[6.04243,59.1171],[6.05368,59.11988],[6.05703,59.12016],[6.05922,59.12228],[6.05981,59.12416],[6.05631,59.12552],[6.05533,59.12702],[6.05762,59.1279],[6.05819,59.12862],[6.06374,59.13009],[6.06635,59.12986],[6.0682,59.13019],[6.06892,59.1309],[6.06865,59.13219],[6.07149,59.13295]],[[6.07149,59.13295],[6.0731,59.1331],[6.07729,59.13083],[6.08159,59.13015],[6.08216,59.12966]],[[6.13213,59.13833],[6.13439,59.1376],[6.13623,59.13766],[6.13767,59.13818],[6.13982,59.13797],[6.14284,59.13825],[6.1459,59.13778],[6.14998,59.13783],[6.15824,59.13723]],[[6.1249,59.13878],[6.12713,59.13857],[6.12894,59.13899],[6.13213,59.13833]],[[6.17157,59.13833],[6.17396,59.13976],[6.17418,59.14092],[6.17159,59.14247],[6.17132,59.14337],[6.17038,59.14344]],[[6.09353,59.1323],[6.08813,59.13252],[6.08743,59.13306],[6.08736,59.13437],[6.08892,59.13599],[6.08879,59.1375],[6.0896,59.13857],[6.09144,59.13962],[6.09333,59.13912],[6.09436,59.13807],[6.09917,59.13953],[6.10056,59.13856],[6.10228,59.13821],[6.10416,59.13848],[6.1079,59.13744],[6.10904,59.13772],[6.1093,59.14036],[6.11125,59.14073],[6.11372,59.14046],[6.11814,59.1392],[6.12111,59.13932],[6.1249,59.13878]],[[6.07814,59.14072],[6.07959,59.14072],[6.08063,59.14116],[6.0811,59.14024],[6.07794,59.13909],[6.07733,59.13932],[6.07685,59.14098],[6.07814,59.14072]],[[6.02989,59.13845],[6.03015,59.13658],[6.02657,59.13488],[6.01631,59.13385],[6.01291,59.13523],[6.01386,59.13628],[6.01382,59.13733]],[[6.05884,59.14047],[6.05434,59.1399],[6.05289,59.13904],[6.04822,59.13812],[6.04213,59.1393]],[[6.11771,59.14454],[6.1161,59.14385],[6.1098,59.14399]],[[6.16565,59.14783],[6.16836,59.14423]],[[6.05884,59.14047],[6.05895,59.14144],[6.06011,59.14226],[6.06474,59.14262],[6.0669,59.14195],[6.06759,59.14211],[6.06869,59.14359]],[[6.01382,59.13733],[6.01569,59.13998],[6.01698,59.14036],[6.02625,59.14057],[6.03019,59.13948],[6.02989,59.13845]],[[6.14125,59.14751],[6.14595,59.14834],[6.14813,59.14817],[6.15,59.14911],[6.15488,59.15018]],[[6.15488,59.15018],[6.16186,59.15091],[6.16308,59.15016]],[[6.12876,59.14868],[6.13478,59.14882],[6.13911,59.14759],[6.14125,59.14751]],[[6.11771,59.14454],[6.11979,59.14579],[6.12203,59.14623],[6.12832,59.1457],[6.12839,59.14621],[6.12476,59.14764],[6.12626,59.14854],[6.12876,59.14868]],[[6.10749,59.14757],[6.10772,59.14716],[6.1044,59.14584],[6.10436,59.14525],[6.10668,59.14516],[6.1098,59.14399]],[[6.01203,59.14425],[6.01155,59.14308],[6.01054,59.14261],[6.00573,59.1426],[6.00697,59.14378],[6.01157,59.14449],[6.01203,59.14425]],[[6.09937,59.15271],[6.10047,59.15283],[6.10168,59.15236],[6.10149,59.15129],[6.1043,59.14935],[6.10153,59.14861],[6.10015,59.1476],[6.10049,59.14697],[6.10149,59.14677],[6.10377,59.14764],[6.10749,59.14757]],[[6.06869,59.14359],[6.06944,59.14388],[6.07057,59.14342],[6.07181,59.14396],[6.07217,59.14474],[6.07397,59.14528],[6.07772,59.14501],[6.07885,59.14667],[6.08506,59.14904],[6.08823,59.15098],[6.09355,59.15295],[6.0983,59.15248],[6.09937,59.15271]],[[6.03138,59.15124],[6.03266,59.15199],[6.03076,59.15165]],[[6.04213,59.1393],[6.03769,59.14152],[6.03161,59.14229],[6.02898,59.14377],[6.02779,59.1437],[6.02597,59.14291],[6.02264,59.14352],[6.02276,59.14407],[6.02448,59.1451],[6.02453,59.14783],[6.02577,59.14886],[6.02987,59.14997],[6.03138,59.15124]],[[6.03076,59.15165],[6.02976,59.15149],[6.02918,59.15222],[6.03112,59.15398],[6.03276,59.15672]],[[6.03276,59.15672],[6.03231,59.15949],[6.03739,59.16071],[6.03892,59.16149]],[[6.03892,59.16149],[6.04148,59.16482],[6.04401,59.16579],[6.04789,59.16661],[6.04829,59.16757],[6.04715,59.16818],[6.04733,59.16875],[6.05171,59.17018],[6.05259,59.17111],[6.05276,59.17303]],[[6.0116,59.17343],[6.0132,59.1724],[6.01146,59.17211],[6.01068,59.17266],[6.00831,59.17193],[6.00558,59.17233],[6.0057,59.17287],[6.00896,59.17367],[6.0116,59.17343]],[[6.06556,59.17772],[6.0644,59.17768],[6.06414,59.17812]],[[6.01268,59.17557],[6.01046,59.17408],[6.00912,59.17394],[6.00767,59.17433],[6.00744,59.17479],[6.00861,59.17496],[6.00934,59.17547],[6.00914,59.17596],[6.01152,59.17686],[6.01299,59.176],[6.01268,59.17557]],[[6.05898,59.18051],[6.06286,59.17951],[6.06414,59.17812]],[[6.05276,59.17303],[6.05096,59.17537],[6.05113,59.17682],[6.05195,59.17712],[6.05506,59.17693],[6.0562,59.17943],[6.05768,59.18037],[6.05898,59.18051]],[[6.06556,59.17772],[6.06644,59.17799],[6.06606,59.17893],[6.06916,59.18033],[6.06948,59.18141],[6.06821,59.18374]],[[6.00548,59.18192],[6.00516,59.18154],[6.00869,59.18021],[6.01054,59.17827],[6.01025,59.17706],[6.00728,59.17602],[6.0021,59.17694],[6.00007,59.17773],[5.99388,59.17842]],[[6.01887,59.18285],[6.01683,59.18151],[6.01417,59.18214],[6.00944,59.1822]],[[6.04097,59.18439],[6.03808,59.18332],[6.03022,59.18325],[6.02936,59.18358]],[[6.06745,59.18623],[6.06847,59.18441],[6.06821,59.18374]],[[6.04097,59.18439],[6.04185,59.18477],[6.04269,59.18451]],[[6.01887,59.18285],[6.02007,59.18404],[6.0198,59.18673],[6.02052,59.18682],[6.02449,59.18555],[6.02633,59.18709],[6.0274,59.18898],[6.02887,59.18948],[6.03172,59.18892],[6.03298,59.18788],[6.03508,59.1884],[6.03556,59.18823],[6.02897,59.18509],[6.02858,59.18454],[6.02936,59.18358]],[[5.998,59.18674],[6.00007,59.1863],[6.00207,59.18508],[6.00192,59.18379],[6.00337,59.18331],[6.00576,59.18324],[6.00669,59.18265],[6.00548,59.18192]],[[6.05466,59.19695],[6.05346,59.19718],[6.0528,59.19819]],[[6.00455,59.19512],[6.00308,59.19541],[6.00085,59.19714],[6.00078,59.19759],[6.00226,59.19809],[6.00372,59.19773],[6.00455,59.19512]],[[6.06745,59.18623],[6.06467,59.18778],[6.06583,59.18852],[6.06742,59.18831],[6.06912,59.18864],[6.06928,59.18945],[6.06724,59.19063],[6.06811,59.19153],[6.06789,59.19217],[6.06998,59.19363],[6.07653,59.19481],[6.08063,59.1946],[6.08208,59.19622],[6.09177,59.19581],[6.0977,59.19813],[6.0991,59.19999],[6.09774,59.20238],[6.09809,59.20475]],[[6.04381,59.18459],[6.0468,59.18629],[6.05109,59.19032],[6.05167,59.1926],[6.05141,59.19347],[6.05045,59.19399],[6.05078,59.1953],[6.0521,59.19633],[6.05141,59.19798],[6.04823,59.19966],[6.04798,59.20067],[6.04856,59.20145]],[[6.08272,59.20144],[6.08039,59.20115],[6.07843,59.20352],[6.08002,59.20404],[6.08299,59.20383],[6.08272,59.20144]],[[6.04856,59.20145],[6.04994,59.20195],[6.05343,59.19985],[6.0528,59.19819]],[[6.06519,59.20322],[6.06304,59.20257],[6.06396,59.20335],[6.06319,59.20358],[6.05993,59.20174],[6.0587,59.20001],[6.05731,59.19927],[6.05792,59.19808],[6.05466,59.19695]],[[6.06629,59.20368],[6.06772,59.2052],[6.07369,59.20639]],[[6.07369,59.20639],[6.07392,59.20606],[6.06935,59.20477],[6.06677,59.20345],[6.06629,59.20368]],[[6.075,59.20696],[6.0759,59.20657],[6.07559,59.20595],[6.06889,59.20145],[6.06736,59.20086],[6.0661,59.20105],[6.06435,59.20026],[6.06285,59.20012],[6.06234,59.2014],[6.06498,59.20133],[6.06423,59.20201],[6.06564,59.20296],[6.06519,59.20322]],[[6.09785,59.20493],[6.09426,59.20627],[6.09065,59.20518],[6.08888,59.20591],[6.08742,59.20545],[6.08565,59.20553],[6.08539,59.20626],[6.08454,59.20651],[6.08462,59.20738],[6.08744,59.20886],[6.08877,59.21042],[6.09173,59.21091],[6.09338,59.21203],[6.09678,59.21193],[6.10004,59.21044],[6.10152,59.21048],[6.10136,59.21107],[6.09944,59.21213],[6.09924,59.21287],[6.10076,59.21473],[6.10084,59.2158],[6.09842,59.21742],[6.10185,59.22001],[6.10423,59.2203],[6.105,59.21966],[6.1067,59.22032],[6.10771,59.22023],[6.10925,59.2181],[6.10929,59.21591],[6.11195,59.21663],[6.11306,59.21657],[6.11428,59.215],[6.11534,59.2147],[6.11659,59.21531],[6.11701,59.21724],[6.11971,59.2195],[6.11966,59.22037],[6.12145,59.22143],[6.12254,59.22128],[6.12329,59.22062],[6.1221,59.2199],[6.12192,59.21888],[6.12382,59.21852],[6.12689,59.21868],[6.13207,59.22043]],[[6.13207,59.22043],[6.13407,59.22193],[6.13375,59.22312],[6.13524,59.22549]],[[6.13524,59.22549],[6.13637,59.22691]],[[6.00944,59.1822],[6.00695,59.18282],[6.00738,59.18575],[6.0066,59.18697],[6.00263,59.18894],[6.00259,59.18959],[6.00405,59.19105],[6.00378,59.19174],[6.00573,59.192],[6.00841,59.19119],[6.01048,59.19132],[6.01493,59.18937],[6.01734,59.18886],[6.01709,59.18938],[6.01198,59.19153],[6.0109,59.19259],[6.00803,59.194],[6.01215,59.19455],[6.01691,59.19639],[6.01931,59.19684],[6.01942,59.1972],[6.01675,59.1983],[6.01069,59.19958],[6.00906,59.20081],[6.00643,59.20086],[6.0032,59.19931],[6.00253,59.20006],[6.00076,59.20001],[5.99871,59.20062]],[[5.99694,59.21072],[6.00191,59.21074],[6.00435,59.21155],[6.00564,59.21251],[6.00501,59.21346],[6.00135,59.2151],[6.00106,59.2158],[5.99877,59.21698]],[[5.99877,59.21698],[6.00075,59.2176],[6.01286,59.21697],[6.01492,59.21717],[6.0154,59.21804],[6.01654,59.21829],[6.02226,59.21857],[6.02512,59.21812],[6.02975,59.21874],[6.04044,59.21742],[6.04314,59.21775],[6.04706,59.21894],[6.04823,59.22017],[6.04735,59.22091],[6.04823,59.22131]],[[6.06053,59.23091],[6.05816,59.22949],[6.05989,59.2273],[6.0586,59.22608],[6.05998,59.22484],[6.06123,59.22463],[6.06255,59.22487],[6.06317,59.22444],[6.05929,59.22381],[6.0562,59.22227],[6.05108,59.22207],[6.04823,59.22131]],[[6.09561,59.23334],[6.09816,59.23247],[6.09936,59.23086],[6.10039,59.23061],[6.1015,59.22946],[6.10095,59.22865],[6.10125,59.22724],[6.10019,59.22548],[6.10125,59.22405],[6.10043,59.2226],[6.0995,59.22225],[6.09635,59.21912],[6.09031,59.21792],[6.08925,59.21676],[6.08941,59.21604],[6.08476,59.21301],[6.08272,59.21111],[6.0811,59.21046],[6.07842,59.21067],[6.07717,59.21031],[6.07678,59.20857],[6.075,59.20696]],[[6.06053,59.23091],[6.06129,59.23136],[6.06371,59.23142],[6.06835,59.23235],[6.06993,59.23157]],[[6.06709,59.13223],[6.065,59.13221],[6.06463,59.13371],[6.06537,59.13372],[6.06709,59.13223]],[[6.16357,59.14939],[6.16565,59.14783]],[[6.16308,59.15016],[6.16357,59.14939]],[[6.04381,59.18459],[6.04269,59.18451]],[[6.09809,59.20475],[6.09785,59.20493]],[[6.08284,59.23213],[6.08196,59.2324]],[[6.00656,59.98341],[6.00704,59.98262],[6.01006,59.9809],[6.01019,59.98028],[6.0056,59.97858],[6.00479,59.97715],[5.99967,59.97413]],[[5.99785,59.98807],[6.00434,59.9875]],[[6.00764,59.98487],[6.00673,59.98586],[6.00767,59.98639],[6.00434,59.9875]],[[5.9993,59.74409],[6.00042,59.74435],[6.00248,59.744],[6.00558,59.74178],[6.00846,59.74148],[6.00972,59.74061],[6.00914,59.73989],[6.01082,59.73772],[6.0149,59.73751],[6.01758,59.73682],[6.02246,59.73794],[6.02251,59.74016],[6.0261,59.74158],[6.0368,59.74383],[6.03885,59.74397],[6.03998,59.74365],[6.04143,59.74432],[6.04392,59.74454],[6.04568,59.74353],[6.04902,59.74292],[6.05252,59.74121],[6.05396,59.74139],[6.05698,59.74082],[6.0645,59.74097],[6.06932,59.74169],[6.07153,59.73989],[6.07333,59.73957],[6.07624,59.73981],[6.07969,59.73894],[6.08612,59.73614],[6.08893,59.73564]],[[6.05875,59.75918],[6.05588,59.75767],[6.05678,59.75616],[6.05645,59.75558],[6.05412,59.75521],[6.05224,59.75443],[6.05043,59.75446],[6.04796,59.7554],[6.04476,59.75554],[6.04439,59.75632]],[[6.05875,59.75918],[6.06136,59.76008],[6.06382,59.76019],[6.06583,59.76202],[6.06844,59.76322],[6.07111,59.76302],[6.07495,59.76187],[6.07626,59.76052],[6.07854,59.76012],[6.08059,59.7603],[6.08207,59.76117]],[[5.99287,59.75991],[6.02029,59.75296],[6.02277,59.75296],[6.02475,59.7536],[6.02676,59.75361],[6.02871,59.75471],[6.03367,59.75559],[6.03843,59.75554],[6.04439,59.75632]],[[6.08909,59.7749],[6.088,59.7726],[6.08788,59.77008],[6.08457,59.77008],[6.08139,59.76596],[6.08176,59.76353],[6.08264,59.76258],[6.08207,59.76117]],[[6.13983,59.77835],[6.13725,59.77566],[6.13691,59.7744],[6.13504,59.77353],[6.13412,59.77168],[6.12806,59.76725],[6.12692,59.76537],[6.12787,59.7628],[6.12615,59.76091],[6.12412,59.76025],[6.12184,59.75845],[6.12037,59.75595],[6.11931,59.75167],[6.11478,59.74884],[6.11385,59.74631],[6.11251,59.74607],[6.11167,59.74747],[6.11006,59.74692],[6.10949,59.7462],[6.10697,59.74546],[6.10623,59.74487],[6.10643,59.74448],[6.10803,59.74441],[6.10823,59.74388],[6.10485,59.74333],[6.10211,59.74217],[6.09842,59.73832],[6.09158,59.73599],[6.08893,59.73564]],[[6.13983,59.77835],[6.14083,59.77872],[6.14188,59.78018],[6.13945,59.78151],[6.14154,59.78276],[6.14587,59.78411],[6.15821,59.78573],[6.16452,59.78778]],[[6.08909,59.7749],[6.09012,59.77548],[6.09078,59.77728],[6.08983,59.77912],[6.09028,59.78042],[6.0926,59.78084],[6.09534,59.78335],[6.09382,59.78586],[6.09509,59.78768],[6.09644,59.78796]],[[6.09644,59.78796],[6.09929,59.78696],[6.10033,59.78697],[6.10154,59.78803],[6.10111,59.78919],[6.10437,59.78947]],[[6.10437,59.78947],[6.1069,59.78915],[6.10788,59.78831],[6.10756,59.78775],[6.10521,59.78745],[6.10694,59.78668],[6.107,59.78558],[6.11045,59.78625],[6.11165,59.78546],[6.11367,59.78584],[6.11428,59.78548],[6.1114,59.78163],[6.11177,59.78112],[6.11453,59.78057],[6.11609,59.7817],[6.11575,59.78245],[6.1165,59.78271],[6.11722,59.78215],[6.11958,59.78216],[6.12085,59.78177],[6.12672,59.78517],[6.12779,59.78765],[6.13384,59.78973],[6.13507,59.79159],[6.14015,59.79164],[6.14463,59.79282],[6.14703,59.7921],[6.1481,59.79239],[6.15345,59.79569],[6.16089,59.7986],[6.16136,59.79957],[6.1604,59.80091],[6.16094,59.80123]],[[6.16305,59.8066],[6.16167,59.80534],[6.16369,59.80226],[6.16271,59.80126],[6.16094,59.80123]],[[6.17537,59.80968],[6.17292,59.80976],[6.17209,59.8084],[6.1704,59.80767],[6.1665,59.80762],[6.16305,59.8066]],[[6.16452,59.78778],[6.16841,59.78788],[6.17317,59.78854],[6.17679,59.78811],[6.17869,59.7883],[6.17945,59.78991],[6.18858,59.79442],[6.19574,59.79876],[6.20132,59.80112],[6.20515,59.80196],[6.2084,59.80192],[6.21135,59.80259],[6.21175,59.80349],[6.21604,59.80591],[6.21711,59.80846],[6.21887,59.80961],[6.21864,59.81109],[6.2195,59.81304],[6.22011,59.8139],[6.22278,59.81546],[6.22307,59.81672],[6.2306,59.82072],[6.23336,59.82401],[6.24361,59.82757]],[[6.21746,59.82876],[6.21317,59.82504],[6.21046,59.82479],[6.21022,59.82269],[6.20949,59.8219],[6.20724,59.82148],[6.20585,59.82048],[6.20415,59.82041],[6.201,59.81799],[6.19529,59.81664],[6.19375,59.81502],[6.18917,59.81251],[6.1839,59.81152],[6.18163,59.81009],[6.17898,59.80944],[6.17537,59.80968]],[[6.24987,59.83094],[6.24838,59.82965],[6.24361,59.82757]],[[6.26887,59.83221],[6.26541,59.83117],[6.25778,59.83147]],[[6.28224,59.8331],[6.27679,59.83191],[6.26965,59.83226]],[[6.28224,59.8331],[6.286,59.83472],[6.29005,59.83581],[6.29374,59.83581],[6.3005,59.83744],[6.30403,59.83692],[6.31071,59.83852],[6.3166,59.83897],[6.32706,59.84251]],[[6.21746,59.82876],[6.22073,59.83095],[6.22398,59.83186],[6.22594,59.83395],[6.22857,59.83551],[6.23158,59.83516],[6.23521,59.83663],[6.2377,59.83583],[6.24146,59.83569]],[[6.32919,59.8433],[6.33565,59.84618],[6.33903,59.84638]],[[6.35517,59.85294],[6.34002,59.84658]],[[6.24146,59.83569],[6.24416,59.83674],[6.24862,59.83749],[6.25514,59.83997],[6.25883,59.83994],[6.26715,59.84132],[6.27058,59.84198],[6.27361,59.84327],[6.27517,59.84305],[6.28088,59.8435],[6.28616,59.84237],[6.2958,59.84363],[6.29814,59.84428],[6.30539,59.84781],[6.31068,59.84857],[6.31932,59.85122]],[[6.33841,59.85365],[6.33271,59.85273],[6.32679,59.85244]],[[6.35517,59.85294],[6.35835,59.85576],[6.35721,59.85812],[6.35615,59.85847],[6.35417,59.8582],[6.35255,59.85974],[6.35705,59.86127]],[[6.34459,59.86171],[6.34313,59.8606],[6.34288,59.85975],[6.34375,59.85659],[6.34062,59.8553],[6.34049,59.85434],[6.33949,59.85382]],[[6.38001,59.8739],[6.37805,59.87316],[6.37583,59.87309],[6.3728,59.87072],[6.37063,59.8697],[6.36685,59.86993],[6.36415,59.86691],[6.36084,59.86515],[6.35885,59.8622],[6.35705,59.86127]],[[6.34459,59.86171],[6.34713,59.86287],[6.35303,59.86686],[6.35586,59.86658],[6.35764,59.86726],[6.3631,59.87208],[6.36753,59.87507],[6.36972,59.87591],[6.37475,59.87643],[6.37954,59.87581],[6.38038,59.87527]],[[6.26887,59.83221],[6.26965,59.83226]],[[6.24987,59.83094],[6.25778,59.83147]],[[6.32706,59.84251],[6.32919,59.8433]],[[6.31932,59.85122],[6.32679,59.85244]]]}}]}