{"type":"FeatureCollection","features":[{"type":"Feature","properties":{},"geometry":{"type":"MultiLineString","coordinates":[[[9.83668,59.03137],[9.83837,59.02966],[9.83811,59.02845],[9.83613,59.02911],[9.83624,59.03017],[9.83446,59.03047],[9.83406,59.03126]],[[9.83953,59.03148],[9.83971,59.02964],[9.84049,59.02896],[9.8401,59.02428],[9.84119,59.02275],[9.84074,59.02018],[9.84171,59.01904],[9.84141,59.01708],[9.84263,59.01619],[9.84143,59.01424],[9.84388,59.01239],[9.84598,59.01368],[9.84408,59.01524],[9.84475,59.01563],[9.84463,59.01634],[9.8453,59.01642],[9.847,59.01523],[9.84859,59.01555],[9.84863,59.01455],[9.84743,59.01329],[9.8488,59.0133],[9.84966,59.01278],[9.85066,59.01334],[9.85162,59.01146],[9.85274,59.01087],[9.85055,59.01059],[9.85258,59.0073],[9.85197,59.00656],[9.85097,59.00759],[9.84951,59.0052],[9.85093,59.00354],[9.85015,59.00216],[9.84817,59.00091],[9.84839,59.00013],[9.85052,58.99953]],[[9.83406,59.03126],[9.83542,59.03303],[9.83641,59.03265],[9.83668,59.03137]],[[9.82221,59.03222],[9.82388,59.03235],[9.82659,59.03195],[9.8289,59.03263],[9.83087,59.03462],[9.83133,59.03706],[9.83257,59.03693],[9.83363,59.03781]],[[9.83922,59.04428],[9.83841,59.03837],[9.83698,59.03803],[9.83575,59.03641],[9.83703,59.03574],[9.83762,59.03631],[9.8373,59.03712],[9.83828,59.03688],[9.83886,59.03581],[9.83839,59.03302],[9.83953,59.03148]],[[9.77748,59.00316],[9.77889,58.9995]],[[9.76897,59.00033],[9.76787,59.00016],[9.76634,59.00263],[9.76764,59.00325],[9.76916,59.00141],[9.76897,59.00033]],[[9.8076,59.00374],[9.80875,59.00395],[9.81213,59.00257],[9.81782,59.0012],[9.81666,58.99827]],[[9.80608,58.99979],[9.80678,59.00042],[9.80463,59.00261],[9.80392,59.00588],[9.80538,59.00588],[9.80728,59.00526],[9.8076,59.00374]],[[9.84898,59.0067],[9.84815,59.00666],[9.84639,59.0079],[9.84631,59.00856],[9.84758,59.00942],[9.84887,59.00859],[9.84898,59.0067]],[[9.77372,59.00759],[9.77748,59.00316]],[[9.79619,59.00861],[9.79887,59.00845],[9.80165,59.00635],[9.80282,59.00164],[9.80686,58.99746]],[[9.79231,58.99951],[9.79368,59.00047],[9.79781,59.00001],[9.79882,59.0003],[9.79774,59.00183],[9.79644,59.00247],[9.79672,59.00389],[9.79347,59.00759],[9.79361,59.00889],[9.79619,59.00861]],[[9.77264,59.00028],[9.77033,59.00539],[9.77052,59.00835],[9.77182,59.00855],[9.77372,59.00759]],[[9.85281,59.01581],[9.85537,59.01449],[9.85178,59.01522],[9.85075,59.01619],[9.85281,59.01581]],[[9.79266,59.01379],[9.79329,59.01413],[9.79649,59.01341],[9.79564,59.01128],[9.79686,59.00974],[9.79579,59.00969],[9.79287,59.01107],[9.79034,59.0103],[9.79005,59.00983],[9.79093,59.00916],[9.79126,59.00772],[9.78985,59.00721],[9.78943,59.00873],[9.78885,59.00879],[9.78936,59.00502],[9.78761,59.00613],[9.78734,59.0072],[9.78589,59.00784],[9.78506,59.00948],[9.78564,59.01025],[9.78414,59.01116],[9.78444,59.01323],[9.7851,59.01395],[9.78588,59.01393]],[[9.78588,59.01393],[9.78395,59.01533],[9.78399,59.01581],[9.78527,59.01617],[9.78705,59.01616],[9.78808,59.01555],[9.79086,59.01516],[9.79266,59.01379]],[[9.83877,59.02595],[9.83841,59.02494],[9.83748,59.02531],[9.83655,59.02509],[9.83538,59.02603],[9.83535,59.02673],[9.83591,59.0268],[9.83725,59.02579],[9.83702,59.02723],[9.83776,59.02739],[9.83877,59.02595]],[[9.8142,59.03737],[9.8151,59.03519],[9.81626,59.03421],[9.82186,59.03345],[9.82209,59.03306],[9.82133,59.03279]],[[9.77272,58.9995],[9.77264,59.00028]],[[9.79411,59.00212],[9.79373,59.00188],[9.7931,59.00208],[9.79104,59.00426],[9.79034,59.00664],[9.79116,59.00734],[9.79411,59.00212]],[[9.78657,59.0207],[9.78699,59.01889],[9.7853,59.01928],[9.78579,59.02055],[9.78477,59.02052],[9.78458,59.02102],[9.7852,59.02129],[9.78657,59.0207]],[[9.7322,59.02715],[9.73648,59.02329],[9.73709,59.02292],[9.73862,59.02286],[9.73725,59.021],[9.73782,59.02005]],[[9.76199,59.02836],[9.76285,59.02815],[9.76293,59.02744],[9.76157,59.02616],[9.76026,59.02686],[9.76025,59.02787],[9.75975,59.02796],[9.7588,59.02746],[9.75642,59.02434],[9.75465,59.02424],[9.75324,59.02357],[9.75219,59.02364],[9.75124,59.02438],[9.7513,59.02516],[9.75401,59.02766],[9.75581,59.02782],[9.75589,59.02812]],[[9.76481,59.02848],[9.76261,59.02528],[9.76469,59.02376],[9.76637,59.02345],[9.76657,59.02201],[9.77049,59.01996],[9.77073,59.01935],[9.76723,59.01957],[9.76603,59.01903],[9.76546,59.01946],[9.76441,59.01951],[9.7638,59.01836],[9.76495,59.01745],[9.76644,59.01797],[9.76839,59.01711],[9.76827,59.01559],[9.77007,59.01422],[9.76932,59.01388],[9.76961,59.01342],[9.77216,59.01291],[9.77174,59.01386],[9.77272,59.01413]],[[9.77484,59.02888],[9.77657,59.02815],[9.77814,59.02641],[9.77977,59.0256],[9.78005,59.02341],[9.77943,59.02172],[9.77804,59.02134],[9.77709,59.02029],[9.77773,59.01817],[9.77618,59.0177],[9.77317,59.01789],[9.77294,59.0172],[9.77606,59.01581],[9.777,59.01642],[9.77822,59.01588],[9.77892,59.01363],[9.77614,59.01386],[9.77583,59.01439],[9.7755,59.01389],[9.77272,59.01413]],[[9.81187,59.03037],[9.81376,59.02972],[9.81348,59.02901],[9.81004,59.02926],[9.80779,59.03021]],[[9.82261,59.03081],[9.82328,59.02916],[9.82597,59.02684],[9.83043,59.02484],[9.8323,59.02061],[9.83203,59.01867],[9.83056,59.01694],[9.83122,59.0147],[9.82936,59.01277],[9.82984,59.00903],[9.82884,59.00767],[9.82709,59.00834],[9.82607,59.00809],[9.8262,59.00714],[9.82492,59.00738],[9.82346,59.00842],[9.82258,59.01108],[9.82376,59.01343],[9.82276,59.01353],[9.82188,59.01187],[9.81952,59.01094],[9.81778,59.01281],[9.81954,59.01461],[9.81862,59.01715],[9.81805,59.01715],[9.81663,59.01583],[9.81386,59.01664],[9.81129,59.0186],[9.81355,59.01874],[9.81642,59.01832],[9.81817,59.01767],[9.81846,59.01889],[9.81698,59.02011],[9.8155,59.01977],[9.81362,59.02087],[9.81112,59.0212],[9.81034,59.02285],[9.80871,59.02332],[9.8081,59.0241],[9.80828,59.02514],[9.80696,59.02449],[9.80458,59.02554],[9.80429,59.02703],[9.8025,59.02831],[9.80289,59.03001]],[[9.80289,59.03001],[9.80476,59.03091],[9.8066,59.03073],[9.80779,59.03021]],[[9.77027,59.03023],[9.77228,59.02926],[9.77484,59.02888]],[[9.72745,59.02875],[9.73179,59.02812],[9.7322,59.02715]],[[9.76481,59.02848],[9.76555,59.03017],[9.76764,59.03089],[9.77027,59.03023]],[[9.78934,59.03163],[9.78796,59.03174],[9.78659,59.03303],[9.78528,59.03328],[9.78513,59.03436],[9.7866,59.03444],[9.78824,59.034],[9.78934,59.03163]],[[9.77632,59.03262],[9.77525,59.0327],[9.77253,59.03484],[9.77249,59.03613],[9.77622,59.03455],[9.77632,59.03262]],[[9.7815,59.03511],[9.78021,59.03505],[9.77884,59.0356],[9.77835,59.03836],[9.78006,59.03782],[9.78156,59.03647],[9.7815,59.03511]],[[9.73951,59.03686],[9.73834,59.03693],[9.73842,59.03898],[9.74002,59.03962],[9.73951,59.03686]],[[9.82261,59.03081],[9.82221,59.03222]],[[9.83363,59.03781],[9.83855,59.04436],[9.83922,59.04428]],[[9.75589,59.02812],[9.74875,59.02896],[9.7481,59.02977],[9.74826,59.03313],[9.74686,59.033],[9.7464,59.03461],[9.7456,59.03458],[9.74534,59.03385],[9.74372,59.03441],[9.74339,59.03408],[9.74234,59.03507],[9.74111,59.0353],[9.74155,59.03777],[9.74084,59.03995],[9.74247,59.04122],[9.74504,59.0408],[9.75448,59.03738],[9.75599,59.03587],[9.75639,59.03268],[9.75718,59.03247],[9.75892,59.03285],[9.76214,59.03254],[9.76463,59.03136],[9.76533,59.0308],[9.76498,59.03032],[9.76301,59.03008],[9.7641,59.02939],[9.76212,59.02918],[9.76084,59.02869],[9.76098,59.02832]],[[9.79118,59.04481],[9.78794,59.04485],[9.78733,59.04519],[9.78658,59.04635],[9.78749,59.04843],[9.78889,59.04818],[9.79028,59.04708],[9.7911,59.04621],[9.79118,59.04481]],[[9.7604,59.04483],[9.75921,59.04475],[9.7561,59.04624],[9.75611,59.04721],[9.75794,59.04682],[9.75995,59.04572],[9.7604,59.04483]],[[9.70917,59.04358],[9.7102,59.04249],[9.70836,59.04339],[9.70651,59.04318],[9.70621,59.04254],[9.70441,59.04349],[9.70395,59.04438],[9.7052,59.04548],[9.70737,59.04483],[9.70917,59.04358]],[[9.75545,59.00716],[9.7553,59.00666]],[[9.7553,59.00666],[9.75812,58.99576]],[[9.75467,58.99567],[9.75406,59.00343],[9.75075,59.00997]],[[9.7383,58.99915],[9.73664,59.00011],[9.7368,58.9972]],[[9.73213,58.99905],[9.72895,59.0013],[9.72773,59.00354],[9.72611,59.00507],[9.72263,59.00681],[9.72072,59.00955],[9.71913,59.00928],[9.71948,59.00657],[9.72064,59.00445],[9.71994,59.00145],[9.71508,59.00369],[9.71412,59.00525],[9.7132,59.00529],[9.71213,59.00479],[9.71111,59.00493],[9.70998,59.00541],[9.70881,59.00693],[9.70538,59.00816],[9.70427,59.0075],[9.70635,59.00549],[9.70308,59.00411],[9.70289,59.00354],[9.70397,59.00246],[9.70423,59.00119],[9.70597,58.99975]],[[9.75052,59.01075],[9.75076,59.01299],[9.75269,59.01146],[9.75514,59.01166],[9.75681,59.00984],[9.75774,59.00957],[9.75856,59.00698],[9.75962,59.00676],[9.75957,59.00403],[9.75809,59.00391],[9.75669,59.00614],[9.75679,59.00713],[9.75545,59.00716]],[[9.73782,59.02005],[9.73983,59.0197],[9.73849,59.01918],[9.73863,59.01888],[9.74203,59.01893],[9.74496,59.01767],[9.7463,59.01596],[9.74757,59.01602],[9.74871,59.01457],[9.74849,59.01395],[9.74721,59.01484],[9.74578,59.01451],[9.74643,59.01023],[9.74519,59.00995],[9.74551,59.00894],[9.74672,59.00854],[9.74805,59.00487],[9.74748,59.00416],[9.74761,59.00141],[9.74817,59.00154],[9.74809,59.00358],[9.74966,59.00364],[9.75115,58.99439]],[[9.66223,59.04792],[9.66645,59.04842],[9.66878,59.04826],[9.67108,59.04885]],[[9.65121,59.04638],[9.65462,59.0467],[9.66141,59.04852],[9.66223,59.04792]],[[9.73717,59.04783],[9.73502,59.04689],[9.73586,59.0457],[9.73606,59.04371],[9.73417,59.04328],[9.73298,59.04375],[9.73273,59.04473],[9.73161,59.04498],[9.73111,59.0461],[9.72906,59.04646],[9.72802,59.04713],[9.72797,59.04796],[9.72492,59.05175]],[[9.67108,59.04885],[9.67444,59.05109],[9.67501,59.05115],[9.67703,59.05004]],[[9.67986,59.05049],[9.68463,59.0491],[9.68834,59.04707],[9.69067,59.04721],[9.69355,59.04833],[9.69542,59.04764],[9.69644,59.04656],[9.69726,59.04663],[9.69776,59.04729],[9.69862,59.04719],[9.69979,59.04592],[9.6994,59.0448],[9.7031,59.04384],[9.7042,59.04163],[9.70804,59.04094],[9.70949,59.0398],[9.71379,59.03836],[9.71441,59.03756],[9.71393,59.03697],[9.71562,59.03485],[9.71802,59.03357],[9.71933,59.03365],[9.72033,59.03253],[9.72265,59.03184],[9.72439,59.03075],[9.72554,59.02929],[9.72745,59.02875]],[[9.78741,59.05499],[9.79398,59.05216],[9.79543,59.04988],[9.79436,59.04973],[9.79127,59.05046],[9.78695,59.05064],[9.78369,59.05222],[9.78299,59.05407],[9.78435,59.05472],[9.78741,59.05499]],[[9.67703,59.05004],[9.67869,59.05072],[9.67986,59.05049]],[[9.64212,59.05052],[9.64513,59.04924],[9.64763,59.04679],[9.65121,59.04638]],[[9.7007,59.05335],[9.70212,59.05398],[9.70561,59.0535],[9.70729,59.05286],[9.70821,59.0519],[9.70935,59.05196],[9.70965,59.0512],[9.70832,59.05072],[9.70619,59.05073],[9.70061,59.05219]],[[9.78785,59.05586],[9.78468,59.05596],[9.783,59.05671],[9.78301,59.05733],[9.78514,59.05763],[9.78555,59.05807],[9.787,59.05654],[9.788,59.05619],[9.78785,59.05586]],[[9.70061,59.05219],[9.69472,59.0504],[9.69172,59.05035],[9.68866,59.05421],[9.68675,59.05471],[9.6793,59.05406]],[[9.64347,59.05208],[9.63907,59.05296],[9.63839,59.05421],[9.63785,59.05421],[9.63814,59.0515],[9.63918,59.05089],[9.64212,59.05052]],[[9.79309,59.0566],[9.79245,59.05653],[9.79166,59.05737],[9.79216,59.05866],[9.79124,59.06055],[9.79181,59.06106],[9.79353,59.05996],[9.79309,59.0566]],[[9.74625,59.05767],[9.74488,59.05752],[9.74388,59.05796],[9.74321,59.05881],[9.74409,59.05939],[9.74556,59.05888],[9.74625,59.05767]],[[9.72492,59.05175],[9.72239,59.05236],[9.72087,59.05356],[9.72052,59.05594],[9.71945,59.05741],[9.72018,59.0586],[9.72356,59.06016],[9.72478,59.06028],[9.72666,59.05933],[9.73043,59.05851],[9.73254,59.05757],[9.73958,59.0556],[9.73845,59.05714],[9.73621,59.05742],[9.7327,59.0588],[9.73086,59.06036],[9.73272,59.06019],[9.73419,59.06051],[9.73727,59.05937],[9.73768,59.0603],[9.73897,59.06034],[9.73817,59.06113],[9.73838,59.06175],[9.74199,59.06154],[9.74349,59.06059],[9.74153,59.06025],[9.74221,59.05976],[9.74141,59.05966],[9.74149,59.05766],[9.74037,59.0568],[9.74211,59.05671],[9.7436,59.05599],[9.74416,59.05475],[9.74698,59.0537],[9.74788,59.0531],[9.74788,59.0524],[9.74695,59.05199],[9.74502,59.05246],[9.74074,59.05413],[9.74029,59.0548],[9.73796,59.05463],[9.74109,59.05289],[9.73982,59.05244],[9.74012,59.05198],[9.74677,59.04948],[9.74865,59.04738],[9.7487,59.0465],[9.74771,59.0455],[9.74606,59.04518],[9.74548,59.04437],[9.74412,59.04401],[9.74136,59.04422],[9.74023,59.04474],[9.73875,59.04662],[9.73939,59.04767]],[[9.69207,59.06115],[9.6983,59.05987],[9.70031,59.05826],[9.7014,59.05817],[9.70469,59.05609],[9.70496,59.05509],[9.70263,59.05508],[9.69923,59.05438],[9.70009,59.05334],[9.7007,59.05335]],[[9.63431,59.05984],[9.63527,59.05867],[9.63747,59.06081],[9.64068,59.06066],[9.64715,59.05618],[9.6488,59.0525],[9.64676,59.05165],[9.64347,59.05208]],[[9.73781,59.06233],[9.73558,59.06211],[9.73278,59.06255],[9.73145,59.06339],[9.73239,59.06548],[9.73581,59.06466],[9.73742,59.06365],[9.73781,59.06233]],[[9.72044,59.06627],[9.72181,59.06619],[9.72267,59.06673],[9.73099,59.06593],[9.73082,59.06538],[9.72934,59.06538],[9.72881,59.06505],[9.72997,59.06209],[9.7288,59.06156],[9.72343,59.06164],[9.72047,59.06348],[9.72008,59.06499],[9.71797,59.06545],[9.71779,59.06617],[9.71859,59.06654],[9.72044,59.06627]],[[9.69556,59.06842],[9.69769,59.06798],[9.69842,59.06745],[9.70021,59.06379],[9.69946,59.06314],[9.69649,59.06232],[9.69262,59.06293],[9.69165,59.0623],[9.69207,59.06115]],[[9.6332,59.06808],[9.63003,59.06682],[9.63052,59.06549],[9.63001,59.0647],[9.62767,59.06417],[9.62704,59.06264],[9.62833,59.06194],[9.63127,59.06173],[9.63339,59.06084],[9.63431,59.05984]],[[9.65188,59.06885],[9.65455,59.06383],[9.65639,59.06265],[9.66086,59.05767],[9.66562,59.05559],[9.67678,59.0543]],[[9.69155,59.07048],[9.69556,59.06842]],[[9.72914,59.07202],[9.73044,59.07079],[9.73002,59.06983],[9.73389,59.06778],[9.7352,59.06579],[9.73109,59.06625],[9.72904,59.06706],[9.7273,59.06713],[9.72406,59.06854],[9.71834,59.06947],[9.71656,59.07151]],[[9.73779,59.07237],[9.73745,59.07134],[9.73313,59.07153],[9.73161,59.07212]],[[9.74061,59.07249],[9.74193,59.07059],[9.74345,59.06985],[9.7447,59.06976],[9.7459,59.06757],[9.74837,59.06767],[9.75156,59.06379],[9.75218,59.06223],[9.75463,59.06157],[9.7574,59.05918],[9.75679,59.05838],[9.75717,59.05702],[9.75941,59.05583],[9.75942,59.05472],[9.76041,59.05373],[9.75976,59.05339],[9.75733,59.05412],[9.75696,59.05295],[9.75852,59.052],[9.7597,59.05],[9.76238,59.04871],[9.7626,59.04824],[9.76151,59.04757],[9.7629,59.04701],[9.76524,59.04497],[9.76818,59.044]],[[9.78897,59.07444],[9.78634,59.07093],[9.78862,59.06901],[9.78752,59.0658],[9.78412,59.0636],[9.78327,59.06233],[9.78178,59.06223],[9.78008,59.06269],[9.77913,59.06244],[9.78182,59.06028],[9.7779,59.05941],[9.778,59.05629],[9.77471,59.05536],[9.77682,59.05444],[9.77712,59.05369],[9.77659,59.05184],[9.77525,59.0514],[9.77894,59.04929],[9.78022,59.04749],[9.77944,59.04627],[9.77629,59.04752],[9.7753,59.04763],[9.77399,59.0471],[9.77615,59.04522],[9.77934,59.04438],[9.7804,59.0431],[9.77957,59.04282],[9.77818,59.04376],[9.77523,59.0448],[9.77386,59.04466],[9.77576,59.04385],[9.77679,59.04279],[9.77909,59.04221],[9.78142,59.04073],[9.78061,59.03913],[9.77842,59.03963],[9.77802,59.04057],[9.77494,59.04122],[9.77164,59.04337],[9.76818,59.044]],[[9.79417,59.07465],[9.79321,59.07174],[9.79329,59.0693],[9.7957,59.06686],[9.79761,59.06574],[9.79771,59.06359],[9.80178,59.06294],[9.80217,59.06246],[9.80082,59.06036],[9.80061,59.05594],[9.799,59.0529],[9.80136,59.04794],[9.80154,59.04621],[9.80546,59.04114],[9.80626,59.03748],[9.80706,59.03687],[9.81092,59.0362],[9.8142,59.03737]],[[9.82133,59.03279],[9.81964,59.03275],[9.81916,59.03228],[9.81971,59.03138],[9.81735,59.03093],[9.81198,59.03179],[9.81144,59.03112],[9.81187,59.03037]],[[9.72914,59.07202],[9.73007,59.07283],[9.73161,59.07212]],[[9.73779,59.07237],[9.73724,59.07353],[9.73875,59.07356],[9.74061,59.07249]],[[9.6919,59.07423],[9.69325,59.07297],[9.69133,59.07124],[9.69155,59.07048]],[[9.69415,59.07632],[9.69061,59.07551],[9.6919,59.07423]],[[9.69415,59.07632],[9.69539,59.0763],[9.69682,59.07696],[9.69641,59.07892],[9.69829,59.08048],[9.69755,59.08655],[9.69861,59.08727],[9.69878,59.08814],[9.69778,59.09009],[9.694,59.09339]],[[9.60346,59.09159],[9.61033,59.08952],[9.61297,59.08773]],[[9.80529,59.09524],[9.80461,59.09524],[9.80452,59.09649],[9.80538,59.09758],[9.80422,59.0989],[9.80516,59.09938],[9.80493,59.10038],[9.80673,59.09926],[9.80529,59.09524]],[[9.69266,59.09743],[9.69336,59.09665],[9.70081,59.09342],[9.70223,59.0917],[9.70186,59.09119],[9.6989,59.09219],[9.69807,59.09361],[9.6962,59.09396],[9.69456,59.0938],[9.694,59.09339]],[[9.69266,59.09743],[9.69451,59.09817],[9.69674,59.09999]],[[9.71785,59.10231],[9.71639,59.09892],[9.71877,59.09713],[9.71548,59.09668],[9.71419,59.0954],[9.71197,59.09449],[9.71115,59.09391],[9.71069,59.09175],[9.71217,59.09045],[9.7142,59.09009],[9.71486,59.08924],[9.71452,59.08791],[9.71781,59.08592],[9.71559,59.08316],[9.71628,59.08186],[9.71628,59.07958],[9.71895,59.07857],[9.71718,59.07691],[9.71542,59.07639],[9.71562,59.07541],[9.71668,59.0749],[9.71552,59.07306],[9.71656,59.07151]],[[9.70203,59.10352],[9.70255,59.10246],[9.70189,59.0998],[9.69935,59.09894],[9.69674,59.09999]],[[9.80347,59.09938],[9.80121,59.09926],[9.80044,59.09976],[9.80007,59.10314],[9.79769,59.10582],[9.79905,59.10765],[9.80054,59.10759],[9.80134,59.10706],[9.80144,59.10273],[9.80342,59.10141],[9.80252,59.10091],[9.80347,59.09938]],[[9.65188,59.06885],[9.65093,59.07105],[9.64721,59.07583],[9.64543,59.0807],[9.6439,59.08217],[9.64404,59.08473],[9.6452,59.08646],[9.64519,59.09149],[9.64743,59.09435],[9.64792,59.0985],[9.64744,59.10054],[9.64847,59.10153],[9.65081,59.10189],[9.65112,59.10232],[9.64916,59.10421]],[[9.71357,59.1027],[9.71112,59.10266],[9.71058,59.10314],[9.71172,59.10657],[9.71276,59.10726],[9.71475,59.10601],[9.71543,59.1049],[9.71357,59.1027]],[[9.7175,59.10884],[9.7188,59.1061],[9.72097,59.10499],[9.71785,59.10231]],[[9.58407,59.10405],[9.58584,59.10298],[9.58846,59.10255],[9.59024,59.10166],[9.59409,59.09743],[9.59606,59.09656],[9.6009,59.0927],[9.60346,59.09159]],[[9.71234,59.11016],[9.71328,59.10833],[9.7144,59.10819],[9.71488,59.10889],[9.7167,59.10933],[9.7175,59.10884]],[[9.70203,59.10352],[9.70154,59.10613],[9.70262,59.10801],[9.7055,59.10852],[9.70688,59.10965],[9.71234,59.11016]],[[9.57404,59.1048],[9.57959,59.10486]],[[9.64337,59.10853],[9.64565,59.10683],[9.64781,59.10601],[9.64916,59.10421]],[[9.56562,59.1057],[9.57072,59.1056],[9.57404,59.1048]],[[9.63709,59.11227],[9.64337,59.10853]],[[9.64292,59.11439],[9.64346,59.11398],[9.64864,59.11746],[9.64811,59.11886],[9.64911,59.12094],[9.6485,59.12196]],[[9.57137,59.12108],[9.57329,59.12007],[9.57859,59.12156],[9.57868,59.12108],[9.57705,59.12031],[9.57732,59.11966],[9.57973,59.11883],[9.58116,59.11874],[9.58169,59.11904]],[[9.58169,59.11904],[9.58402,59.11883],[9.58596,59.11749],[9.59048,59.11697],[9.59111,59.11762],[9.59059,59.11855],[9.59306,59.11882],[9.59232,59.11995],[9.58864,59.12179],[9.58604,59.12221],[9.58175,59.12225],[9.58146,59.12286],[9.58227,59.1235],[9.5886,59.12481],[9.58975,59.12391],[9.59094,59.1237],[9.59563,59.12436],[9.6011,59.12331],[9.60278,59.12251],[9.60454,59.12236],[9.60809,59.1239],[9.61041,59.12626],[9.61511,59.12834]],[[9.57137,59.12108],[9.57038,59.12071],[9.57128,59.11951],[9.57058,59.11915],[9.56947,59.11924],[9.56688,59.11988],[9.56649,59.1203],[9.56678,59.12225],[9.56776,59.12286],[9.56677,59.12368],[9.56271,59.12119],[9.5606,59.1218],[9.56123,59.12287],[9.55873,59.1239],[9.55427,59.12471],[9.54949,59.12617]],[[9.53152,59.12665],[9.53657,59.12563],[9.53622,59.12516],[9.53726,59.12403],[9.53088,59.12576],[9.52818,59.12608],[9.5283,59.1264],[9.5302,59.12679],[9.5306,59.1275],[9.53148,59.12723],[9.53152,59.12665]],[[9.63611,59.11319],[9.63432,59.11369],[9.63242,59.11518],[9.63032,59.11555],[9.62904,59.11526],[9.62087,59.11774],[9.62055,59.11968],[9.61687,59.12048],[9.61535,59.12196],[9.61854,59.12489],[9.61626,59.12563],[9.62874,59.13297],[9.6307,59.13164],[9.6318,59.12992],[9.63199,59.12868],[9.63077,59.12812],[9.63137,59.12396],[9.6336,59.12232],[9.63977,59.12035],[9.64212,59.11899],[9.64334,59.11692],[9.64292,59.11439]],[[9.52825,59.12817],[9.52725,59.12768],[9.52597,59.12777],[9.52509,59.12886],[9.52608,59.12903],[9.52825,59.12817]],[[9.63018,59.1337],[9.63133,59.13248],[9.63119,59.13166],[9.63971,59.12565],[9.6485,59.12196]],[[9.55542,59.10982],[9.55449,59.11092],[9.55517,59.1119],[9.55841,59.11179],[9.55828,59.11376],[9.55941,59.11421],[9.56193,59.11384],[9.56243,59.11431],[9.56021,59.11534],[9.5557,59.11522],[9.55441,59.11616],[9.55861,59.11626],[9.56096,59.11751],[9.5631,59.1174],[9.56321,59.11801],[9.55865,59.11922],[9.55705,59.11912],[9.55521,59.11846],[9.5536,59.11869],[9.55369,59.11954],[9.55187,59.12102],[9.54891,59.12093],[9.54666,59.12168],[9.54422,59.1213],[9.54252,59.12259],[9.53752,59.12227],[9.5368,59.12309],[9.53481,59.12357],[9.53092,59.12378],[9.53131,59.12228],[9.52962,59.12222],[9.52833,59.12367],[9.52528,59.12436],[9.52651,59.12497],[9.52459,59.12563],[9.52276,59.12571],[9.52025,59.12511],[9.52058,59.12426],[9.52271,59.12354],[9.52252,59.12302],[9.51755,59.12286],[9.51599,59.12444],[9.51229,59.1247],[9.5109,59.12612],[9.51111,59.12725],[9.51229,59.12856],[9.51919,59.12996],[9.52036,59.13099]],[[9.5218,59.13156],[9.52334,59.13111],[9.52813,59.13067],[9.53434,59.13169],[9.5394,59.12812],[9.54548,59.12637],[9.54711,59.12518],[9.54833,59.12525],[9.54949,59.12617]],[[9.75075,59.00997],[9.75052,59.01075]],[[9.76238,59.02022],[9.76119,59.01998],[9.76094,59.02069],[9.76137,59.02151],[9.76255,59.02195],[9.76238,59.02022]],[[9.75953,59.02022],[9.7588,59.02012],[9.7575,59.02137],[9.75781,59.02331],[9.75884,59.02417],[9.75989,59.02354],[9.75873,59.02159],[9.75953,59.02022]],[[9.76168,59.02835],[9.76098,59.02832]],[[9.76168,59.02835],[9.76199,59.02836]],[[9.73939,59.04767],[9.73868,59.04813],[9.73717,59.04783]],[[9.6793,59.05406],[9.67678,59.0543]],[[9.62363,59.08571],[9.62172,59.08587],[9.62148,59.08664],[9.62299,59.08687],[9.62386,59.0866],[9.62417,59.08601],[9.62363,59.08571]],[[9.63611,59.11319],[9.63709,59.11227]],[[9.57959,59.10486],[9.58177,59.10508],[9.58407,59.10405]],[[9.55871,59.10763],[9.56343,59.10614]],[[9.55542,59.10982],[9.55645,59.10836],[9.55871,59.10763]],[[9.62195,59.13196],[9.62796,59.13517]],[[9.61511,59.12834],[9.62195,59.13196]],[[9.52036,59.13099],[9.52059,59.1314],[9.5218,59.13156]],[[9.6297,59.07912],[9.63099,59.0781],[9.63428,59.07755],[9.6356,59.07616],[9.63437,59.07532],[9.63135,59.07435],[9.63065,59.07232],[9.62967,59.07171],[9.62858,59.07211],[9.62785,59.07166]],[[9.62785,59.07166],[9.62751,59.07048],[9.62973,59.06917],[9.6295,59.06809],[9.63077,59.06798],[9.63146,59.06878],[9.63323,59.06923],[9.63382,59.06892],[9.6332,59.06808]],[[9.61297,59.08773],[9.61729,59.08517],[9.61871,59.08553],[9.62306,59.08328],[9.62614,59.08287],[9.62793,59.08224],[9.62779,59.08085],[9.62899,59.0807],[9.6297,59.07912]],[[9.78897,59.07444],[9.7881,59.07591],[9.7903,59.07697],[9.79054,59.07868],[9.79215,59.07989],[9.79167,59.08165],[9.79071,59.08233],[9.79258,59.08311],[9.792,59.0855],[9.79379,59.08577],[9.79319,59.08654],[9.79387,59.08873],[9.79545,59.09108],[9.79712,59.09138],[9.80104,59.08981],[9.8049,59.09394],[9.8051,59.09292],[9.80389,59.09094],[9.80128,59.08887],[9.80168,59.08705],[9.80303,59.08641],[9.80111,59.08607],[9.80003,59.08447],[9.79882,59.08446],[9.79736,59.08088],[9.79507,59.07844],[9.79417,59.07465]]]}}]}