{"type":"FeatureCollection","features":[{"type":"Feature","properties":{},"geometry":{"type":"MultiLineString","coordinates":[[[6.92136,60.55724],[6.92054,60.55829],[6.92052,60.55969],[6.92216,60.56102],[6.92236,60.56233],[6.92478,60.56379],[6.92343,60.56342],[6.92385,60.56369],[6.92613,60.56457],[6.93695,60.56569]],[[6.44563,60.43247],[6.44674,60.43226],[6.44889,60.43257],[6.45096,60.43211],[6.45478,60.43353],[6.46519,60.43517],[6.47157,60.437],[6.47716,60.43931],[6.4806,60.43972],[6.48724,60.44173],[6.48836,60.44232],[6.4887,60.44345],[6.49178,60.44427],[6.49406,60.44581],[6.49634,60.44625],[6.49974,60.44611],[6.5021,60.44642],[6.50692,60.44924],[6.5119,60.45102],[6.52088,60.45516],[6.52654,60.45736],[6.53032,60.45789]],[[6.53032,60.45789],[6.53659,60.45899],[6.54087,60.45839],[6.54712,60.45554],[6.55091,60.45589],[6.55396,60.45558]],[[6.755,60.46895],[6.75581,60.46935],[6.7588,60.46954],[6.76074,60.47098],[6.7672,60.47275],[6.76853,60.47283],[6.77285,60.47171],[6.77571,60.47159],[6.7861,60.47379],[6.7903,60.4734],[6.79129,60.47359],[6.79481,60.477],[6.79748,60.47686],[6.79986,60.47625]],[[6.54958,60.0719],[6.54659,60.07078],[6.54519,60.0695],[6.53988,60.07177]],[[6.53988,60.07177],[6.53753,60.07511],[6.53594,60.0755]],[[6.55188,60.07653],[6.55202,60.07328],[6.55045,60.07227]],[[6.55188,60.07653],[6.55231,60.07811]],[[6.53582,60.07553],[6.53203,60.077],[6.53051,60.07824],[6.53011,60.0793],[6.5308,60.0807]],[[6.5308,60.0807],[6.53166,60.08252],[6.53069,60.08406]],[[6.52997,60.08944],[6.53153,60.08933],[6.53384,60.08699],[6.53619,60.08609]],[[6.53371,60.09567],[6.53533,60.09451],[6.53773,60.09414],[6.53759,60.09323],[6.53599,60.09328],[6.53537,60.09289],[6.54045,60.08836],[6.54071,60.08686],[6.53868,60.08534],[6.53619,60.08609]],[[6.53171,60.10035],[6.53177,60.09817],[6.53371,60.09567]],[[6.53171,60.10035],[6.53184,60.10294]],[[6.55653,60.11109],[6.55621,60.11007],[6.55341,60.10728],[6.55232,60.10409],[6.55112,60.10286],[6.54747,60.10088],[6.54616,60.09652],[6.54846,60.09328],[6.5486,60.08974],[6.55103,60.08418],[6.54946,60.08255],[6.5525,60.07959],[6.55231,60.07811]],[[6.55653,60.11109],[6.55642,60.1124],[6.55333,60.11533],[6.55291,60.11659],[6.55352,60.11835],[6.55646,60.11963],[6.55589,60.12126]],[[6.53586,60.12064],[6.5354,60.11641],[6.53624,60.11438],[6.5389,60.11104],[6.53657,60.10766],[6.53338,60.10554],[6.53184,60.10294]],[[6.55536,60.1219],[6.55589,60.12126]],[[6.55536,60.1219],[6.55508,60.12257],[6.55616,60.12365],[6.55604,60.12543],[6.55781,60.12714],[6.55745,60.12949]],[[6.56232,60.45511],[6.56921,60.45513],[6.57218,60.45468],[6.57466,60.45562],[6.58,60.45576],[6.58568,60.45698],[6.58984,60.45709],[6.59578,60.45836],[6.60289,60.4588],[6.60512,60.45971],[6.60635,60.46096],[6.60642,60.46388],[6.60543,60.46636],[6.60732,60.46937],[6.60817,60.47006],[6.61186,60.4712],[6.61304,60.47274],[6.61438,60.47334],[6.61756,60.47395]],[[6.54651,60.1604],[6.54714,60.16072],[6.55193,60.15555],[6.54875,60.15133],[6.54437,60.14953],[6.54448,60.14682],[6.54382,60.14591],[6.54128,60.14465],[6.54046,60.14079],[6.53875,60.1379],[6.53992,60.12787],[6.53909,60.12655],[6.53589,60.12389],[6.53536,60.12183],[6.53586,60.12064]],[[6.54711,60.16387],[6.54615,60.1629],[6.54651,60.1604]],[[6.5713,60.16806],[6.57337,60.16688],[6.57586,60.16376],[6.57613,60.16055],[6.57469,60.15826],[6.57134,60.15557],[6.57142,60.1518],[6.56946,60.15054],[6.56892,60.14961],[6.57146,60.1448],[6.5716,60.14193],[6.57051,60.14056],[6.56594,60.13858],[6.56219,60.13616],[6.56127,60.13532],[6.56017,60.13226],[6.55891,60.13193],[6.55757,60.1308],[6.55745,60.12949]],[[6.55833,60.19825],[6.55611,60.19716],[6.55702,60.19541],[6.55536,60.19366],[6.55458,60.19114],[6.55249,60.18806],[6.55254,60.18423],[6.55352,60.18313],[6.55239,60.18142],[6.55237,60.17996],[6.54902,60.1755],[6.54895,60.1733],[6.54685,60.17184],[6.54927,60.16665]],[[6.5713,60.16806],[6.57131,60.17111],[6.57421,60.17279],[6.57711,60.17794],[6.58818,60.18285],[6.58916,60.18663],[6.58779,60.18805],[6.58796,60.1891],[6.58978,60.1905],[6.59048,60.19361],[6.5925,60.19441],[6.59297,60.19799],[6.59682,60.20204]],[[6.56499,60.20599],[6.56635,60.20484],[6.56599,60.20319],[6.5647,60.202],[6.56621,60.2014],[6.5657,60.20018],[6.56357,60.19849],[6.55833,60.19825]],[[6.56912,60.21307],[6.56368,60.20787],[6.5636,60.20689],[6.56499,60.20599]],[[6.56584,60.24393],[6.56385,60.23917],[6.56393,60.23691],[6.56634,60.23485],[6.56651,60.231],[6.56906,60.22712],[6.57184,60.22447],[6.57268,60.22088],[6.56912,60.21307]],[[6.60231,60.21952],[6.60148,60.2222],[6.60183,60.22336],[6.6034,60.22484],[6.60604,60.22592],[6.61151,60.23188],[6.61288,60.23448],[6.61549,60.23565],[6.6184,60.23615],[6.61972,60.23735],[6.61993,60.23858],[6.61889,60.24023],[6.61961,60.24233],[6.61879,60.24492],[6.61662,60.24987],[6.61455,60.25197],[6.61617,60.25429],[6.62035,60.25615]],[[6.62347,60.25943],[6.62035,60.25615]],[[6.57473,60.25857],[6.5706,60.25175],[6.57009,60.24952]],[[6.62398,60.26171],[6.62347,60.25943]],[[6.57473,60.25857],[6.57495,60.26105],[6.57818,60.26704],[6.5785,60.2698],[6.57916,60.27044]],[[6.58182,60.27163],[6.57916,60.27044]],[[6.61935,60.27257],[6.61852,60.27483],[6.61934,60.27829],[6.61857,60.27954]],[[6.6001,60.29164],[6.59912,60.29057],[6.59844,60.28705],[6.59679,60.28503],[6.59665,60.2838],[6.59175,60.27544],[6.58681,60.27315],[6.58182,60.27163]],[[6.61174,60.30607],[6.61075,60.30366],[6.607,60.30154]],[[6.64674,60.30829],[6.64041,60.30149],[6.64091,60.29997],[6.63895,60.29736],[6.639,60.29582],[6.63697,60.29343],[6.63398,60.29094],[6.63285,60.29059],[6.631,60.29063],[6.62954,60.28928],[6.62587,60.28867],[6.6247,60.288],[6.62314,60.28604],[6.6224,60.28324],[6.62109,60.28231],[6.61949,60.28194],[6.61838,60.28067],[6.61857,60.27954]],[[6.64674,60.30829],[6.64756,60.31033],[6.6514,60.31316],[6.65323,60.3157]],[[6.65323,60.3157],[6.65402,60.3176],[6.65171,60.31923],[6.65088,60.32105],[6.65128,60.32158],[6.65507,60.32286]],[[6.65478,60.32992],[6.65349,60.32988],[6.65255,60.33077],[6.6535,60.33151],[6.65317,60.3362]],[[6.61842,60.33471],[6.61582,60.33328],[6.61124,60.33244],[6.60566,60.32867],[6.60579,60.32541],[6.6071,60.32406],[6.60762,60.32173],[6.61041,60.31667],[6.61095,60.3123],[6.61229,60.3099],[6.61174,60.30607]],[[6.65317,60.3362],[6.65687,60.34364],[6.65826,60.34444],[6.65954,60.3462],[6.66042,60.34917]],[[6.66254,60.35338],[6.66099,60.35175],[6.66042,60.34917]],[[6.61842,60.33471],[6.62428,60.33653],[6.62547,60.33756],[6.62569,60.34047],[6.628,60.34575],[6.62763,60.3474],[6.62614,60.34857],[6.62574,60.3521]],[[6.63545,60.36628],[6.62956,60.35934],[6.62933,60.35964],[6.62871,60.35918]],[[6.64094,60.3703],[6.64384,60.37242]],[[6.66393,60.35452],[6.66828,60.35954],[6.66928,60.36175],[6.67533,60.36753],[6.6805,60.37763],[6.68469,60.3831]],[[6.68469,60.3831],[6.68587,60.38564],[6.68914,60.38713],[6.69298,60.38568],[6.69704,60.3831],[6.70044,60.38172],[6.7043,60.37895],[6.71097,60.37531],[6.71405,60.37464],[6.71533,60.37482],[6.72003,60.37636],[6.72021,60.37778],[6.72181,60.37714],[6.72332,60.37784]],[[6.65219,60.39336],[6.64576,60.38702],[6.64396,60.38126],[6.64404,60.37948],[6.64585,60.37508],[6.64543,60.37383],[6.64384,60.37242]],[[6.49756,60.38409],[6.49623,60.3834],[6.48909,60.38261],[6.4776,60.3802],[6.47212,60.37851],[6.46937,60.37715],[6.46056,60.37596]],[[6.49978,60.38921],[6.49908,60.38598],[6.49756,60.38409]],[[6.49978,60.38921],[6.50104,60.3902],[6.5007,60.39326],[6.50294,60.39836],[6.50463,60.40007],[6.50641,60.40071]],[[6.79986,60.47625],[6.80132,60.47636],[6.80773,60.47938],[6.81918,60.48187],[6.82522,60.48376],[6.8287,60.48668],[6.83843,60.48901],[6.84819,60.48882],[6.85515,60.48979],[6.86328,60.49001],[6.86834,60.48886],[6.8716,60.48631],[6.87749,60.48502],[6.87998,60.48538],[6.88819,60.4886]],[[6.63139,60.42063],[6.63552,60.41968],[6.63976,60.4193],[6.64298,60.41837],[6.65659,60.4119],[6.66472,60.4096],[6.66807,60.40788],[6.66989,60.4061],[6.66972,60.40502],[6.66342,60.40104]],[[6.50641,60.40071],[6.50839,60.40351],[6.50891,60.40555],[6.5103,60.40659],[6.51097,60.40884],[6.51351,60.41136],[6.51807,60.4122],[6.52045,60.41195],[6.5221,60.4122],[6.52399,60.41378]],[[6.52399,60.41378],[6.5247,60.41471],[6.52642,60.41552],[6.53427,60.41797],[6.53575,60.42115],[6.53934,60.42345]],[[6.53934,60.42345],[6.54152,60.42473],[6.5452,60.42532],[6.5462,60.42705],[6.54973,60.42775],[6.55071,60.42886],[6.55431,60.42957],[6.555,60.43032],[6.55506,60.43278],[6.55901,60.43326],[6.56028,60.43446]],[[6.72674,60.40474],[6.73357,60.40657],[6.7373,60.40927],[6.74046,60.41251],[6.74162,60.41559],[6.74572,60.41983],[6.74699,60.42045],[6.74937,60.42579],[6.74867,60.42783],[6.74938,60.4289],[6.75116,60.4301],[6.75234,60.43035],[6.75488,60.43329],[6.75707,60.43436],[6.76027,60.43502],[6.76535,60.43476],[6.77312,60.4356],[6.77512,60.43677],[6.77598,60.43861],[6.7778,60.44025],[6.7781,60.44195],[6.78905,60.44525],[6.79284,60.4474],[6.79857,60.44807],[6.80613,60.45154]],[[6.56028,60.43446],[6.55985,60.43606],[6.56176,60.43653],[6.57641,60.43666],[6.5853,60.43576],[6.58843,60.43447],[6.58893,60.43318],[6.59323,60.43217],[6.59795,60.42992],[6.60115,60.4289],[6.61152,60.42775],[6.61668,60.42752],[6.62086,60.42444],[6.62819,60.42149],[6.63139,60.42063]],[[6.42907,60.42979],[6.42993,60.42929],[6.43172,60.42925],[6.43494,60.43018]],[[6.4357,60.43022],[6.43791,60.43037]],[[6.66105,60.44462],[6.66264,60.44048],[6.66752,60.43401],[6.67507,60.43068],[6.68084,60.42955],[6.68291,60.42948],[6.69106,60.43112],[6.69333,60.43092],[6.69707,60.43139],[6.70061,60.43059],[6.70139,60.43249],[6.70309,60.43417],[6.70146,60.43743],[6.704,60.44021],[6.71391,60.44402],[6.71666,60.44413]],[[6.729,60.44888],[6.72384,60.44691],[6.72087,60.44425],[6.71932,60.44384],[6.71666,60.44413]],[[6.42901,60.43009],[6.42907,60.42979]],[[6.43791,60.43037],[6.44338,60.43242]],[[6.40508,60.42824],[6.40739,60.43059],[6.40965,60.43129],[6.41165,60.43121],[6.41225,60.43057],[6.41345,60.43048],[6.41618,60.43108],[6.41776,60.43187],[6.41976,60.43181],[6.42852,60.43052],[6.42901,60.43009]],[[6.65383,60.44793],[6.65645,60.44764],[6.65629,60.44713],[6.65815,60.44563],[6.6603,60.44525],[6.66105,60.44462]],[[6.65383,60.44793],[6.64935,60.44709],[6.64497,60.44698],[6.64133,60.44644],[6.63974,60.44717]],[[6.729,60.44888],[6.73107,60.45189],[6.73771,60.4529],[6.74447,60.45237],[6.74921,60.45404],[6.75554,60.45752],[6.75452,60.45991]],[[6.9895,60.4824],[6.99398,60.48251],[7.00464,60.48162]],[[6.89337,60.46798],[6.8952,60.46825],[6.89706,60.46944],[6.90616,60.47046],[6.90841,60.47143],[6.91057,60.47168],[6.94257,60.47188],[6.94666,60.47265],[6.95043,60.47435],[6.95866,60.47643],[6.9626,60.47806],[6.96563,60.47853],[6.97469,60.48182],[6.98133,60.48183]],[[6.755,60.46895],[6.75456,60.46395],[6.75329,60.46214],[6.75452,60.45991]],[[6.80801,60.45379],[6.80935,60.45524],[6.80902,60.45675],[6.81189,60.45836],[6.81763,60.46479],[6.826,60.46855],[6.83114,60.47219],[6.83957,60.4744],[6.84494,60.47454],[6.86436,60.47284],[6.87138,60.47095],[6.87432,60.4695],[6.88759,60.46801],[6.89337,60.46798]],[[6.65633,60.47899],[6.65595,60.47606],[6.65054,60.47402],[6.64577,60.47054],[6.63604,60.46802],[6.63212,60.46748],[6.63064,60.4666],[6.63088,60.46519],[6.63011,60.46357],[6.6314,60.46159],[6.6314,60.45879],[6.62991,60.45183],[6.63288,60.44937],[6.63974,60.44717]],[[6.97621,60.50241],[6.98165,60.5025],[6.98411,60.50299],[6.99781,60.50369],[7.00332,60.50294]],[[6.64666,60.48327],[6.6469,60.4827],[6.64569,60.48086],[6.6407,60.47663],[6.63537,60.47556],[6.62699,60.47521],[6.61756,60.47395]],[[6.65633,60.47899],[6.657,60.48104],[6.65988,60.48274],[6.66072,60.48444],[6.66224,60.48458]],[[6.67789,60.49082],[6.67167,60.48817],[6.66813,60.48721],[6.66394,60.48492],[6.66224,60.48458]],[[6.90352,60.50479],[6.9032,60.50383],[6.90027,60.5018],[6.89758,60.49854],[6.89276,60.49446],[6.89283,60.49329],[6.89397,60.49209],[6.89346,60.49118],[6.88819,60.4886]],[[6.93024,60.50642],[6.92604,60.50251],[6.92073,60.50028],[6.91576,60.49755],[6.91317,60.49472],[6.91432,60.49341],[6.92671,60.49161],[6.93072,60.48989],[6.93323,60.48993],[6.93983,60.49122],[6.94804,60.49668],[6.95787,60.49999],[6.97336,60.50229],[6.97621,60.50241]],[[6.67789,60.49082],[6.67825,60.49202],[6.67701,60.49353],[6.67921,60.49506],[6.6805,60.49531],[6.68252,60.49499],[6.6865,60.49592],[6.68922,60.49581],[6.69305,60.49824],[6.69357,60.50085],[6.69476,60.50205],[6.69717,60.50313],[6.7003,60.50781]],[[6.65054,60.4891],[6.65611,60.49054],[6.65801,60.49219],[6.66386,60.49568],[6.66726,60.49639],[6.67143,60.49631],[6.67352,60.49711],[6.6756,60.49888],[6.6776,60.49955],[6.67937,60.50176],[6.68688,60.50551],[6.68827,60.50891],[6.69079,60.51046],[6.69124,60.51355],[6.69794,60.51698]],[[6.71486,60.52206],[6.71651,60.52079],[6.71645,60.51865],[6.71322,60.51677],[6.70808,60.51565],[6.7003,60.50781]],[[6.69794,60.51698],[6.6985,60.51889],[6.70356,60.52089],[6.70656,60.52161],[6.7094,60.52142],[6.71152,60.52171],[6.71285,60.52221]],[[6.93024,60.50642],[6.93637,60.50985],[6.93949,60.51409],[6.94835,60.51852],[6.95044,60.52277],[6.94809,60.5245],[6.94808,60.5256],[6.95232,60.5296],[6.95556,60.53145],[6.95541,60.53255],[6.95867,60.53452],[6.96092,60.53497],[6.96368,60.53629],[6.967,60.5394]],[[6.91144,60.5504],[6.91118,60.54662],[6.91197,60.54399],[6.91138,60.54068],[6.9095,60.53771],[6.90894,60.53214],[6.9107,60.53039],[6.90961,60.52826],[6.91312,60.52384],[6.91638,60.5219],[6.91695,60.51927],[6.91478,60.51556],[6.91296,60.51481],[6.91098,60.51216],[6.90795,60.50961],[6.90527,60.50813],[6.90352,60.50479]],[[6.9626,60.55351],[6.95265,60.54838],[6.9435,60.54227],[6.94043,60.53873],[6.93414,60.53519],[6.93277,60.53353],[6.92694,60.52906],[6.92439,60.52791],[6.92201,60.52886],[6.91924,60.53131],[6.91873,60.53263],[6.92141,60.53599],[6.9216,60.53859],[6.92549,60.54137],[6.92659,60.54342],[6.92511,60.54498],[6.92746,60.54855],[6.92774,60.55043],[6.92586,60.55128]],[[6.99289,60.55534],[6.99092,60.5537],[6.9848,60.55257],[6.98206,60.55101],[6.98133,60.55019],[6.98128,60.54856],[6.97792,60.54726],[6.97556,60.5453],[6.96955,60.54196],[6.967,60.5394]],[[6.96713,60.55768],[6.96334,60.55408]],[[6.53582,60.07553],[6.53594,60.0755]],[[6.53069,60.08406],[6.53123,60.08574],[6.52824,60.08865],[6.52997,60.08944]],[[6.54927,60.16665],[6.54887,60.16551],[6.54711,60.16387]],[[6.59884,60.20422],[6.59682,60.20204]],[[6.60231,60.21444],[6.60178,60.21002],[6.60223,60.20716],[6.60025,60.20603],[6.59884,60.20422]],[[6.6022,60.21518],[6.60231,60.21444]],[[6.60231,60.21952],[6.60178,60.21658],[6.6022,60.21518]],[[6.56584,60.24393],[6.57009,60.24952]],[[6.62398,60.26171],[6.6239,60.26383],[6.62097,60.26784]],[[6.62097,60.26784],[6.61935,60.27257]],[[6.6001,60.29164],[6.60378,60.29768],[6.607,60.30154]],[[6.65507,60.32286],[6.65649,60.32329]],[[6.65478,60.32992],[6.65585,60.32941],[6.65658,60.32708],[6.65815,60.32557],[6.65747,60.32363],[6.65649,60.32329]],[[6.66393,60.35452],[6.66254,60.35338]],[[6.62528,60.35372],[6.62574,60.3521]],[[6.62528,60.35372],[6.62624,60.35613],[6.62867,60.35847],[6.62871,60.35918]],[[6.63545,60.36628],[6.64094,60.3703]],[[6.72462,60.37791],[6.72635,60.37871]],[[6.65925,60.39814],[6.65464,60.39452],[6.65219,60.39336]],[[6.65925,60.39814],[6.66071,60.39946]],[[6.72209,60.40331],[6.7128,60.39867],[6.7112,60.39707],[6.71028,60.39461],[6.71156,60.39223],[6.71464,60.3903],[6.71894,60.38409],[6.72572,60.37981],[6.72635,60.37871]],[[6.72209,60.40331],[6.72674,60.40474]],[[6.66342,60.40104],[6.66071,60.39946]],[[6.80801,60.45379],[6.80613,60.45154]],[[6.43494,60.43018],[6.4357,60.43022]],[[6.44338,60.43242],[6.44563,60.43247]],[[6.98133,60.48183],[6.98605,60.48159],[6.98736,60.482]],[[6.55396,60.45558],[6.55913,60.45497],[6.56232,60.45511]],[[6.64666,60.48327],[6.64759,60.48604],[6.64974,60.48718],[6.65008,60.4887]],[[6.65054,60.4891],[6.65008,60.4887]],[[6.9626,60.55351],[6.96334,60.55408]],[[6.96713,60.55768],[6.97096,60.56004]],[[6.92586,60.55128],[6.92459,60.55201],[6.92373,60.55497],[6.92136,60.55724]],[[6.91144,60.5504],[6.91327,60.55231],[6.91239,60.55381],[6.91365,60.55547],[6.91382,60.55687],[6.91358,60.55731],[6.91066,60.5579],[6.90707,60.5593],[6.90695,60.56034],[6.90972,60.56399],[6.90909,60.56452],[6.90767,60.56457]],[[6.93695,60.56569],[6.94122,60.56646],[6.94151,60.56782],[6.94048,60.56859],[6.9429,60.5698]],[[6.90767,60.56457],[6.90986,60.5655],[6.90963,60.56619],[6.91037,60.56661],[6.91411,60.56621],[6.91875,60.56696],[6.91926,60.56825],[6.92371,60.5706],[6.9264,60.57159],[6.9291,60.57201]],[[6.9291,60.57201],[6.93655,60.57265],[6.94721,60.57236],[6.94704,60.57101],[6.94527,60.57016],[6.9429,60.5698]],[[7.00065,60.56555],[6.9997,60.56507],[6.99743,60.56278],[6.9966,60.56103],[6.9965,60.55713],[6.99289,60.55534]],[[6.97096,60.56004],[6.97722,60.56245],[6.98615,60.56894],[6.99712,60.57405],[6.99793,60.57622],[7.002,60.57951]],[[6.86804,60.90879],[6.86919,60.91113]],[[6.93653,60.95807],[6.93907,60.95858],[6.94177,60.96053],[6.95241,60.96346]],[[6.84326,60.88053],[6.84467,60.87975],[6.84578,60.87987],[6.84659,60.88161],[6.84812,60.88271],[6.85503,60.88441],[6.85877,60.88598],[6.86314,60.8893],[6.86621,60.89231],[6.86691,60.89389],[6.87007,60.89459],[6.87566,60.90078]],[[6.86804,60.90879],[6.86746,60.90658],[6.86463,60.90508],[6.86242,60.90233],[6.86207,60.90088],[6.85643,60.89679],[6.85295,60.89034],[6.8471,60.8877],[6.84177,60.88367],[6.84086,60.88287],[6.84137,60.88154]],[[6.87476,60.9092],[6.87752,60.90568],[6.87566,60.90078]],[[6.8702,60.91668],[6.87052,60.91539],[6.86853,60.91399],[6.86919,60.91113]],[[6.8702,60.91668],[6.87035,60.91835],[6.86853,60.91874],[6.86731,60.91987],[6.8684,60.92584],[6.86914,60.92624]],[[6.87476,60.9092],[6.87401,60.91263],[6.87601,60.91511],[6.87785,60.9162],[6.87769,60.91831],[6.87897,60.91918],[6.8774,60.92137],[6.87436,60.9233],[6.87774,60.92643],[6.87968,60.92689],[6.88041,60.9266],[6.88031,60.92594],[6.88193,60.92617],[6.88475,60.93019],[6.8864,60.92993],[6.89197,60.9325],[6.89778,60.93336],[6.90005,60.93442],[6.90039,60.93582],[6.90238,60.93651],[6.90522,60.93637],[6.91108,60.93832],[6.92058,60.93752],[6.92365,60.9392],[6.92759,60.94064],[6.92995,60.94125],[6.93342,60.94153],[6.93692,60.94332],[6.94217,60.94308],[6.94342,60.94372],[6.94611,60.94902],[6.94891,60.95044],[6.95107,60.95032],[6.95536,60.95184]],[[6.93653,60.95807],[6.93399,60.95781],[6.93282,60.957],[6.93278,60.95545],[6.93375,60.95434],[6.93296,60.95216],[6.93318,60.94978],[6.9349,60.94846],[6.93457,60.9474],[6.92904,60.94428],[6.92397,60.94264],[6.92052,60.94227],[6.91744,60.94278],[6.91597,60.94257],[6.91458,60.94146],[6.91128,60.94165],[6.90811,60.94137],[6.90108,60.93957],[6.8968,60.9394],[6.89351,60.93832],[6.88457,60.93646],[6.88147,60.93427],[6.876,60.93345],[6.87203,60.93129],[6.87028,60.92901],[6.8703,60.92688],[6.86914,60.92624]],[[6.97218,60.96021],[6.96536,60.95762],[6.96081,60.95517],[6.95779,60.9528],[6.95536,60.95184]],[[6.99399,60.96151],[6.99174,60.96087],[6.98573,60.96102]],[[6.97218,60.96021],[6.97889,60.96138],[6.98573,60.96102]],[[6.99399,60.96151],[7.00048,60.96332]],[[6.95241,60.96346],[6.95594,60.96465],[6.9584,60.96626],[6.96217,60.96761],[6.96763,60.96857],[6.98065,60.96928],[6.98581,60.97092],[6.99473,60.97298],[6.9976,60.97442],[7.00158,60.97561]],[[5.99891,60.02021],[6.00029,60.02349],[6.00578,60.02785],[6.00815,60.02888],[6.00867,60.02956],[6.00743,60.03049],[6.00888,60.03093]],[[6.02207,60.04135],[6.02019,60.03815],[6.01738,60.03649],[6.01279,60.03236],[6.00888,60.03093]],[[6.02207,60.04135],[6.02231,60.04397],[6.02168,60.04584],[6.0226,60.04647],[6.02119,60.04785],[6.01718,60.04931],[6.01704,60.05133],[6.01869,60.05361],[6.018,60.05436],[6.0203,60.05433],[6.02491,60.05869],[6.02961,60.06175],[6.03631,60.06396],[6.03775,60.06663],[6.04489,60.06975],[6.04999,60.07062],[6.05455,60.07279],[6.05706,60.07347],[6.06002,60.0741],[6.06353,60.07389],[6.06521,60.07423],[6.06713,60.07489],[6.069,60.07827],[6.07404,60.0796],[6.0821,60.08072],[6.0853,60.08198]],[[6.10955,60.09177],[6.10874,60.09179],[6.10257,60.08951],[6.10055,60.08755],[6.09743,60.08602],[6.0853,60.08198]],[[6.11045,60.09254],[6.11153,60.09391],[6.11468,60.09606],[6.1168,60.09638],[6.1176,60.09601],[6.11731,60.09478],[6.1183,60.09441],[6.12038,60.09412],[6.12683,60.09447],[6.13244,60.09403]],[[6.15021,60.09523],[6.15287,60.09638],[6.15673,60.09914],[6.16123,60.10012],[6.16671,60.09956],[6.17052,60.10123]],[[6.03091,60.0962],[6.03001,60.09611],[6.02951,60.09646],[6.02862,60.09838],[6.03005,60.09946],[6.03195,60.09847],[6.0323,60.09778],[6.03091,60.0962]],[[6.02376,60.10235],[6.0233,60.09874],[6.02209,60.09836],[6.02115,60.09926],[6.02001,60.09933],[6.01818,60.09809],[6.01309,60.09598],[6.00986,60.09522],[6.00555,60.09241],[6.00196,60.09134],[6.00008,60.08948],[5.99804,60.08928]],[[6.02624,60.10284],[6.02376,60.10235]],[[6.17052,60.10123],[6.17385,60.10251],[6.1794,60.10394],[6.18133,60.104],[6.18335,60.10341],[6.18758,60.10356],[6.19364,60.10514],[6.19504,60.1049],[6.19979,60.10286],[6.20486,60.10282],[6.207,60.10379],[6.2122,60.1044],[6.21799,60.10599],[6.22229,60.10801],[6.23137,60.11415],[6.24125,60.11699],[6.24618,60.11778],[6.25386,60.11834],[6.25624,60.11897]],[[6.26961,60.11735],[6.26828,60.11766],[6.26714,60.11871],[6.26442,60.11809],[6.25868,60.11934],[6.25733,60.11945],[6.25624,60.11897]],[[6.0369,60.10708],[6.03506,60.10603],[6.03479,60.1056],[6.03537,60.10541],[6.0331,60.10335],[6.03053,60.10194],[6.02755,60.10122],[6.02692,60.10269],[6.02624,60.10284]],[[6.31713,60.12752],[6.31707,60.12718],[6.30971,60.1271],[6.30383,60.1265],[6.30174,60.12598],[6.30099,60.12508],[6.29915,60.12425],[6.29599,60.12345],[6.28971,60.12312],[6.28291,60.12345],[6.27668,60.12104],[6.27138,60.12012],[6.2703,60.11857]],[[6.31713,60.12752],[6.31587,60.12776]],[[6.0363,60.10988],[6.03931,60.10881],[6.0369,60.10708]],[[6.16742,60.11271],[6.16165,60.11056],[6.15517,60.10885],[6.14433,60.10819],[6.14107,60.10733],[6.13976,60.10803],[6.13674,60.10734],[6.13504,60.10817],[6.13432,60.11065],[6.13813,60.11301],[6.14859,60.11635],[6.1543,60.11597],[6.15521,60.11796],[6.15742,60.11844],[6.15759,60.11953],[6.15892,60.12062],[6.16013,60.12103],[6.16203,60.12078],[6.16504,60.12155]],[[6.07593,60.11636],[6.07326,60.11564],[6.07351,60.11518],[6.0749,60.11492],[6.07468,60.11417],[6.07021,60.1139],[6.06752,60.11466],[6.06641,60.11633],[6.06739,60.11743],[6.06814,60.11746],[6.06898,60.11674],[6.07067,60.11721],[6.0729,60.11834],[6.07358,60.11919],[6.07315,60.11973],[6.07481,60.12044]],[[6.1635,60.12723],[6.16562,60.12677],[6.16789,60.1247],[6.16692,60.12283],[6.16504,60.12155]],[[6.16742,60.11271],[6.17291,60.11373],[6.17599,60.11386],[6.1817,60.11319],[6.1908,60.1151],[6.19315,60.11506],[6.19542,60.11433],[6.20187,60.11464],[6.20388,60.11522],[6.20884,60.11819],[6.21277,60.11952],[6.21775,60.1226],[6.22338,60.12495],[6.22524,60.12548],[6.22985,60.12593],[6.2323,60.1277],[6.23791,60.12839],[6.24572,60.12997],[6.25237,60.13345]],[[6.05172,60.12338],[6.04909,60.12272],[6.0462,60.12119],[6.04238,60.12023],[6.04134,60.11871],[6.03835,60.11748],[6.03626,60.11531],[6.03635,60.1122],[6.03564,60.11127],[6.0363,60.10988]],[[6.05711,60.13073],[6.0578,60.12964],[6.0601,60.12902],[6.06089,60.1282],[6.058,60.12583],[6.05172,60.12338]],[[6.05736,60.13411],[6.05651,60.13287],[6.05758,60.13128],[6.05711,60.13073]],[[6.14167,60.13982],[6.1482,60.13678],[6.14838,60.13555],[6.15078,60.13365],[6.15194,60.13182],[6.1519,60.13045],[6.15265,60.13038],[6.15321,60.13084],[6.15651,60.13063],[6.15954,60.12821],[6.1635,60.12723]],[[6.26215,60.14789],[6.26173,60.14438],[6.25931,60.13864],[6.2577,60.13688],[6.25237,60.13345]],[[6.28319,60.14929],[6.28197,60.1465],[6.28212,60.14281],[6.28335,60.13935],[6.28222,60.13402],[6.28541,60.13246],[6.28976,60.13129],[6.30219,60.13165],[6.30462,60.13155],[6.3058,60.13096],[6.30757,60.13089],[6.31195,60.13154],[6.31471,60.13074],[6.31439,60.12954]],[[6.1378,60.14148],[6.14167,60.13982]],[[6.1378,60.14148],[6.13306,60.14163],[6.1295,60.14296],[6.12742,60.14549],[6.12512,60.14704],[6.12298,60.15081]],[[6.29646,60.16298],[6.29272,60.16034],[6.29218,60.15731],[6.28502,60.15384],[6.28319,60.14929]],[[6.06068,60.14879],[6.06162,60.14679],[6.06058,60.14436]],[[6.26215,60.14789],[6.26334,60.15176],[6.26587,60.15464],[6.27112,60.15842],[6.27442,60.15973],[6.27529,60.16197],[6.2765,60.16301],[6.27915,60.16417],[6.28416,60.16382],[6.28619,60.164]],[[6.28619,60.164],[6.28916,60.1648],[6.29205,60.16488],[6.29473,60.16414],[6.29646,60.16298]],[[6.05182,60.15235],[6.05386,60.15074],[6.05777,60.15009],[6.06068,60.14879]],[[5.99915,60.16222],[6.00228,60.16405],[6.00537,60.16397],[6.01054,60.16587],[6.01603,60.16617],[6.01957,60.16569],[6.02074,60.16473],[6.02969,60.16162],[6.03323,60.16157],[6.03771,60.1608],[6.04131,60.15854],[6.04383,60.15572],[6.04612,60.15473]],[[6.09396,60.18177],[6.09557,60.18136],[6.09795,60.17972],[6.09392,60.17731],[6.09423,60.17559],[6.09538,60.1747],[6.09851,60.17356],[6.10024,60.17343],[6.10266,60.17416],[6.10614,60.1732],[6.10827,60.17036],[6.10811,60.16953],[6.10584,60.16834],[6.10693,60.16384],[6.10925,60.16219],[6.11328,60.158],[6.11676,60.15688],[6.11849,60.15503],[6.12122,60.1548],[6.12213,60.15394],[6.12298,60.15081]],[[6.09396,60.18177],[6.09109,60.18249],[6.09665,60.18461],[6.09692,60.18514],[6.09544,60.18619]],[[6.09544,60.18619],[6.0937,60.18707],[6.08628,60.18841],[6.08472,60.18917],[6.08369,60.1907],[6.08289,60.19086],[6.08311,60.19261],[6.08925,60.19376]],[[6.12775,60.2202],[6.13049,60.22047],[6.1339,60.2203],[6.13814,60.2208]],[[6.08925,60.19376],[6.09186,60.1962],[6.09564,60.19794],[6.10553,60.20028],[6.10561,60.201],[6.11062,60.20451],[6.10912,60.20709],[6.11206,60.21304],[6.11556,60.21518],[6.11895,60.21611]],[[6.18969,60.22281],[6.1888,60.2222],[6.18557,60.22194],[6.18308,60.22038],[6.18051,60.21942],[6.18061,60.21823],[6.1783,60.21634],[6.17634,60.21578],[6.17483,60.21626],[6.1731,60.21596],[6.16147,60.2132],[6.15946,60.21372],[6.15694,60.21357],[6.15581,60.21407],[6.15321,60.21583],[6.15322,60.21786],[6.15238,60.21916],[6.14958,60.21921],[6.14522,60.22027],[6.14249,60.22022],[6.13814,60.2208]],[[6.11895,60.21611],[6.12109,60.21743],[6.12009,60.21818],[6.1206,60.21861],[6.12316,60.2196],[6.12775,60.2202]],[[6.18969,60.22281],[6.18971,60.22322],[6.18874,60.22347],[6.1893,60.225],[6.19118,60.22587],[6.19287,60.22545],[6.19393,60.22556],[6.19588,60.22647],[6.19634,60.22726]],[[6.19364,60.23457],[6.19054,60.23656],[6.19122,60.23954],[6.19213,60.23995],[6.19509,60.24002],[6.19672,60.23944],[6.1979,60.24019],[6.20129,60.24088]],[[6.00376,60.2415],[6.00161,60.23946],[6.00243,60.23797],[6.00502,60.23626],[6.00548,60.23334],[6.0068,60.23228],[6.00627,60.23072],[6.00496,60.2302],[6.00054,60.23007],[5.99733,60.22728]],[[6.20129,60.24088],[6.20282,60.24148],[6.20166,60.24274],[6.20113,60.24462],[6.20272,60.24539],[6.20573,60.2455],[6.20721,60.24834],[6.20583,60.24895],[6.20391,60.24901],[6.2023,60.25108],[6.20077,60.25188],[6.20069,60.25269],[6.20413,60.25628],[6.20361,60.25752],[6.20528,60.25818],[6.20766,60.25745],[6.21358,60.25691],[6.21905,60.25745]],[[6.0084,60.24229],[6.00713,60.24189],[6.00788,60.2443],[6.00986,60.24555],[6.01217,60.24556],[6.01184,60.24456],[6.0084,60.24229]],[[6.12046,60.25255],[6.11787,60.25347],[6.11194,60.25447],[6.10982,60.25448],[6.10962,60.25418]],[[6.14273,60.25878],[6.14017,60.25928],[6.13649,60.25551],[6.13191,60.25362],[6.12933,60.25312]],[[6.06423,60.25646],[6.06234,60.2559],[6.06178,60.25634],[6.06312,60.25733],[6.06419,60.25721],[6.06423,60.25646]],[[6.06735,60.2544],[6.06654,60.25429],[6.06621,60.25461],[6.066,60.25626],[6.06662,60.25673],[6.06825,60.25647],[6.06735,60.2544]],[[6.01041,60.25324],[6.00629,60.2495],[6.00625,60.248],[6.00947,60.24786],[6.00964,60.24713],[6.00614,60.24566],[6.00505,60.24278],[6.00376,60.2415]],[[6.07044,60.25794],[6.07992,60.25541],[6.08201,60.25278],[6.08738,60.25229],[6.09087,60.25266],[6.09464,60.25233],[6.09805,60.25265],[6.10063,60.25376],[6.10873,60.2534],[6.10974,60.25363],[6.10962,60.25418]],[[6.06262,60.25815],[6.06178,60.25765],[6.06039,60.25826],[6.06294,60.25958],[6.06262,60.25815]],[[6.07044,60.25794],[6.06815,60.25944],[6.06742,60.2608],[6.06476,60.26098]],[[6.25245,60.27512],[6.25064,60.27644]],[[6.01497,60.26137],[6.01551,60.25842],[6.01827,60.2581],[6.01874,60.2577],[6.01311,60.25381],[6.01041,60.25324]],[[6.25245,60.27512],[6.25242,60.27457],[6.25077,60.27401],[6.24511,60.27543],[6.24084,60.27584],[6.23848,60.27544],[6.23582,60.2763],[6.23399,60.27609],[6.23254,60.2743],[6.23469,60.27201],[6.23123,60.2707],[6.23183,60.26947],[6.23373,60.26865],[6.23491,60.26557],[6.23605,60.26439],[6.23242,60.26227],[6.23323,60.26043],[6.2297,60.25898],[6.22567,60.25864],[6.22308,60.25786],[6.21905,60.25745]],[[6.01569,60.26593],[6.01749,60.26554],[6.01464,60.26378],[6.01576,60.26255],[6.01497,60.26137]],[[6.04172,60.26858],[6.04378,60.26754],[6.04525,60.26562],[6.04691,60.26482],[6.04747,60.26342],[6.06275,60.26074],[6.06476,60.26098]],[[6.19356,60.27881],[6.18902,60.27458],[6.18598,60.27289],[6.18608,60.27122],[6.18503,60.26956],[6.18077,60.26661],[6.17673,60.2617],[6.17461,60.26056],[6.16644,60.25857],[6.16276,60.25666],[6.16086,60.25392],[6.15995,60.25094],[6.15811,60.24933],[6.15713,60.24697],[6.15535,60.24562],[6.15622,60.24507],[6.15575,60.24382],[6.1521,60.24233],[6.1484,60.24307],[6.14618,60.24471],[6.14248,60.24482],[6.14038,60.2453],[6.14009,60.24565],[6.14122,60.24658],[6.14081,60.24719],[6.13734,60.24895],[6.13799,60.25351],[6.14045,60.25546],[6.14326,60.25641],[6.14333,60.25833]],[[6.01407,60.26807],[6.01526,60.26937]],[[6.03317,60.27221],[6.035,60.27094],[6.03449,60.27021],[6.03548,60.26922],[6.04071,60.26871]],[[6.01526,60.26937],[6.01772,60.27017],[6.02085,60.26934],[6.02229,60.27238],[6.02477,60.27328]],[[6.02477,60.27328],[6.02894,60.27419],[6.0311,60.27425]],[[6.17401,60.29192],[6.18062,60.28988],[6.1797,60.28829],[6.17525,60.28601],[6.17411,60.28442],[6.18044,60.28589],[6.18222,60.28725],[6.18925,60.28644],[6.19137,60.2858],[6.19256,60.284],[6.19491,60.28275],[6.19545,60.28196],[6.19564,60.27965],[6.19356,60.27881]],[[6.17213,60.29759],[6.17203,60.29643],[6.17348,60.29614],[6.17372,60.2957],[6.17382,60.29398],[6.17282,60.29264],[6.17401,60.29192]],[[6.24535,60.28226],[6.24467,60.28252],[6.24364,60.28457],[6.24431,60.28669],[6.24203,60.28979],[6.23722,60.2912],[6.22773,60.29175],[6.22362,60.29241],[6.22274,60.29269],[6.22214,60.29368],[6.22303,60.29447],[6.22627,60.29582],[6.22986,60.29629],[6.23182,60.29603],[6.23518,60.29692],[6.23704,60.29636],[6.24166,60.29749],[6.24378,60.29986],[6.24319,60.30106],[6.24414,60.30177],[6.24695,60.30192],[6.25376,60.30355],[6.2598,60.30364],[6.26315,60.30425],[6.26837,60.30461],[6.27122,60.30572],[6.27406,60.3061],[6.27422,60.30653],[6.27222,60.30693],[6.27287,60.30746],[6.2781,60.30637],[6.28211,60.30454],[6.28674,60.30497],[6.29134,60.30577],[6.29287,60.3081],[6.29605,60.30936]],[[6.19917,60.32436],[6.19489,60.32319],[6.18492,60.32229],[6.18281,60.32244],[6.17939,60.32172],[6.17679,60.3205],[6.1735,60.31759],[6.17362,60.31588],[6.17164,60.315],[6.16817,60.31239],[6.16604,60.30996],[6.16722,60.30945],[6.16856,60.30965],[6.16963,60.30873],[6.17152,60.30834],[6.17221,60.30746],[6.17371,60.30728],[6.17451,60.30595],[6.17307,60.30615],[6.17246,60.30566],[6.17344,60.30399],[6.17592,60.30282],[6.17573,60.30216],[6.17393,60.30103],[6.17042,60.30071],[6.17113,60.29989],[6.17288,60.2996],[6.17326,60.29857],[6.17213,60.29759]],[[6.34026,60.33369],[6.33635,60.33062],[6.33692,60.32963],[6.33664,60.32695],[6.33431,60.32787],[6.33292,60.32744],[6.33355,60.32637],[6.33739,60.32551],[6.3328,60.32459],[6.33239,60.32416],[6.33294,60.32367],[6.32992,60.32307],[6.32392,60.32065],[6.32336,60.31946],[6.32402,60.31685],[6.3234,60.31605],[6.31934,60.31494],[6.30988,60.31404],[6.30449,60.31245],[6.30332,60.31176],[6.29902,60.31072],[6.29605,60.30936]],[[6.34026,60.33369],[6.34219,60.3345],[6.34261,60.33596],[6.3458,60.33706],[6.3489,60.33699],[6.35506,60.33823],[6.36324,60.33809],[6.36723,60.33963],[6.37121,60.34057]],[[6.21933,60.33306],[6.22094,60.33298],[6.22165,60.33217],[6.21902,60.33149],[6.21722,60.32911],[6.2121,60.32837],[6.20283,60.32592]],[[6.35037,60.3429],[6.34939,60.34047],[6.34689,60.33908],[6.34687,60.33866],[6.34493,60.33806],[6.34314,60.33681],[6.34004,60.33658],[6.33981,60.33693],[6.34267,60.33822],[6.34716,60.34261],[6.34896,60.34282],[6.34838,60.34358],[6.34962,60.34371],[6.35037,60.3429]],[[6.37121,60.34057],[6.37707,60.34083],[6.37701,60.3422],[6.37485,60.34337],[6.37458,60.34426],[6.37525,60.34509],[6.37376,60.34655]],[[6.19582,60.34733],[6.19713,60.34666],[6.199,60.34634],[6.20464,60.34652],[6.20412,60.34612],[6.20599,60.34645],[6.2093,60.34551],[6.21396,60.34265],[6.21671,60.33853],[6.21914,60.33691],[6.21858,60.33615]],[[6.19444,60.34832],[6.19582,60.34733]],[[6.18671,60.34924],[6.19101,60.34958],[6.19444,60.34832]],[[6.17708,60.34942],[6.17991,60.34857],[6.18139,60.34855]],[[6.18139,60.34855],[6.18302,60.3491],[6.18143,60.35095],[6.18202,60.35142],[6.18517,60.35048],[6.18506,60.34964],[6.18671,60.34924]],[[6.37125,60.36889],[6.37274,60.36847],[6.37807,60.36893],[6.38006,60.36788],[6.38521,60.36768],[6.38969,60.3681],[6.39211,60.36882],[6.39735,60.36736],[6.40227,60.36789],[6.40685,60.3678],[6.41172,60.36871],[6.41693,60.36874],[6.42332,60.36983],[6.42691,60.36947],[6.42914,60.3698],[6.43202,60.37093],[6.43488,60.37091],[6.44137,60.37201],[6.44457,60.37299],[6.4501,60.37359],[6.45449,60.37348],[6.45863,60.37559],[6.46056,60.37596]],[[6.37376,60.34655],[6.36862,60.34692],[6.36536,60.34824],[6.35984,60.3482],[6.35634,60.34873],[6.35399,60.35],[6.35421,60.35184],[6.35601,60.35289],[6.35633,60.3565],[6.35129,60.3589],[6.3511,60.35939],[6.35202,60.3601],[6.34974,60.36145],[6.35084,60.36236],[6.35088,60.36329],[6.34925,60.36496],[6.34999,60.36787],[6.35346,60.36938],[6.35399,60.37046],[6.3569,60.37078],[6.36298,60.37034],[6.36575,60.37095],[6.37125,60.36889]],[[6.16088,60.36014],[6.1673,60.35628],[6.17144,60.35195],[6.17435,60.35129],[6.17708,60.34942]],[[6.28044,60.36744],[6.28096,60.36794],[6.28039,60.36853],[6.28209,60.36832],[6.2838,60.36709],[6.28219,60.36713],[6.28195,60.36686],[6.28427,60.3661],[6.2848,60.36549],[6.28371,60.36337],[6.28185,60.36221]],[[6.28185,60.36221],[6.27638,60.362],[6.27464,60.36454],[6.27302,60.36503],[6.27126,60.36477],[6.26892,60.36572],[6.26871,60.36825],[6.27017,60.36885],[6.2726,60.36868],[6.27471,60.36786],[6.27901,60.36732],[6.28044,60.36744]],[[6.26427,60.3682],[6.26217,60.36805],[6.26147,60.3683],[6.2614,60.36934],[6.2635,60.36971],[6.26694,60.36935],[6.26427,60.3682]],[[6.18613,60.36693],[6.18949,60.36652]],[[6.17495,60.36381],[6.17628,60.36391],[6.17695,60.36434],[6.17599,60.36545],[6.17669,60.36615],[6.18182,60.36682],[6.18613,60.36693]],[[6.19398,60.36889],[6.19173,60.36791],[6.19165,60.36641],[6.18949,60.36652]],[[6.14886,60.36616],[6.14947,60.36565],[6.15195,60.36519],[6.15283,60.36425],[6.15677,60.36253],[6.16015,60.36146],[6.16088,60.36014]],[[6.19398,60.36889],[6.19479,60.36868],[6.2,60.36954],[6.20353,60.36946],[6.20436,60.36987]],[[6.25591,60.37329],[6.25668,60.37197],[6.25549,60.37132],[6.25002,60.37125],[6.24933,60.37186],[6.24572,60.37262]],[[6.14847,60.36911],[6.14795,60.36746],[6.14886,60.36616]],[[6.25591,60.37329],[6.25497,60.37423],[6.25513,60.37492],[6.25823,60.37602],[6.26152,60.37581],[6.2623,60.37611],[6.26534,60.37825],[6.26507,60.37921],[6.26717,60.3808],[6.26957,60.38101],[6.27371,60.37978],[6.27585,60.38026],[6.27678,60.38102]],[[6.14847,60.36911],[6.14644,60.37273],[6.14468,60.37312],[6.14699,60.37374],[6.14955,60.37346],[6.1514,60.3728],[6.15266,60.37127],[6.1554,60.37129],[6.15654,60.37013],[6.15944,60.36911],[6.16224,60.36706]],[[6.2158,60.3847],[6.21984,60.38314],[6.22423,60.38225],[6.22621,60.38229],[6.22795,60.38313],[6.23069,60.38301],[6.2328,60.3813],[6.23337,60.37968],[6.23815,60.37918],[6.23989,60.37706],[6.24572,60.37262]],[[6.27152,60.38997],[6.27537,60.38626]],[[6.20339,60.37614],[6.20316,60.37847],[6.20485,60.37987],[6.20482,60.38047],[6.20008,60.38297],[6.19889,60.38318],[6.19896,60.38438],[6.20256,60.38536],[6.20337,60.38673],[6.20535,60.38739],[6.21078,60.38572],[6.2158,60.3847]],[[6.28122,60.39398],[6.28359,60.392],[6.28881,60.3923]],[[6.27268,60.39623],[6.26789,60.3989],[6.26393,60.40013],[6.26107,60.4022],[6.26225,60.40536]],[[6.28881,60.3923],[6.2921,60.39214],[6.29383,60.3916],[6.29641,60.39186],[6.29838,60.39158],[6.31598,60.39726],[6.31921,60.39777],[6.32391,60.39796],[6.3293,60.39914],[6.33429,60.39904],[6.34332,60.40054],[6.35082,60.40497],[6.3518,60.4071],[6.35171,60.4088],[6.35256,60.40972],[6.3571,60.41177],[6.35963,60.41244]],[[6.23772,60.4138],[6.24339,60.40981],[6.24396,60.40723],[6.2485,60.4047],[6.25683,60.40116],[6.2587,60.3995],[6.26063,60.39643],[6.26586,60.39502],[6.269,60.3924]],[[6.23234,60.4169],[6.23273,60.41597],[6.23523,60.41509]],[[6.24633,60.41782],[6.25166,60.4121],[6.25814,60.40909],[6.26199,60.40639]],[[6.40508,60.42824],[6.40543,60.42728],[6.4038,60.4249],[6.405,60.42115],[6.4044,60.41981],[6.40168,60.41687],[6.39608,60.41407],[6.38836,60.41196],[6.38769,60.41323],[6.38377,60.41483],[6.37471,60.41394],[6.3707,60.41433],[6.36345,60.4134],[6.35963,60.41244]],[[6.2118,60.4607],[6.2128,60.45778],[6.21409,60.45617],[6.21916,60.45094],[6.22162,60.44924],[6.2247,60.44589],[6.22626,60.44321],[6.22692,60.43651],[6.22618,60.43257],[6.22499,60.43049],[6.22569,60.42848],[6.22867,60.426],[6.22844,60.4242],[6.23047,60.42252],[6.23062,60.42136],[6.22913,60.42023],[6.22934,60.41961],[6.23234,60.4169]],[[6.22167,60.46136],[6.22494,60.45703],[6.22778,60.45495],[6.22849,60.45319],[6.23024,60.4524],[6.22997,60.44807],[6.23071,60.44578],[6.2323,60.44428],[6.23564,60.44249],[6.23613,60.44184],[6.23541,60.44003],[6.2392,60.43687],[6.24073,60.4348],[6.23824,60.4323],[6.23574,60.43236],[6.23378,60.43316],[6.23168,60.43187],[6.2312,60.43042],[6.23315,60.42794],[6.2344,60.42314],[6.23983,60.41998],[6.24068,60.4199],[6.24094,60.42069],[6.2423,60.42064]],[[6.2118,60.4607],[6.21096,60.46171],[6.2106,60.46676],[6.20919,60.46909],[6.21002,60.46936]],[[6.2107,60.46951],[6.2157,60.47045]],[[6.2157,60.47045],[6.21719,60.46704],[6.21965,60.46554],[6.22167,60.46136]],[[6.11045,60.09254],[6.11032,60.09213]],[[6.15021,60.09523],[6.1451,60.09366],[6.1388,60.09345],[6.13244,60.09403]],[[6.26961,60.11735],[6.2703,60.11857]],[[6.07481,60.12044],[6.07576,60.12068],[6.0764,60.12035],[6.07808,60.11779],[6.07696,60.11653],[6.07593,60.11636]],[[6.06058,60.14436],[6.05966,60.14185],[6.06043,60.13917],[6.05978,60.13867],[6.05934,60.13635],[6.05736,60.13411]],[[6.04612,60.15473],[6.05182,60.15235]],[[6.19388,60.23367],[6.19425,60.23202],[6.19586,60.2312],[6.19634,60.22726]],[[6.19388,60.23367],[6.19364,60.23457]],[[6.12046,60.25255],[6.12099,60.25196],[6.12313,60.25184],[6.12384,60.25224],[6.12933,60.25312]],[[6.14333,60.25833],[6.14273,60.25878]],[[6.01569,60.26593],[6.01475,60.26661]],[[6.24535,60.28226],[6.24895,60.28112],[6.24775,60.27869],[6.249,60.27741]],[[6.04071,60.26871],[6.04172,60.26858]],[[6.03294,60.27304],[6.03317,60.27221]],[[6.03277,60.27366],[6.03294,60.27304]],[[6.0311,60.27425],[6.03277,60.27366]],[[6.19917,60.32436],[6.20068,60.32534]],[[6.20086,60.3254],[6.20068,60.32534]],[[6.20283,60.32592],[6.20086,60.3254]],[[6.34145,60.33846],[6.33987,60.33809],[6.339,60.33826],[6.34099,60.33952],[6.34244,60.3395],[6.34145,60.33846]],[[6.21858,60.33615],[6.22008,60.33531],[6.22009,60.33346],[6.21933,60.33306]],[[6.16224,60.36706],[6.16791,60.36365],[6.17189,60.36322],[6.17495,60.36381]],[[6.20436,60.36987],[6.2052,60.37143],[6.20508,60.37351],[6.20339,60.37614]],[[6.27537,60.38626],[6.27638,60.38574],[6.27859,60.38291],[6.27678,60.38102]],[[6.269,60.3924],[6.27152,60.38997]],[[6.28122,60.39398],[6.27268,60.39623]],[[6.26225,60.40536],[6.26199,60.40639]],[[6.23523,60.41509],[6.23663,60.41479],[6.23772,60.4138]],[[6.2425,60.42059],[6.24269,60.41988],[6.24633,60.41782]],[[6.2425,60.42059],[6.2423,60.42064]]]}}]}