{"type":"FeatureCollection","features":[{"type":"Feature","properties":{},"geometry":{"type":"MultiLineString","coordinates":[[[7.10386,60.49319],[7.09601,60.49208],[7.09278,60.49022],[7.08879,60.48917],[7.08365,60.48699],[7.07887,60.48647],[7.07562,60.487],[7.07152,60.48688]],[[7.12074,60.49682],[7.12448,60.49577],[7.12559,60.49589],[7.13101,60.49953],[7.13364,60.50003],[7.13745,60.49994],[7.13922,60.4992],[7.1377,60.49595],[7.13795,60.49416],[7.14026,60.4939],[7.13728,60.49329],[7.13338,60.49186],[7.12725,60.49094],[7.12018,60.49201],[7.1147,60.48864],[7.10902,60.48726],[7.10063,60.48672],[7.09779,60.48124],[7.09403,60.48031],[7.0921,60.47903],[7.08984,60.4789],[7.08501,60.47934],[7.08294,60.47913],[7.0791,60.47713],[7.07868,60.47537],[7.07657,60.47355],[7.0759,60.47134]],[[7.0599,60.46375],[7.06625,60.46584]],[[7.06625,60.46584],[7.06719,60.46627],[7.06662,60.46791],[7.06742,60.46875],[7.06857,60.46897]],[[7.04913,60.46848],[7.05365,60.46723],[7.05631,60.4651],[7.0588,60.46384],[7.0599,60.46375]],[[6.99398,60.48251],[7.00464,60.48162],[7.02004,60.4797],[7.02573,60.47859],[7.03192,60.47622],[7.04348,60.47319],[7.04913,60.46848]],[[6.99781,60.50369],[7.00332,60.50294],[7.00898,60.50292],[7.0174,60.50045],[7.02177,60.50001],[7.02489,60.4984],[7.02927,60.49726],[7.04183,60.49528],[7.04782,60.49393],[7.05021,60.49315],[7.0553,60.4903],[7.05975,60.48961],[7.0649,60.48799],[7.07152,60.48688]],[[7.07496,60.47003],[7.07109,60.46967]],[[7.07496,60.47003],[7.07552,60.47057]],[[7.07552,60.47057],[7.0759,60.47134]],[[7.10386,60.49319],[7.10762,60.49437],[7.11122,60.4943],[7.12074,60.49682]],[[7.02216,60.58627],[7.02401,60.586]],[[7.02536,60.58604],[7.02789,60.58646],[7.02877,60.58524],[7.03172,60.58408],[7.03247,60.58324],[7.01656,60.57575],[7.01297,60.57347],[7.01187,60.57196],[7.00743,60.56886],[7.003,60.5669],[7.00182,60.56556],[7.00065,60.56555],[6.9997,60.56507]],[[6.99793,60.57622],[7.002,60.57951],[7.0063,60.58037],[7.00889,60.58015],[7.01147,60.58088],[7.01465,60.58321],[7.0183,60.58454],[7.02064,60.58608],[7.02216,60.58627]],[[7.06899,60.97032],[7.07102,60.96888],[7.07636,60.96791],[7.07879,60.96656]],[[7.13117,60.87941],[7.12973,60.87777]],[[7.15264,60.88067],[7.15429,60.88253],[7.15418,60.88445],[7.1547,60.88624],[7.15603,60.88767],[7.15615,60.89034]],[[7.15615,60.89034],[7.16053,60.89243],[7.1663,60.89652]],[[7.1663,60.89652],[7.16692,60.89711]],[[7.18221,60.9037],[7.18261,60.90446]],[[7.18828,60.91317],[7.18961,60.91563],[7.19377,60.91706],[7.19548,60.92197],[7.19701,60.92429]],[[7.19606,60.92833],[7.19608,60.92626],[7.19724,60.92487],[7.19701,60.92429]],[[7.14004,60.95541],[7.13588,60.95619],[7.13322,60.95622]],[[7.01778,60.9828],[7.01847,60.98418]],[[7.1198,60.86491],[7.11988,60.86418],[7.11863,60.86337],[7.1144,60.86281],[7.11424,60.86237],[7.11553,60.86169],[7.1177,60.862],[7.11896,60.86096],[7.12161,60.86043]],[[7.12973,60.87777],[7.124,60.86978],[7.12027,60.86807],[7.11883,60.86645],[7.1185,60.86566],[7.11922,60.86523]],[[7.15264,60.88067],[7.14999,60.87819],[7.14349,60.87607],[7.14363,60.87281],[7.14174,60.87064],[7.14217,60.86845],[7.14116,60.86704],[7.13804,60.86571],[7.12861,60.86442],[7.12708,60.86335],[7.12452,60.86274],[7.12254,60.86056],[7.12161,60.86043]],[[7.13799,60.88586],[7.13821,60.88499],[7.13117,60.87941]],[[7.16692,60.89711],[7.16888,60.89935],[7.17088,60.90027],[7.17183,60.90359],[7.17568,60.90337],[7.17784,60.90415],[7.17934,60.90358],[7.18221,60.9037]],[[7.13799,60.88586],[7.13654,60.88812],[7.13734,60.8901],[7.14115,60.89506],[7.14515,60.89892],[7.15148,60.90922]],[[7.18403,60.90552],[7.1889,60.90832],[7.18828,60.91317]],[[7.15005,60.92563],[7.15146,60.92222],[7.15392,60.92054],[7.15732,60.91549],[7.15689,60.91446],[7.15148,60.90922]],[[7.1433,60.94228],[7.14911,60.93989],[7.15479,60.93818],[7.15252,60.93583],[7.15005,60.92563]],[[7.18168,60.94993],[7.18417,60.94885],[7.18652,60.94714],[7.19293,60.94006],[7.19445,60.93474],[7.19395,60.93306],[7.19606,60.92833]],[[7.13022,60.95614],[7.13322,60.95622]],[[7.10673,60.95001],[7.10882,60.95022],[7.11188,60.94968],[7.11505,60.94995],[7.11737,60.94952],[7.12049,60.94864],[7.12494,60.94635],[7.13734,60.94422],[7.1433,60.94228]],[[7.14004,60.95541],[7.1435,60.95499],[7.15018,60.95338],[7.15467,60.95363],[7.15778,60.9542],[7.16003,60.95412],[7.16981,60.95201],[7.17616,60.95137],[7.18168,60.94993]],[[7.10172,60.95354],[7.10659,60.95052],[7.10673,60.95001]],[[7.13022,60.95614],[7.12591,60.95598],[7.12166,60.957],[7.11412,60.96279]],[[7.07879,60.96656],[7.08166,60.96517],[7.08538,60.96226],[7.08873,60.9607],[7.0937,60.95699],[7.10172,60.95354]],[[7.10732,60.96824],[7.11412,60.96279]],[[7.06409,60.97583],[7.06608,60.97455],[7.06899,60.97032]],[[6.99399,60.96151],[7.00048,60.96332],[7.00147,60.96473],[7.00367,60.96537],[7.00709,60.96789],[7.00923,60.96886],[7.01679,60.97043],[7.01943,60.97032],[7.02791,60.97265],[7.03173,60.97427],[7.03318,60.97496],[7.03535,60.97793],[7.04059,60.98191]],[[6.9976,60.97442],[7.00158,60.97561],[7.00494,60.97769],[7.01094,60.97861],[7.01694,60.97891],[7.01778,60.9828]],[[7.04059,60.98191],[7.04425,60.98532],[7.04962,60.98564],[7.05515,60.98376],[7.06149,60.98019],[7.06409,60.97583]],[[7.01847,60.98418],[7.02183,60.98605],[7.02676,60.98994],[7.02626,60.99172],[7.02748,60.99413],[7.02941,60.99554],[7.03639,60.99859]],[[7.03612,60.99967],[7.03693,60.999],[7.03639,60.99859]],[[7.03365,61.00122],[7.03612,60.99967]],[[7.07259,61.00115],[7.07159,60.99966],[7.07302,60.9968],[7.0722,60.99455],[7.07266,60.99157],[7.07698,60.98782],[7.07844,60.98483],[7.08266,60.97985],[7.08375,60.97519],[7.08675,60.97393],[7.09158,60.9728],[7.09435,60.9714],[7.1031,60.97018],[7.10732,60.96824]]]}}]}