{"type":"FeatureCollection","features":[{"type":"Feature","properties":{},"geometry":{"type":"MultiLineString","coordinates":[[[6.49797,61.80516],[6.50788,61.8056],[6.5089,61.806],[6.5125,61.80569],[6.51596,61.80585]],[[6.51596,61.80585],[6.51978,61.80763],[6.52191,61.80811],[6.52282,61.80776]],[[6.52282,61.80776],[6.53022,61.80916],[6.53599,61.81295]],[[6.44447,61.80809],[6.46271,61.80545],[6.47586,61.80423],[6.48472,61.80442],[6.49013,61.80521],[6.49797,61.80516]],[[6.53599,61.81295],[6.53819,61.81435]],[[6.8043,61.83501],[6.80627,61.83702],[6.80713,61.83901],[6.80797,61.8394],[6.81016,61.8393],[6.81085,61.84092],[6.81026,61.84231],[6.81238,61.84481],[6.81345,61.84774]],[[6.5813,61.83534],[6.56955,61.83166],[6.55944,61.82723],[6.5434,61.81819],[6.53819,61.81435]],[[6.81469,61.85105],[6.81338,61.84887],[6.81345,61.84774]],[[6.5264,61.83585],[6.52517,61.83436],[6.52189,61.83293],[6.51554,61.83229],[6.50409,61.83168],[6.47882,61.83162],[6.47268,61.83191],[6.45067,61.83009],[6.44212,61.82957],[6.43839,61.82978]],[[6.59321,61.83998],[6.5813,61.83534]],[[6.80299,61.83499],[6.80097,61.83708],[6.80102,61.84095],[6.79908,61.8459],[6.79714,61.84862],[6.7921,61.85208]],[[6.81439,61.85853],[6.81425,61.85985],[6.81816,61.86112]],[[6.5264,61.83585],[6.52765,61.84087],[6.52968,61.845]],[[6.59321,61.83998],[6.6047,61.84491],[6.60847,61.84581],[6.61042,61.84757],[6.61097,61.85106],[6.61253,61.85158],[6.61383,61.85154]],[[6.81816,61.86112],[6.82411,61.86381],[6.82324,61.86574],[6.82027,61.86658],[6.82144,61.86728],[6.82713,61.86848],[6.83854,61.86767],[6.84517,61.8663]],[[6.61383,61.85154],[6.61296,61.85412],[6.61037,61.85578],[6.60761,61.85664]],[[6.53166,61.85249],[6.52968,61.845]],[[6.80898,61.87229],[6.80263,61.8705],[6.79521,61.86943],[6.78908,61.86985],[6.78582,61.87089]],[[6.80898,61.87229],[6.81257,61.87337]],[[6.8439,61.87117],[6.84207,61.87335],[6.8394,61.87405],[6.83831,61.87503],[6.8368,61.87542]],[[6.81257,61.87337],[6.81653,61.87439],[6.82133,61.87503],[6.8368,61.87542]],[[6.71426,61.86899],[6.72001,61.8677],[6.72779,61.86666],[6.73493,61.86616],[6.7394,61.8652],[6.74778,61.86435],[6.75733,61.86394],[6.76591,61.86022],[6.76985,61.85941],[6.77557,61.85716],[6.7826,61.85534]],[[6.60761,61.85664],[6.59645,61.85913],[6.58213,61.86318],[6.57987,61.86419],[6.57984,61.86569],[6.58163,61.86736],[6.58494,61.8684],[6.59194,61.86961],[6.60811,61.86954],[6.61826,61.87039]],[[6.53991,61.8669],[6.53695,61.86531],[6.53502,61.86272],[6.53262,61.85431]],[[6.61826,61.87039],[6.62028,61.87126],[6.62422,61.87187],[6.62673,61.87308],[6.63107,61.87297],[6.63703,61.87373],[6.64555,61.87385],[6.65173,61.87325],[6.66231,61.87092],[6.66502,61.87068],[6.66965,61.87096],[6.67194,61.87198],[6.6765,61.8726],[6.68936,61.87285],[6.69443,61.8724],[6.70617,61.87],[6.71426,61.86899]],[[6.54332,61.86974],[6.54128,61.86829],[6.54083,61.86693],[6.53991,61.8669]],[[6.71086,61.88148],[6.72233,61.88],[6.73317,61.87957],[6.74042,61.87977],[6.76347,61.8789],[6.76621,61.87762],[6.77069,61.87685],[6.77164,61.87548],[6.77406,61.87474],[6.77732,61.87294],[6.78582,61.87089]],[[6.71086,61.88148],[6.70961,61.88215],[6.7106,61.88243]],[[6.70689,61.89208],[6.70707,61.8887],[6.70976,61.88553]],[[6.58244,61.88447],[6.57674,61.88309],[6.57399,61.88371],[6.55623,61.87826],[6.54332,61.86974]],[[6.6091,61.88611],[6.60534,61.88559],[6.601,61.88561]],[[6.69136,61.89113],[6.69104,61.89043],[6.68946,61.88962],[6.67602,61.88611],[6.65761,61.88641],[6.64131,61.88808]],[[6.58244,61.88447],[6.58451,61.8851],[6.58954,61.88572],[6.601,61.88561]],[[6.61364,61.88714],[6.61967,61.88907],[6.62975,61.8906],[6.64131,61.88808]],[[6.70587,61.89979],[6.70749,61.8995],[6.70624,61.89847]],[[6.70587,61.89979],[6.70492,61.90003],[6.70572,61.90037]],[[6.71328,61.90154],[6.70874,61.89994],[6.70821,61.9009],[6.70572,61.90037]],[[6.69868,61.90367],[6.70073,61.90344],[6.69828,61.90266],[6.69819,61.90162],[6.69895,61.90114],[6.70239,61.90196],[6.70342,61.90276],[6.70336,61.90352],[6.70531,61.90187]],[[6.84517,61.8663],[6.84642,61.86674],[6.84528,61.86768],[6.84723,61.86872],[6.84639,61.86917],[6.84651,61.87019],[6.84441,61.87052]],[[6.81547,61.85348],[6.81469,61.85105]],[[6.7826,61.85534],[6.78531,61.85485],[6.7921,61.85208]],[[6.81547,61.85348],[6.81439,61.85853]],[[6.53262,61.85431],[6.53166,61.85249]],[[6.70976,61.88553],[6.71137,61.88309],[6.7106,61.88243]],[[6.6091,61.88611],[6.61364,61.88714]],[[6.70689,61.89208],[6.70577,61.89597],[6.70624,61.89847]],[[6.71328,61.90154],[6.71625,61.90155]],[[6.70531,61.90187],[6.71634,61.90234]],[[6.69136,61.89113],[6.69696,61.89616],[6.69875,61.89863],[6.699,61.89956],[6.69685,61.90198],[6.69756,61.90316],[6.69868,61.90367]],[[5.99896,61.12159],[6.0013,61.12005],[6.00445,61.11889],[6.00831,61.11847],[6.01563,61.11694],[6.0207,61.11652],[6.02356,61.11561],[6.0286,61.11516]],[[6.25767,61.14127],[6.26256,61.13784],[6.26692,61.13568],[6.26887,61.13545],[6.26982,61.1348],[6.26911,61.13438],[6.26974,61.13385],[6.27409,61.13297],[6.27752,61.13301],[6.27826,61.13385],[6.28271,61.13357],[6.2865,61.13466],[6.29582,61.13519],[6.29842,61.13598],[6.30119,61.13537],[6.30503,61.13398],[6.30564,61.13339]],[[6.25239,61.14377],[6.25767,61.14127]],[[6.06477,61.1462],[6.07066,61.14856],[6.07366,61.14921],[6.07569,61.14921],[6.07828,61.14808],[6.08113,61.14781],[6.08645,61.15004],[6.08947,61.14932],[6.09322,61.14926],[6.09712,61.15048],[6.10202,61.15351],[6.10865,61.15363],[6.11079,61.15464],[6.11512,61.15476],[6.12078,61.15593],[6.12501,61.15578],[6.12845,61.1545],[6.13334,61.15343],[6.13895,61.15325],[6.14182,61.15378],[6.1442,61.15526],[6.15297,61.15727],[6.1549,61.15808]],[[6.20093,61.17904],[6.19596,61.17544],[6.19034,61.16997],[6.1869,61.16472],[6.18626,61.1623],[6.18369,61.16039],[6.17735,61.15946],[6.17214,61.15939],[6.16981,61.15868],[6.16814,61.15935],[6.16409,61.15963],[6.1549,61.15808]],[[6.01532,61.17045],[6.01084,61.16804],[6.00875,61.1657],[6.00547,61.1638],[6.00547,61.16305],[6.00847,61.16198],[6.01633,61.15798],[6.01857,61.1575],[6.03271,61.15671],[6.04014,61.15463],[6.04727,61.15035],[6.04941,61.1479],[6.05263,61.14623],[6.0558,61.1461],[6.06072,61.14518],[6.06477,61.1462]],[[6.21107,61.1834],[6.20093,61.17904]],[[6.22368,61.18423],[6.21775,61.18086],[6.21669,61.17763],[6.20618,61.16701],[6.20415,61.16577],[6.20404,61.16513],[6.20628,61.16487],[6.21226,61.16319],[6.21905,61.16267],[6.22182,61.16021],[6.22347,61.15781],[6.22973,61.15747],[6.23247,61.15698],[6.2366,61.1547],[6.23857,61.15269],[6.2465,61.14705],[6.25239,61.14377]],[[6.21755,61.18644],[6.21221,61.18476],[6.21107,61.1834]],[[6.21755,61.18644],[6.22043,61.18779],[6.22185,61.18795],[6.22365,61.18758],[6.22459,61.18709],[6.22412,61.18668],[6.22523,61.18575],[6.22368,61.18423]],[[6.01532,61.17045],[6.01903,61.17354],[6.02221,61.17445],[6.03646,61.17669],[6.04522,61.17746],[6.05534,61.17925]],[[5.99702,61.18075],[6.00621,61.1842],[6.01386,61.18642],[6.02184,61.18822],[6.04619,61.19278],[6.05098,61.19452]],[[6.07554,61.21465],[6.08097,61.20665],[6.08053,61.20151],[6.07743,61.19676],[6.07611,61.1927],[6.07356,61.18828],[6.07096,61.18553],[6.06818,61.18368],[6.06363,61.18148],[6.05534,61.17925]],[[6.07407,61.21633],[6.07399,61.21521],[6.07467,61.21463],[6.07554,61.21465]],[[6.05098,61.19452],[6.05405,61.19751],[6.05438,61.19939],[6.05638,61.20108],[6.05892,61.20488],[6.058,61.21145],[6.05919,61.21548],[6.06506,61.21813],[6.07033,61.21675]],[[6.36267,61.01257],[6.36745,61.01402],[6.37552,61.01522],[6.38104,61.01553]],[[6.07033,61.21675],[6.07218,61.21615],[6.07346,61.21645]],[[6.40879,61.01554],[6.41602,61.01139],[6.41573,61.01035]],[[6.35862,61.00342],[6.36321,61.00219],[6.36545,61.0034]],[[6.36545,61.0034],[6.36668,61.0048],[6.36692,61.00715],[6.36965,61.00839],[6.37303,61.00865],[6.37728,61.00829],[6.38282,61.00902]],[[6.41249,61.00667],[6.41765,61.00735],[6.41774,61.00815],[6.41549,61.0098],[6.41573,61.01035]],[[6.35137,61.00658],[6.35149,61.00556],[6.35617,61.00474],[6.35862,61.00342]],[[6.41208,61.00655],[6.40775,61.00558],[6.40353,61.00583],[6.39472,61.00919],[6.39105,61.00989],[6.38282,61.00902]],[[6.35061,61.01006],[6.35174,61.00862],[6.35137,61.00658]],[[6.36267,61.01257],[6.35191,61.0109],[6.35061,61.01006]],[[6.38485,61.01746],[6.38341,61.01623],[6.38104,61.01553]],[[6.3853,61.02561],[6.38479,61.02527],[6.38554,61.02381],[6.38705,61.02323],[6.38781,61.02237],[6.38792,61.01994],[6.38752,61.01873],[6.38485,61.01746]],[[6.28279,61.03432],[6.27833,61.0343],[6.27619,61.03515],[6.2741,61.03519],[6.27047,61.03437],[6.26854,61.03498],[6.26678,61.03634],[6.26709,61.03775],[6.27254,61.03966],[6.27631,61.03942],[6.28116,61.04021]],[[6.30536,61.05403],[6.30449,61.05024],[6.30298,61.04923],[6.30326,61.04858],[6.30429,61.04781],[6.30637,61.04754],[6.30795,61.04774],[6.30936,61.04882],[6.31013,61.0485],[6.30614,61.0455],[6.29825,61.04353],[6.29594,61.0425],[6.29411,61.04066],[6.29247,61.04016],[6.28395,61.04051],[6.28116,61.04021]],[[6.31852,61.05488],[6.31466,61.05105],[6.31168,61.05],[6.3124,61.04717],[6.31131,61.04317],[6.3092,61.04233],[6.30801,61.04233],[6.30455,61.04021],[6.29797,61.03802],[6.29404,61.03607],[6.28279,61.03432]],[[6.41056,61.06081],[6.41232,61.05781],[6.41186,61.05622],[6.40718,61.05212],[6.40253,61.0465],[6.40171,61.04304],[6.39871,61.03816],[6.39607,61.03622],[6.38916,61.03283],[6.38391,61.02805],[6.38395,61.0274],[6.38522,61.0272],[6.38587,61.02658],[6.3853,61.02561]],[[6.43395,61.06231],[6.4333,61.05616],[6.42994,61.05071],[6.4291,61.04797],[6.42214,61.04031],[6.42043,61.03721],[6.41712,61.03448],[6.41203,61.0316],[6.40817,61.02867],[6.40418,61.0267],[6.4004,61.02352],[6.40026,61.02196],[6.40144,61.01881],[6.40879,61.01554]],[[6.36612,61.07003],[6.3703,61.07016],[6.37246,61.0694],[6.38473,61.07029],[6.38924,61.06995],[6.39057,61.06938],[6.3899,61.06789],[6.39057,61.06755],[6.39824,61.06946],[6.40887,61.07017],[6.41211,61.06874],[6.41264,61.06771],[6.41021,61.06329],[6.41056,61.06081]],[[6.31852,61.05488],[6.32382,61.057],[6.32754,61.05962],[6.32863,61.06117],[6.33137,61.06247],[6.34236,61.06966],[6.3494,61.07098],[6.35761,61.0698],[6.36612,61.07003]],[[6.43395,61.06231],[6.43488,61.06531],[6.4341,61.07012],[6.43951,61.07185],[6.4501,61.07835],[6.45656,61.08024]],[[6.28886,61.09813],[6.29079,61.09743],[6.29258,61.09614],[6.30176,61.0942],[6.30388,61.09315],[6.30421,61.0924],[6.3034,61.09181],[6.30264,61.08912],[6.30397,61.08712],[6.30906,61.08513],[6.31585,61.08391],[6.32002,61.0823],[6.32107,61.08078],[6.32366,61.07882],[6.32483,61.07589],[6.32442,61.07389],[6.31238,61.0653],[6.31128,61.06417],[6.31152,61.06301],[6.30893,61.06173],[6.30889,61.0597],[6.3067,61.05831],[6.30616,61.05488],[6.30536,61.05403]],[[6.26438,61.10073],[6.27597,61.10068],[6.28272,61.10015],[6.28886,61.09813]],[[6.1328,61.11069],[6.13625,61.11022],[6.14192,61.11242]],[[6.44779,61.11251],[6.4543,61.11301],[6.46199,61.11518],[6.47258,61.11519],[6.47592,61.11587],[6.47475,61.11876],[6.4719,61.1194],[6.47176,61.12135],[6.47032,61.12326]],[[6.35227,61.12043],[6.35522,61.11561],[6.35988,61.11328],[6.37072,61.11075],[6.37826,61.10993],[6.38468,61.11004],[6.38766,61.11141],[6.39015,61.11164],[6.39436,61.11349],[6.39579,61.11354],[6.39866,61.11281],[6.40261,61.11438],[6.40859,61.11595],[6.41426,61.1164],[6.41982,61.11575],[6.42182,61.11417],[6.42392,61.11308],[6.4255,61.11277],[6.43012,61.11236],[6.43333,61.11352],[6.44084,61.11272],[6.44779,61.11251]],[[6.16621,61.11794],[6.17196,61.11786],[6.1777,61.1172],[6.18122,61.11607],[6.18518,61.11621],[6.18875,61.11511],[6.19241,61.1148],[6.19574,61.11341],[6.19607,61.11093],[6.20123,61.10953],[6.20518,61.10722],[6.21114,61.10585],[6.21356,61.1039],[6.21447,61.10095],[6.2221,61.09967],[6.22469,61.09963],[6.2295,61.10052],[6.23177,61.10151],[6.23841,61.10237],[6.24519,61.10209],[6.25179,61.10117],[6.25472,61.10153],[6.25693,61.10143],[6.25979,61.10072],[6.26438,61.10073]],[[6.14192,61.11242],[6.14396,61.11343],[6.14741,61.11629],[6.14911,61.11694],[6.16138,61.11853],[6.16621,61.11794]],[[6.07565,61.10798],[6.07732,61.10734],[6.07993,61.10706],[6.09164,61.10788],[6.09746,61.10996],[6.10354,61.11144],[6.11275,61.11301],[6.11479,61.11373],[6.11685,61.11526],[6.11901,61.11587],[6.12235,61.11647],[6.13093,61.11701],[6.13351,61.1166],[6.13413,61.11559],[6.13196,61.11289],[6.13235,61.11125]],[[6.0286,61.11516],[6.03018,61.11489],[6.03143,61.11406],[6.0311,61.11178],[6.03236,61.11038],[6.03699,61.10745],[6.03962,61.10645],[6.04423,61.10631],[6.04777,61.10716],[6.05212,61.10976],[6.0541,61.11277],[6.05676,61.1134],[6.07017,61.11276],[6.0712,61.11125],[6.07337,61.10995],[6.07362,61.10884],[6.07565,61.10798]],[[6.30564,61.13339],[6.31002,61.13067],[6.31087,61.12901],[6.31252,61.12889],[6.31567,61.12939],[6.32058,61.12848],[6.33326,61.12752],[6.33696,61.12538],[6.33904,61.12198],[6.34119,61.12116],[6.34299,61.12075],[6.34716,61.12085],[6.35227,61.12043]],[[6.84527,61.18512],[6.8488,61.18463],[6.85027,61.18323]],[[6.86286,61.17596],[6.8689,61.1731],[6.87232,61.17279],[6.87475,61.17294],[6.88081,61.17473],[6.88507,61.17483],[6.88903,61.17442],[6.89764,61.17039]],[[6.54392,61.15959],[6.54258,61.15512],[6.54156,61.1542],[6.53964,61.15348],[6.53954,61.15299],[6.5419,61.14848]],[[6.63099,61.16504],[6.63046,61.16035],[6.6263,61.1567],[6.62588,61.15565],[6.62638,61.15496],[6.62527,61.1537]],[[6.65731,61.16668],[6.66153,61.1644],[6.66824,61.16171],[6.67109,61.15957],[6.67898,61.15703]],[[6.85243,61.17864],[6.8532,61.17783],[6.85792,61.17838],[6.86286,61.17596]],[[6.85243,61.17864],[6.85363,61.17954]],[[6.85175,61.18242],[6.85385,61.18011],[6.85363,61.17954]],[[6.64813,61.17397],[6.65215,61.17236],[6.65463,61.16888],[6.65731,61.16668]],[[6.78178,61.18233],[6.78334,61.18258],[6.7858,61.18223],[6.78692,61.18167],[6.78911,61.18164],[6.79229,61.1827],[6.79677,61.18273],[6.80251,61.1835]],[[6.82525,61.18566],[6.83352,61.18608],[6.84527,61.18512]],[[6.76864,61.18224],[6.77164,61.18261],[6.77808,61.18169],[6.78178,61.18233]],[[6.80251,61.1835],[6.80598,61.18414],[6.80837,61.18505]],[[6.80837,61.18505],[6.8123,61.18525],[6.81942,61.18473],[6.82525,61.18566]],[[6.63128,61.1669],[6.63237,61.17314],[6.6351,61.17478],[6.64163,61.17552],[6.64813,61.17397]],[[6.7427,61.18178],[6.74594,61.18257],[6.75289,61.18227],[6.75802,61.1815],[6.76864,61.18224]],[[6.70849,61.18545],[6.71119,61.18353],[6.71615,61.18189],[6.72908,61.18134],[6.7427,61.18178]],[[6.5294,61.18872],[6.53316,61.18468],[6.53505,61.18384],[6.53669,61.18202],[6.53351,61.17738],[6.53572,61.17628],[6.53582,61.17539],[6.53461,61.17484],[6.53457,61.17416],[6.53614,61.17322],[6.53863,61.17307],[6.5421,61.17186],[6.54423,61.16519],[6.54307,61.16311],[6.54463,61.15999],[6.54392,61.15959]],[[6.53422,61.20206],[6.53254,61.19983],[6.53,61.1983],[6.52856,61.19576],[6.52974,61.19056],[6.5294,61.18872]],[[6.60917,61.2071],[6.61167,61.20673],[6.61899,61.20687],[6.62823,61.20993],[6.63069,61.21002],[6.63517,61.20966],[6.63916,61.20804],[6.64153,61.20774],[6.64552,61.2076],[6.64858,61.20796],[6.655,61.2052],[6.65989,61.2042],[6.66269,61.20402],[6.66383,61.20433],[6.6656,61.20376],[6.67117,61.20343],[6.67965,61.2042],[6.68379,61.20294],[6.68763,61.2008],[6.69275,61.20037],[6.69729,61.19924],[6.69781,61.19795],[6.70181,61.19579],[6.70254,61.1949],[6.70203,61.19207],[6.70366,61.19058],[6.70568,61.1899],[6.70849,61.18545]],[[6.53422,61.20206],[6.53509,61.20364],[6.53453,61.20416]],[[6.59712,61.20808],[6.59767,61.20718],[6.59854,61.20704],[6.60714,61.20734],[6.60917,61.2071]],[[6.52607,61.21137],[6.53269,61.21121],[6.53671,61.21061],[6.53843,61.20982],[6.53725,61.20828],[6.53628,61.2082],[6.53377,61.20639],[6.53453,61.20416]],[[6.5141,61.21251],[6.52607,61.21137]],[[6.5141,61.21251],[6.50952,61.21326],[6.5056,61.21438],[6.5025,61.21415],[6.49955,61.2145]],[[6.49309,61.21689],[6.49698,61.21659],[6.49771,61.21536],[6.49955,61.2145]],[[6.4839,61.22839],[6.49214,61.22308],[6.495,61.22181],[6.50482,61.21935],[6.51026,61.21941],[6.51234,61.21901]],[[6.49309,61.21689],[6.49233,61.21699],[6.48744,61.22058],[6.48603,61.22227],[6.48647,61.22503],[6.48579,61.22572],[6.48297,61.22651],[6.48061,61.2278],[6.48069,61.2286],[6.48174,61.22885]],[[6.59712,61.20808],[6.59666,61.21217],[6.59442,61.21457],[6.59486,61.21836],[6.59419,61.22028],[6.59102,61.2222],[6.58595,61.22403],[6.58337,61.22616],[6.58317,61.2274],[6.58679,61.23227],[6.58752,61.2346],[6.58735,61.23804],[6.58808,61.23923],[6.59279,61.24213],[6.59931,61.24383]],[[6.54787,61.25015],[6.55104,61.24849],[6.55541,61.24221],[6.55414,61.24049],[6.55181,61.23892],[6.55145,61.23515],[6.54829,61.233],[6.54812,61.2317],[6.54654,61.23048],[6.54672,61.2288],[6.54921,61.2267],[6.55384,61.22456],[6.55527,61.2231],[6.55724,61.22207],[6.558,61.22094],[6.56011,61.22],[6.5608,61.21781],[6.56809,61.21366],[6.5679,61.21218],[6.56659,61.21182],[6.56593,61.21111],[6.56298,61.21156],[6.56136,61.2153],[6.5592,61.21577],[6.55513,61.21568],[6.55254,61.21453],[6.5493,61.21386],[6.548,61.21381],[6.54607,61.21435],[6.54151,61.21364],[6.53577,61.21641],[6.53102,61.21714],[6.51973,61.2176],[6.51234,61.21901]],[[6.63426,61.25554],[6.63052,61.25341],[6.61759,61.24815],[6.59931,61.24383]],[[6.62502,61.27588],[6.6129,61.26955],[6.61008,61.26712],[6.60813,61.26437],[6.59933,61.26221],[6.59875,61.26149],[6.59497,61.26]],[[6.6313,61.27861],[6.62502,61.27588]],[[6.63426,61.25554],[6.63884,61.25897],[6.64059,61.26109],[6.6458,61.26399],[6.64858,61.26625],[6.65359,61.26878],[6.66529,61.27214],[6.67001,61.27549],[6.67891,61.27937],[6.68266,61.28275]],[[6.50047,61.27611],[6.50005,61.27569],[6.50072,61.27498],[6.50756,61.27302],[6.51027,61.27004],[6.51614,61.26825],[6.51671,61.26742],[6.51848,61.26667],[6.53963,61.26177],[6.54054,61.26086],[6.54072,61.2586],[6.54409,61.25377],[6.54446,61.25227],[6.54787,61.25015]],[[6.50843,61.27745],[6.50718,61.27696],[6.50047,61.27611]],[[6.55034,61.29546],[6.54847,61.28554],[6.54878,61.28426],[6.54724,61.2824],[6.54682,61.27571],[6.54465,61.27302],[6.53957,61.27141],[6.53504,61.27103],[6.53277,61.2714],[6.52604,61.27113],[6.51935,61.27304],[6.51626,61.27522],[6.51038,61.27731],[6.50843,61.27745]],[[6.56419,61.29633],[6.56368,61.29412],[6.56441,61.29282],[6.56351,61.29147],[6.56487,61.28967],[6.56604,61.28055],[6.56485,61.27062],[6.56914,61.26232],[6.56955,61.26018],[6.5718,61.2567],[6.57229,61.25255],[6.57538,61.25284],[6.57726,61.25383],[6.58543,61.25622],[6.5921,61.25933],[6.59497,61.26]],[[6.66017,61.3023],[6.65738,61.29996],[6.65547,61.29663],[6.65672,61.28932],[6.65624,61.28708],[6.65482,61.28566],[6.65222,61.28411],[6.64884,61.28296],[6.63891,61.28144],[6.6313,61.27861]],[[6.68744,61.30398],[6.68048,61.29597],[6.68432,61.28713],[6.68421,61.28546],[6.68237,61.28454],[6.68266,61.28275]],[[6.56,61.29975],[6.56115,61.29934],[6.56145,61.30035],[6.56242,61.3002],[6.5646,61.29734],[6.56419,61.29633]],[[6.55034,61.29546],[6.55109,61.29941],[6.55338,61.30171]],[[6.55338,61.30171],[6.55399,61.30221],[6.55477,61.30218],[6.55796,61.30049]],[[6.66017,61.3023],[6.6622,61.3043],[6.66437,61.30939],[6.66593,61.31079],[6.66852,61.31558],[6.67281,61.31968]],[[6.72052,61.35116],[6.71774,61.34951],[6.71704,61.34826],[6.71456,61.34789],[6.7085,61.34445],[6.7044,61.34339],[6.69159,61.33674],[6.68824,61.33255],[6.68531,61.3313],[6.68323,61.32971],[6.68265,61.3268],[6.67799,61.32395],[6.67281,61.31968]],[[6.74553,61.35269],[6.74478,61.35003],[6.74341,61.34959],[6.74268,61.34876],[6.74246,61.34704],[6.7386,61.34437],[6.73798,61.34322],[6.73069,61.33967],[6.72588,61.33665],[6.72215,61.33589],[6.71985,61.33609],[6.71653,61.33518],[6.70621,61.32324],[6.70337,61.32067],[6.70191,61.31842],[6.70041,61.31773],[6.70024,61.31682],[6.69139,61.30986],[6.68744,61.30398]],[[6.74553,61.35269],[6.7468,61.3546],[6.74489,61.35977],[6.7464,61.36322],[6.7456,61.36582],[6.74761,61.37181],[6.75003,61.37549],[6.74964,61.37843],[6.75076,61.38001]],[[6.73906,61.39744],[6.73963,61.39208],[6.74211,61.3887],[6.73942,61.38499],[6.73808,61.38416],[6.73671,61.38418],[6.73578,61.3819],[6.73278,61.3788],[6.73156,61.37552],[6.72422,61.36703],[6.72434,61.36546],[6.72241,61.36181],[6.72286,61.35534],[6.72175,61.35215],[6.72052,61.35116]],[[6.75712,61.39854],[6.75497,61.39591],[6.75356,61.39289],[6.75431,61.38766],[6.75076,61.38001]],[[6.73931,61.3979],[6.74022,61.40019],[6.73928,61.40209],[6.7435,61.40734]],[[6.76003,61.41756],[6.7603,61.41685],[6.75946,61.41635],[6.76145,61.41444],[6.75906,61.41014],[6.7581,61.40465],[6.75848,61.40196],[6.75712,61.39854]],[[6.75989,61.4176],[6.76003,61.41756]],[[6.74379,61.40783],[6.74361,61.41279],[6.74744,61.41487],[6.74917,61.41906],[6.75059,61.41971]],[[6.75059,61.41971],[6.75518,61.42005],[6.75565,61.41865],[6.75688,61.41821],[6.75893,61.41868],[6.75842,61.41799]],[[6.63099,61.16504],[6.63128,61.1669]],[[6.48174,61.22885],[6.4839,61.22839]],[[6.73906,61.39744],[6.73931,61.3979]],[[6.74379,61.40783],[6.7435,61.40734]],[[6.9254,61.07492],[6.92804,61.07522]],[[6.58733,61.08969],[6.58888,61.08988]],[[6.99036,61.15124],[6.98973,61.15097],[6.98887,61.15126],[6.99199,61.15286],[6.99036,61.15124]],[[6.47096,61.12633],[6.47001,61.12443],[6.47032,61.12326]],[[6.95819,61.16209],[6.96277,61.16107]],[[6.89764,61.17039],[6.8997,61.16917]],[[6.92932,61.07529],[6.93412,61.0752],[6.94016,61.07434],[6.94109,61.0746]],[[6.92379,61.07556],[6.9254,61.07492]],[[6.94109,61.0746],[6.94439,61.07856],[6.94416,61.08293],[6.94858,61.08703],[6.95298,61.08844],[6.95694,61.08823],[6.9647,61.08502],[6.97049,61.08433],[6.97584,61.08305],[6.98213,61.08059],[6.98373,61.07672],[6.98812,61.07337],[6.99137,61.07183],[6.99749,61.06987],[6.99962,61.06966],[7.00477,61.06826]],[[6.87976,61.09003],[6.88067,61.08913],[6.88309,61.0882],[6.89246,61.08767],[6.89503,61.08688],[6.89794,61.08513],[6.8998,61.08472],[6.90513,61.0847],[6.91173,61.08391],[6.91557,61.08222],[6.9207,61.07762],[6.92379,61.07556]],[[6.57861,61.0892],[6.58141,61.0886],[6.58559,61.08942]],[[6.54364,61.10311],[6.55167,61.10289],[6.55318,61.10228],[6.55752,61.10227],[6.57201,61.10016],[6.57349,61.09901],[6.5762,61.09072],[6.57721,61.08963],[6.57861,61.0892]],[[6.45656,61.08024],[6.46272,61.08151],[6.46508,61.08116],[6.48836,61.08296],[6.49087,61.08242],[6.5041,61.08311],[6.50941,61.08459],[6.51069,61.08616],[6.5096,61.08666],[6.50997,61.08716],[6.51209,61.08796],[6.51424,61.08947],[6.52424,61.09357],[6.52655,61.0954],[6.5293,61.09608],[6.5302,61.09703],[6.53036,61.09865],[6.53538,61.10184],[6.53933,61.10304],[6.54271,61.10339],[6.54364,61.10311]],[[6.62527,61.1537],[6.62584,61.14934],[6.62502,61.14781]],[[6.6013,61.11804],[6.60036,61.1153],[6.59507,61.10904],[6.59388,61.10537],[6.59428,61.09877],[6.59122,61.09416],[6.5908,61.09218],[6.58888,61.08988]],[[6.86857,61.13448],[6.87093,61.13383],[6.87307,61.13268],[6.8758,61.12982],[6.8752,61.12614],[6.87937,61.11797],[6.87944,61.11545],[6.8805,61.11334],[6.88006,61.10866],[6.87829,61.10533],[6.87386,61.10176],[6.87503,61.09849],[6.88018,61.09387],[6.87976,61.09003]],[[6.92988,61.13818],[6.93476,61.13689],[6.93588,61.13518],[6.9442,61.12775],[6.94216,61.11684],[6.94395,61.11358],[6.94581,61.11263],[6.94953,61.11256],[6.96037,61.11443],[6.96171,61.11379],[6.96739,61.1126],[6.97626,61.11151],[6.98724,61.10667],[6.99268,61.10586],[6.99577,61.10667],[6.99896,61.11074],[6.99828,61.1169],[6.99895,61.11944],[7.00039,61.12097]],[[6.99745,61.15228],[6.99957,61.15313]],[[6.96886,61.15353],[6.97212,61.15344],[6.97527,61.151],[6.97799,61.14981],[6.98276,61.15017],[6.98776,61.14928],[6.99488,61.15083],[6.99745,61.15228]],[[6.92988,61.13818],[6.92746,61.14],[6.92691,61.14142],[6.92742,61.14223],[6.93086,61.14402],[6.93898,61.14684],[6.94632,61.14855],[6.95427,61.1518],[6.95889,61.15266],[6.96886,61.15353]],[[6.77415,61.14471],[6.77743,61.14358],[6.78094,61.14315],[6.79818,61.14388],[6.80209,61.14372],[6.80463,61.14318],[6.80907,61.1439],[6.81258,61.14493]],[[6.81258,61.14493],[6.81848,61.14818],[6.81984,61.14831],[6.82095,61.14823],[6.82268,61.14738],[6.82834,61.14706],[6.83127,61.14616],[6.83778,61.14679],[6.83996,61.14638],[6.84195,61.14663],[6.85049,61.14584],[6.8534,61.14425],[6.85978,61.14185],[6.86408,61.13846],[6.86496,61.13609],[6.86638,61.13511],[6.86857,61.13448]],[[6.99534,61.16057],[6.99658,61.16098],[6.99772,61.1598],[6.99605,61.15778]],[[6.48475,61.12705],[6.48156,61.12667],[6.4803,61.12722],[6.48227,61.1288],[6.48754,61.12995],[6.48779,61.12926],[6.48475,61.12705]],[[6.77015,61.14828],[6.77225,61.14708],[6.77292,61.14559],[6.77415,61.14471]],[[6.99605,61.15778],[6.99523,61.15755],[6.98819,61.15866],[6.98339,61.1578],[6.98123,61.15906],[6.97414,61.15961],[6.9682,61.15914],[6.96277,61.16107]],[[6.95819,61.16209],[6.95375,61.16265],[6.9503,61.1621],[6.94807,61.1622],[6.94577,61.16137],[6.94463,61.1603],[6.94082,61.15969],[6.92881,61.15951]],[[6.47096,61.12633],[6.4726,61.12762],[6.47421,61.12731],[6.47607,61.12756],[6.4763,61.12897],[6.47783,61.1299],[6.48082,61.13067],[6.48295,61.13045],[6.48783,61.13132],[6.4947,61.13041],[6.49733,61.1314],[6.50736,61.13175],[6.51044,61.13264],[6.5125,61.13254],[6.51446,61.13304],[6.51631,61.13449],[6.51924,61.13507],[6.52205,61.13499],[6.53447,61.13719]],[[6.99534,61.16057],[6.9941,61.16024],[6.99324,61.16092],[6.99405,61.162],[6.99281,61.16297],[6.99346,61.16358],[6.9938,61.16658]],[[6.71746,61.15151],[6.72268,61.15102],[6.73059,61.15096],[6.73637,61.15102],[6.74099,61.15153],[6.74549,61.15133],[6.74883,61.1506],[6.75185,61.14847],[6.75633,61.15038],[6.75905,61.15071],[6.7628,61.15049],[6.77015,61.14828]],[[6.6013,61.11804],[6.60209,61.12067],[6.60682,61.12304],[6.60631,61.1242],[6.60414,61.12465],[6.60412,61.12582],[6.60608,61.12689],[6.60796,61.12901],[6.61238,61.13239],[6.61486,61.13696],[6.62034,61.14415],[6.62253,61.14601],[6.62404,61.1465],[6.62502,61.14781]],[[7.00049,61.173],[6.99566,61.16939],[6.9938,61.16658]],[[6.8997,61.16917],[6.90578,61.16554],[6.91066,61.16154],[6.92057,61.16062],[6.92312,61.15978],[6.92881,61.15951]],[[6.5419,61.14848],[6.54312,61.14664],[6.54344,61.14342],[6.54515,61.14013],[6.54427,61.13859],[6.54234,61.13774],[6.53447,61.13719]],[[6.67898,61.15703],[6.68882,61.15502],[6.69335,61.1534],[6.69792,61.15249],[6.69979,61.15094],[6.70469,61.15026],[6.71746,61.15151]],[[7.00488,61.15629],[6.99957,61.15313]],[[6.18046,61.76441],[6.18672,61.76616],[6.18685,61.76555],[6.1887,61.76617],[6.18969,61.76553],[6.19058,61.76548],[6.19047,61.7667],[6.19433,61.76788],[6.19651,61.76969],[6.19917,61.7688]],[[6.17087,61.76811],[6.1771,61.76546],[6.17821,61.76451],[6.18046,61.76441]],[[6.16496,61.76952],[6.1695,61.76846]],[[6.19927,61.76995],[6.19628,61.7722],[6.19669,61.77261],[6.19877,61.77325],[6.20293,61.7724],[6.20488,61.77286],[6.20446,61.77344],[6.20855,61.77308],[6.21224,61.77325],[6.21372,61.77497],[6.21249,61.77529],[6.21252,61.77854],[6.20639,61.78212],[6.20333,61.78248],[6.19922,61.78151],[6.19936,61.78216],[6.19872,61.78234]],[[6.1272,61.77922],[6.13001,61.77669],[6.13376,61.7752],[6.14257,61.7747],[6.14674,61.77395],[6.14818,61.77277],[6.1534,61.77193],[6.15746,61.77227],[6.16506,61.7701],[6.16496,61.76952]],[[6.19005,61.78351],[6.19092,61.78336],[6.19117,61.78266],[6.1932,61.78224],[6.19872,61.78234]],[[6.11119,61.78686],[6.1165,61.78475],[6.11742,61.78215],[6.1238,61.7813],[6.12629,61.78051],[6.12666,61.78001]],[[6.16209,61.79409],[6.16562,61.79263],[6.16865,61.79059],[6.17171,61.78961],[6.17297,61.7878],[6.18198,61.78498],[6.18275,61.78351],[6.19005,61.78351]],[[6.3856,61.81649],[6.4001,61.81466],[6.4076,61.81317],[6.411,61.81326],[6.41434,61.81186],[6.42568,61.81097],[6.43267,61.80959],[6.44447,61.80809]],[[6.37376,61.82283],[6.37625,61.81962],[6.38278,61.8182],[6.3845,61.81674],[6.3856,61.81649]],[[6.13729,61.80964],[6.14314,61.8071],[6.14563,61.8051],[6.14872,61.80443],[6.15189,61.80316],[6.15393,61.80001],[6.1603,61.79492],[6.16209,61.79409]],[[6.08683,61.80783],[6.0983,61.80055],[6.10365,61.7986],[6.10604,61.79666],[6.10878,61.79313],[6.11099,61.79223],[6.11119,61.78686]],[[6.13291,61.81083],[6.13729,61.80964]],[[6.43459,61.83011],[6.43839,61.82978]],[[6.13291,61.81083],[6.13224,61.81129],[6.13247,61.81285],[6.13074,61.81365]],[[6.13074,61.81365],[6.12314,61.81518]],[[6.12314,61.81518],[6.11903,61.81595],[6.11764,61.81756],[6.11375,61.82014],[6.10867,61.82067],[6.10764,61.82197]],[[6.34057,61.83783],[6.34933,61.83404],[6.35092,61.8309],[6.35262,61.82944],[6.35771,61.82708],[6.36123,61.82594],[6.36362,61.82564]],[[6.05736,61.82571],[6.06611,61.82063],[6.07162,61.81956],[6.07293,61.81889],[6.08096,61.81352],[6.08475,61.80929],[6.08683,61.80783]],[[6.1731,61.83452],[6.17734,61.83469],[6.18216,61.83381]],[[6.10764,61.82197],[6.10688,61.82262],[6.10369,61.82308],[6.09976,61.82439],[6.10004,61.82733],[6.09488,61.83012]],[[6.15106,61.83215],[6.1566,61.83328],[6.16162,61.8336],[6.16529,61.83473],[6.1731,61.83452]],[[6.18216,61.83381],[6.18959,61.83363],[6.21009,61.83807],[6.22644,61.84037],[6.23319,61.84213],[6.23992,61.84467],[6.24283,61.84537]],[[6.24283,61.84537],[6.24803,61.84643],[6.25282,61.84675],[6.25525,61.84727],[6.26739,61.84586],[6.26949,61.84599],[6.27289,61.84697],[6.28053,61.8464],[6.28379,61.84656],[6.28682,61.84734],[6.29582,61.84758],[6.30419,61.84612],[6.31642,61.842],[6.33064,61.83929],[6.33382,61.83954],[6.33738,61.83919],[6.34057,61.83783]],[[6.33401,61.8609],[6.34288,61.85828],[6.35748,61.85283],[6.37125,61.84596],[6.37214,61.8441],[6.37579,61.84265],[6.38607,61.84074],[6.39057,61.83907],[6.39668,61.83763],[6.40209,61.83502],[6.40483,61.83432],[6.41527,61.83305],[6.42131,61.83144],[6.42628,61.83057],[6.43459,61.83011]],[[6.09488,61.83012],[6.09106,61.8308],[6.08752,61.83311],[6.0872,61.83403],[6.08012,61.83474],[6.07831,61.83551],[6.0791,61.83618],[6.08169,61.83674],[6.08288,61.83758],[6.08179,61.84005],[6.07973,61.84084],[6.07938,61.84342],[6.08074,61.84531],[6.07949,61.84584],[6.07977,61.84674],[6.08141,61.84671],[6.09257,61.84358],[6.09278,61.8427],[6.0916,61.84184],[6.09175,61.84092],[6.09651,61.83975],[6.10382,61.83722],[6.105,61.83594],[6.1089,61.83425],[6.11059,61.83302],[6.11999,61.83164],[6.12472,61.82985],[6.13571,61.82984],[6.14243,61.83112],[6.15106,61.83215]],[[6.33401,61.8609],[6.32516,61.86271]],[[6.14649,61.84786],[6.15191,61.84903],[6.17091,61.84994],[6.18095,61.85103],[6.19207,61.85327],[6.19888,61.85519],[6.20091,61.85548],[6.20265,61.85511]],[[5.9991,61.83849],[6.00278,61.83905],[6.00398,61.84058],[6.00862,61.84133],[6.01172,61.84279],[6.0178,61.84361],[6.02039,61.8444],[6.02312,61.84451]],[[6.02312,61.84451],[6.02781,61.84552],[6.03593,61.84587],[6.04099,61.84137],[6.04806,61.83746],[6.0504,61.83441],[6.05535,61.82979],[6.0563,61.8265],[6.05736,61.82571]],[[6.20265,61.85511],[6.20807,61.85519],[6.21385,61.85624],[6.22101,61.85948],[6.22239,61.85982],[6.22662,61.85965],[6.22858,61.86098],[6.23047,61.86088],[6.23224,61.86145]],[[6.23808,61.86187],[6.24238,61.86126],[6.24918,61.86118],[6.25324,61.86064],[6.26524,61.86086],[6.26879,61.85992],[6.27293,61.85982],[6.28092,61.8602],[6.30556,61.86333],[6.31471,61.86355]],[[6.23224,61.86145],[6.23808,61.86187]],[[6.11644,61.85495],[6.12445,61.85143],[6.12602,61.85006],[6.13408,61.84881],[6.1354,61.84664],[6.13995,61.84657],[6.14649,61.84786]],[[6.08171,61.8642],[6.08593,61.86243],[6.09066,61.86217],[6.09549,61.86085],[6.09764,61.86064],[6.09986,61.85968],[6.11096,61.85743],[6.11466,61.85618],[6.11644,61.85495]],[[6.08171,61.8642],[6.07857,61.86392],[6.07863,61.86567],[6.0777,61.86694],[6.07418,61.86696],[6.07263,61.86767]],[[6.04258,61.87602],[6.05089,61.87466],[6.05894,61.87415],[6.06127,61.87359],[6.06933,61.87279],[6.07108,61.87128],[6.07184,61.86929],[6.07142,61.8686],[6.07263,61.86767]],[[5.99886,61.87557],[6.00254,61.87635],[6.01506,61.87537],[6.01936,61.87597],[6.02641,61.87584],[6.0342,61.87636],[6.04258,61.87602]],[[6.19927,61.76995],[6.1994,61.76981]],[[6.1695,61.76846],[6.17087,61.76811]],[[6.36362,61.82564],[6.36978,61.82434],[6.37376,61.82283]],[[6.31471,61.86355],[6.32516,61.86271]]]}}]}