{"type":"FeatureCollection","features":[{"type":"Feature","properties":{},"geometry":{"type":"MultiLineString","coordinates":[[[7.48606,61.20451],[7.50202,61.20914],[7.5157,61.21029],[7.52129,61.21037],[7.52524,61.21002],[7.53703,61.20789],[7.54429,61.20805]],[[7.02094,61.18874],[7.01802,61.18234],[7.02007,61.1806],[7.01984,61.17978],[7.01767,61.17887],[7.01652,61.17929],[7.01577,61.18023],[7.01272,61.18081],[7.01189,61.18058],[7.01026,61.17852],[7.00736,61.17695]],[[7.04859,61.19037],[7.04205,61.18692],[7.03525,61.18209],[7.03485,61.17858]],[[7.06921,61.19159],[7.06366,61.19068],[7.05773,61.19091]],[[7.34905,61.20778],[7.3533,61.20107],[7.35347,61.19705]],[[7.39278,61.21026],[7.39337,61.20693],[7.39508,61.20588],[7.40058,61.20451],[7.40542,61.20411],[7.41252,61.20273],[7.42012,61.20082]],[[7.63076,61.22348],[7.62855,61.22034],[7.62782,61.21482],[7.62478,61.21392],[7.61726,61.21275],[7.60612,61.21269],[7.59835,61.21132],[7.58523,61.2123],[7.57229,61.21142]],[[7.71124,61.22785],[7.7074,61.2255],[7.70469,61.22472],[7.70425,61.22359],[7.70213,61.22276],[7.69151,61.22037],[7.68543,61.21962],[7.68096,61.21953],[7.67853,61.21985],[7.6762,61.2192],[7.67387,61.21922],[7.6712,61.21975],[7.66259,61.22265],[7.66034,61.22292],[7.65742,61.22218],[7.65361,61.21944],[7.65123,61.21611],[7.65061,61.21359]],[[7.04859,61.19037],[7.04971,61.19097],[7.05188,61.19126],[7.05773,61.19091]],[[7.63076,61.22348],[7.6324,61.22626],[7.63288,61.22889]],[[7.06921,61.19159],[7.07318,61.19273],[7.07555,61.19442],[7.07589,61.19794],[7.07643,61.19825],[7.0792,61.19835]],[[7.0792,61.19835],[7.08998,61.19863],[7.09792,61.19844],[7.10456,61.19924],[7.1088,61.20018],[7.11933,61.20066],[7.12565,61.19942],[7.12793,61.20028],[7.13156,61.20012],[7.13375,61.2008],[7.13686,61.20106],[7.14651,61.19963],[7.15463,61.1997],[7.16304,61.19907],[7.16933,61.19962]],[[7.71266,61.23191],[7.71248,61.23244],[7.70883,61.23429],[7.70517,61.2349],[7.7047,61.23528]],[[7.7047,61.23528],[7.70066,61.23472],[7.69894,61.235]],[[7.14063,61.21006],[7.14193,61.20943],[7.14206,61.20854],[7.14432,61.20852],[7.14747,61.20917],[7.15377,61.20766],[7.15963,61.20525],[7.16238,61.20358],[7.17153,61.20305]],[[7.02094,61.18874],[7.0218,61.19025],[7.02626,61.19339],[7.0369,61.19619],[7.04941,61.19788],[7.05443,61.19915],[7.05539,61.19997],[7.05647,61.20448],[7.05879,61.20691]],[[7.63288,61.22889],[7.63366,61.23019],[7.63856,61.2345],[7.64682,61.2397],[7.65,61.24095],[7.65413,61.2407],[7.65711,61.24009],[7.66051,61.24044],[7.67208,61.2347],[7.6784,61.23305],[7.68282,61.23241],[7.68902,61.23324],[7.69266,61.23532]],[[7.14063,61.21006],[7.13823,61.20988],[7.13651,61.2092],[7.13064,61.20893],[7.1291,61.20847],[7.11977,61.20967],[7.11909,61.21028],[7.11936,61.21112]],[[7.08027,61.20887],[7.07675,61.20805]],[[7.05879,61.20691],[7.06069,61.20758],[7.06647,61.20827],[7.07675,61.20805]],[[7.10176,61.2203],[7.10028,61.21924],[7.09814,61.21616],[7.09482,61.21357],[7.089,61.21097],[7.08027,61.20887]],[[7.12521,61.228],[7.12517,61.22581],[7.12619,61.22411],[7.12518,61.21807],[7.12382,61.21592],[7.12077,61.21407],[7.11936,61.21112]],[[7.10449,61.22741],[7.10562,61.22306],[7.10458,61.22192],[7.10176,61.2203]],[[7.12521,61.228],[7.12469,61.22896],[7.12235,61.23029],[7.12344,61.23262],[7.12574,61.23365],[7.12845,61.23324]],[[7.11729,61.23535],[7.11961,61.2337],[7.11894,61.23121],[7.11477,61.23201],[7.10877,61.23196],[7.10496,61.23014],[7.1043,61.22925],[7.10462,61.2284]],[[7.11386,61.23933],[7.11744,61.23697],[7.11708,61.23577]],[[7.13319,61.24046],[7.13416,61.23855],[7.13257,61.23756],[7.13059,61.23765],[7.13187,61.23552],[7.12845,61.23324]],[[7.3385,61.25229],[7.33959,61.25044],[7.33922,61.24663],[7.34078,61.23863],[7.34064,61.22905],[7.34443,61.22323],[7.34564,61.21948],[7.34426,61.21535],[7.34513,61.21246],[7.34623,61.21008],[7.34905,61.20778]],[[7.38117,61.2547],[7.38156,61.25129],[7.38334,61.24773],[7.38483,61.24144],[7.3845,61.2364],[7.38739,61.23188],[7.38958,61.22994],[7.39096,61.22683],[7.39174,61.22254],[7.39074,61.2194],[7.39091,61.21735],[7.39309,61.21385],[7.39278,61.21026]],[[7.14493,61.24853],[7.15988,61.24962]],[[7.13288,61.24072],[7.13218,61.24165],[7.13721,61.24351],[7.13677,61.24527],[7.1345,61.24723],[7.13445,61.2486],[7.13517,61.24921],[7.13886,61.2505],[7.14186,61.2492],[7.14493,61.24853]],[[7.12972,61.25225],[7.12887,61.25091],[7.12393,61.24916],[7.11764,61.24904],[7.11234,61.24668],[7.1116,61.24519],[7.11187,61.24274],[7.11386,61.23933]],[[7.13396,61.25233],[7.1315,61.25142],[7.13099,61.25209],[7.132,61.25308],[7.13406,61.25396],[7.13614,61.2539],[7.13601,61.25324],[7.13396,61.25233]],[[7.12972,61.25225],[7.12956,61.25289],[7.12817,61.25354],[7.12821,61.25455],[7.13316,61.2567],[7.13567,61.2573]],[[7.13567,61.2573],[7.14605,61.25995],[7.15249,61.25919],[7.15732,61.25985]],[[7.16194,61.26698],[7.16091,61.26609],[7.162,61.26444],[7.16119,61.26242],[7.16209,61.26089],[7.15935,61.26005],[7.15732,61.25985]],[[7.16825,61.26811],[7.16803,61.26703],[7.16545,61.266],[7.16534,61.26556],[7.1691,61.26522],[7.17016,61.26354],[7.1733,61.2613],[7.17424,61.25962],[7.17346,61.25794],[7.17367,61.25611],[7.17261,61.25454],[7.16616,61.25136],[7.15988,61.24962]],[[7.16194,61.26698],[7.16324,61.26748],[7.16478,61.26716],[7.1667,61.26833]],[[7.33823,61.28608],[7.34712,61.28443],[7.35371,61.28202],[7.35703,61.27961],[7.3587,61.276],[7.36144,61.27241],[7.36335,61.27172],[7.3663,61.27248],[7.3678,61.27226],[7.36931,61.27143],[7.3713,61.27138],[7.37432,61.27058],[7.37699,61.26909],[7.37982,61.26656],[7.38084,61.26327],[7.38117,61.2547]],[[7.32261,61.29181],[7.32425,61.29036],[7.32947,61.288],[7.33823,61.28608]],[[7.26465,61.29318],[7.26578,61.29081],[7.26607,61.28779],[7.27148,61.28531],[7.2793,61.27949],[7.28157,61.27843],[7.28897,61.27637],[7.29829,61.27217],[7.31234,61.2694],[7.32093,61.26832],[7.32382,61.26836],[7.32719,61.26754],[7.33066,61.26516],[7.33142,61.26084],[7.33279,61.259],[7.3363,61.25615],[7.3385,61.25229]],[[7.3146,61.29603],[7.31264,61.29702],[7.31268,61.29953]],[[7.25081,61.2972],[7.25374,61.29746],[7.25474,61.29639],[7.2588,61.2944],[7.26166,61.29454],[7.26369,61.29401],[7.26465,61.29318]],[[7.24767,61.29991],[7.25011,61.29851],[7.25081,61.2972]],[[7.31268,61.29953],[7.31278,61.30066],[7.31471,61.3015],[7.32265,61.30326],[7.32824,61.30496],[7.33342,61.30571]],[[7.24668,61.30163],[7.24771,61.30105],[7.24767,61.29991]],[[7.24668,61.30163],[7.24905,61.30283],[7.25123,61.30334],[7.25375,61.30357],[7.25612,61.30276],[7.25752,61.30282],[7.26011,61.30366],[7.26472,61.30434],[7.26977,61.30777],[7.28166,61.31177],[7.28619,61.31428],[7.28791,61.31657],[7.29164,61.31793],[7.29528,61.31989],[7.30112,61.32172],[7.30864,61.32539],[7.31381,61.3268],[7.32111,61.32696],[7.32743,61.33008]],[[7.39602,61.33808],[7.39615,61.3361],[7.39325,61.33449],[7.3929,61.33248],[7.38931,61.32968],[7.3868,61.32864],[7.38616,61.32729],[7.38191,61.32471],[7.37312,61.32114],[7.36578,61.31591],[7.35856,61.31257],[7.34299,61.30767],[7.33342,61.30571]],[[7.34525,61.34288],[7.34401,61.34122],[7.33653,61.33725],[7.33236,61.33309],[7.32968,61.33231],[7.32743,61.33008]],[[7.39405,61.34564],[7.39431,61.33928],[7.39602,61.33808]],[[7.39405,61.34564],[7.39329,61.35011],[7.39444,61.35105]],[[7.39444,61.35105],[7.39436,61.35189],[7.39207,61.35441],[7.39227,61.35635],[7.39585,61.35795],[7.39945,61.36042],[7.40205,61.3652],[7.40521,61.3686],[7.40829,61.37013],[7.41102,61.37229]],[[7.31537,61.379],[7.32403,61.37459],[7.33051,61.37294],[7.33376,61.37105],[7.34097,61.36925],[7.34287,61.36789],[7.3433,61.36201],[7.34452,61.35968],[7.34398,61.35704],[7.34744,61.35288],[7.34838,61.34866],[7.34651,61.34538],[7.34756,61.34397],[7.34525,61.34288]],[[7.29735,61.38527],[7.3031,61.3821],[7.30865,61.38138],[7.31537,61.379]],[[7.35903,61.38082],[7.35736,61.38017],[7.3561,61.38021],[7.35228,61.38366],[7.34642,61.38482],[7.34574,61.38618],[7.34332,61.38788]],[[7.35903,61.38082],[7.36018,61.38083],[7.3631,61.37891],[7.36421,61.37891],[7.36844,61.3835],[7.36909,61.38664],[7.3708,61.38838],[7.37065,61.38942]],[[7.43556,61.39307],[7.43461,61.39091],[7.43148,61.38756],[7.42647,61.38639],[7.42541,61.38499],[7.42033,61.38298],[7.41561,61.38022],[7.41382,61.37776],[7.41264,61.37399],[7.41102,61.37229]],[[7.37245,61.39122],[7.37065,61.38942]],[[7.31231,61.39137],[7.31835,61.39045],[7.33404,61.39082],[7.34332,61.38788]],[[7.37245,61.39122],[7.37745,61.39421],[7.38176,61.39591]],[[7.30757,61.39379],[7.30953,61.39232],[7.31231,61.39137]],[[7.29936,61.39685],[7.30419,61.39435],[7.30757,61.39379]],[[7.29735,61.38527],[7.29339,61.38685],[7.28596,61.39163],[7.28438,61.39594],[7.28552,61.39601],[7.2868,61.39539],[7.28948,61.3957]],[[7.38176,61.39591],[7.38601,61.39715],[7.39041,61.39757],[7.39766,61.39986],[7.3968,61.4006],[7.39939,61.4024],[7.40342,61.40343]],[[7.29201,61.39587],[7.2923,61.39536],[7.2938,61.39524],[7.29471,61.39728],[7.2981,61.39733]],[[7.43556,61.39307],[7.43652,61.39414],[7.43884,61.39537],[7.44743,61.39672],[7.45456,61.39902],[7.45738,61.39863],[7.46739,61.40005],[7.47489,61.40334],[7.48576,61.40911],[7.4875,61.41118],[7.48812,61.41472]],[[7.43883,61.4125],[7.43964,61.41171],[7.43931,61.41129],[7.4366,61.4093],[7.43203,61.40748],[7.41746,61.40581],[7.411,61.40405],[7.40604,61.40391],[7.40378,61.40351]],[[7.48812,61.41472],[7.48743,61.41848],[7.48821,61.42126],[7.49093,61.42528],[7.49207,61.42594]],[[7.44687,61.42757],[7.44453,61.42562],[7.44142,61.42084],[7.44089,61.41624],[7.43883,61.4125]],[[7.44998,61.43784],[7.44919,61.43698],[7.44951,61.43063],[7.44883,61.42893],[7.44687,61.42757]],[[7.50994,61.4423],[7.49895,61.43785],[7.49733,61.43653],[7.49291,61.43066],[7.49258,61.42966],[7.49347,61.42702],[7.49264,61.42633]],[[7.45125,61.43904],[7.45264,61.44008],[7.45658,61.44105],[7.45914,61.44246],[7.46914,61.44414]],[[7.46914,61.44414],[7.47376,61.44414],[7.48031,61.44712],[7.48349,61.44686],[7.48685,61.44753]],[[7.50994,61.4423],[7.51335,61.44416],[7.51576,61.44707],[7.51857,61.44916],[7.52436,61.44907],[7.5265,61.44973],[7.53054,61.44964],[7.53314,61.45068],[7.54195,61.45168],[7.54363,61.45255],[7.547,61.45223],[7.54857,61.4526],[7.55488,61.45611],[7.55769,61.4593],[7.56082,61.46031],[7.5625,61.46217],[7.56275,61.46335],[7.56732,61.46522],[7.57148,61.46794],[7.5758,61.4695]],[[7.48685,61.44753],[7.48943,61.44833],[7.49077,61.44785],[7.49206,61.44804],[7.49587,61.4494],[7.50353,61.45234],[7.50655,61.45463],[7.50965,61.45572],[7.52087,61.45707],[7.52337,61.4577],[7.52513,61.45892],[7.5258,61.46036],[7.53026,61.46194],[7.53137,61.46342],[7.53115,61.46463],[7.53385,61.46625],[7.53769,61.4675],[7.54021,61.46926],[7.54807,61.4722],[7.55025,61.47383],[7.55519,61.47532],[7.55613,61.47665],[7.55791,61.47736],[7.56139,61.47788],[7.56811,61.48061]],[[7.5758,61.4695],[7.58023,61.47076],[7.58303,61.47258],[7.58555,61.47284],[7.58878,61.47421],[7.59377,61.47834],[7.59247,61.48075],[7.59304,61.48293],[7.59863,61.48434]],[[7.56811,61.48061],[7.56998,61.48199],[7.57013,61.48387]],[[7.59863,61.48434],[7.59945,61.48496],[7.59948,61.48887]],[[7.59872,61.49136],[7.59803,61.49068],[7.59908,61.4898]],[[7.58033,61.49127],[7.57656,61.49049],[7.57464,61.48965],[7.57198,61.48546]],[[7.58939,61.49466],[7.59457,61.49403],[7.59689,61.49292],[7.59728,61.49219]],[[7.58033,61.49127],[7.58479,61.49408],[7.58699,61.49467],[7.58939,61.49466]],[[7.56073,61.21039],[7.54429,61.20805]],[[7.57229,61.21142],[7.56073,61.21039]],[[7.16933,61.19962],[7.17204,61.20102]],[[7.71124,61.22785],[7.71261,61.22953],[7.71266,61.23191]],[[7.17226,61.20167],[7.17204,61.20102]],[[7.17153,61.20305],[7.17226,61.20167]],[[7.11708,61.23577],[7.11729,61.23535]],[[7.13319,61.24046],[7.13288,61.24072]],[[7.3146,61.29603],[7.32004,61.29366],[7.32261,61.29181]],[[7.40378,61.40351],[7.40342,61.40343]],[[7.49207,61.42594],[7.49264,61.42633]],[[7.44998,61.43784],[7.45125,61.43904]],[[7.57013,61.48387],[7.57198,61.48546]],[[7.59728,61.49219],[7.59776,61.49193]],[[7.41681,61.10391],[7.42057,61.10346]],[[7.02849,61.00869],[7.0301,61.00467],[7.03365,61.00122],[7.03612,60.99967]],[[7.06134,61.01064],[7.06482,61.00887],[7.07114,61.00359],[7.07259,61.00115],[7.07159,60.99966]],[[7.01032,61.05274],[7.01017,61.04993],[7.00761,61.04688],[7.00769,61.04597],[7.01375,61.03874],[7.01681,61.03806],[7.01825,61.03717],[7.01791,61.03586],[7.01545,61.03388],[7.01491,61.03254],[7.01827,61.02725],[7.02217,61.0251],[7.02396,61.02319],[7.02602,61.0224],[7.02939,61.0189],[7.02878,61.01679],[7.02938,61.01484],[7.02743,61.0114],[7.02849,61.00869]],[[7.04515,61.0548],[7.04278,61.05269],[7.03674,61.04981],[7.03537,61.04847],[7.03594,61.04621],[7.03995,61.04364],[7.04313,61.03629],[7.04207,61.03488],[7.03973,61.0339],[7.04336,61.03226],[7.04503,61.03067],[7.04678,61.03001],[7.04984,61.02716],[7.05314,61.02578],[7.05618,61.02373],[7.05885,61.02023],[7.05774,61.01713],[7.05571,61.01525],[7.06134,61.01064]],[[7.46614,61.10115],[7.4677,61.09973],[7.46825,61.09993],[7.46807,61.10084],[7.47047,61.10205],[7.47048,61.10255],[7.47165,61.10267],[7.47395,61.10204]],[[7.42057,61.10346],[7.42227,61.10327],[7.42776,61.10136],[7.42903,61.10178],[7.4311,61.10356],[7.43736,61.10395],[7.44135,61.10515],[7.44512,61.10525],[7.44846,61.10623],[7.44986,61.10627],[7.45314,61.10569],[7.4563,61.10459],[7.45627,61.10364],[7.45892,61.10178],[7.46358,61.10074],[7.46522,61.10134],[7.46614,61.10115]],[[6.99962,61.06966],[7.00477,61.06826],[7.00708,61.06704],[7.00988,61.06011],[7.01099,61.05892],[7.01285,61.0583],[7.01429,61.05723],[7.01162,61.05617],[7.01032,61.05274]],[[7.03796,61.0995],[7.0372,61.09491],[7.03444,61.09249],[7.02667,61.08831],[7.02647,61.08682],[7.02767,61.08594],[7.03271,61.08455],[7.03625,61.083],[7.04059,61.08003],[7.04135,61.07678],[7.03814,61.07044],[7.03965,61.06858],[7.04408,61.06611],[7.0473,61.06222],[7.04802,61.0587],[7.04515,61.0548]],[[7.3869,61.11972],[7.38993,61.11497],[7.39429,61.11163],[7.39779,61.10998],[7.40262,61.1088],[7.41681,61.10391]],[[7.42251,61.12173],[7.42212,61.11818],[7.42275,61.11548],[7.42468,61.11324],[7.42667,61.11226],[7.42842,61.11178],[7.43111,61.11173],[7.4332,61.11232],[7.44053,61.1126],[7.44831,61.11345],[7.45609,61.11248],[7.46277,61.11074],[7.46673,61.10828],[7.47307,61.10561],[7.47467,61.10398],[7.47301,61.10378],[7.47247,61.10327],[7.47495,61.10281]],[[7.37807,61.12261],[7.3843,61.12216],[7.38584,61.12133],[7.3869,61.11972]],[[7.03796,61.0995],[7.04127,61.10315],[7.04354,61.10444],[7.04895,61.1067],[7.05226,61.10738],[7.05737,61.10984],[7.0657,61.11196],[7.06862,61.11179],[7.07319,61.1092],[7.07638,61.10828],[7.08826,61.10653],[7.09841,61.10672],[7.10211,61.10739]],[[7.10211,61.10739],[7.10675,61.10866],[7.11066,61.10911],[7.12588,61.10942],[7.1363,61.11053],[7.14157,61.11188],[7.15588,61.11714],[7.16061,61.11812],[7.16439,61.11822],[7.17045,61.11749],[7.17682,61.11751],[7.18974,61.11572],[7.19324,61.11584]],[[7.28087,61.13872],[7.28817,61.13554],[7.29729,61.13051],[7.30745,61.12641],[7.31808,61.12363],[7.33142,61.12104],[7.33325,61.12079],[7.33569,61.12111],[7.34432,61.12405],[7.35455,61.12578],[7.36101,61.12573],[7.36752,61.12386],[7.37807,61.12261]],[[7.19324,61.11584],[7.20183,61.11617],[7.21514,61.1182],[7.2197,61.11971],[7.22528,61.12298],[7.23106,61.12724],[7.23455,61.13112],[7.23799,61.13585],[7.24002,61.14491],[7.24359,61.14699],[7.2469,61.14699],[7.25041,61.14649],[7.27125,61.14228],[7.27447,61.14138],[7.28087,61.13872]],[[7.005,61.12262],[7.00662,61.1233],[7.0072,61.12479],[7.00954,61.12591],[7.01665,61.12785],[7.02469,61.1293],[7.02879,61.13048],[7.03263,61.13087],[7.03765,61.13368],[7.04022,61.13439],[7.06461,61.13787],[7.06815,61.1361],[7.0826,61.1344],[7.08975,61.13523],[7.09049,61.13576],[7.09477,61.13659]],[[7.33873,61.16209],[7.33665,61.1601],[7.33114,61.15728],[7.32666,61.15659],[7.32141,61.15722],[7.30567,61.1602]],[[6.99895,61.11944],[7.00039,61.12097],[7.005,61.12262]],[[7.17325,61.15256],[7.17389,61.14994],[7.17613,61.1459],[7.17587,61.1435],[7.1747,61.14308],[7.17251,61.14304],[7.16808,61.14136],[7.1608,61.14143],[7.15416,61.14358],[7.14888,61.14398],[7.14038,61.14296],[7.13079,61.14082],[7.11988,61.13994],[7.11351,61.13902],[7.10869,61.13733],[7.10345,61.13619],[7.10207,61.13606],[7.09706,61.13674],[7.09477,61.13659]],[[7.44465,61.16808],[7.43759,61.16208],[7.43233,61.15928],[7.42873,61.15816],[7.41976,61.15387],[7.40266,61.15089],[7.38487,61.14906],[7.37387,61.14681],[7.37754,61.14468],[7.38891,61.14236],[7.39376,61.14203],[7.40499,61.13899],[7.41219,61.13604],[7.41547,61.13378],[7.4179,61.12967],[7.42057,61.12742],[7.4211,61.12492],[7.42236,61.12356],[7.42251,61.12173]],[[7.33873,61.16209],[7.34078,61.16303],[7.35011,61.1653],[7.36047,61.1666],[7.3644,61.16739],[7.36694,61.16848]],[[7.27448,61.16471],[7.28224,61.16277],[7.29593,61.16158],[7.30567,61.1602]],[[7.44465,61.16808],[7.44761,61.1715],[7.4493,61.17242],[7.45333,61.17365],[7.45533,61.17486],[7.45662,61.17679],[7.45823,61.1772]],[[7.17325,61.15256],[7.17302,61.15572],[7.1737,61.15837],[7.1789,61.16222],[7.18147,61.16318]],[[7.61006,61.19225],[7.61345,61.19458],[7.61623,61.19504],[7.62278,61.19499],[7.62445,61.19532]],[[7.27448,61.16471],[7.26028,61.16828],[7.25751,61.16972],[7.25614,61.1724],[7.25817,61.17409],[7.26297,61.17614]],[[7.54788,61.19296],[7.56156,61.19463],[7.5676,61.19483],[7.57252,61.1955],[7.59301,61.19495],[7.60519,61.19343],[7.60873,61.19202],[7.61006,61.19225]],[[7.45823,61.1772],[7.45985,61.17725],[7.4619,61.17638],[7.46464,61.17725],[7.46716,61.17702],[7.47034,61.17769],[7.47433,61.1794],[7.48461,61.18134],[7.49239,61.18502],[7.49979,61.18686],[7.50779,61.18804],[7.51621,61.19181],[7.51957,61.1926],[7.52393,61.19299],[7.54078,61.19251],[7.54788,61.19296]],[[7.62445,61.19532],[7.62681,61.19613],[7.6304,61.19879],[7.63899,61.20285]],[[7.26297,61.17614],[7.26511,61.17711],[7.26442,61.17804],[7.26221,61.17927],[7.25498,61.18189]],[[7.18147,61.16318],[7.18801,61.16638],[7.19588,61.16862],[7.21301,61.16772],[7.21527,61.16791],[7.21688,61.16858],[7.21947,61.16852],[7.22302,61.16915],[7.22711,61.16868],[7.24275,61.17038],[7.24627,61.17158],[7.24725,61.1732],[7.24711,61.17498],[7.24544,61.17657],[7.24142,61.17821],[7.23763,61.18263],[7.23976,61.18376],[7.24355,61.18376],[7.24696,61.18356],[7.25498,61.18189]],[[7.361,61.19291],[7.37396,61.18663],[7.377,61.18631],[7.38476,61.18445],[7.39429,61.18299],[7.3957,61.18201],[7.3934,61.17988],[7.38417,61.17681],[7.37621,61.1734],[7.36694,61.16848]],[[7.00049,61.173],[6.99566,61.16939]],[[7.45272,61.2001],[7.45508,61.20026],[7.45794,61.20101],[7.46412,61.20128],[7.46778,61.20196],[7.47787,61.20213],[7.48083,61.20251],[7.48606,61.20451]],[[7.00736,61.17695],[7.0053,61.17491],[7.00049,61.173]],[[7.03485,61.17858],[7.03065,61.17293],[7.02565,61.17115],[7.02321,61.16925],[7.01935,61.16783],[7.01121,61.16361],[7.0076,61.16016],[7.00658,61.15783],[7.00488,61.15629],[6.99957,61.15313]],[[7.35347,61.19705],[7.35539,61.19531],[7.361,61.19291]],[[7.42012,61.20082],[7.43207,61.1993],[7.43557,61.1997],[7.45272,61.2001]],[[7.65061,61.21359],[7.64897,61.20765],[7.6466,61.20584],[7.63899,61.20285]]]}}]}