{"type":"FeatureCollection","features":[{"type":"Feature","properties":{},"geometry":{"type":"MultiLineString","coordinates":[[[4.98803,62.00301],[4.98756,62.00353],[4.99036,62.00583],[4.98814,62.0079],[4.98497,62.00841],[4.98408,62.00898],[4.98473,62.00984],[4.98449,62.01155],[4.98522,62.01192],[4.98384,62.01264],[4.98367,62.01558],[4.98456,62.01821],[4.98655,62.02023],[4.98932,62.02177],[4.98801,62.02377],[4.99445,62.02754],[4.99233,62.03058],[4.98944,62.03179],[4.98581,62.03194],[4.98404,62.03337],[4.98478,62.03371],[4.98463,62.03488],[4.98793,62.03545],[4.99121,62.03473],[4.99278,62.03519],[4.99329,62.03618],[4.9946,62.03606],[4.99517,62.03377],[4.9988,62.0327],[5.00339,62.0331]],[[4.98803,62.00301],[4.99393,62.0011],[4.99478,62.00035],[4.99488,61.99857]]]}}]}