{"type":"FeatureCollection","features":[{"type":"Feature","properties":{},"geometry":{"type":"MultiLineString","coordinates":[[[5.60795,62.05056],[5.61389,62.04932],[5.61737,62.04983]],[[5.60416,62.05502],[5.60492,62.0547],[5.60592,62.05219],[5.60795,62.05056]],[[5.61737,62.04983],[5.61816,62.05021],[5.61866,62.0516],[5.62088,62.05294],[5.62004,62.05389],[5.62039,62.055],[5.61573,62.0581],[5.61379,62.06147],[5.61971,62.06349],[5.62249,62.06385],[5.62383,62.06676]],[[5.59419,62.06924],[5.59966,62.06751],[5.59866,62.06578],[5.59982,62.06258]],[[5.62346,62.06768],[5.6199,62.07095],[5.62068,62.07355],[5.61902,62.07496]],[[5.56502,62.06813],[5.57377,62.06742],[5.57876,62.06816],[5.58104,62.06981],[5.58298,62.07041],[5.58262,62.07206],[5.58432,62.07442],[5.5892,62.07542],[5.59045,62.075],[5.58715,62.07428],[5.58756,62.07119],[5.58877,62.07059],[5.58988,62.07091],[5.59219,62.07256],[5.59232,62.07378],[5.59304,62.07397],[5.59453,62.07147],[5.59376,62.06936]],[[5.61304,62.07836],[5.61902,62.07496]],[[5.59547,62.0829],[5.59808,62.08268]],[[5.5578,62.07545],[5.55399,62.07431],[5.55405,62.07293],[5.56229,62.06873],[5.56502,62.06813]],[[5.59808,62.08268],[5.60692,62.08078],[5.61304,62.07836]],[[5.7286,62.088],[5.73014,62.08732],[5.7367,62.08785],[5.73677,62.08856],[5.73793,62.08933],[5.73943,62.08997],[5.74136,62.09003],[5.74211,62.09048],[5.74166,62.091],[5.7436,62.09127],[5.74496,62.09208],[5.74588,62.09349],[5.74568,62.09442]],[[5.56974,62.08959],[5.56902,62.08843],[5.57033,62.0866],[5.57462,62.08493],[5.58253,62.08368],[5.59547,62.0829]],[[5.70799,62.09903],[5.71211,62.09636],[5.72042,62.08851],[5.72451,62.0872],[5.72709,62.08773]],[[5.73974,62.10118],[5.74714,62.09783],[5.74635,62.09697],[5.74671,62.09608],[5.74556,62.09544],[5.74568,62.09442]],[[5.72788,62.10553],[5.73126,62.10402],[5.73439,62.10358],[5.7371,62.10267]],[[5.56076,62.09778],[5.56383,62.09792],[5.56621,62.09742],[5.56599,62.09622],[5.56972,62.09337],[5.57106,62.09134],[5.57106,62.09022],[5.56974,62.08959]],[[5.56076,62.09778],[5.55776,62.0972],[5.55623,62.09778],[5.55428,62.09761],[5.54852,62.09494],[5.54605,62.09498],[5.54595,62.09549],[5.54833,62.09641],[5.54922,62.09768],[5.55324,62.0991],[5.55329,62.09991]],[[5.72788,62.10553],[5.72451,62.10854],[5.71693,62.11134]],[[5.52588,62.10066],[5.53316,62.10119],[5.5397,62.10093],[5.54367,62.10127],[5.54858,62.10063],[5.55016,62.09929],[5.55098,62.09977],[5.55329,62.09991]],[[5.68431,62.11243],[5.68993,62.11002],[5.69436,62.10718],[5.69814,62.10541],[5.70799,62.09903]],[[5.693,62.12212],[5.69702,62.1193],[5.70963,62.1146],[5.71693,62.11134]],[[5.67305,62.12651],[5.67354,62.11866],[5.67926,62.11409],[5.68264,62.11291]],[[5.693,62.12212],[5.69261,62.12444],[5.69488,62.12801],[5.69466,62.12999],[5.69585,62.13049],[5.69751,62.13263]],[[5.67639,62.13568],[5.67732,62.13613],[5.67729,62.13707],[5.67463,62.13877]],[[5.67463,62.13877],[5.67179,62.14179]],[[5.69146,62.14313],[5.69103,62.14235],[5.69328,62.13939],[5.69503,62.13854],[5.69688,62.13618],[5.69797,62.13398],[5.69751,62.13263]],[[5.66434,62.14841],[5.66561,62.14736],[5.66929,62.14712],[5.67124,62.14595],[5.67096,62.14369],[5.67179,62.14179]],[[5.69146,62.14313],[5.68825,62.14707],[5.68782,62.14904],[5.68625,62.15054]],[[5.68625,62.15054],[5.68408,62.15214],[5.68322,62.15488]],[[5.69531,62.17097],[5.71069,62.16975],[5.7163,62.17034],[5.71828,62.17021],[5.72141,62.17085],[5.72588,62.17065]],[[5.72588,62.17065],[5.73099,62.17155],[5.73415,62.17362],[5.73536,62.17387]],[[5.58086,62.16463],[5.58433,62.16457],[5.5901,62.1637],[5.59562,62.16338],[5.61066,62.16437],[5.61435,62.16543]],[[5.61435,62.16543],[5.61973,62.16709],[5.62457,62.16791],[5.62768,62.16989],[5.63355,62.17031]],[[5.56936,62.1663],[5.58086,62.16463]],[[5.68322,62.15488],[5.67981,62.15867],[5.68026,62.1623],[5.67417,62.17031],[5.67199,62.17419],[5.67706,62.17425],[5.68288,62.1729],[5.69531,62.17097]],[[5.75866,62.1797],[5.76705,62.18146],[5.77175,62.18057]],[[5.63518,62.17146],[5.63484,62.17202],[5.63576,62.17288],[5.64403,62.17184],[5.64314,62.16888],[5.64615,62.16519],[5.65187,62.16098],[5.66434,62.14841]],[[5.73536,62.17387],[5.73804,62.17792],[5.74014,62.17949],[5.75003,62.18078],[5.75866,62.1797]],[[5.55859,62.16865],[5.56448,62.16661],[5.56788,62.16632]],[[5.53619,62.17774],[5.54449,62.17478],[5.5459,62.1734],[5.54785,62.17314],[5.54885,62.17341],[5.55235,62.1725],[5.55524,62.16949],[5.55676,62.16881],[5.55859,62.16865]],[[5.64076,62.19235],[5.63856,62.19176],[5.63652,62.19203],[5.63461,62.1917],[5.63514,62.19107],[5.63462,62.19057],[5.62673,62.19144],[5.62529,62.19087],[5.62152,62.1903]],[[5.64076,62.19235],[5.64524,62.19342],[5.64711,62.19342],[5.64869,62.19297],[5.64943,62.19367],[5.65203,62.1944],[5.65718,62.19489]],[[5.58457,62.1909],[5.58261,62.19032],[5.58097,62.19087],[5.57996,62.19186],[5.58207,62.192],[5.58442,62.19139],[5.58457,62.1909]],[[5.73787,62.20393],[5.7442,62.20367],[5.7511,62.20423]],[[5.76966,62.20608],[5.764,62.2036],[5.75959,62.20422],[5.75501,62.20358],[5.75381,62.20415],[5.7511,62.20423]],[[5.65718,62.19489],[5.66141,62.19461],[5.66681,62.19572],[5.67112,62.19616],[5.67493,62.19563],[5.679,62.19568],[5.68217,62.19632],[5.68388,62.19765],[5.68969,62.19906],[5.70265,62.19917],[5.70666,62.20008],[5.70919,62.19997],[5.71412,62.20073],[5.71991,62.2027],[5.72499,62.20309],[5.72706,62.20283],[5.73787,62.20393]],[[5.5122,62.19131],[5.51446,62.19117],[5.51507,62.18999],[5.51707,62.18958],[5.51738,62.18841],[5.52006,62.18537],[5.53062,62.18116],[5.53619,62.17774]],[[5.50095,62.19299],[5.5122,62.19131]],[[5.57582,62.20312],[5.57146,62.20392],[5.56918,62.20365],[5.57089,62.20253],[5.57378,62.20194],[5.57496,62.20063],[5.57491,62.19896],[5.57558,62.19828],[5.57837,62.19727],[5.57866,62.19629],[5.58196,62.19585],[5.5828,62.19457],[5.58178,62.19372],[5.5833,62.19289],[5.5847,62.19241],[5.59036,62.19292],[5.59079,62.19259],[5.5889,62.19091],[5.59817,62.18991],[5.59809,62.18963],[5.59426,62.18921],[5.59463,62.18864],[5.59682,62.18815],[5.59927,62.18889],[5.60137,62.18898],[5.60108,62.18769],[5.60346,62.18765],[5.60605,62.18681],[5.60807,62.18672],[5.60902,62.18747],[5.60642,62.18862],[5.61276,62.18905],[5.61075,62.19034],[5.61105,62.19065],[5.61949,62.18974],[5.62084,62.18975],[5.62152,62.1903]],[[5.57582,62.20312],[5.57523,62.20407],[5.57023,62.20619],[5.57062,62.20713]],[[5.57035,62.21202],[5.56953,62.21157],[5.56594,62.21133],[5.56607,62.20879],[5.56667,62.20838],[5.56478,62.20828],[5.5646,62.20687],[5.56584,62.20626],[5.56778,62.206],[5.56852,62.20612],[5.56931,62.20736],[5.57062,62.20713]],[[5.65003,62.21781],[5.65043,62.21654]],[[5.56841,62.21276],[5.57035,62.21202]],[[5.65003,62.21781],[5.64985,62.21841]],[[5.5549,62.21226],[5.55655,62.21159],[5.56105,62.2113],[5.56517,62.21159],[5.56693,62.21264],[5.56841,62.21276]],[[5.63039,62.22059],[5.64123,62.21845],[5.64802,62.21631],[5.65043,62.21654]],[[5.64711,62.21919],[5.64393,62.22081],[5.64591,62.22091],[5.64516,62.22164],[5.64885,62.2216]],[[5.5549,62.21226],[5.55346,62.21311],[5.55386,62.21554]],[[5.64864,62.22227],[5.6493,62.22179],[5.64885,62.2216]],[[5.55333,62.21723],[5.55109,62.21788]],[[5.64864,62.22227],[5.6406,62.22451]],[[5.5359,62.22295],[5.53913,62.22139],[5.54873,62.21889],[5.55109,62.21788]],[[5.57275,62.22549],[5.58682,62.22366]],[[5.60216,62.2275],[5.61407,62.22498]],[[5.61908,62.22865],[5.62111,62.22717],[5.62616,62.22708],[5.6289,62.22606],[5.63721,62.22541],[5.6406,62.22451]],[[5.5359,62.22295],[5.53394,62.22397]],[[5.59022,62.22668],[5.5901,62.22764],[5.5923,62.22757],[5.5967,62.22835],[5.60216,62.2275]],[[5.61908,62.22865],[5.61911,62.22948],[5.61599,62.23177],[5.60412,62.23311]],[[5.54849,62.23256],[5.55891,62.22878],[5.56623,62.22677],[5.57275,62.22549]],[[5.53394,62.22397],[5.52962,62.22539],[5.52967,62.22593],[5.53063,62.22613],[5.53129,62.22812],[5.52894,62.22949],[5.53279,62.22949],[5.53218,62.23039],[5.53306,62.23112],[5.53847,62.23362],[5.53963,62.23343],[5.54378,62.23441],[5.54586,62.23391],[5.54849,62.23256]],[[5.60412,62.23311],[5.5877,62.2337],[5.58114,62.23449],[5.58024,62.23415],[5.57538,62.23501],[5.57327,62.23502],[5.57225,62.23574],[5.56193,62.23925]],[[5.49062,62.2356],[5.49184,62.23548],[5.49339,62.23608],[5.49437,62.23563],[5.49268,62.23443],[5.49062,62.23427],[5.48893,62.23489],[5.48868,62.23556],[5.49032,62.23615],[5.49062,62.2356]],[[5.47142,62.24041],[5.47127,62.24102],[5.47042,62.24127]],[[5.47042,62.24127],[5.46698,62.24167],[5.46541,62.24118],[5.46514,62.24047],[5.4616,62.2404],[5.4581,62.23903],[5.45797,62.23808],[5.4597,62.23745],[5.45961,62.2368],[5.46126,62.23586],[5.46092,62.23558],[5.45977,62.23583],[5.45758,62.23786],[5.45341,62.23846],[5.45453,62.24046],[5.44933,62.23948]],[[5.44933,62.23948],[5.44731,62.23952],[5.44582,62.24015],[5.4434,62.23981]],[[5.4434,62.23981],[5.44283,62.23901],[5.44065,62.23885],[5.43982,62.23824],[5.43892,62.23823],[5.43669,62.24033],[5.43757,62.24124],[5.43677,62.24187]],[[5.48058,62.25266],[5.48,62.25245]],[[5.46691,62.25334],[5.46666,62.25315]],[[5.48,62.25245],[5.48125,62.24976],[5.47983,62.24978],[5.47909,62.24918],[5.47801,62.24913],[5.47291,62.25129],[5.47448,62.2523],[5.47399,62.25318],[5.47282,62.25333],[5.47102,62.2528],[5.46825,62.25365],[5.46691,62.25334]],[[5.58106,62.25747],[5.58005,62.25567],[5.57772,62.25446],[5.5745,62.2535],[5.57184,62.25385],[5.5701,62.25496],[5.56711,62.25567],[5.56194,62.25782],[5.54963,62.25969],[5.54441,62.25917],[5.54054,62.25771]],[[5.545,62.2436],[5.53484,62.24556],[5.53076,62.24922],[5.53004,62.25068],[5.52999,62.25222],[5.53129,62.25376],[5.53047,62.25471],[5.53038,62.25668],[5.5288,62.2586],[5.53149,62.25879],[5.53819,62.25759],[5.54054,62.25771]],[[5.45016,62.25667],[5.45006,62.25595],[5.45258,62.25467],[5.4528,62.25358],[5.46003,62.25161],[5.46107,62.25048],[5.46257,62.25054],[5.46343,62.25119],[5.4655,62.25102],[5.46741,62.24967],[5.46657,62.2489],[5.46831,62.24731],[5.4717,62.24773],[5.47199,62.2463],[5.47348,62.24683],[5.47391,62.2481],[5.47507,62.24859],[5.47637,62.24813],[5.47714,62.24719],[5.47647,62.24543],[5.4804,62.24472],[5.48178,62.24588],[5.47986,62.24678],[5.48094,62.24699],[5.48771,62.24659],[5.48843,62.24767],[5.49054,62.24707],[5.48939,62.24648],[5.49126,62.24331],[5.49131,62.24161],[5.49353,62.24166],[5.49395,62.24119],[5.49276,62.23996],[5.49302,62.23882],[5.49116,62.23671],[5.48712,62.23642],[5.48645,62.23574],[5.48434,62.23719],[5.48245,62.23773],[5.48017,62.23705],[5.47862,62.23719],[5.47849,62.23646],[5.47656,62.23641],[5.4723,62.23759],[5.4727,62.23823],[5.4746,62.23726],[5.47546,62.23746],[5.47133,62.23947],[5.47142,62.24041]],[[5.45016,62.25667],[5.45032,62.25726],[5.45125,62.2575]],[[5.46666,62.25315],[5.4658,62.25251],[5.46332,62.25305],[5.45646,62.2554],[5.4556,62.25607],[5.45663,62.25654],[5.45608,62.25697],[5.45332,62.25752],[5.45125,62.2575]],[[5.58106,62.25747],[5.57949,62.25811],[5.57793,62.2599],[5.57214,62.2603],[5.57093,62.25999],[5.56984,62.26084],[5.57106,62.26104],[5.57099,62.26133],[5.56945,62.26163],[5.56832,62.26102],[5.5657,62.26158],[5.56357,62.2632],[5.55862,62.26457],[5.555,62.26673]],[[5.48114,62.26441],[5.48093,62.26361],[5.47938,62.26328],[5.47819,62.26345],[5.47718,62.26414]],[[5.48211,62.26448],[5.48441,62.26002],[5.48323,62.25446],[5.48402,62.2536],[5.48559,62.25384],[5.48678,62.25341],[5.48605,62.25272],[5.48723,62.25173],[5.48577,62.25192],[5.48394,62.25306],[5.48214,62.25198],[5.48058,62.25266]],[[5.77529,62.28443],[5.77026,62.28193],[5.76701,62.28111],[5.7646,62.28169],[5.75981,62.28137],[5.75928,62.2822],[5.76187,62.28354]],[[5.48114,62.26441],[5.48157,62.26473],[5.48211,62.26448]],[[5.73192,62.28241],[5.73463,62.28182],[5.73622,62.28234],[5.73913,62.28245]],[[5.77261,62.28633],[5.76887,62.2845],[5.76639,62.28407],[5.76608,62.28455],[5.76472,62.2849],[5.76348,62.28461],[5.76402,62.2838],[5.76294,62.2837],[5.76215,62.28423],[5.76108,62.28386],[5.76187,62.28354]],[[5.73913,62.28245],[5.7423,62.28281],[5.74225,62.28337],[5.74465,62.28428],[5.7512,62.28488],[5.7523,62.28531],[5.7526,62.28602],[5.75491,62.28666],[5.75559,62.28654],[5.75604,62.28532],[5.75895,62.28548],[5.77418,62.28824],[5.77364,62.28685],[5.77261,62.28633]],[[5.73142,62.28614],[5.73101,62.28413],[5.73192,62.28241]],[[5.44066,62.26659],[5.44499,62.26634],[5.44955,62.26538],[5.45032,62.26782],[5.45177,62.26842],[5.45386,62.26592],[5.45565,62.26641],[5.45595,62.26525],[5.45681,62.26484],[5.46169,62.26484],[5.46409,62.26602],[5.46721,62.2662],[5.46776,62.26669],[5.46989,62.26692],[5.47319,62.26663],[5.47718,62.26414]],[[5.7666,62.29471],[5.75972,62.29138],[5.75561,62.29073],[5.75405,62.2915],[5.75056,62.29105],[5.75048,62.29075],[5.75212,62.29047],[5.74879,62.28944],[5.74595,62.28924],[5.74469,62.28978],[5.74484,62.29012],[5.74925,62.29105],[5.75126,62.29331],[5.74947,62.29375],[5.74759,62.29363],[5.74775,62.2943],[5.7519,62.29446],[5.75279,62.29421],[5.75252,62.2935],[5.75669,62.29368],[5.75907,62.29319],[5.76084,62.29325],[5.76358,62.29374],[5.76419,62.29515],[5.76642,62.29634],[5.76896,62.29631],[5.76907,62.29572],[5.7666,62.29471]],[[5.74115,62.29663],[5.73907,62.29318],[5.74109,62.29255],[5.74134,62.29199],[5.73951,62.29126],[5.73766,62.29146],[5.73616,62.29108],[5.73446,62.28934]],[[5.76612,62.30059],[5.76461,62.30025],[5.76415,62.30061],[5.7658,62.30174],[5.76707,62.30191],[5.76612,62.30059]],[[5.74797,62.3038],[5.74976,62.30382],[5.75179,62.30333],[5.75068,62.30209],[5.74761,62.30119],[5.74271,62.30053],[5.7382,62.29914],[5.73859,62.29886],[5.74641,62.29969],[5.7466,62.29907],[5.74548,62.29822],[5.74115,62.29663]],[[5.61149,62.29588],[5.61754,62.29635],[5.62212,62.29494],[5.62611,62.29424]],[[5.77262,62.306],[5.77145,62.30543],[5.76966,62.30535],[5.76901,62.30585],[5.77011,62.30637],[5.77371,62.307],[5.77431,62.30631],[5.77262,62.306]],[[5.75218,62.3047],[5.74908,62.30451],[5.74746,62.30542],[5.75032,62.30565],[5.75218,62.3047]],[[5.62611,62.29424],[5.63025,62.29403],[5.63674,62.29584],[5.63812,62.29665],[5.63894,62.2983]],[[5.55028,62.26918],[5.54692,62.27265],[5.5467,62.2754],[5.54997,62.27746],[5.5511,62.27993],[5.54893,62.28214],[5.54885,62.28357],[5.54577,62.28575],[5.54936,62.2858],[5.55343,62.28717],[5.56095,62.29238],[5.56865,62.29459],[5.57811,62.29521],[5.58447,62.2949],[5.58808,62.29533],[5.5938,62.2949],[5.59869,62.29559],[5.60289,62.29567],[5.60386,62.29658],[5.6048,62.29584],[5.61044,62.29593]],[[5.63894,62.2983],[5.64032,62.29964],[5.64392,62.30057],[5.64722,62.3],[5.64909,62.29938],[5.65011,62.29853],[5.65263,62.29887]],[[5.70777,62.29432],[5.71348,62.29419],[5.71624,62.29578],[5.71629,62.29716],[5.71457,62.29783],[5.71398,62.29883],[5.71479,62.30025],[5.71398,62.3006],[5.71404,62.30122],[5.71498,62.30148],[5.71591,62.30285],[5.71389,62.30316],[5.71398,62.30522],[5.71578,62.30626],[5.71936,62.30674]],[[5.65263,62.29887],[5.65528,62.29928],[5.65754,62.29887],[5.65891,62.29909],[5.66416,62.29828],[5.66684,62.29697],[5.67127,62.29708],[5.68104,62.29641],[5.68307,62.29697],[5.68379,62.29761],[5.68244,62.29961],[5.68314,62.30175],[5.68154,62.30244],[5.68242,62.30332],[5.6856,62.30215],[5.68809,62.29923],[5.68941,62.299],[5.69099,62.29922],[5.69744,62.29797],[5.70777,62.29432]],[[5.65831,62.30046],[5.65688,62.30051],[5.65613,62.30142],[5.65681,62.30202],[5.65886,62.30156],[5.65831,62.30046]],[[5.71936,62.30674],[5.72182,62.30626],[5.72616,62.30628],[5.72708,62.30593]],[[5.65048,62.30199],[5.64873,62.30108],[5.64821,62.30141],[5.64868,62.30242],[5.65116,62.30275],[5.65048,62.30199]],[[5.61442,62.29901],[5.61244,62.29869],[5.60926,62.29876],[5.60558,62.29953],[5.60497,62.30024],[5.60658,62.3007],[5.61416,62.29943],[5.61442,62.29901]],[[5.61342,62.30034],[5.61235,62.30028],[5.6092,62.30136],[5.61295,62.30118],[5.61342,62.30034]],[[5.72708,62.30593],[5.72821,62.30538],[5.72812,62.30472],[5.73011,62.30461],[5.73271,62.30578],[5.73342,62.30666],[5.73882,62.30696],[5.7389,62.30747],[5.7379,62.30765],[5.73398,62.30735],[5.72606,62.30765],[5.73065,62.30925],[5.7325,62.30833],[5.73416,62.30847],[5.73477,62.30917],[5.73729,62.30981],[5.73614,62.31027],[5.73645,62.3106],[5.74413,62.31092],[5.74434,62.31055],[5.74343,62.31009],[5.74536,62.30934],[5.74314,62.30874],[5.7426,62.30789],[5.74039,62.30729],[5.74142,62.30674],[5.74128,62.30616],[5.73953,62.30534],[5.74144,62.30527],[5.742,62.30597],[5.74527,62.30617],[5.74568,62.30543],[5.74394,62.30438],[5.74227,62.30398],[5.74192,62.30294],[5.74435,62.3028],[5.74797,62.3038]],[[5.7013,62.31548],[5.70052,62.31445],[5.69706,62.31333],[5.69357,62.31344],[5.69227,62.314],[5.69376,62.31488],[5.69759,62.31489],[5.69803,62.3155],[5.69974,62.31576],[5.7013,62.31548]],[[5.71645,62.3161],[5.7178,62.31673],[5.72065,62.3165],[5.72036,62.31722],[5.72244,62.3182],[5.7284,62.31807],[5.7257,62.31715],[5.72351,62.31511],[5.71993,62.3149],[5.71988,62.31552],[5.71666,62.31543]],[[5.68644,62.31492],[5.685,62.31479],[5.68491,62.3153],[5.68559,62.3158],[5.68784,62.3162],[5.68786,62.31565],[5.68644,62.31492]],[[5.68246,62.31424],[5.6851,62.31441],[5.68554,62.31414],[5.68363,62.3136],[5.68322,62.31249],[5.68531,62.31334],[5.68762,62.31291],[5.68747,62.31246],[5.68454,62.31128],[5.68443,62.30966],[5.68669,62.31043],[5.68877,62.31044],[5.68883,62.31194],[5.69002,62.31315],[5.69079,62.31274],[5.69021,62.31132],[5.69188,62.31084],[5.69436,62.31092],[5.69545,62.31197],[5.69671,62.31208],[5.70002,62.3119],[5.70279,62.31103],[5.70559,62.31095],[5.70654,62.31197],[5.70592,62.31296],[5.70688,62.31345],[5.70298,62.31386],[5.7041,62.31476],[5.70898,62.31547],[5.71097,62.3144],[5.70735,62.31213],[5.70759,62.31167],[5.7128,62.31143],[5.71329,62.31082],[5.70701,62.30856],[5.70196,62.3078],[5.70235,62.30723],[5.69758,62.30541],[5.696,62.30668],[5.6971,62.30728],[5.70017,62.3076],[5.70015,62.30789],[5.69499,62.30787],[5.69101,62.30846],[5.69022,62.30791],[5.68401,62.30702],[5.68134,62.30694],[5.68041,62.30759],[5.67631,62.30749],[5.67484,62.30827],[5.68053,62.31008],[5.68211,62.31319],[5.68133,62.31331],[5.67895,62.31258],[5.67762,62.31138],[5.67622,62.31158],[5.67564,62.31197],[5.6761,62.31259],[5.67438,62.31288],[5.67345,62.31353],[5.67486,62.31557],[5.67563,62.31584],[5.67872,62.31547],[5.68246,62.31424]],[[5.705,62.3209],[5.71052,62.32044],[5.71196,62.32118],[5.71492,62.32102]],[[5.69718,62.32062],[5.70172,62.32082],[5.70224,62.3204],[5.7036,62.32038],[5.705,62.3209]],[[5.59523,62.31445],[5.59763,62.31367],[5.6029,62.31392],[5.60417,62.31249],[5.60692,62.31198],[5.604,62.31086],[5.60079,62.31142],[5.59978,62.31128],[5.59866,62.31194],[5.59931,62.31254],[5.598,62.31292],[5.59373,62.3131],[5.59335,62.31351],[5.59463,62.31423],[5.59195,62.31403],[5.59144,62.3144],[5.59333,62.31504],[5.59523,62.31445]],[[5.64258,62.31785],[5.64167,62.31886]],[[5.58888,62.31592],[5.59102,62.31515],[5.59038,62.31473],[5.58822,62.31446],[5.58139,62.31562],[5.58332,62.31594],[5.58888,62.31592]],[[5.59408,62.31741],[5.59532,62.3167],[5.58993,62.31687],[5.58895,62.31644],[5.58777,62.31648],[5.5885,62.31703]],[[5.60173,62.31793],[5.60019,62.31748],[5.59816,62.31768]],[[5.63673,62.32031],[5.63575,62.31991],[5.63434,62.32015]],[[5.64167,62.31886],[5.63891,62.31937],[5.63912,62.32047]],[[5.65247,62.32138],[5.6564,62.32107],[5.65802,62.32038],[5.65338,62.31987],[5.65383,62.31912],[5.6529,62.31865],[5.64645,62.31738],[5.64357,62.31739],[5.64258,62.31785]],[[5.66506,62.32223],[5.66771,62.32193],[5.66931,62.32232],[5.67036,62.32164],[5.67338,62.32153],[5.67771,62.32269]],[[5.68912,62.32386],[5.68802,62.32321],[5.68476,62.32276],[5.68279,62.32161],[5.68352,62.32109],[5.68594,62.32093],[5.68787,62.32137],[5.69218,62.3203],[5.69718,62.32062]],[[5.73815,62.32716],[5.7389,62.32688],[5.73886,62.32576],[5.73243,62.32273],[5.72716,62.32188],[5.72612,62.32244],[5.7212,62.32091],[5.71492,62.32102]],[[5.59772,62.31765],[5.59816,62.31768]],[[5.63673,62.32031],[5.63781,62.32068],[5.63912,62.32047]],[[5.5885,62.31703],[5.59118,62.31761],[5.59408,62.31741]],[[5.65086,62.32233],[5.65216,62.32212],[5.65247,62.32138]],[[5.67969,62.32322],[5.69543,62.32673],[5.69841,62.32675],[5.69719,62.32596],[5.69405,62.32579],[5.69592,62.32533],[5.69557,62.32475],[5.69022,62.32437],[5.68912,62.32386]],[[5.59659,62.31758],[5.5961,62.31823],[5.59338,62.3182],[5.59066,62.31969],[5.5945,62.31915],[5.59579,62.31948],[5.60154,62.31842],[5.60173,62.31793]],[[5.66506,62.32223],[5.66363,62.32248],[5.66335,62.32357],[5.66538,62.32419],[5.66942,62.32467],[5.66967,62.32527]],[[5.61664,62.32438],[5.62637,62.32204],[5.62841,62.32204],[5.62838,62.32175],[5.62547,62.32146],[5.62602,62.32062],[5.62709,62.32042],[5.62933,62.32085],[5.63419,62.32063],[5.63434,62.32015]],[[5.65068,62.32667],[5.64795,62.32616],[5.64684,62.32703],[5.64794,62.32742],[5.65059,62.32746],[5.65113,62.32713],[5.65068,62.32667]],[[5.725,62.33354],[5.72714,62.3328],[5.72816,62.3313],[5.73038,62.33058],[5.73389,62.33102],[5.73872,62.3324],[5.73901,62.33025],[5.73589,62.32896],[5.73709,62.32756],[5.73815,62.32716]],[[5.67665,62.33072],[5.67674,62.32971],[5.67451,62.32979],[5.67455,62.33048],[5.67267,62.33025],[5.67469,62.33117],[5.67634,62.33109],[5.67665,62.33072]],[[5.66941,62.33193],[5.66957,62.3315],[5.66823,62.33066],[5.66614,62.33075],[5.66362,62.3301],[5.66325,62.33042],[5.66479,62.33093],[5.66431,62.33118],[5.66074,62.33049],[5.66044,62.32917],[5.66124,62.3288],[5.66277,62.32905],[5.66337,62.32879],[5.6624,62.32798],[5.658,62.32902],[5.65095,62.32647],[5.65123,62.32568],[5.64955,62.32493],[5.64955,62.3245],[5.65194,62.32411],[5.65484,62.3242],[5.65366,62.32333],[5.64731,62.32312],[5.64784,62.32223],[5.65086,62.32233]],[[5.67286,62.33314],[5.67128,62.33229],[5.66941,62.33193]],[[5.6774,62.3326],[5.67686,62.3323],[5.67456,62.33269],[5.67525,62.33342],[5.67633,62.33348],[5.67772,62.33325],[5.6774,62.3326]],[[5.7311,62.34068],[5.73051,62.33952],[5.72428,62.33417]],[[5.73915,62.34506],[5.73954,62.34478],[5.73837,62.3441],[5.73733,62.34401],[5.73554,62.34456],[5.73351,62.34286],[5.73116,62.34189],[5.7311,62.34068]],[[5.64203,62.34062],[5.64402,62.33918],[5.63963,62.33847],[5.63909,62.33997]],[[5.61664,62.32438],[5.61563,62.32507],[5.61361,62.32525],[5.61076,62.32468],[5.60949,62.32636],[5.60649,62.32636],[5.60572,62.32725],[5.60695,62.32784],[5.60641,62.32843],[5.60424,62.32885],[5.5973,62.32869],[5.59648,62.32907],[5.60175,62.32981],[5.60027,62.33111],[5.60385,62.33595],[5.60768,62.33661],[5.60806,62.33862],[5.60964,62.33936],[5.61157,62.33935]],[[5.61193,62.33935],[5.61328,62.33965]],[[5.63344,62.34292],[5.63409,62.34217],[5.63669,62.34161],[5.63688,62.34232],[5.63903,62.34262]],[[5.63903,62.34262],[5.64064,62.34376],[5.64372,62.34479],[5.64847,62.3448],[5.66236,62.34646],[5.66776,62.34641],[5.66963,62.34607],[5.67284,62.34479],[5.67333,62.34294],[5.67543,62.34215],[5.67609,62.34093],[5.67058,62.33758],[5.67208,62.33592],[5.67315,62.33663],[5.67605,62.33633],[5.67424,62.33576],[5.67286,62.33314]],[[5.74232,62.35622],[5.74134,62.3557],[5.74114,62.35465],[5.74483,62.35582],[5.746,62.35589],[5.74676,62.35553],[5.74605,62.35374],[5.74376,62.35241],[5.74369,62.35113],[5.7451,62.34945],[5.74452,62.34776],[5.74288,62.3479],[5.7414,62.34739],[5.74288,62.34615],[5.74126,62.34531],[5.74005,62.34565],[5.73893,62.34531],[5.73915,62.34506]],[[5.74368,62.35674],[5.74232,62.35622]],[[5.59287,62.33875],[5.58423,62.33769],[5.58069,62.33667],[5.57669,62.33656],[5.57115,62.33564],[5.56349,62.33506],[5.55286,62.3327],[5.55104,62.33192],[5.54257,62.3313],[5.53783,62.33028],[5.53145,62.32951],[5.52711,62.33011],[5.52454,62.33428],[5.52386,62.33693],[5.51945,62.33966],[5.51397,62.34144]],[[5.51569,62.32992],[5.51538,62.32715],[5.51381,62.32645],[5.50106,62.32319],[5.49937,62.32179],[5.48726,62.31833],[5.48358,62.31818],[5.48498,62.31901],[5.48452,62.32026],[5.48033,62.31982],[5.47789,62.32128],[5.47657,62.32143],[5.47746,62.32245],[5.48113,62.32378],[5.47761,62.32444],[5.47907,62.32537],[5.4811,62.32548],[5.48317,62.32603],[5.48367,62.32656],[5.48281,62.3273],[5.47882,62.32707],[5.4799,62.32786],[5.48344,62.32906],[5.48346,62.32993],[5.48077,62.33071],[5.48112,62.33174],[5.47742,62.3333],[5.48276,62.33439],[5.49291,62.33802],[5.49322,62.33903],[5.49115,62.33942],[5.49458,62.34033],[5.49419,62.34127],[5.49689,62.3414],[5.4979,62.34104],[5.4978,62.34057],[5.50083,62.33865],[5.50299,62.33651],[5.50933,62.33355],[5.51433,62.33209],[5.51569,62.32992]],[[5.51397,62.34144],[5.50677,62.34321],[5.51308,62.34424]],[[5.66967,62.32527],[5.66939,62.3263],[5.66805,62.32636],[5.66289,62.32502],[5.66204,62.32438],[5.65976,62.32419],[5.65769,62.32445],[5.66291,62.32733],[5.6653,62.3281],[5.66967,62.3286],[5.6714,62.32848],[5.67321,62.3295],[5.67419,62.32907],[5.68036,62.32817],[5.68144,62.32869],[5.67935,62.33019],[5.67974,62.3308],[5.68678,62.33111],[5.68831,62.33208],[5.68442,62.33374],[5.68447,62.33457],[5.68015,62.33538],[5.68067,62.33418],[5.67942,62.33389],[5.67896,62.3354],[5.6819,62.33617],[5.68462,62.33524],[5.68683,62.33551],[5.68749,62.3361],[5.68577,62.33666],[5.68244,62.33695],[5.68095,62.33769],[5.68075,62.33809],[5.68204,62.33908],[5.67942,62.33852],[5.67836,62.3387],[5.67797,62.3409],[5.67988,62.3418],[5.68184,62.34217],[5.68651,62.34168],[5.68778,62.34001],[5.689,62.33993],[5.69212,62.34087],[5.69171,62.34171],[5.69304,62.34239],[5.69343,62.34322],[5.68938,62.3444],[5.68901,62.34584],[5.68554,62.34758],[5.67755,62.34945],[5.67517,62.35101],[5.67153,62.35167],[5.67118,62.35265],[5.66792,62.35403],[5.6676,62.35492],[5.67172,62.35767],[5.67501,62.3592],[5.67446,62.3598],[5.67554,62.36049],[5.6782,62.36003],[5.67899,62.36187],[5.68484,62.3615],[5.69866,62.36388],[5.7015,62.36404]],[[5.72226,62.35701],[5.72428,62.35713],[5.72934,62.35873],[5.72915,62.36046],[5.73182,62.36174],[5.73246,62.36272],[5.73167,62.36451],[5.73404,62.36559],[5.73996,62.3668],[5.74201,62.36661],[5.74341,62.36571],[5.7426,62.36414],[5.74534,62.364],[5.74652,62.36351],[5.74585,62.36209],[5.74338,62.36134],[5.74511,62.36091],[5.74652,62.36144],[5.74696,62.36103],[5.74561,62.35971],[5.74329,62.3593],[5.74425,62.35871],[5.74603,62.35944],[5.74669,62.3593],[5.74368,62.35674]],[[5.7015,62.36404],[5.71294,62.36657],[5.7151,62.36657],[5.71681,62.36602],[5.71843,62.3663],[5.71747,62.36139],[5.72005,62.35779]],[[5.69856,62.3648],[5.69778,62.36445],[5.69559,62.36528],[5.69778,62.36587],[5.69863,62.36547],[5.69856,62.3648]],[[5.68062,62.36467],[5.678,62.36258],[5.67586,62.36265],[5.67478,62.36217],[5.67348,62.36425],[5.67521,62.36412],[5.67841,62.36548],[5.68089,62.3651],[5.68062,62.36467]],[[5.65125,62.36121],[5.65802,62.36231],[5.65945,62.36211],[5.66258,62.36389],[5.66676,62.36428],[5.66986,62.36414],[5.67376,62.36547],[5.67219,62.36651],[5.67244,62.36775]],[[5.52134,62.35766],[5.52151,62.35631],[5.52365,62.35502],[5.52489,62.35355],[5.52484,62.35162],[5.51975,62.34866],[5.51962,62.34811],[5.51427,62.34457],[5.51308,62.34424]],[[5.56113,62.36039],[5.56303,62.3586],[5.56972,62.35642],[5.57785,62.35555],[5.58141,62.35583],[5.58465,62.35683],[5.58616,62.35767],[5.587,62.3601],[5.58945,62.36121],[5.59183,62.36086],[5.59186,62.36044],[5.58919,62.35916],[5.59047,62.35838],[5.59447,62.3582],[5.59232,62.35724],[5.59229,62.35631],[5.59327,62.3541],[5.59539,62.35249],[5.59756,62.35172],[5.599,62.35169],[5.60435,62.35304],[5.60569,62.35288],[5.60132,62.35033],[5.60205,62.34784],[5.60393,62.34747],[5.60468,62.34691],[5.60284,62.34611],[5.60426,62.34494],[5.60283,62.34443]],[[5.65125,62.36121],[5.64795,62.36065],[5.63089,62.3605],[5.62968,62.36071],[5.6294,62.36198],[5.62353,62.36226],[5.62165,62.36379],[5.62041,62.36378],[5.62047,62.36315],[5.61954,62.36289],[5.61839,62.36387],[5.61937,62.36436]],[[5.71758,62.371],[5.71774,62.37057],[5.71596,62.37024],[5.71427,62.37037],[5.71232,62.36924],[5.71034,62.36901],[5.70244,62.36958],[5.70223,62.36997]],[[5.70223,62.36997],[5.70545,62.37123],[5.71252,62.37192],[5.71558,62.37184],[5.71758,62.371]],[[5.50766,62.36125],[5.51128,62.3609],[5.51391,62.36023],[5.51529,62.35948],[5.52083,62.35817],[5.52134,62.35766]],[[5.50766,62.36125],[5.50381,62.36177],[5.50219,62.36327],[5.49861,62.36522],[5.49871,62.3657],[5.50153,62.36686],[5.50436,62.36754],[5.5057,62.36739]],[[5.61937,62.36436],[5.61986,62.36531],[5.61871,62.36642],[5.615,62.36656],[5.61539,62.36737],[5.61688,62.3681],[5.6164,62.36854],[5.61365,62.36878],[5.61462,62.36972],[5.61367,62.37032],[5.62014,62.37239],[5.62155,62.37407],[5.62348,62.37443],[5.62755,62.37639],[5.62699,62.37738],[5.62927,62.37837],[5.63167,62.3779],[5.63188,62.37669],[5.63471,62.37498],[5.63844,62.37075],[5.64036,62.37013],[5.6466,62.37012],[5.6567,62.37153],[5.66021,62.37275],[5.66976,62.37377],[5.67225,62.37361],[5.67554,62.37432],[5.6748,62.37319],[5.67606,62.37102],[5.67582,62.36931],[5.67278,62.36798]],[[5.5057,62.36739],[5.5123,62.36758],[5.51595,62.36701],[5.51854,62.36806],[5.53021,62.36993],[5.53411,62.3723],[5.53983,62.37245],[5.54233,62.37368],[5.54702,62.37344],[5.54812,62.37416],[5.5521,62.37464],[5.55586,62.37381],[5.55808,62.37425],[5.55498,62.37063],[5.55533,62.36919],[5.55735,62.36907],[5.55749,62.36817],[5.55629,62.36765],[5.55602,62.36646],[5.5533,62.36579],[5.55329,62.36511],[5.55543,62.36464],[5.55271,62.36381],[5.55397,62.36276],[5.55559,62.36266],[5.5549,62.36132],[5.55933,62.36129],[5.56113,62.36039]],[[5.65796,62.39726],[5.64907,62.39293],[5.64653,62.3899],[5.64498,62.38905],[5.64248,62.38876],[5.63689,62.38901],[5.63336,62.38791],[5.63013,62.38834],[5.62722,62.38765],[5.62168,62.3873],[5.616,62.38629]],[[5.68301,62.40555],[5.68239,62.40554],[5.68196,62.40614],[5.68493,62.40714],[5.68505,62.40663],[5.68301,62.40555]],[[5.616,62.38629],[5.61357,62.38497],[5.60912,62.38478],[5.60793,62.3853],[5.60928,62.38596],[5.60835,62.38663],[5.602,62.38694],[5.6028,62.38752],[5.61159,62.38996],[5.61178,62.39085],[5.61382,62.39185],[5.61376,62.39228],[5.60502,62.39695],[5.59567,62.39973],[5.59581,62.40272],[5.59289,62.40287],[5.59152,62.40398]],[[5.58532,62.40727],[5.58561,62.40674],[5.58638,62.40669],[5.58862,62.40721],[5.58975,62.40615],[5.5888,62.40558],[5.58908,62.40465],[5.59152,62.40398]],[[5.61621,62.40937],[5.61767,62.40808],[5.62134,62.40678],[5.62343,62.40481],[5.64035,62.40192],[5.64346,62.40196],[5.64631,62.40262],[5.64839,62.40392],[5.64949,62.40534],[5.65053,62.40426],[5.65145,62.40416],[5.6523,62.40498],[5.65197,62.4063],[5.65312,62.40677],[5.65478,62.40579],[5.66062,62.4069],[5.65876,62.40518],[5.65925,62.40454],[5.65724,62.40316],[5.65914,62.40267],[5.65921,62.40207],[5.6574,62.40141],[5.65722,62.40083],[5.66215,62.39905],[5.66353,62.39979],[5.66517,62.39974],[5.66481,62.399],[5.66339,62.39836],[5.66205,62.39861],[5.65901,62.39725],[5.65796,62.39726]],[[5.74686,62.42199],[5.74433,62.42118],[5.74436,62.42061],[5.74306,62.42001],[5.74069,62.41988],[5.74095,62.42054],[5.74367,62.42149],[5.74324,62.42175],[5.74167,62.42149],[5.74176,62.4219],[5.74815,62.42412],[5.75098,62.42457],[5.74985,62.42345],[5.74686,62.42199]],[[5.58842,62.41377],[5.59427,62.41187],[5.59831,62.41125],[5.60186,62.41113],[5.60704,62.41177],[5.61115,62.41176],[5.6145,62.41099],[5.61583,62.41033],[5.61621,62.40937]],[[5.58842,62.41377],[5.5875,62.41494],[5.58794,62.41528]],[[5.58784,62.41561],[5.58794,62.41528]],[[5.58532,62.40727],[5.58455,62.41038],[5.58356,62.41103],[5.5844,62.4127],[5.58337,62.41351],[5.58143,62.41358],[5.58784,62.41561]],[[5.76382,62.42912],[5.76087,62.42813],[5.75842,62.42822],[5.75577,62.42939],[5.75663,62.43108],[5.7593,62.43187],[5.76112,62.43183],[5.76044,62.43025],[5.76089,62.42973],[5.76382,62.42912]],[[5.59982,62.06258],[5.60147,62.05742],[5.60246,62.05603],[5.60416,62.05502]],[[5.62346,62.06768],[5.62383,62.06676]],[[5.59376,62.06936],[5.59419,62.06924]],[[5.73974,62.10118],[5.7371,62.10267]],[[5.51429,62.1008],[5.52588,62.10066]],[[5.68264,62.11291],[5.68431,62.11243]],[[5.45635,62.10081],[5.45542,62.1014]],[[5.67305,62.12651],[5.6759,62.13467]],[[5.67639,62.13568],[5.6759,62.13467]],[[5.56788,62.16632],[5.56936,62.1663]],[[5.63355,62.17031],[5.63518,62.17146]],[[5.43691,62.17086],[5.4367,62.1675],[5.43695,62.16785],[5.4375,62.16649]],[[5.43691,62.17086],[5.43752,62.174],[5.43984,62.17689],[5.44548,62.18036]],[[5.77627,62.20885],[5.76966,62.20608]],[[5.64974,62.21875],[5.64985,62.21841]],[[5.64974,62.21875],[5.64711,62.21919]],[[5.49201,62.20763],[5.48962,62.20788],[5.4888,62.2085],[5.48902,62.20912],[5.49201,62.20763]],[[5.61407,62.22498],[5.63039,62.22059]],[[5.45654,62.21747],[5.45874,62.21645],[5.4571,62.21511]],[[5.59022,62.22668],[5.59108,62.226],[5.59046,62.22525],[5.58858,62.22406],[5.58682,62.22366]],[[5.45632,62.21754],[5.45654,62.21747]],[[5.545,62.2436],[5.56193,62.23925]],[[5.73446,62.28934],[5.73488,62.28881],[5.73609,62.28877],[5.73594,62.28839],[5.73142,62.28614]],[[5.61044,62.29593],[5.61149,62.29588]],[[5.71666,62.31543],[5.71533,62.31575],[5.71645,62.3161]],[[5.59772,62.31765],[5.59659,62.31758]],[[5.67969,62.32322],[5.67771,62.32269]],[[5.72428,62.33417],[5.725,62.33354]],[[5.61157,62.33935],[5.61193,62.33935]],[[5.63909,62.33997],[5.63779,62.34138],[5.63994,62.34142],[5.64203,62.34062]],[[5.67278,62.36798],[5.67244,62.36775]],[[5.72201,62.35702],[5.72226,62.35701]],[[5.72005,62.35779],[5.72089,62.35713],[5.72201,62.35702]],[[5.73666,62.41903],[5.73615,62.41853],[5.73393,62.41862],[5.73243,62.41912],[5.7353,62.41974],[5.73672,62.42083],[5.73666,62.41903]],[[5.60283,62.34443],[5.60255,62.3439],[5.60491,62.3434],[5.60462,62.34092],[5.60293,62.34069],[5.60159,62.34003],[5.59776,62.33979],[5.59287,62.33875]],[[5.61328,62.33965],[5.61805,62.34124],[5.62237,62.3417],[5.62325,62.3411],[5.62735,62.34381],[5.62895,62.34377],[5.62868,62.34322],[5.6296,62.3427],[5.63179,62.34381],[5.63318,62.34372],[5.6346,62.34501],[5.63586,62.34417],[5.63587,62.34342],[5.6366,62.34327],[5.6376,62.34369],[5.63834,62.34339],[5.63778,62.34289],[5.63638,62.34265],[5.63415,62.34331],[5.63344,62.34292]],[[5.96773,62.25198],[5.9669,62.24945],[5.96582,62.24893],[5.96189,62.24843],[5.96203,62.2477],[5.96585,62.24748],[5.97075,62.24772],[5.97217,62.24759],[5.97366,62.24693],[5.97748,62.24758],[5.98299,62.24749],[5.98466,62.24731],[5.98761,62.24613]],[[5.90156,62.24762],[5.90356,62.24877],[5.90833,62.24929],[5.91062,62.24914],[5.91284,62.24972],[5.91415,62.24937],[5.91393,62.24844]],[[5.86407,62.25033],[5.85812,62.2494],[5.85701,62.2495],[5.85617,62.25012],[5.85662,62.25132],[5.85805,62.25188],[5.86054,62.25167],[5.86109,62.2511],[5.86407,62.25033]],[[5.83378,62.25047],[5.8301,62.25028]],[[5.78523,62.25052],[5.78574,62.2481],[5.78502,62.24523]],[[5.96773,62.25198],[5.96809,62.25248],[5.97191,62.25379],[5.97448,62.25637],[5.97504,62.26006],[5.97828,62.26426],[5.98039,62.26586]],[[5.78523,62.25052],[5.7892,62.25311],[5.79518,62.25534]],[[5.8283,62.26837],[5.83301,62.2695],[5.8336,62.26916],[5.8327,62.26823],[5.82866,62.2672]],[[5.83378,62.25047],[5.84874,62.24981],[5.85186,62.25008],[5.85276,62.2504],[5.85411,62.25324],[5.85699,62.25338],[5.86405,62.25126],[5.86838,62.25138],[5.86916,62.25076],[5.86849,62.25033],[5.86675,62.25078],[5.86429,62.2499],[5.86482,62.24888],[5.86601,62.24866],[5.86743,62.24896],[5.86845,62.24985],[5.8717,62.24948],[5.87762,62.25166],[5.8819,62.25131],[5.8925,62.2518],[5.89439,62.25151],[5.89632,62.25042],[5.89699,62.25096],[5.89536,62.25202],[5.89665,62.25241],[5.90453,62.25091],[5.90606,62.25131],[5.90771,62.25116],[5.91724,62.25411],[5.92109,62.2574],[5.9241,62.26262],[5.92642,62.26472]],[[5.8301,62.25028],[5.82248,62.25007],[5.81661,62.25105],[5.80949,62.2499],[5.80716,62.25003],[5.81355,62.25173],[5.81483,62.25252],[5.81967,62.25264],[5.82198,62.25392],[5.82594,62.25453],[5.82571,62.255],[5.82219,62.25612],[5.82191,62.2574],[5.82456,62.25851],[5.83139,62.25827]],[[5.80546,62.25571],[5.80108,62.25486],[5.80022,62.25524],[5.80123,62.25623],[5.80548,62.25686],[5.80565,62.25764],[5.80727,62.25804],[5.80881,62.25728],[5.80546,62.25571]],[[5.98039,62.26586],[5.98291,62.26844],[5.98942,62.27163],[5.99226,62.27155]],[[5.83619,62.2571],[5.84037,62.25729],[5.84238,62.25813],[5.84266,62.25873],[5.83956,62.26043],[5.83755,62.26098],[5.83461,62.26108],[5.83313,62.26195],[5.8381,62.26383],[5.83959,62.26374],[5.84104,62.26286]],[[5.99226,62.27155],[5.99599,62.27102],[5.99933,62.2716],[6.00218,62.27284]],[[5.80341,62.26522],[5.79849,62.26272],[5.79708,62.26093],[5.7985,62.26038],[5.79981,62.26037],[5.80555,62.2625],[5.80776,62.26237],[5.80788,62.26191],[5.80543,62.26109],[5.8028,62.25829],[5.79726,62.25721],[5.79518,62.25534]],[[5.82866,62.2672],[5.8251,62.26612],[5.82373,62.26795],[5.8283,62.26837]],[[5.84755,62.26926],[5.8475,62.2679],[5.85148,62.26647],[5.85137,62.2662],[5.84528,62.26631],[5.84022,62.26597],[5.83472,62.26495],[5.83663,62.26601],[5.83636,62.26684],[5.83702,62.26721],[5.84003,62.26729],[5.84595,62.26829],[5.84565,62.26856],[5.84015,62.26817],[5.83921,62.26838],[5.84421,62.26948],[5.84404,62.27051],[5.84708,62.27006],[5.84755,62.26926]],[[5.84104,62.26286],[5.84429,62.26188],[5.84718,62.26222],[5.84784,62.2632],[5.84689,62.26479],[5.84928,62.26524],[5.85054,62.26528],[5.85113,62.26452],[5.85292,62.26422],[5.85671,62.26433],[5.85842,62.26476],[5.86295,62.26801],[5.86138,62.27182],[5.86208,62.27218],[5.86437,62.27224],[5.86529,62.27183]],[[5.87104,62.27353],[5.87131,62.2743]],[[5.80437,62.26557],[5.80859,62.26618],[5.81311,62.26786],[5.81393,62.26732],[5.81167,62.26597],[5.81346,62.26541],[5.81602,62.26547],[5.8197,62.26651],[5.82361,62.26997],[5.82282,62.27139],[5.82626,62.27223],[5.82676,62.27339]],[[5.84225,62.27485],[5.84214,62.27429],[5.84061,62.27374],[5.84148,62.27326],[5.83937,62.27231],[5.83664,62.26975],[5.83195,62.26989],[5.82969,62.26943],[5.83113,62.27081],[5.83237,62.27044],[5.83336,62.27068],[5.83539,62.27148],[5.83538,62.27188],[5.83854,62.27291],[5.83793,62.27317]],[[5.82614,62.27542],[5.82161,62.27413],[5.82168,62.27353],[5.82377,62.27352],[5.82268,62.27286],[5.82109,62.27273],[5.81922,62.27348],[5.81807,62.27309],[5.81843,62.27228],[5.81611,62.27096],[5.81799,62.271],[5.81863,62.27061],[5.81436,62.26962],[5.8137,62.27003]],[[5.82614,62.27542],[5.82829,62.27559],[5.82934,62.27534],[5.82676,62.27339]],[[5.82715,62.27211],[5.83183,62.27493],[5.8326,62.27614],[5.8373,62.27706],[5.84026,62.27741],[5.84136,62.27707],[5.84529,62.27772],[5.84595,62.27688],[5.84404,62.27596],[5.84293,62.27616],[5.8421,62.27584],[5.84225,62.27485]],[[5.8245,62.27737],[5.82551,62.27744]],[[5.8137,62.27003],[5.81361,62.27064],[5.81561,62.27186],[5.81799,62.27451],[5.8199,62.2754],[5.81864,62.27607],[5.81892,62.27719],[5.8245,62.27737]],[[5.87131,62.2743],[5.87025,62.27913],[5.86628,62.28107],[5.86602,62.2823]],[[5.85877,62.28825],[5.86031,62.28687],[5.85996,62.28603],[5.86547,62.28362],[5.86602,62.2823]],[[5.79981,62.28607],[5.79928,62.28549],[5.80039,62.28476]],[[5.81144,62.28685],[5.80579,62.28447],[5.80569,62.28387],[5.80701,62.28407],[5.80768,62.28383],[5.807,62.28302],[5.80461,62.28248],[5.80384,62.28276],[5.80161,62.28265],[5.79672,62.28152],[5.796,62.28187],[5.79688,62.28234],[5.80257,62.28421],[5.80039,62.28476]],[[5.82471,62.28773],[5.82879,62.28661],[5.82881,62.28564],[5.83091,62.28481],[5.82596,62.28249],[5.82626,62.28222],[5.82983,62.28232],[5.83092,62.28173],[5.83092,62.28104],[5.82982,62.2803],[5.82843,62.28023],[5.82802,62.28072],[5.82722,62.28045],[5.82722,62.28002],[5.82831,62.27971],[5.82627,62.27862],[5.82821,62.27866],[5.8315,62.2796],[5.83194,62.27917],[5.83075,62.27787],[5.82551,62.27744]],[[5.84959,62.28939],[5.84203,62.28578],[5.84232,62.28407],[5.83314,62.2822],[5.83176,62.28221],[5.83112,62.28298],[5.83504,62.28574],[5.83856,62.28641],[5.83704,62.2873],[5.8373,62.28766],[5.84476,62.28907]],[[5.85516,62.28976],[5.85877,62.28825]],[[5.98,62.29799],[5.96944,62.29503],[5.9642,62.29157],[5.95668,62.2881],[5.95176,62.28431],[5.94932,62.28136],[5.95001,62.27979],[5.94932,62.27875],[5.94682,62.2774],[5.9425,62.27601],[5.93603,62.27242],[5.93077,62.26888],[5.92642,62.26472]],[[5.84959,62.28939],[5.85308,62.29015],[5.85516,62.28976]],[[5.81144,62.28685],[5.81424,62.28804],[5.81793,62.28834],[5.81972,62.28785],[5.82206,62.28869]],[[5.77829,62.28521],[5.78092,62.28559],[5.78186,62.28684],[5.7845,62.28756],[5.78497,62.2885],[5.78957,62.2894],[5.79143,62.28931],[5.79267,62.29003],[5.79578,62.28893],[5.79778,62.28875],[5.80108,62.2871],[5.79981,62.28607]],[[5.83082,62.29297],[5.82656,62.29258],[5.82577,62.29287],[5.82812,62.29386],[5.83264,62.2944],[5.83563,62.29415],[5.83082,62.29297]],[[5.78825,62.29155],[5.78547,62.29107],[5.78284,62.2914],[5.78633,62.29231],[5.78961,62.29228],[5.78825,62.29155]],[[5.98,62.29799],[5.99356,62.30057],[5.9948,62.30203],[6.00086,62.30356]],[[5.79754,62.29566],[5.79353,62.29559],[5.79196,62.29592],[5.79281,62.29641],[5.79509,62.2964],[5.79584,62.29678]],[[5.80622,62.29804],[5.80452,62.29801],[5.80229,62.29736],[5.80318,62.29648],[5.79754,62.29566]],[[5.818,62.30189],[5.81611,62.30111],[5.81699,62.30013],[5.81552,62.29954],[5.80622,62.29804]],[[5.80586,62.30164],[5.80703,62.30137],[5.81316,62.3015],[5.81634,62.30203],[5.81646,62.30259],[5.81764,62.30306]],[[5.81764,62.30306],[5.81943,62.30281],[5.818,62.30189]],[[5.80768,62.30322],[5.80631,62.30283],[5.80586,62.30164]],[[5.81657,62.30655],[5.82389,62.30648],[5.82575,62.30727]],[[5.80768,62.30322],[5.80993,62.30368],[5.81065,62.30465],[5.81384,62.30601],[5.81657,62.30655]],[[5.77467,62.30621],[5.77817,62.30612],[5.78139,62.30428],[5.77969,62.30403],[5.77752,62.30494],[5.77395,62.30507],[5.77369,62.30554],[5.77467,62.30621]],[[5.82575,62.30727],[5.83327,62.31101],[5.83546,62.31152]],[[5.83546,62.31152],[5.83675,62.31117],[5.83657,62.30989],[5.84028,62.31032],[5.84347,62.30935],[5.84524,62.30945],[5.85257,62.30709],[5.85442,62.30561],[5.85315,62.30429],[5.84818,62.30203],[5.84193,62.3014],[5.83726,62.30166],[5.83196,62.30061],[5.83209,62.29995],[5.83496,62.29895],[5.83984,62.29829],[5.84191,62.29749],[5.85004,62.29233],[5.84941,62.29103],[5.84645,62.28947],[5.84476,62.28907]],[[5.85774,62.31509],[5.85766,62.31415],[5.85558,62.31314],[5.85397,62.31137],[5.85249,62.31098]],[[5.85249,62.31098],[5.84546,62.30987],[5.84399,62.3142],[5.84637,62.31484],[5.84654,62.31562],[5.84797,62.31467],[5.85774,62.31509]],[[5.84349,62.31678],[5.8459,62.31667],[5.84756,62.31611],[5.84948,62.31722],[5.85173,62.31737],[5.85395,62.31804],[5.85519,62.31775],[5.85674,62.31813]],[[5.84211,62.31767],[5.84108,62.31674],[5.84349,62.31678]],[[5.84343,62.31777],[5.84211,62.31767]],[[5.84632,62.31779],[5.84343,62.31777]],[[5.79571,62.29685],[5.79248,62.29713],[5.78912,62.29654],[5.78771,62.2973],[5.78679,62.29721],[5.78635,62.29625],[5.78524,62.29596],[5.77364,62.29594],[5.77234,62.29628],[5.77492,62.29742],[5.77135,62.29862],[5.76972,62.29832],[5.76918,62.29861],[5.7701,62.29895],[5.77404,62.2988],[5.77459,62.30004],[5.7776,62.30014],[5.77873,62.30141],[5.78004,62.30188],[5.78727,62.30199],[5.78728,62.30127],[5.78876,62.30112],[5.79101,62.30211],[5.79146,62.30299],[5.78775,62.30494],[5.78854,62.30614],[5.78564,62.30978],[5.78601,62.31012],[5.78865,62.30979],[5.79029,62.31028],[5.79051,62.31121],[5.78879,62.31252],[5.78913,62.3137],[5.7877,62.31398],[5.78715,62.31459],[5.79076,62.31443]],[[5.79076,62.31443],[5.79174,62.31521],[5.79036,62.31654],[5.79024,62.31767],[5.7966,62.3172],[5.7968,62.31758],[5.79527,62.31849],[5.79076,62.31904],[5.78918,62.32037],[5.78555,62.32003],[5.78477,62.32079]],[[5.81113,62.32865],[5.81343,62.32915],[5.81863,62.32853],[5.82203,62.32937],[5.82314,62.3293]],[[5.85464,62.33376],[5.8602,62.33109],[5.86206,62.32944],[5.86391,62.32599],[5.86433,62.32306]],[[5.78477,62.32079],[5.78166,62.32169],[5.78383,62.3233],[5.78328,62.32382],[5.78069,62.32246],[5.7761,62.32098],[5.77563,62.32121],[5.77695,62.32219],[5.77617,62.32267],[5.77499,62.32263],[5.77434,62.3211],[5.77356,62.32086],[5.77171,62.32164],[5.76973,62.32181],[5.76595,62.32147],[5.76472,62.32283],[5.7659,62.32376],[5.76804,62.32424],[5.77706,62.325],[5.77977,62.32766],[5.78363,62.3295],[5.7841,62.32785],[5.78603,62.32726],[5.78835,62.32754],[5.7897,62.32707],[5.79008,62.32641],[5.79233,62.32675],[5.79185,62.32815],[5.79554,62.32787],[5.7983,62.32883],[5.80474,62.32914],[5.80567,62.32802],[5.80815,62.32876],[5.80973,62.32878]],[[5.77305,62.3295],[5.77201,62.32889],[5.76999,62.3293]],[[5.8013,62.33139],[5.80234,62.33077],[5.80436,62.3306],[5.80465,62.33014],[5.79654,62.32972],[5.7938,62.33003],[5.79422,62.33037],[5.79695,62.33043],[5.7985,62.3312]],[[5.8291,62.33324],[5.82974,62.33136],[5.82704,62.3297],[5.82969,62.32827],[5.82742,62.32731],[5.82678,62.32769],[5.8274,62.32855],[5.82314,62.3293]],[[5.83308,62.3335],[5.83497,62.33252],[5.83697,62.33055],[5.835,62.32943],[5.83673,62.32806],[5.83644,62.32724],[5.83786,62.32345],[5.84064,62.32443],[5.84452,62.32329],[5.84576,62.32243],[5.8478,62.32204],[5.84639,62.32085],[5.84734,62.32022],[5.85157,62.32062],[5.85032,62.31888],[5.85051,62.31788],[5.84632,62.31779]],[[5.8526,62.3348],[5.85447,62.33438],[5.85464,62.33376]],[[5.8291,62.33324],[5.83124,62.33372],[5.83308,62.3335]],[[5.79423,62.33189],[5.79156,62.33152],[5.79065,62.33223],[5.79188,62.33284],[5.79443,62.33287],[5.79501,62.33216],[5.79423,62.33189]],[[5.7985,62.3312],[5.79877,62.33155],[5.79784,62.33213],[5.80045,62.33351],[5.80344,62.3331],[5.80005,62.33199],[5.8013,62.33139]],[[5.77593,62.33019],[5.77504,62.33004],[5.77447,62.33036],[5.77626,62.33258],[5.77709,62.33302],[5.77895,62.33294],[5.77908,62.33207],[5.77593,62.33019]],[[5.76999,62.3293],[5.76981,62.3306],[5.77181,62.33158],[5.77251,62.33287],[5.77327,62.33298],[5.77425,62.33265],[5.77442,62.33169],[5.77305,62.3295]],[[5.79759,62.34035],[5.79573,62.33981],[5.7958,62.34117],[5.7974,62.34134],[5.79819,62.34068],[5.79759,62.34035]],[[5.8526,62.3348],[5.85127,62.33663],[5.84937,62.3369],[5.84535,62.33976],[5.84507,62.34068],[5.84802,62.3403],[5.84867,62.34117],[5.84282,62.34425],[5.83963,62.34452],[5.8396,62.34382],[5.84118,62.3435]],[[5.78592,62.3397],[5.78236,62.33789],[5.77835,62.3372],[5.77515,62.33428],[5.77232,62.33379],[5.77149,62.33397],[5.77273,62.33502],[5.77281,62.33594],[5.77373,62.33635],[5.77513,62.3362],[5.77617,62.33723],[5.77417,62.33871],[5.77052,62.33798],[5.77141,62.33895],[5.77372,62.33927],[5.77455,62.33887],[5.77563,62.33905],[5.78343,62.34103],[5.78587,62.34077],[5.78592,62.3397]],[[5.80543,62.34271],[5.79815,62.34147],[5.7995,62.34278],[5.80365,62.34357],[5.80518,62.34352]],[[5.80518,62.34352],[5.80632,62.34316],[5.80543,62.34271]],[[5.80808,62.34406],[5.80606,62.34393],[5.80617,62.34485],[5.80971,62.34507],[5.80808,62.34406]],[[5.7769,62.34381],[5.77799,62.34488]],[[5.77778,62.34271],[5.77649,62.34229],[5.77849,62.34193],[5.77828,62.34126],[5.7729,62.33961],[5.77157,62.33987],[5.77051,62.34098],[5.77402,62.34186],[5.77414,62.34222],[5.76912,62.34222],[5.76778,62.34259],[5.76961,62.34461],[5.77192,62.34378],[5.7769,62.34381]],[[5.78638,62.34774],[5.78992,62.34728],[5.79184,62.34775],[5.79326,62.34759],[5.79434,62.34563],[5.79343,62.34449],[5.79111,62.34361],[5.78578,62.3435],[5.78335,62.34385],[5.78176,62.34325],[5.77778,62.34271]],[[5.79604,62.34902],[5.79587,62.34859],[5.79352,62.34867],[5.79205,62.3481],[5.79007,62.34826],[5.7923,62.34931],[5.79429,62.34943],[5.79604,62.34902]],[[5.8273,62.35274],[5.82353,62.34834],[5.82408,62.34799],[5.82591,62.34796],[5.82642,62.34749],[5.82646,62.34467],[5.82544,62.34348],[5.82388,62.34274],[5.81805,62.34148],[5.81261,62.3414],[5.80919,62.34057],[5.80885,62.33988],[5.81142,62.34049],[5.81329,62.34049],[5.81358,62.33894],[5.81726,62.33931],[5.82198,62.33905],[5.82647,62.34],[5.83276,62.34206],[5.83577,62.34178],[5.83646,62.34333],[5.83725,62.34319],[5.83755,62.34234],[5.83879,62.34231],[5.8396,62.34303],[5.84131,62.34321],[5.84118,62.3435]],[[5.77799,62.34488],[5.7773,62.34538],[5.77422,62.34578],[5.77379,62.34646],[5.77479,62.34683],[5.78202,62.34747],[5.78077,62.3485],[5.78229,62.34844],[5.78435,62.35038],[5.78565,62.3503],[5.78515,62.34819],[5.78638,62.34774]],[[5.82502,62.35568],[5.82718,62.35388],[5.8273,62.35274]],[[5.78755,62.35524],[5.78589,62.35478],[5.7845,62.35503],[5.78233,62.35483],[5.78347,62.35562],[5.78698,62.35565],[5.78755,62.35524]],[[5.77847,62.35782],[5.77643,62.35733],[5.7753,62.35758],[5.7761,62.35834],[5.77908,62.35904],[5.78023,62.35895],[5.77847,62.35782]],[[5.82502,62.35568],[5.82168,62.35596],[5.82046,62.35881],[5.8196,62.35989],[5.81852,62.36006],[5.81855,62.36248],[5.81622,62.36504],[5.81907,62.36819],[5.81657,62.37345]],[[5.78587,62.37441],[5.78547,62.37358],[5.78749,62.3733],[5.78784,62.37257],[5.7843,62.37131],[5.78392,62.36932],[5.78318,62.36911],[5.77931,62.37007],[5.77786,62.36925],[5.77271,62.36794],[5.77203,62.36961],[5.77728,62.37123],[5.77679,62.37227],[5.77457,62.37261],[5.77506,62.37394],[5.77768,62.37431],[5.77849,62.37369],[5.78074,62.37465],[5.78489,62.37551],[5.78643,62.37537],[5.78587,62.37441]],[[5.78566,62.37716],[5.78416,62.37698],[5.7816,62.37738],[5.78141,62.37799],[5.78495,62.37923],[5.78651,62.37925],[5.78762,62.37846],[5.78566,62.37716]],[[5.87867,62.24835],[5.87829,62.24808],[5.87633,62.24814],[5.87514,62.24755],[5.87386,62.24795],[5.87723,62.24886],[5.87867,62.24835]],[[5.83488,62.24689],[5.83977,62.24653],[5.83768,62.24611],[5.83505,62.24634]],[[5.83139,62.25827],[5.83619,62.2571]],[[5.77529,62.28443],[5.77829,62.28521]],[[5.80437,62.26557],[5.80341,62.26522]],[[5.86529,62.27183],[5.86898,62.27254],[5.87104,62.27353]],[[5.82727,62.27171],[5.82715,62.27211]],[[5.83793,62.27317],[5.83329,62.27269],[5.83081,62.27175],[5.82727,62.27171]],[[5.79584,62.29678],[5.79571,62.29685]],[[5.82206,62.28869],[5.82471,62.28773]],[[5.80973,62.32878],[5.81113,62.32865]],[[5.86433,62.32306],[5.86486,62.32213],[5.86441,62.32093],[5.86298,62.32035],[5.8577,62.3194],[5.85674,62.31813]],[[5.81765,62.37769],[5.81655,62.37389]],[[5.81657,62.37345],[5.81655,62.37389]],[[5.82537,62.19735],[5.82443,62.19684],[5.82087,62.19635],[5.81799,62.19619],[5.81434,62.19662]],[[5.80112,62.19573],[5.79552,62.19501],[5.79484,62.19462],[5.8003,62.19336]],[[5.84783,62.00455],[5.84935,62.00526],[5.85141,62.0053],[5.85255,62.00469],[5.85557,62.00496],[5.85596,62.00549]],[[5.84783,62.00455],[5.8469,62.00476],[5.8446,62.00679],[5.84438,62.0078]],[[5.84365,62.01193],[5.84657,62.01036],[5.84598,62.00888],[5.84438,62.0078]],[[5.84365,62.01193],[5.84422,62.01544],[5.84774,62.01801]],[[5.86793,62.01936],[5.86142,62.01153],[5.85629,62.00849],[5.85596,62.00549]],[[5.86793,62.01936],[5.87316,62.02349],[5.87395,62.02531],[5.87591,62.02596],[5.88248,62.03116],[5.88536,62.03407],[5.88575,62.03592],[5.8922,62.03861],[5.8954,62.0391],[5.89771,62.04007]],[[5.9207,62.05725],[5.91324,62.04904],[5.90312,62.04264],[5.89859,62.04177],[5.89771,62.04007]],[[5.84774,62.01801],[5.85191,62.02389],[5.85773,62.02677],[5.85817,62.02821],[5.86186,62.03241],[5.86511,62.03857],[5.86747,62.04011],[5.86795,62.04128],[5.87188,62.04275],[5.87405,62.04492],[5.88095,62.04868],[5.88382,62.0514],[5.88736,62.05679],[5.89186,62.05943]],[[5.9207,62.05725],[5.92308,62.06116],[5.92259,62.06219],[5.92161,62.06245],[5.92183,62.06346],[5.92476,62.06572],[5.92833,62.06698]],[[5.89769,62.06654],[5.89761,62.06502],[5.89906,62.06356],[5.89186,62.05943]],[[5.93045,62.06872],[5.93408,62.07183],[5.93549,62.07659],[5.93761,62.07869],[5.94584,62.08374],[5.95207,62.08676],[5.95326,62.08787],[5.95568,62.08876],[5.95726,62.09021],[5.95939,62.09327],[5.96325,62.09583],[5.97027,62.10303],[5.97338,62.10894]],[[5.93583,62.1088],[5.93655,62.10823],[5.93577,62.10718],[5.93761,62.10663],[5.93954,62.10513],[5.93705,62.10461],[5.93442,62.10456],[5.93414,62.10231],[5.93095,62.09967],[5.93135,62.09712],[5.92466,62.09513],[5.91962,62.09193],[5.91428,62.08431],[5.91436,62.08237],[5.91584,62.08109],[5.91409,62.07909],[5.91606,62.0771],[5.91567,62.07643],[5.91468,62.07553],[5.90687,62.07334],[5.90516,62.07161],[5.90226,62.07074],[5.89872,62.06819],[5.89769,62.06654]],[[5.93583,62.1088],[5.93673,62.10887],[5.93897,62.11013],[5.94186,62.11467]],[[5.97472,62.11684],[5.97495,62.11481],[5.97338,62.10894]],[[5.94228,62.11556],[5.94186,62.11467]],[[5.96574,62.13442],[5.96762,62.13343],[5.96756,62.13149],[5.9701,62.13],[5.97221,62.12771],[5.97454,62.12165],[5.97472,62.11684]],[[5.96574,62.13442],[5.96276,62.13557],[5.96464,62.1381]],[[5.96464,62.1381],[5.96592,62.13856],[5.96919,62.1389],[5.97873,62.1419],[5.98271,62.14236],[5.99185,62.1412],[6.00184,62.14101]],[[5.94171,62.14667],[5.94096,62.14493],[5.93763,62.14228],[5.93549,62.13914],[5.93587,62.13551],[5.93691,62.13363],[5.94092,62.13202],[5.94034,62.1269],[5.94349,62.12553],[5.94518,62.12359],[5.94406,62.12152],[5.94251,62.12052],[5.9438,62.11921],[5.94414,62.11678],[5.94228,62.11556]],[[5.95034,62.15827],[5.95072,62.15676],[5.94649,62.15175],[5.94683,62.15058],[5.94088,62.14815],[5.94078,62.14715],[5.94171,62.14667]],[[5.94814,62.16029],[5.9499,62.15922],[5.95034,62.15827]],[[5.94405,62.16377],[5.94531,62.16182],[5.94814,62.16029]],[[5.93213,62.17446],[5.93403,62.17302],[5.93739,62.17252],[5.94003,62.1708],[5.94113,62.16938],[5.94134,62.16547],[5.94405,62.16377]],[[5.78265,62.18213],[5.78625,62.18426],[5.79266,62.18522],[5.79566,62.18612],[5.79728,62.1877],[5.80079,62.18895],[5.80133,62.19089]],[[5.99849,62.20575],[6.01023,62.20025]],[[5.8003,62.19336],[5.80109,62.1927],[5.80133,62.19089]],[[5.96439,62.20438],[5.96268,62.20402],[5.9548,62.20424],[5.95314,62.20255],[5.95071,62.20181],[5.95377,62.19962],[5.95376,62.19881],[5.95699,62.19774],[5.96131,62.19514],[5.9712,62.19276],[5.97682,62.19225],[5.9824,62.19077],[5.9851,62.18953],[5.98856,62.18742],[5.99238,62.1811],[5.99621,62.17933],[6.00027,62.17624]],[[5.86324,62.1987],[5.86691,62.19773],[5.87316,62.19728]],[[5.87316,62.19728],[5.87534,62.19865],[5.88291,62.20004],[5.88375,62.20091],[5.88794,62.19997],[5.8946,62.1995],[5.8956,62.19884],[5.89509,62.19693],[5.89625,62.19587],[5.89924,62.19447],[5.90828,62.19186],[5.91547,62.18843],[5.91562,62.1868],[5.91762,62.18547],[5.91853,62.18352],[5.92272,62.18194],[5.92872,62.17846],[5.93213,62.17446]],[[5.96474,62.20658],[5.96519,62.20576],[5.96439,62.20438]],[[5.86221,62.19981],[5.86228,62.1991],[5.86324,62.1987]],[[5.80112,62.19573],[5.80255,62.19666],[5.80192,62.19711],[5.80252,62.19747],[5.80863,62.19755],[5.80946,62.1968],[5.81043,62.19671]],[[5.96474,62.20658],[5.95844,62.20899]],[[5.82537,62.19735],[5.82559,62.19807],[5.83877,62.19844],[5.84168,62.19893],[5.8456,62.2008],[5.84689,62.20203],[5.84848,62.20238]],[[5.84848,62.20238],[5.85111,62.20274],[5.85652,62.20272],[5.86071,62.20108],[5.86221,62.19981]],[[5.94206,62.21815],[5.94489,62.21646],[5.94423,62.21452],[5.94723,62.2136],[5.94534,62.21309],[5.94492,62.2125],[5.9464,62.21219],[5.95068,62.21255],[5.95844,62.20899]],[[5.94114,62.21834],[5.94206,62.21815]],[[5.94047,62.21831],[5.93511,62.21761],[5.93388,62.21618],[5.93175,62.21659],[5.93107,62.21841],[5.93159,62.21947],[5.93082,62.22063],[5.93323,62.22134],[5.93304,62.222],[5.93939,62.22188]],[[5.79243,62.21537],[5.79131,62.21364],[5.78421,62.2126],[5.77627,62.20885]],[[5.93939,62.22188],[5.94078,62.22199],[5.94139,62.22257],[5.94788,62.22301],[5.95677,62.22545],[5.96445,62.22952],[5.96754,62.23004],[5.97086,62.22998],[5.97272,62.23045],[5.97879,62.22861],[5.98622,62.22821],[5.9865,62.22764],[5.98531,62.22673],[5.98728,62.22578],[5.98755,62.22513],[5.98813,62.21737],[5.98891,62.21592],[5.99245,62.21278],[5.99273,62.21161],[5.99453,62.21021]],[[5.89473,62.22528],[5.89153,62.22376],[5.88328,62.22312],[5.87907,62.22352],[5.88201,62.2249],[5.88474,62.22542]],[[5.80029,62.22239],[5.7967,62.22058],[5.79243,62.21537]],[[5.89599,62.22962],[5.89496,62.2278],[5.89609,62.22657],[5.89473,62.22528]],[[5.88474,62.22542],[5.88476,62.22587],[5.8798,62.22782],[5.88172,62.22815],[5.88184,62.22885],[5.88514,62.22909],[5.88579,62.22973]],[[5.80727,62.22607],[5.80029,62.22239]],[[5.88579,62.22973],[5.88145,62.2297],[5.88115,62.23051],[5.88406,62.23126],[5.88916,62.23118],[5.89454,62.23185],[5.89767,62.23119],[5.89599,62.22962]],[[5.96384,62.23706],[5.96487,62.23672],[5.96768,62.23676],[5.97707,62.23871],[5.98402,62.23853],[5.98392,62.23798],[5.98085,62.23608],[5.97825,62.23532],[5.96322,62.23635]],[[5.97904,62.24009],[5.9774,62.23998],[5.97656,62.24029],[5.97734,62.24127],[5.97917,62.24148],[5.98087,62.24111],[5.9808,62.24051],[5.97904,62.24009]],[[5.96322,62.23635],[5.95979,62.2364],[5.95867,62.23689],[5.95392,62.23747],[5.95317,62.2386],[5.95592,62.23927],[5.95783,62.24028],[5.95884,62.2403],[5.96391,62.23905],[5.96384,62.23706]],[[5.83904,62.2333],[5.83924,62.23265]],[[5.83924,62.23265],[5.83452,62.23109],[5.83362,62.23022],[5.83196,62.22993],[5.82118,62.22966],[5.81754,62.22923],[5.81684,62.22965],[5.8178,62.23035],[5.82218,62.2308],[5.82403,62.23065],[5.82431,62.23013],[5.82643,62.23037],[5.8273,62.23104],[5.82653,62.2317],[5.82949,62.23233],[5.82898,62.23311],[5.83175,62.23365],[5.83554,62.23389],[5.83728,62.23325],[5.83904,62.2333]],[[6.00303,62.23837],[5.99846,62.23908],[5.99653,62.23972],[5.99461,62.24101],[5.99399,62.24401],[5.98761,62.24613]],[[5.8036,62.24111],[5.81104,62.24087],[5.80879,62.239],[5.80846,62.23718],[5.80984,62.23573],[5.80907,62.23439],[5.80987,62.23235],[5.81296,62.22961],[5.81237,62.22826],[5.80727,62.22607]],[[5.91393,62.24844],[5.9134,62.24746],[5.91127,62.24642],[5.91038,62.24495],[5.9078,62.24308],[5.90384,62.24144],[5.89972,62.23887],[5.89354,62.23672],[5.89106,62.23596],[5.8847,62.23512],[5.87943,62.23307],[5.87261,62.23123],[5.86763,62.23125],[5.86052,62.22883],[5.85911,62.22874],[5.85481,62.22942],[5.85535,62.23009],[5.85846,62.23093],[5.85835,62.23214],[5.85577,62.23159],[5.85403,62.23211],[5.85666,62.2335],[5.85627,62.2344],[5.85874,62.23511],[5.8598,62.2349],[5.86016,62.23353],[5.86296,62.23401],[5.86927,62.23701],[5.87355,62.23844],[5.8731,62.23872],[5.86699,62.23769],[5.86615,62.23785],[5.86737,62.23904],[5.86911,62.23918],[5.87125,62.24001],[5.87157,62.2411],[5.87953,62.24395],[5.88197,62.2438],[5.88337,62.24537],[5.88603,62.24482],[5.88709,62.24361],[5.89041,62.24343],[5.89154,62.24292],[5.89274,62.24334],[5.89331,62.2442],[5.89036,62.24401],[5.89026,62.24478],[5.89689,62.24712],[5.90156,62.24762]],[[5.79726,62.24069],[5.7982,62.24144],[5.8036,62.24111]],[[5.78502,62.24523],[5.78734,62.24097]],[[5.93045,62.06872],[5.92833,62.06698]],[[5.77175,62.18057],[5.77382,62.18053],[5.78265,62.18213]],[[5.99849,62.20575],[5.99627,62.20686],[5.9951,62.20857]],[[5.81043,62.19671],[5.81434,62.19662]],[[5.99453,62.21021],[5.9951,62.20857]],[[5.94047,62.21831],[5.94114,62.21834]],[[5.79726,62.24069],[5.79254,62.24037]],[[5.78734,62.24097],[5.79254,62.24037]],[[5.83505,62.24634],[5.83385,62.24663],[5.83488,62.24689]],[[5.50078,62.02785],[5.49841,62.02759],[5.49619,62.0285],[5.49649,62.02969],[5.49768,62.02998],[5.50104,62.02867],[5.50078,62.02785]],[[5.49127,62.01468],[5.49315,62.01973],[5.49226,62.02114],[5.49475,62.02265],[5.49855,62.02291],[5.50032,62.024],[5.50047,62.0248],[5.50424,62.02606],[5.50543,62.02817],[5.51175,62.03126]],[[5.52913,62.03337],[5.53043,62.03388],[5.53073,62.033],[5.53146,62.033],[5.53205,62.03359],[5.53148,62.03484]],[[5.53148,62.03484],[5.52993,62.03604],[5.52565,62.03696],[5.52484,62.03799]],[[5.51175,62.03126],[5.51187,62.03293],[5.51361,62.03611],[5.51282,62.03681],[5.5133,62.03749]],[[5.5133,62.03749],[5.51693,62.03738],[5.52291,62.03591],[5.52899,62.03548],[5.52952,62.03506],[5.52777,62.03302]],[[5.51561,62.04062],[5.51464,62.03935],[5.52176,62.03873],[5.52484,62.03799]],[[5.51233,62.04057],[5.51416,62.04194],[5.51539,62.04169],[5.51561,62.04062]],[[5.51195,62.0418],[5.51264,62.04292],[5.51477,62.0431],[5.51636,62.04248],[5.52168,62.04438],[5.52579,62.04536],[5.53032,62.04756]],[[5.51516,62.04361],[5.51478,62.0434],[5.51359,62.04367],[5.51281,62.04485],[5.51575,62.04824],[5.51814,62.04789],[5.51845,62.04746],[5.51633,62.0468],[5.51516,62.04361]],[[5.53032,62.04756],[5.5251,62.05075],[5.52667,62.05362],[5.52293,62.05923],[5.52362,62.0624],[5.52274,62.06399],[5.52216,62.06909],[5.52344,62.07036]],[[5.52344,62.07036],[5.52427,62.07168],[5.52062,62.07482],[5.52109,62.07539],[5.52581,62.07647],[5.52774,62.07612],[5.52815,62.07503],[5.53066,62.07446]],[[5.53066,62.07446],[5.53984,62.07523],[5.54199,62.07621],[5.54366,62.07794],[5.54781,62.07937],[5.54848,62.07848],[5.54736,62.07751],[5.5483,62.07697],[5.55297,62.07562],[5.55762,62.07751],[5.55968,62.07605],[5.5578,62.07545]],[[5.49294,62.10212],[5.49635,62.10198],[5.50246,62.10105],[5.51429,62.1008]],[[5.47748,62.10154],[5.46393,62.09962],[5.4628,62.09895],[5.46284,62.09838],[5.46057,62.099],[5.45861,62.09884],[5.45645,62.09924],[5.45635,62.10081]],[[5.45542,62.1014],[5.45166,62.10207],[5.4488,62.10205],[5.44137,62.10327]],[[5.44137,62.10327],[5.44125,62.10284],[5.43924,62.10233],[5.43566,62.10287],[5.4353,62.10404],[5.43613,62.10751],[5.43546,62.11054],[5.43329,62.11402],[5.43208,62.11481]],[[5.43208,62.11481],[5.42825,62.11806],[5.42239,62.12102]],[[5.41541,62.12412],[5.41853,62.12242],[5.42239,62.12102]],[[5.41452,62.12445],[5.41248,62.12511],[5.41096,62.12648]],[[5.385,62.13778],[5.38568,62.1375],[5.38534,62.13673]],[[5.38534,62.13673],[5.38351,62.1365],[5.38315,62.13683],[5.38404,62.13783],[5.385,62.13778]],[[5.43633,62.15555],[5.42793,62.15397],[5.42785,62.15299],[5.42923,62.15202],[5.42886,62.1503],[5.42661,62.14945],[5.42364,62.14996],[5.42274,62.14957],[5.42343,62.1486],[5.42118,62.14583],[5.4201,62.14338],[5.4199,62.13933],[5.4188,62.13829],[5.41336,62.13751],[5.41156,62.13818],[5.41077,62.13804],[5.41417,62.13467],[5.41409,62.13333],[5.41239,62.13279],[5.41006,62.1328],[5.40515,62.13183],[5.40367,62.13042],[5.40411,62.12957],[5.40646,62.12974],[5.40733,62.12926],[5.40666,62.12871],[5.40438,62.12885],[5.40494,62.12732],[5.40731,62.12664],[5.40951,62.12704],[5.41096,62.12648]],[[5.43633,62.15555],[5.43798,62.15585],[5.43946,62.15715]],[[5.39851,62.17381],[5.39938,62.1722],[5.39614,62.17175],[5.39849,62.1708],[5.3966,62.17016],[5.39324,62.17048],[5.39362,62.17088],[5.39295,62.17137],[5.39143,62.17158],[5.39047,62.17132],[5.38966,62.17211],[5.3871,62.17295],[5.38786,62.1733],[5.39031,62.17275],[5.39646,62.17411],[5.39649,62.17456],[5.39444,62.17471],[5.39416,62.17528],[5.39848,62.17667],[5.39971,62.17655],[5.39884,62.17577],[5.40026,62.17501],[5.39879,62.17447],[5.39851,62.17381]],[[5.37967,62.17843],[5.37695,62.17727],[5.37504,62.17755],[5.37506,62.17816],[5.37769,62.17878],[5.3796,62.17869],[5.37967,62.17843]],[[5.3724,62.17709],[5.37116,62.17659],[5.37078,62.177],[5.36763,62.17747],[5.37198,62.17842]],[[5.45283,62.18495],[5.45969,62.18839]],[[5.45969,62.18839],[5.46181,62.1909],[5.46328,62.19161],[5.46454,62.19172]],[[5.46454,62.19172],[5.47081,62.19207],[5.47565,62.1918],[5.47819,62.19277],[5.47895,62.19364],[5.4805,62.19391]],[[5.49717,62.19553],[5.49993,62.19325],[5.50095,62.19299]],[[5.4805,62.19391],[5.48331,62.19493],[5.48404,62.19599]],[[5.39136,62.18866],[5.39227,62.18535],[5.38856,62.18378],[5.38548,62.1835],[5.38305,62.18292],[5.38271,62.1825],[5.38042,62.1822],[5.3797,62.18289],[5.37508,62.18252],[5.37506,62.18297],[5.37957,62.18396],[5.38153,62.18607],[5.38192,62.18779],[5.38514,62.18783],[5.38732,62.18915],[5.38928,62.1895],[5.3913,62.18943],[5.39136,62.18866]],[[5.48404,62.19599],[5.48469,62.19799],[5.48599,62.19919],[5.48912,62.19969],[5.49568,62.19822],[5.49561,62.19704],[5.49717,62.19553]],[[5.36097,62.19463],[5.35718,62.19475],[5.35632,62.19643],[5.35827,62.19647],[5.36135,62.19509],[5.36097,62.19463]],[[5.42095,62.20187],[5.4215,62.20109],[5.4204,62.20025],[5.41986,62.19756],[5.41624,62.19469],[5.41284,62.19344],[5.40609,62.19335],[5.40168,62.19457],[5.39699,62.19697]],[[5.39699,62.19697],[5.38921,62.19949],[5.38635,62.20108]],[[5.38635,62.20108],[5.37652,62.2032]],[[5.41878,62.20696],[5.42095,62.20187]],[[5.37652,62.2032],[5.36993,62.20432]],[[5.36993,62.20432],[5.36705,62.20448],[5.36322,62.20567]],[[5.46101,62.2122],[5.45986,62.21201],[5.45799,62.2123]],[[5.45799,62.2123],[5.45715,62.21247],[5.45543,62.21457],[5.45579,62.21504]],[[5.49156,62.21527],[5.48999,62.21496],[5.48683,62.21578],[5.48354,62.21724],[5.48266,62.21864],[5.48535,62.21928],[5.48784,62.21951],[5.48912,62.21925],[5.49283,62.21668],[5.49156,62.21527]],[[5.343,62.20954],[5.34522,62.20873],[5.35469,62.20845],[5.35564,62.20773],[5.36134,62.20655],[5.36322,62.20567]],[[5.41162,62.21434],[5.4135,62.21377],[5.41468,62.21205],[5.41731,62.21033],[5.41878,62.20696]],[[5.47582,62.21881],[5.47517,62.2177],[5.4766,62.2169],[5.47479,62.21645],[5.47404,62.21576],[5.47491,62.21524],[5.47593,62.21268],[5.4736,62.21226],[5.47297,62.21114],[5.47084,62.2111],[5.46753,62.20986],[5.46437,62.21044],[5.46378,62.2123],[5.46101,62.2122]],[[5.4807,62.2193],[5.47832,62.22042],[5.48013,62.22214],[5.4819,62.22098],[5.48234,62.22001],[5.4807,62.2193]],[[5.45499,62.22172],[5.45727,62.22206],[5.45876,62.22176],[5.46172,62.22196],[5.46298,62.22212],[5.46321,62.22267],[5.464,62.22277],[5.46607,62.22253],[5.47219,62.22121],[5.47582,62.21881]],[[5.45632,62.21754],[5.44793,62.21971],[5.44829,62.22009],[5.45023,62.22018],[5.44746,62.22133],[5.44707,62.22193],[5.45108,62.22265],[5.45499,62.22172]],[[5.35936,62.21768],[5.36193,62.21716],[5.36381,62.21855],[5.36722,62.21925],[5.36895,62.21898],[5.3688,62.21798],[5.37021,62.21727],[5.37277,62.21739],[5.37485,62.21834]],[[5.38685,62.2219],[5.38807,62.22198],[5.3887,62.22265],[5.39034,62.22265],[5.39162,62.22161],[5.39453,62.22077],[5.39689,62.21899],[5.40381,62.21659],[5.40669,62.21632],[5.40855,62.21678],[5.40935,62.21663],[5.40928,62.21521],[5.41162,62.21434]],[[5.48008,62.22363],[5.47587,62.22402],[5.47387,62.22536],[5.47353,62.22698],[5.4765,62.22884],[5.47745,62.22806],[5.47981,62.22788],[5.48084,62.2264],[5.48177,62.22473],[5.48008,62.22363]],[[5.343,62.20954],[5.34028,62.21024],[5.34304,62.21102],[5.34034,62.2136],[5.34039,62.21427],[5.34109,62.21466],[5.34471,62.21449],[5.3454,62.21473],[5.34702,62.21677],[5.34593,62.21801],[5.34637,62.21895],[5.34971,62.21984],[5.34928,62.22052],[5.35336,62.22081],[5.35325,62.21957],[5.3571,62.2188],[5.35936,62.21768]],[[5.37485,62.21834],[5.37638,62.22058],[5.3754,62.22144],[5.3783,62.22277],[5.38181,62.22297],[5.38461,62.22208],[5.38685,62.2219]],[[5.35452,62.23268],[5.34988,62.23406],[5.34179,62.23485],[5.3418,62.23539],[5.3435,62.23561],[5.34434,62.23675],[5.34744,62.23752],[5.34746,62.23842],[5.35246,62.23909]],[[5.35246,62.23909],[5.35515,62.23959],[5.35832,62.23946],[5.36088,62.23853],[5.36067,62.2378],[5.36341,62.23551],[5.36365,62.23424],[5.36825,62.23203],[5.37164,62.22903],[5.37011,62.22822],[5.36645,62.22812],[5.36462,62.22921],[5.36482,62.23013],[5.36334,62.23154],[5.35452,62.23268]],[[5.39346,62.25832],[5.3925,62.25736],[5.39854,62.25671],[5.39996,62.25617],[5.4028,62.25609],[5.4063,62.25541],[5.40735,62.2548],[5.40731,62.25428],[5.40435,62.25365],[5.40427,62.25329],[5.40782,62.25114],[5.41119,62.25046],[5.41011,62.24818],[5.4117,62.24621],[5.40965,62.24529],[5.40663,62.24565],[5.40648,62.24445],[5.41132,62.24353],[5.41194,62.24284],[5.41331,62.24258],[5.41685,62.24308],[5.4283,62.24237],[5.43288,62.24268],[5.43677,62.24187]],[[5.39346,62.25832],[5.39474,62.25873],[5.39479,62.25953],[5.40477,62.26141],[5.40664,62.26148],[5.40795,62.26081],[5.40995,62.26099],[5.41198,62.2628],[5.41126,62.26374],[5.41775,62.26412],[5.4185,62.26507],[5.41162,62.26554],[5.41082,62.26641],[5.41288,62.26702],[5.41538,62.26678],[5.41718,62.26575],[5.41994,62.26571],[5.4218,62.26654],[5.42346,62.26665],[5.42061,62.26718],[5.42022,62.26762],[5.42332,62.2678],[5.42531,62.26833],[5.42912,62.26774],[5.43229,62.26788],[5.43021,62.26872],[5.43188,62.26901],[5.43037,62.26954],[5.43141,62.26998],[5.43386,62.26984],[5.43512,62.26919],[5.43431,62.26794],[5.44066,62.26659]],[[5.26915,62.32736],[5.26562,62.32708],[5.26414,62.32765],[5.26375,62.32893],[5.26498,62.33175],[5.26683,62.33152],[5.26993,62.32863],[5.26915,62.32736]],[[5.51233,62.04057],[5.51155,62.04075],[5.51195,62.0418]],[[5.49294,62.10212],[5.48611,62.10212],[5.47748,62.10154]],[[5.41452,62.12445],[5.41541,62.12412]],[[5.4375,62.16649],[5.43679,62.16469],[5.43734,62.16359],[5.43676,62.16382],[5.44006,62.15878],[5.43946,62.15715]],[[5.44548,62.18036],[5.45283,62.18495]],[[5.37198,62.17842],[5.3729,62.17845],[5.3734,62.17796],[5.3724,62.17709]],[[5.3573,62.19307],[5.35675,62.19288],[5.35507,62.19332],[5.35301,62.19451],[5.35314,62.19486],[5.35627,62.19425],[5.35738,62.19357],[5.3573,62.19307]],[[5.55333,62.21723],[5.55433,62.21667],[5.55386,62.21554]],[[5.45579,62.21504],[5.4571,62.21511]],[[5.55028,62.26918],[5.555,62.26673]],[[5.93784,62.54686],[5.93774,62.54717]],[[5.93713,62.54917],[5.94041,62.548],[5.93774,62.54717]],[[5.93713,62.54917],[5.93598,62.54952],[5.93454,62.54918],[5.9333,62.55032],[5.931,62.55076],[5.93627,62.55198]],[[5.93538,62.55489],[5.93639,62.55471],[5.93678,62.5541],[5.93875,62.55382],[5.9387,62.55291],[5.93627,62.55198]],[[5.93517,62.55555],[5.94014,62.55587],[5.94254,62.55268],[5.94785,62.55268],[5.94587,62.54967],[5.94099,62.54741],[5.93784,62.54686]],[[5.93538,62.55489],[5.93431,62.5552],[5.93517,62.55555]],[[5.92487,62.64251],[5.92246,62.64243],[5.92207,62.64313],[5.9232,62.64357],[5.92474,62.64342],[5.92487,62.64251]],[[5.9224,62.64474],[5.92172,62.64429],[5.91929,62.64429],[5.91939,62.64503],[5.92119,62.6452],[5.9224,62.64474]],[[5.79247,62.38466],[5.79082,62.38449],[5.78982,62.38559],[5.79184,62.38672]],[[5.79184,62.38672],[5.79598,62.38721],[5.79663,62.38682],[5.79613,62.38601],[5.79247,62.38466]],[[5.80882,62.4086],[5.80793,62.40835],[5.80376,62.40909],[5.80374,62.40965],[5.80849,62.40946],[5.80882,62.4086]],[[5.81765,62.37769],[5.81861,62.37855],[5.82426,62.37922],[5.82618,62.38033],[5.82716,62.38176],[5.82638,62.38287],[5.8281,62.38381],[5.8325,62.38881],[5.84057,62.39439],[5.84084,62.3957],[5.84224,62.3964],[5.84697,62.39692],[5.84882,62.39803],[5.84986,62.4004],[5.84988,62.40301],[5.84821,62.40434],[5.84908,62.40579],[5.85477,62.40681],[5.85819,62.40929],[5.85997,62.40989],[5.86088,62.41134],[5.86484,62.4113],[5.86664,62.41204],[5.87329,62.4135],[5.87804,62.41516],[5.8801,62.41656]],[[5.97509,62.42477],[5.97559,62.42395],[5.97838,62.42321],[5.99335,62.4205],[5.9961,62.4206],[5.99645,62.42134],[5.99796,62.42187],[6.00179,62.42216]],[[5.8801,62.41656],[5.8857,62.41723],[5.89038,62.41888],[5.89759,62.4206],[5.91233,62.42076],[5.92404,62.42264],[5.93085,62.42316],[5.93374,62.42374],[5.94565,62.42451],[5.94772,62.42512],[5.95582,62.42422],[5.96235,62.424],[5.96912,62.42494],[5.97509,62.42477]],[[6.00102,62.46802],[5.99506,62.46615],[5.99076,62.46631],[5.98507,62.46425],[5.98084,62.46428],[5.97472,62.46252],[5.96811,62.46194],[5.96712,62.46204],[5.96681,62.46248],[5.96362,62.46247]],[[5.94495,62.47651],[5.94307,62.47567],[5.94405,62.4744],[5.94333,62.47294],[5.93805,62.47031],[5.9379,62.46956],[5.93529,62.46749],[5.9358,62.46696],[5.93483,62.46611],[5.9352,62.46572],[5.93789,62.46549],[5.94035,62.46374],[5.94329,62.46416],[5.94647,62.46297],[5.95234,62.46298],[5.95296,62.46249],[5.95633,62.46271],[5.95883,62.46231],[5.96362,62.46247]],[[5.94495,62.47651],[5.95041,62.47903],[5.95324,62.47966],[5.95416,62.48082],[5.95763,62.48215]],[[5.95763,62.48215],[5.9658,62.48448],[5.96677,62.48521],[5.96633,62.4861]],[[5.97293,62.48758],[5.97386,62.48729],[5.97423,62.48653],[5.97572,62.48627],[5.97636,62.48558],[5.9783,62.485],[5.9836,62.48469],[5.99496,62.48551],[5.995,62.48474],[5.99676,62.48375],[6.00728,62.48262]],[[5.96633,62.4861],[5.96488,62.48716],[5.96239,62.48795],[5.96106,62.48983],[5.96203,62.49075],[5.96377,62.49126],[5.96914,62.4917],[5.97064,62.49135],[5.97159,62.48845],[5.97293,62.48758]],[[5.83666,62.42762],[5.83429,62.42708],[5.83268,62.4272],[5.83166,62.42648],[5.83001,62.42661],[5.83531,62.42865],[5.83666,62.42762]],[[5.45246,62.06849],[5.45049,62.06777],[5.44956,62.06791],[5.44901,62.06922],[5.45016,62.06943],[5.45246,62.06849]],[[5.46005,62.00872],[5.4551,62.00666],[5.45457,62.00589],[5.45536,62.00449]],[[5.31423,62.00805],[5.30674,62.00078]],[[5.33162,62.00318],[5.33288,62.00429],[5.33547,62.01112]],[[5.39767,62.01698],[5.40063,62.01648],[5.40837,62.01311],[5.41128,62.01344],[5.41548,62.01261],[5.41713,62.01258],[5.42017,62.01341],[5.42383,62.01586]],[[5.42188,62.02203],[5.42547,62.0209],[5.42655,62.01889],[5.42632,62.01802],[5.42383,62.01586]],[[5.26064,62.00165],[5.25518,62.00447],[5.25682,62.0046],[5.2578,62.00536],[5.2559,62.0056],[5.25672,62.00606],[5.25631,62.00687],[5.25721,62.00718],[5.25681,62.0088],[5.2557,62.00962],[5.25791,62.01144],[5.25727,62.01226]],[[5.45536,62.00449],[5.45782,62.00301],[5.46007,62.0027],[5.46383,62.00317],[5.47083,62.00573],[5.47233,62.00718],[5.47802,62.00564],[5.48025,62.00565],[5.49056,62.01183],[5.49149,62.01308],[5.49127,62.01468]],[[5.14143,62.00763],[5.1425,62.00709],[5.14445,62.00398],[5.14727,62.00246],[5.15046,62.00178]],[[5.38242,62.02347],[5.38373,62.02473],[5.38629,62.02552],[5.38787,62.02538],[5.39489,62.02174],[5.39714,62.01828],[5.39834,62.01743],[5.39767,62.01698]],[[5.48538,62.03292],[5.48497,62.0325],[5.48606,62.03213],[5.49067,62.03303],[5.49113,62.03255],[5.48818,62.03138],[5.48582,62.03141],[5.48098,62.02895],[5.47918,62.02703],[5.47941,62.02542],[5.4766,62.02348],[5.47619,62.02223],[5.47803,62.01978],[5.47535,62.01716],[5.47707,62.01557],[5.47832,62.0152],[5.47911,62.0138],[5.47696,62.01263],[5.47307,62.01134],[5.46005,62.00872]],[[5.36654,62.02408],[5.37077,62.0254],[5.37256,62.02492],[5.37494,62.02599],[5.37613,62.02604],[5.37701,62.0257],[5.37535,62.02519],[5.37589,62.02467],[5.38014,62.02323],[5.38242,62.02347]],[[5.34995,62.024],[5.35153,62.02256],[5.35383,62.02188],[5.35948,62.02288],[5.36047,62.02434],[5.36311,62.02584],[5.36449,62.02565],[5.36616,62.0241]],[[5.42188,62.02203],[5.41984,62.02372],[5.42063,62.02474],[5.42014,62.02594],[5.41131,62.03072],[5.4093,62.03127]],[[5.30206,62.02392],[5.31151,62.02122],[5.31759,62.01762],[5.31817,62.01655],[5.3176,62.01399],[5.31423,62.00805]],[[5.40325,62.03197],[5.40501,62.03136],[5.40601,62.03037],[5.40416,62.02935],[5.40454,62.02893],[5.40572,62.02911],[5.40717,62.02864],[5.40731,62.03026],[5.40833,62.03114],[5.4093,62.03127]],[[5.09264,62.01064],[5.09444,62.00964],[5.09275,62.0069],[5.091,62.00623],[5.09149,62.00343],[5.08926,62.00324],[5.09033,62.00397],[5.089,62.00428],[5.08335,62.00236],[5.08022,62.00191],[5.07609,62.00443],[5.06965,62.00725],[5.06871,62.00861],[5.06791,62.00884]],[[5.40161,62.03267],[5.40325,62.03197]],[[5.13525,62.01372],[5.13499,62.01279],[5.13621,62.01202]],[[5.18854,62.01755],[5.18771,62.01689],[5.18591,62.01737]],[[5.206,62.01881],[5.19988,62.01797],[5.19841,62.01701],[5.19649,62.01796],[5.19391,62.01759],[5.19359,62.01713],[5.19548,62.01695],[5.19605,62.01655],[5.19456,62.01586],[5.19145,62.01776]],[[5.20921,62.01904],[5.20815,62.01808],[5.20611,62.01764],[5.20508,62.01501],[5.1994,62.0131],[5.19958,62.01227],[5.20126,62.01181],[5.20134,62.01077],[5.1986,62.01046],[5.19883,62.00916],[5.19554,62.00943],[5.193,62.00912],[5.19186,62.00843],[5.19225,62.00815],[5.19412,62.00861],[5.19694,62.00842],[5.19821,62.00777],[5.19756,62.0074],[5.18798,62.00833],[5.18789,62.00963],[5.18018,62.01175],[5.18362,62.01306],[5.18315,62.01401],[5.18378,62.01464],[5.1862,62.01497],[5.18504,62.01558],[5.1843,62.01725]],[[5.25727,62.01226],[5.25353,62.01365],[5.25272,62.01545],[5.26145,62.01722],[5.26518,62.01843],[5.26733,62.02012],[5.26854,62.02327]],[[5.28293,62.02429],[5.28629,62.02399],[5.2982,62.02446],[5.30206,62.02392]],[[5.34418,62.02863],[5.3434,62.0279],[5.34564,62.02655],[5.34421,62.02596],[5.34597,62.02462],[5.34279,62.02517],[5.34072,62.02426],[5.3426,62.02222],[5.34123,62.02047],[5.33749,62.01879],[5.33547,62.01112]],[[5.34869,62.02547],[5.34819,62.02691],[5.35142,62.02703],[5.35389,62.02932]],[[5.48915,62.03879],[5.48997,62.03743],[5.48917,62.03492],[5.48827,62.034],[5.48538,62.03292]],[[5.13525,62.01372],[5.13546,62.01432]],[[5.48842,62.03952],[5.48915,62.03879]],[[5.1843,62.01725],[5.18526,62.01832],[5.18591,62.01737]],[[5.18854,62.01755],[5.18921,62.01946],[5.19145,62.01776]],[[5.206,62.01881],[5.20691,62.01951],[5.20345,62.02003],[5.20238,62.02053],[5.20259,62.02105],[5.2049,62.02149],[5.20666,62.02091],[5.20795,62.02159],[5.20899,62.02148],[5.21079,62.02046],[5.20804,62.01956],[5.20921,62.01904]],[[5.40161,62.03267],[5.39863,62.034],[5.39446,62.03487],[5.39093,62.03507]],[[5.13539,62.01453],[5.13394,62.0156],[5.1346,62.01695]],[[5.49549,62.04263],[5.49662,62.04177],[5.49619,62.04128],[5.49434,62.04035],[5.49261,62.04012],[5.49029,62.04124],[5.48954,62.0423],[5.49129,62.04256],[5.49155,62.04203],[5.4932,62.04281],[5.49549,62.04263]],[[5.10171,62.01535],[5.10224,62.01489],[5.10351,62.01541]],[[5.34418,62.02863],[5.34424,62.03088],[5.34155,62.03172],[5.34167,62.03236],[5.34316,62.03279],[5.35278,62.03189],[5.35524,62.03106],[5.35458,62.03013]],[[5.26854,62.02327],[5.26838,62.02468],[5.26624,62.02745],[5.26668,62.02799],[5.2708,62.02754],[5.2744,62.02615],[5.28293,62.02429]],[[5.05343,62.01513],[5.05455,62.01427],[5.05865,62.01361],[5.06108,62.01224],[5.06322,62.01013],[5.06791,62.00884]],[[5.09083,62.01124],[5.08769,62.0124],[5.08465,62.01472],[5.08452,62.01588],[5.08238,62.01629],[5.08171,62.01724],[5.08355,62.01719],[5.08345,62.01839],[5.08525,62.0184],[5.08664,62.01668],[5.09059,62.01486],[5.09334,62.01644],[5.09336,62.01787],[5.09394,62.01807],[5.0952,62.01763],[5.09686,62.01565],[5.09942,62.01556],[5.10077,62.01654],[5.10171,62.01535]],[[5.13255,62.02321],[5.13639,62.02181],[5.13545,62.02099],[5.13524,62.02011],[5.13599,62.01966],[5.1346,62.01695]],[[5.13057,62.02372],[5.13255,62.02321]],[[5.1273,62.02611],[5.13057,62.02372]],[[5.35636,62.03687],[5.35099,62.03665],[5.35043,62.0362],[5.34827,62.03601],[5.34788,62.03558],[5.34523,62.03527],[5.34429,62.03531],[5.34436,62.03593],[5.341,62.03552],[5.33991,62.03568],[5.34093,62.03823],[5.33821,62.03995],[5.3378,62.042],[5.33847,62.04234],[5.33734,62.04282],[5.33774,62.0432],[5.33994,62.0432]],[[5.03558,62.0251],[5.0383,62.02452],[5.03936,62.02303],[5.04201,62.02285],[5.04334,62.02146],[5.04507,62.02151],[5.04773,62.01675],[5.04903,62.01621],[5.05315,62.01613],[5.05343,62.01513]],[[5.03524,62.02521],[5.03558,62.0251]],[[5.33994,62.0432],[5.3409,62.04476],[5.34169,62.0441],[5.3446,62.04444],[5.3444,62.04478],[5.34166,62.0453],[5.34157,62.04567],[5.34661,62.04501],[5.3506,62.04693],[5.35063,62.04805]],[[5.10351,62.01541],[5.10516,62.01648],[5.1063,62.01667],[5.10791,62.01568],[5.10888,62.01601],[5.11182,62.01602],[5.11325,62.02009],[5.11191,62.02053],[5.11202,62.02239],[5.11345,62.02377],[5.11323,62.02432],[5.11157,62.02461],[5.10996,62.02577],[5.11172,62.02626],[5.11411,62.02567],[5.11789,62.02701],[5.11832,62.02743],[5.11758,62.02821],[5.11871,62.02815],[5.11903,62.02758],[5.12012,62.02793],[5.12041,62.02891],[5.11841,62.02976],[5.12003,62.03007],[5.12068,62.03229],[5.12135,62.03252],[5.12428,62.03271],[5.12529,62.03093],[5.12806,62.03044],[5.1273,62.02611]],[[5.33168,62.05174],[5.33263,62.0515],[5.33352,62.05178],[5.33405,62.05147],[5.33259,62.05014],[5.32856,62.04916],[5.32576,62.04965],[5.32563,62.05019],[5.32683,62.0512],[5.33168,62.05174]],[[5.3155,62.05345],[5.31736,62.05297],[5.31725,62.05195],[5.31964,62.05194],[5.32078,62.05255],[5.32231,62.05235],[5.32206,62.05036],[5.31973,62.04974],[5.31791,62.04741],[5.31892,62.04676],[5.32139,62.0466],[5.31955,62.04498],[5.32042,62.04223],[5.31935,62.04146]],[[5.28454,62.05031],[5.2827,62.05087],[5.28261,62.0516],[5.28373,62.05196],[5.28524,62.0517],[5.28576,62.05107],[5.28454,62.05031]],[[5.31935,62.04146],[5.31487,62.04121],[5.3088,62.04336],[5.3087,62.04394],[5.30652,62.04483],[5.29701,62.04593],[5.29154,62.04855],[5.29162,62.04919],[5.29302,62.04935],[5.29083,62.05041],[5.2918,62.05193],[5.29481,62.05274],[5.29617,62.05256],[5.29775,62.05364],[5.29941,62.05356],[5.29942,62.05408],[5.29843,62.05419],[5.29449,62.05386],[5.29463,62.05431],[5.29718,62.05495],[5.30105,62.05494],[5.3012,62.05398],[5.30269,62.05472],[5.30927,62.05463],[5.31142,62.0552],[5.31437,62.05512],[5.31462,62.05484],[5.31328,62.0541],[5.3155,62.05345]],[[5.35063,62.04805],[5.34999,62.04849],[5.34768,62.04857],[5.34687,62.04998],[5.34439,62.0513],[5.3442,62.05342],[5.34558,62.0545],[5.34442,62.05514],[5.3442,62.05838]],[[4.9988,62.0327],[5.00339,62.0331],[5.00491,62.03182],[5.00687,62.03242],[5.00888,62.03066],[5.01104,62.03049],[5.01304,62.02877],[5.0163,62.02755],[5.0168,62.02682],[5.01896,62.02576],[5.02009,62.02565],[5.02093,62.02621],[5.02555,62.02596],[5.02666,62.02766],[5.02807,62.02701],[5.0336,62.02663],[5.03375,62.02595],[5.03524,62.02521]],[[5.42157,62.0772],[5.4225,62.0765],[5.42133,62.07525],[5.42334,62.07429],[5.42451,62.07249],[5.42587,62.07188],[5.43141,62.07077],[5.43513,62.07106],[5.43995,62.0727],[5.4423,62.07182],[5.44137,62.07009],[5.44444,62.06315],[5.4435,62.06283],[5.44621,62.06073],[5.44924,62.05963],[5.45662,62.05986],[5.45917,62.05901],[5.46414,62.05957],[5.46384,62.05833],[5.46202,62.05755],[5.46471,62.05732],[5.46411,62.05657],[5.46594,62.05613],[5.4743,62.05875],[5.4776,62.05815],[5.47425,62.05539],[5.47236,62.0545],[5.47274,62.05344],[5.47164,62.05261],[5.47286,62.05102],[5.47114,62.04983],[5.47342,62.04837],[5.4759,62.04783],[5.47837,62.04558],[5.47974,62.04524],[5.47893,62.04338],[5.48,62.04177],[5.47879,62.04068],[5.48018,62.0397],[5.48197,62.03958],[5.48841,62.04229],[5.48942,62.04075],[5.48814,62.04007],[5.48842,62.03952]],[[5.3192,62.07211],[5.32129,62.0713],[5.32226,62.07],[5.32483,62.06889],[5.32703,62.06715],[5.33056,62.06609],[5.33324,62.0643],[5.33725,62.06282],[5.34108,62.05952],[5.3442,62.05838]],[[5.41701,62.07899],[5.4162,62.07668],[5.41529,62.07639],[5.41151,62.07656],[5.40575,62.0782]],[[5.42025,62.07922],[5.42242,62.07897],[5.42089,62.07828],[5.42157,62.0772]],[[5.41701,62.07899],[5.41819,62.07969],[5.42025,62.07922]],[[5.40065,62.08104],[5.40207,62.08064],[5.40371,62.0792]],[[5.30788,62.07715],[5.31317,62.07564],[5.3192,62.07211]],[[5.37874,62.09333],[5.38457,62.09318],[5.3885,62.09124],[5.39397,62.09052],[5.39249,62.08978],[5.39196,62.08796],[5.39627,62.08613],[5.39644,62.08433],[5.39947,62.08351],[5.40065,62.08104]],[[5.35564,62.10123],[5.35952,62.09909],[5.36547,62.09761],[5.37626,62.09361],[5.37874,62.09333]],[[5.24863,62.09855],[5.25301,62.09571],[5.25489,62.0926],[5.25802,62.09139],[5.25864,62.08966],[5.26074,62.08887],[5.26314,62.08551],[5.26962,62.08369],[5.27699,62.08219],[5.27784,62.08117],[5.27699,62.08012],[5.28067,62.0808],[5.29163,62.0798],[5.29842,62.07815],[5.30788,62.07715]],[[5.34533,62.10924],[5.34631,62.10987],[5.34794,62.10997],[5.3501,62.10895],[5.35095,62.10687],[5.35274,62.10568],[5.35226,62.10513],[5.35427,62.10205],[5.35564,62.10123]],[[5.23282,62.10348],[5.24356,62.10052],[5.24863,62.09855]],[[5.20321,62.10228],[5.207,62.10252],[5.21074,62.10177],[5.21704,62.10315],[5.22617,62.10373],[5.23282,62.10348]],[[5.11494,62.10278],[5.11669,62.10197],[5.12,62.10213],[5.119,62.0999],[5.12241,62.10109],[5.12573,62.10115],[5.12987,62.10213],[5.13162,62.10051],[5.1339,62.10068],[5.13714,62.1018],[5.13947,62.10168],[5.14194,62.10235],[5.14475,62.1021],[5.14486,62.10112],[5.15378,62.10197],[5.15911,62.10154],[5.16382,62.10163],[5.16948,62.10272],[5.19409,62.10135],[5.20321,62.10228]],[[5.34533,62.10924],[5.34166,62.10983],[5.34112,62.11024],[5.33959,62.1121],[5.34072,62.11359],[5.33988,62.1139],[5.33784,62.11365],[5.33267,62.11477],[5.32656,62.11668],[5.32597,62.11765],[5.32467,62.11775]],[[5.31063,62.13119],[5.31176,62.12891],[5.31418,62.12828],[5.31274,62.12744],[5.31297,62.1258],[5.31716,62.12096],[5.32209,62.11833],[5.32467,62.11775]],[[5.31138,62.15297],[5.30769,62.15379],[5.30232,62.15293],[5.30131,62.15247],[5.30035,62.15078],[5.30315,62.15084],[5.30455,62.1504],[5.30581,62.14901],[5.3073,62.14828],[5.30841,62.14827],[5.30973,62.14601],[5.31403,62.14512],[5.31615,62.14368],[5.31643,62.14189],[5.31235,62.13596],[5.31063,62.13119]],[[5.32825,62.15902],[5.32664,62.15604],[5.32351,62.15482],[5.31908,62.15389],[5.31376,62.15352],[5.31138,62.15297]],[[5.12232,62.14858],[5.12684,62.14799],[5.12758,62.14886],[5.12852,62.14893],[5.13147,62.14745],[5.13374,62.14775],[5.13774,62.14703],[5.14333,62.14489],[5.14429,62.14389],[5.14292,62.14134],[5.1437,62.14067],[5.14257,62.13999],[5.14317,62.13881],[5.14404,62.13847],[5.14525,62.13867],[5.14594,62.13827],[5.14445,62.13769],[5.14421,62.1366],[5.14556,62.13469],[5.14878,62.13294],[5.15556,62.1303],[5.15765,62.12875],[5.16153,62.12788],[5.16374,62.12609],[5.16008,62.12241],[5.15641,62.12059],[5.14849,62.1215],[5.14075,62.12303],[5.1361,62.12273],[5.12537,62.12577],[5.1226,62.12729],[5.11987,62.12703],[5.12028,62.1262],[5.11917,62.12554],[5.11378,62.12538],[5.11228,62.12484],[5.11188,62.12439],[5.11289,62.12333],[5.11722,62.12252],[5.1178,62.12204],[5.11753,62.12052],[5.11837,62.12014],[5.11867,62.11884],[5.11856,62.11812],[5.11727,62.11783],[5.11703,62.11726],[5.1174,62.11322],[5.11849,62.1125],[5.11767,62.11215],[5.11857,62.11134],[5.11768,62.10939],[5.12066,62.10682],[5.1168,62.1063],[5.11572,62.10492],[5.11235,62.10449],[5.11494,62.10278]],[[5.29405,62.16084],[5.29469,62.16024],[5.29573,62.16083],[5.29837,62.16009],[5.29534,62.15773],[5.29404,62.15744],[5.28578,62.15791],[5.28448,62.15855],[5.28432,62.16015]],[[5.32921,62.16332],[5.32928,62.16058],[5.32825,62.15902]],[[5.29405,62.16084],[5.29641,62.16207],[5.29815,62.16208],[5.29866,62.16266],[5.29545,62.16457],[5.29036,62.16586],[5.28859,62.16725],[5.28782,62.16868],[5.29176,62.17103],[5.29237,62.16946],[5.29317,62.1691],[5.29699,62.17001],[5.30083,62.16951],[5.30352,62.17112],[5.30677,62.16845],[5.31012,62.16737],[5.32114,62.16738],[5.32353,62.16686],[5.32577,62.1679],[5.32791,62.16769],[5.32953,62.16717],[5.32921,62.16332]],[[5.27629,62.17496],[5.28061,62.17532],[5.28256,62.17461],[5.28193,62.1734],[5.28281,62.16836],[5.28235,62.1674],[5.28344,62.16536],[5.2854,62.1639],[5.28967,62.1635],[5.28434,62.16286],[5.28522,62.16185],[5.28802,62.16069],[5.2875,62.1605],[5.28497,62.16117],[5.28432,62.16015]],[[5.10283,62.16477],[5.10733,62.16428],[5.11249,62.16562],[5.11505,62.16693]],[[5.10283,62.16477],[5.09306,62.16742],[5.09012,62.16782],[5.0891,62.16744],[5.09091,62.16619],[5.09313,62.16569],[5.09151,62.16424],[5.09161,62.16355],[5.09327,62.16323],[5.09608,62.16359],[5.10072,62.16199],[5.10035,62.16063],[5.0982,62.15888],[5.099,62.15655],[5.10136,62.15614],[5.10261,62.15656],[5.10536,62.15649],[5.1087,62.15463],[5.10737,62.15328],[5.10262,62.15173],[5.10348,62.15079],[5.10894,62.15073],[5.10978,62.15108],[5.10978,62.15173],[5.11111,62.15224],[5.11255,62.15176],[5.11512,62.15213],[5.1143,62.15102],[5.11466,62.15014],[5.12063,62.14993],[5.12129,62.14944],[5.12084,62.14889],[5.12232,62.14858]],[[5.0806,62.16933],[5.08145,62.1689],[5.08066,62.16775],[5.07873,62.16886],[5.0796,62.16948],[5.0806,62.16933]],[[5.24189,62.18692],[5.24366,62.18647],[5.24307,62.18551],[5.24446,62.18465],[5.24486,62.18307],[5.24902,62.18105],[5.25126,62.18075],[5.25212,62.17876],[5.25322,62.17802],[5.25639,62.17803],[5.25808,62.17751],[5.26145,62.17808],[5.26321,62.17661],[5.27053,62.17437],[5.27629,62.17496]],[[5.23311,62.19208],[5.2346,62.19174],[5.23487,62.19039],[5.23708,62.18768],[5.23836,62.18718],[5.24189,62.18692]],[[5.15861,62.18786],[5.15987,62.18776],[5.162,62.18831]],[[5.162,62.18831],[5.16101,62.1915],[5.16225,62.19284],[5.16433,62.19331],[5.16696,62.19291],[5.1732,62.19412]],[[5.09974,62.19222],[5.09901,62.19039],[5.09963,62.18915],[5.09576,62.18792],[5.09415,62.18505],[5.09698,62.18203],[5.10023,62.18189],[5.10267,62.18075],[5.10811,62.1794],[5.10861,62.1764],[5.11077,62.17551],[5.11052,62.17509],[5.11181,62.17452],[5.11228,62.17355],[5.112,62.17043],[5.11534,62.16897],[5.11505,62.16693]],[[5.14431,62.19542],[5.14423,62.19453],[5.14702,62.19406],[5.15018,62.19218],[5.15282,62.18962],[5.15484,62.18932],[5.15861,62.18786]],[[5.17813,62.19785],[5.1878,62.19779],[5.1895,62.19753],[5.19055,62.1969],[5.19302,62.19721],[5.20253,62.19614],[5.2043,62.19444],[5.20384,62.19262],[5.20307,62.19222],[5.19541,62.19164],[5.1907,62.19302],[5.17944,62.1949],[5.1732,62.19412]],[[5.22855,62.20144],[5.22811,62.19743],[5.23104,62.19282],[5.23311,62.19208]],[[5.09974,62.19222],[5.09866,62.19338],[5.10105,62.19456],[5.11168,62.19441],[5.11281,62.19494],[5.11273,62.19586],[5.1139,62.19663],[5.11785,62.19753],[5.12239,62.19799],[5.12336,62.19844],[5.12268,62.19914],[5.12349,62.20068],[5.12546,62.20098],[5.12778,62.20101],[5.13101,62.20033],[5.13664,62.20037],[5.1402,62.19997],[5.14084,62.20036],[5.14371,62.20062],[5.14385,62.19933],[5.14557,62.19731],[5.14431,62.19542]],[[5.17813,62.19785],[5.17493,62.19857],[5.17645,62.20057],[5.1749,62.20185],[5.17504,62.20241],[5.17694,62.20329],[5.17949,62.20281],[5.18257,62.20426],[5.18021,62.20745],[5.18318,62.20858],[5.18133,62.21003],[5.18132,62.21105],[5.17907,62.21137],[5.17848,62.21241],[5.17913,62.21337],[5.18144,62.21422],[5.18365,62.2142],[5.18437,62.21554],[5.18544,62.2158],[5.18655,62.21563],[5.18676,62.2135],[5.18959,62.21149],[5.19358,62.21033],[5.20061,62.21091],[5.20126,62.20998],[5.20753,62.20762],[5.21125,62.20774],[5.21445,62.20726],[5.21829,62.20836],[5.22122,62.20874],[5.22311,62.20998],[5.22406,62.20982],[5.2265,62.20878],[5.22537,62.20791],[5.22743,62.20665],[5.22892,62.20648],[5.22855,62.20144]],[[5.13621,62.01202],[5.13647,62.01193]],[[5.18073,62.001],[5.17743,62.00091],[5.17738,62.00178],[5.17879,62.00219],[5.18073,62.001]],[[5.13647,62.01193],[5.13926,62.01204],[5.1406,62.01162],[5.14209,62.00758],[5.14143,62.00792],[5.14143,62.00763]],[[5.36616,62.0241],[5.36654,62.02408]],[[5.34869,62.02547],[5.34995,62.024]],[[5.09264,62.01064],[5.09149,62.01104]],[[5.09149,62.01104],[5.09083,62.01124]],[[5.35458,62.03013],[5.35389,62.02932]],[[5.13539,62.01453],[5.13546,62.01432]],[[5.39093,62.03507],[5.38525,62.03509],[5.38258,62.03459],[5.38093,62.03478]],[[5.38093,62.03478],[5.37331,62.03478],[5.36768,62.03559],[5.36442,62.03553]],[[5.36442,62.03553],[5.35858,62.03619],[5.35636,62.03687]],[[5.40371,62.0792],[5.40575,62.0782]],[[5.31897,62.15017],[5.31689,62.14995],[5.31548,62.15074],[5.31909,62.1508],[5.31897,62.15017]],[[5.30674,62.00078],[5.30535,61.99782]],[[5.33044,61.99985],[5.33093,62.00042],[5.33012,62.00168],[5.33162,62.00318]],[[5.26288,61.99924],[5.26064,62.00165]],[[5.15046,62.00178],[5.15126,62.0014],[5.15187,61.99907]]]}}]}