{"type":"FeatureCollection","features":[{"type":"Feature","properties":{},"geometry":{"type":"MultiLineString","coordinates":[[[7.8279,62.94721],[7.83686,62.95007],[7.84339,62.95055]],[[7.84339,62.95055],[7.84853,62.9504],[7.84943,62.94831]],[[7.865,62.9491],[7.86657,62.95096],[7.86994,62.95324],[7.87492,62.95521]],[[7.91718,62.96227],[7.91945,62.96253],[7.92356,62.96231]],[[7.78527,62.96102],[7.78883,62.96123],[7.7919,62.95971],[7.79178,62.95925],[7.78411,62.9571],[7.78107,62.9568],[7.77897,62.95532]],[[7.78095,62.96242],[7.78185,62.96167],[7.78527,62.96102]],[[7.7724,62.96482],[7.77234,62.96379],[7.77334,62.96356],[7.77902,62.96411],[7.78004,62.96393],[7.78158,62.9634],[7.78095,62.96242]],[[7.7564,62.96642],[7.75809,62.96669],[7.75724,62.96752],[7.76139,62.96847],[7.76391,62.9678],[7.76316,62.96632],[7.76854,62.96532],[7.77089,62.96595],[7.7724,62.96482]],[[7.85459,62.97393],[7.85483,62.97222],[7.85113,62.97125],[7.84931,62.97031],[7.84511,62.97148],[7.84486,62.97222],[7.8426,62.97227]],[[7.86944,62.9754],[7.86705,62.97432],[7.86565,62.97436],[7.8664,62.977],[7.87002,62.97687],[7.86944,62.9754]],[[7.8426,62.97227],[7.84296,62.97195],[7.836,62.9718],[7.82088,62.96756],[7.80939,62.96537],[7.80499,62.9669],[7.80471,62.96832],[7.80382,62.96878],[7.79804,62.96926],[7.79563,62.97099],[7.79157,62.97285],[7.78947,62.97312]],[[7.78947,62.97312],[7.78529,62.97315],[7.78362,62.974],[7.78291,62.97514],[7.78561,62.97682],[7.78856,62.97677]],[[7.8681,62.98295],[7.87052,62.9816],[7.87237,62.98137],[7.8725,62.98093],[7.86793,62.97916],[7.86553,62.9779],[7.86536,62.97733],[7.85459,62.97393]],[[7.86625,62.98345],[7.8681,62.98295]],[[7.79842,62.98667],[7.79341,62.98497],[7.79422,62.9822],[7.79358,62.97825],[7.79188,62.97738],[7.78856,62.97677]],[[7.88459,62.98928],[7.8804,62.98937],[7.88042,62.9898],[7.88143,62.99005],[7.88167,62.99141],[7.88373,62.9928]],[[7.8118,62.99147],[7.80884,62.99035],[7.80174,62.98923],[7.79969,62.98824],[7.79962,62.98736]],[[7.84415,62.99312],[7.84354,62.99193],[7.84853,62.99203],[7.85161,62.99129],[7.8537,62.98939],[7.85366,62.9858],[7.85501,62.98466],[7.85716,62.98415],[7.85862,62.9846],[7.85886,62.98508],[7.86083,62.98543],[7.86114,62.98505],[7.85895,62.98377],[7.86021,62.98301],[7.86242,62.9828],[7.86687,62.98363],[7.86625,62.98345]],[[7.89074,62.99548],[7.89204,62.99498],[7.89481,62.99495],[7.90214,62.99339],[7.90174,62.9926],[7.89321,62.99349],[7.88811,62.99286],[7.88373,62.9928]],[[7.95568,62.99875],[7.95283,62.99776],[7.94951,62.99819],[7.94389,62.99708],[7.94094,62.99788],[7.93584,62.99692],[7.93293,62.99692],[7.92676,62.99604],[7.92005,62.99442],[7.91182,62.99315],[7.90747,62.99189],[7.90467,62.99156],[7.90333,62.99071],[7.89628,62.9887],[7.88914,62.98887],[7.88773,62.98961],[7.88459,62.98928]],[[7.79356,62.99204],[7.79234,62.99168],[7.78925,62.9932],[7.78987,62.99355],[7.7929,62.99301],[7.79356,62.99204]],[[7.8118,62.99147],[7.82342,62.995],[7.82585,62.99495],[7.82714,62.9939],[7.8286,62.99386],[7.83395,62.99544],[7.83866,62.99624],[7.84234,62.99527],[7.84274,62.99341],[7.84415,62.99312]],[[7.79659,62.99395],[7.79474,62.9939],[7.79378,62.99423],[7.79657,62.9949],[7.79945,62.99506],[7.79956,62.99471],[7.79659,62.99395]],[[7.80468,62.99544],[7.80104,62.99544],[7.7989,62.99632],[7.80184,62.99726],[7.80437,62.99618],[7.80468,62.99544]],[[7.84154,62.99874],[7.84232,62.99856],[7.84472,62.99918],[7.8459,62.99903],[7.84735,62.99776],[7.85067,62.99693],[7.85304,62.99703],[7.85317,62.99552],[7.84947,62.99433],[7.84767,62.99435],[7.84646,62.99528],[7.84151,62.99691],[7.83944,62.99903],[7.84147,62.99925],[7.84154,62.99874]],[[7.95568,62.99875],[7.95498,62.99907],[7.95354,62.99887],[7.95285,62.99929],[7.95452,63.00222]],[[7.89184,63.0006],[7.89074,62.99548]],[[7.87492,62.95521],[7.8824,62.95708],[7.88448,62.95844],[7.88764,62.95956],[7.89187,62.95949]],[[7.77827,62.95467],[7.77722,62.95392],[7.77184,62.95213],[7.76884,62.94995],[7.76344,62.94864],[7.75612,62.94513],[7.75071,62.94325]],[[7.89211,62.95945],[7.89402,62.95925],[7.90414,62.9597],[7.91257,62.96151]],[[7.77897,62.95532],[7.77827,62.95467]],[[7.91257,62.96151],[7.91706,62.96264],[7.91718,62.96227]],[[7.99397,62.97449],[7.9896,62.97361],[7.98795,62.97408],[7.98897,62.97459],[7.98981,62.97427],[7.99301,62.97509],[7.99435,62.97503],[7.99397,62.97449]],[[7.79842,62.98667],[7.79962,62.98736]],[[7.85206,62.94566],[7.85632,62.94486],[7.85924,62.94535],[7.86141,62.94528]],[[7.86424,62.94554],[7.86141,62.94528]],[[7.86424,62.94554],[7.86456,62.94574]],[[7.85206,62.94566],[7.84943,62.94831]],[[7.865,62.9491],[7.86445,62.94786],[7.86542,62.94652],[7.86456,62.94574]],[[7.89187,62.95949],[7.89211,62.95945]],[[7.93278,62.96253],[7.93303,62.96173],[7.93434,62.96127],[7.93933,62.96269],[7.94728,62.96326]],[[7.98811,62.97101],[7.99013,62.97109],[7.9921,62.97],[7.9943,62.96972],[8.00251,62.97034]],[[7.92356,62.96231],[7.92786,62.96289],[7.93045,62.96294],[7.93278,62.96253]],[[7.94728,62.96326],[7.95322,62.96426],[7.95833,62.96568],[7.96112,62.96717],[7.96239,62.96871],[7.96646,62.96967],[7.96674,62.97116],[7.97082,62.97251],[7.97475,62.97298],[7.97628,62.97279],[7.97855,62.97167],[7.98074,62.97179],[7.98126,62.97022],[7.98327,62.96968],[7.98544,62.96992],[7.98811,62.97101]],[[7.8279,62.94721],[7.82407,62.94643],[7.81517,62.94336],[7.80422,62.94033],[7.79823,62.93769]],[[7.00733,62.85774],[7.00646,62.85595],[7.01132,62.85437],[7.01225,62.85302]],[[7.00733,62.85774],[7.00819,62.85889],[7.00769,62.85947],[7.00625,62.85994],[7.00414,62.85982]],[[7.00414,62.85982],[7.00179,62.8594],[7.00032,62.85868],[6.99892,62.85976]],[[7.39719,62.95718],[7.40232,62.95773],[7.40399,62.95716],[7.40695,62.95694],[7.41317,62.95774],[7.41459,62.95747],[7.41497,62.95684]],[[7.39316,62.95846],[7.39628,62.9579],[7.39626,62.9573],[7.39719,62.95718]],[[7.38256,62.95914],[7.38408,62.9583],[7.39248,62.95849]],[[6.9961,62.9433],[7.00424,62.9445]],[[7.0041,62.94499],[7.007,62.94511],[7.00424,62.9445]],[[7.36285,62.96772],[7.36757,62.96693],[7.36906,62.96635],[7.37715,62.96643],[7.37558,62.96484],[7.37578,62.96313],[7.37654,62.96259],[7.38069,62.96273],[7.37967,62.96197],[7.38268,62.95976]],[[7.0014,62.94768],[7.00026,62.94561],[6.99901,62.94594]],[[6.99938,62.94474],[7.0041,62.94499]],[[7.02247,62.94887],[7.02212,62.94856],[7.02456,62.94715],[7.02359,62.9471],[7.01981,62.94872]],[[7.0014,62.94768],[7.00315,62.94848]],[[7.00315,62.94848],[7.01106,62.94892],[7.01264,62.94846],[7.01372,62.94863],[7.01416,62.94915],[7.01607,62.94904],[7.01646,62.94964],[7.02043,62.95031],[7.02254,62.95027],[7.01837,62.94917],[7.01981,62.94872]],[[7.34365,62.97004],[7.34917,62.96975],[7.35496,62.96867],[7.36057,62.96884],[7.36224,62.96789]],[[6.999,62.95091],[7.00123,62.95032],[7.00118,62.94982],[6.99933,62.94951]],[[7.3931,62.97285],[7.39581,62.973],[7.39758,62.97246],[7.39822,62.97148],[7.39975,62.97102],[7.40977,62.97126],[7.41292,62.97051]],[[7.34281,62.9706],[7.34365,62.97004]],[[7.00221,62.95188],[7.00004,62.95198],[6.99955,62.95238]],[[6.99955,62.95238],[7.0018,62.95337]],[[7.0018,62.95337],[7.00566,62.95396],[7.0059,62.95339],[7.00953,62.95275],[7.0093,62.95244],[7.00727,62.95244],[7.00562,62.95199],[7.00221,62.95188]],[[7.31971,62.97093],[7.32327,62.97081],[7.32773,62.97202],[7.32866,62.97305],[7.33332,62.97271],[7.33451,62.97349],[7.33918,62.97378],[7.34386,62.97269],[7.34281,62.9706]],[[7.0843,62.96122],[7.08473,62.96078],[7.09158,62.95924],[7.09278,62.95813],[7.09184,62.95726],[7.09242,62.95634],[7.09392,62.95732],[7.09972,62.95778]],[[7.09947,62.95869],[7.0964,62.95862],[7.09223,62.95961],[7.09008,62.96151],[7.09286,62.96242]],[[7.31484,62.97647],[7.31796,62.97579],[7.31843,62.97483],[7.31647,62.97323],[7.31647,62.97197],[7.31739,62.97139],[7.31971,62.97093]],[[7.31393,62.97919],[7.31597,62.97837],[7.31476,62.9774],[7.31484,62.97647]],[[7.29221,62.97944],[7.2943,62.97976],[7.29807,62.97932],[7.29999,62.97962]],[[7.06735,62.96905],[7.06992,62.9697],[7.07144,62.96963],[7.07289,62.96875],[7.07166,62.9679],[7.07228,62.96713],[7.08423,62.96483],[7.0843,62.96122]],[[7.27378,62.98216],[7.28243,62.98089],[7.28857,62.98056],[7.29013,62.97955],[7.29149,62.97923],[7.29221,62.97944]],[[7.29113,62.9835],[7.29347,62.98299],[7.30001,62.9833],[7.30144,62.98307]],[[7.02247,62.94887],[7.0237,62.94934],[7.02334,62.94988],[7.0245,62.95019],[7.02259,62.95073],[7.02341,62.95142],[7.03053,62.95233],[7.03377,62.95241],[7.03404,62.95269],[7.03269,62.9532],[7.02969,62.95328],[7.02733,62.95232],[7.02118,62.95215],[7.01934,62.95171],[7.01571,62.95276],[7.01481,62.95375],[7.01561,62.95446],[7.02005,62.95575],[7.02792,62.95721],[7.03,62.95721],[7.03389,62.95836],[7.03504,62.95814],[7.03483,62.95734],[7.03854,62.95557],[7.04082,62.95358],[7.04241,62.95302],[7.04318,62.95343],[7.04121,62.95419],[7.03963,62.95545],[7.04015,62.95634],[7.03803,62.95681],[7.03853,62.95787],[7.03682,62.95834],[7.0422,62.96168],[7.03896,62.96214],[7.039,62.96355],[7.03826,62.96395],[7.03742,62.96378],[7.03695,62.96272],[7.03459,62.96318],[7.03371,62.96413],[7.03213,62.96366],[7.03062,62.96402],[7.03104,62.96499],[7.03411,62.96638],[7.03195,62.96709],[7.0363,62.96748],[7.03939,62.96606],[7.03788,62.96543],[7.03773,62.96445],[7.03948,62.96459],[7.04139,62.96538],[7.0477,62.96215],[7.04717,62.96369],[7.04353,62.96587],[7.04341,62.96703],[7.04098,62.96758],[7.04001,62.96829],[7.04226,62.96811],[7.04442,62.9667],[7.04673,62.96674],[7.04904,62.96603],[7.05479,62.96561],[7.05499,62.96612],[7.05353,62.96722],[7.05397,62.96785],[7.0565,62.96743],[7.05805,62.96794],[7.05847,62.97029],[7.06068,62.97113],[7.06235,62.97086],[7.0634,62.9699],[7.06735,62.96905]],[[7.27419,62.98284],[7.27608,62.98333]],[[7.27608,62.98333],[7.27873,62.98261],[7.28533,62.9833],[7.28752,62.98424],[7.29113,62.9835]],[[7.01404,62.96977],[7.01529,62.96903],[7.01554,62.96811],[7.01239,62.96839],[7.01198,62.969],[7.00993,62.96883],[7.00925,62.96914],[7.01055,62.96965],[7.01404,62.96977]],[[7.09286,62.96242],[7.09534,62.96373],[7.09496,62.96499],[7.09603,62.96791],[7.09101,62.96855],[7.09119,62.9695],[7.09033,62.96999],[7.0881,62.97047],[7.08784,62.97089],[7.08536,62.97106],[7.08505,62.97178],[7.08689,62.97241],[7.08497,62.97325],[7.08746,62.97385],[7.08817,62.97321],[7.08952,62.97305],[7.09267,62.97465],[7.09509,62.97481]],[[7.00523,62.97029],[7.00652,62.96974],[7.00649,62.96909],[7.0001,62.96911],[7.00004,62.96966],[7.00148,62.97026],[7.00523,62.97029]],[[7.32147,62.9888],[7.32052,62.98444],[7.31671,62.98112],[7.31418,62.98006],[7.31393,62.97919]],[[7.03937,62.9717],[7.03581,62.97149],[7.03461,62.97289],[7.03744,62.97309],[7.03812,62.9725],[7.04055,62.97233],[7.04079,62.97205],[7.03937,62.9717]],[[7.3931,62.97285],[7.39047,62.9725],[7.38653,62.9727],[7.38435,62.97336],[7.37992,62.97342],[7.37752,62.97418],[7.36713,62.97508],[7.36377,62.97648],[7.36178,62.97887],[7.36029,62.97877],[7.3568,62.98088],[7.35393,62.98048],[7.3525,62.98094],[7.35484,62.9816],[7.35285,62.98346],[7.35704,62.98393],[7.35603,62.9855],[7.35941,62.98794],[7.36049,62.98988],[7.36176,62.99061],[7.37147,62.99388],[7.38085,62.99313],[7.38022,62.9939]],[[7.27156,62.98671],[7.27143,62.98892],[7.26948,62.98994]],[[7.31986,62.99274],[7.32282,62.99204],[7.32413,62.99119],[7.3241,62.99058],[7.32147,62.9888]],[[7.26979,62.98654],[7.26885,62.9872],[7.26997,62.98707],[7.26978,62.98814],[7.26786,62.98884],[7.26668,62.98811],[7.26759,62.98718],[7.26435,62.98636],[7.26359,62.98747],[7.26141,62.98759],[7.2597,62.98848],[7.25784,62.98806],[7.25628,62.98683],[7.25293,62.98728],[7.25507,62.98902],[7.25863,62.98918],[7.25744,62.99126]],[[7.09303,62.98242],[7.10082,62.98054],[7.10211,62.97979],[7.10026,62.97856],[7.09825,62.97813],[7.09818,62.97686],[7.09939,62.97637],[7.09874,62.97602],[7.09658,62.97613],[7.09587,62.97584],[7.09622,62.97526],[7.09509,62.97481]],[[7.12348,62.98439],[7.12269,62.98384],[7.12413,62.98387],[7.12448,62.98346],[7.12264,62.98288],[7.11988,62.98282],[7.11955,62.98427],[7.12219,62.9843],[7.12296,62.98468],[7.12348,62.98439]],[[7.38022,62.9939],[7.37935,62.9944],[7.37923,62.99618],[7.38274,62.99827],[7.3862,62.99919]],[[7.09303,62.98242],[7.09286,62.98304]],[[7.00203,62.97775],[6.99975,62.97757]],[[6.99975,62.97757],[7.00009,62.97698],[6.99711,62.977]],[[6.99913,62.97805],[7.00136,62.97819],[7.00203,62.97775]],[[7.3862,62.99919],[7.38944,62.99962]],[[7.01032,62.97829],[7.00931,62.9772],[7.00095,62.97713],[7.00306,62.97791],[7.00562,62.97797],[7.00952,62.97867],[7.01032,62.97829]],[[7.26948,62.98994],[7.26599,62.98992],[7.26292,62.98908],[7.26189,62.98918],[7.26055,62.99029],[7.26262,62.99027],[7.27252,62.99289],[7.27663,62.99289],[7.27803,62.99321],[7.27832,62.99375],[7.27906,62.99356]],[[7.09266,62.98375],[7.09391,62.98353],[7.09286,62.98304]],[[7.31439,62.99674],[7.31727,62.99486],[7.31769,62.99337],[7.31986,62.99274]],[[7.27906,62.99356],[7.28003,62.99447],[7.28622,62.99583],[7.28798,62.99537]],[[7.3135,62.99767],[7.31345,62.99716],[7.31439,62.99674]],[[7.09266,62.98375],[7.09005,62.98386],[7.08875,62.98427],[7.08994,62.98526],[7.09215,62.98563]],[[7.28798,62.99537],[7.29143,62.99678]],[[7.25779,62.99158],[7.26373,62.99358],[7.26807,62.99333],[7.2742,62.99408],[7.27777,62.99507],[7.27937,62.99512],[7.28591,62.99709],[7.28756,62.99698]],[[7.29413,62.99824],[7.29562,62.99875]],[[7.38944,62.99962],[7.39171,62.99929],[7.39221,62.99987],[7.39411,62.99988],[7.3948,62.99945],[7.39772,62.9997],[7.39927,63.00053]],[[7.09215,62.98563],[7.0987,62.98584],[7.09908,62.98554],[7.09791,62.9852],[7.09548,62.98547],[7.09511,62.98519],[7.09617,62.98457],[7.09943,62.98385],[7.10165,62.98414],[7.103,62.98488],[7.10416,62.98449],[7.10423,62.9837],[7.10785,62.98449],[7.10833,62.98521],[7.1053,62.98651],[7.10457,62.98751],[7.10524,62.98815],[7.10424,62.98861],[7.10493,62.98886],[7.11139,62.98833],[7.11255,62.98745],[7.11363,62.98742],[7.11399,62.98647],[7.11564,62.98664],[7.11708,62.98619],[7.11582,62.98464],[7.11664,62.9837],[7.11606,62.98297],[7.11902,62.98025],[7.1207,62.98086],[7.12303,62.98008],[7.12453,62.98084],[7.12643,62.98009],[7.13017,62.98185],[7.13339,62.98178],[7.13345,62.98214],[7.12993,62.98285],[7.12988,62.98396],[7.13112,62.98496],[7.13616,62.98415],[7.13806,62.98449],[7.14079,62.98339],[7.14266,62.98433],[7.1442,62.98449],[7.146,62.9834],[7.14617,62.98176]],[[7.14617,62.98176],[7.15208,62.98256],[7.15489,62.98428],[7.15487,62.98504],[7.1528,62.98641],[7.1556,62.98817],[7.15286,62.98965],[7.15356,62.99044],[7.15514,62.99091],[7.15427,62.99214]],[[7.18941,62.9929],[7.19493,62.9936],[7.19699,62.99492],[7.19864,62.9945],[7.20647,62.99443]],[[7.29562,62.99875],[7.29992,62.99962],[7.30274,63.00094]],[[7.30603,63.0012],[7.30845,62.99856],[7.31349,62.99911],[7.31424,62.99862],[7.3135,62.99767]],[[7.29432,63.00045],[7.28857,62.99931],[7.28817,62.99846],[7.29025,62.99784],[7.29017,62.99703],[7.28915,62.99677],[7.28756,62.99698]],[[7.20647,62.99443],[7.21259,62.9954],[7.21281,62.99654],[7.21105,62.9976],[7.21185,62.99809],[7.21539,62.99798],[7.21578,62.99741],[7.21678,62.99734],[7.21729,62.9978],[7.21658,62.99895],[7.21813,62.99918],[7.21881,62.99907],[7.21915,62.99822],[7.22012,62.99787],[7.22056,62.99814]],[[7.15427,62.99214],[7.15261,62.99229],[7.14803,62.99154],[7.14125,62.99174],[7.13801,62.99317],[7.14058,62.99405],[7.14272,62.99424],[7.14356,62.99577],[7.14455,62.99585],[7.14613,62.99513],[7.15084,62.99485],[7.1544,62.99614],[7.15701,62.99638],[7.1598,62.99574],[7.16613,62.99519],[7.16976,62.99367],[7.17164,62.99376],[7.17264,62.99458],[7.17422,62.99441],[7.17492,62.99409],[7.17494,62.99317],[7.17667,62.99251],[7.18941,62.9929]],[[7.22056,62.99814],[7.22214,62.99907],[7.22542,62.99964],[7.22866,62.99946],[7.23619,63.00094]],[[7.39248,62.95849],[7.39316,62.95846]],[[7.38268,62.95976],[7.38256,62.95914]],[[7.42159,62.97047],[7.42203,62.97034]],[[7.36285,62.96772],[7.36261,62.96779]],[[7.41914,62.97085],[7.42159,62.97047]],[[7.36224,62.96789],[7.36261,62.96779]],[[7.35596,62.97069],[7.35592,62.97029],[7.34888,62.97034],[7.35146,62.97104],[7.35596,62.97069]],[[7.09985,62.95781],[7.09972,62.95778]],[[7.09947,62.95869],[7.10101,62.95877]],[[7.30144,62.98307],[7.30335,62.98247],[7.30373,62.98139],[7.29999,62.97962]],[[7.28183,62.98232],[7.28295,62.98213],[7.28371,62.98118],[7.28177,62.98105],[7.27965,62.98196],[7.28183,62.98232]],[[7.2736,62.98247],[7.27419,62.98284]],[[7.05694,62.96862],[7.05627,62.96847],[7.05263,62.97065],[7.05558,62.97004],[7.05694,62.96862]],[[7.26979,62.98654],[7.27156,62.98671]],[[7.32532,62.99278],[7.32291,62.99285],[7.32211,62.99403],[7.32314,62.99397],[7.32532,62.99278]],[[7.25744,62.99126],[7.25779,62.99158]],[[7.29143,62.99678],[7.29135,62.99712],[7.29413,62.99824]],[[7.45085,62.68932],[7.45419,62.68998],[7.45623,62.68918],[7.45457,62.68708],[7.45156,62.68623],[7.45,62.68525],[7.45184,62.68402],[7.4603,62.68436],[7.46735,62.68567]],[[7.36709,62.69044],[7.3679,62.69063]],[[7.44673,62.69635],[7.44552,62.69456],[7.44345,62.69354],[7.4431,62.69117],[7.44497,62.69041],[7.45085,62.68932]],[[7.3679,62.69063],[7.36996,62.6911],[7.3715,62.6906],[7.37506,62.69116],[7.38199,62.69061],[7.38373,62.69078],[7.38567,62.69255],[7.3917,62.69327],[7.39255,62.69319],[7.39191,62.69296],[7.39691,62.69241],[7.39864,62.69186],[7.40032,62.69188],[7.40535,62.69098],[7.40756,62.69118],[7.4145,62.69009],[7.4191,62.69196],[7.41457,62.69273],[7.41455,62.69376],[7.4165,62.69405],[7.42069,62.69363],[7.42276,62.69435],[7.42157,62.69465],[7.42165,62.69504],[7.4227,62.69477],[7.42666,62.69571]],[[7.42666,62.69571],[7.43141,62.69581],[7.43816,62.697]],[[7.43816,62.697],[7.44258,62.6973],[7.44435,62.69676],[7.44545,62.69712],[7.44673,62.69635]],[[7.34506,62.69615],[7.34493,62.69545],[7.35175,62.69397],[7.35247,62.69158],[7.35393,62.69081],[7.36709,62.69044]],[[7.34911,62.69637],[7.34637,62.69622]],[[7.3416,62.69887],[7.33979,62.69783],[7.3331,62.69733],[7.33334,62.69834],[7.33557,62.69839],[7.3396,62.69994],[7.34243,62.70019],[7.3429,62.69912],[7.3416,62.69887]],[[7.34911,62.69637],[7.35461,62.6984],[7.35402,62.69976],[7.3588,62.70101],[7.36186,62.70262],[7.36479,62.70261]],[[7.19239,62.70604],[7.19104,62.7062],[7.19433,62.70694],[7.1963,62.70685],[7.19239,62.70604]],[[7.36479,62.70261],[7.37166,62.70369],[7.38025,62.70622],[7.38551,62.70718],[7.3876,62.70706],[7.38793,62.70598],[7.39061,62.70541],[7.39492,62.70483],[7.399,62.70521],[7.40275,62.70437],[7.4184,62.70795],[7.42386,62.71097],[7.4237,62.71162],[7.42108,62.71194],[7.41411,62.71118],[7.41447,62.7122],[7.41033,62.71259],[7.4121,62.71341],[7.41948,62.71425],[7.42532,62.71579],[7.42712,62.71674],[7.42654,62.7173],[7.41916,62.71712],[7.42125,62.71786],[7.42108,62.71826],[7.41794,62.71827],[7.41411,62.7173],[7.41286,62.71754],[7.41353,62.7187],[7.41976,62.72044]],[[7.4166,62.72703],[7.40504,62.72356],[7.39343,62.72129],[7.3926,62.7205],[7.39343,62.7202],[7.40349,62.72098],[7.41222,62.72104],[7.41632,62.72233],[7.41763,62.72209],[7.41969,62.72095]],[[7.26322,62.71531],[7.25849,62.71462],[7.25713,62.71516],[7.254,62.71496],[7.24892,62.71396],[7.24547,62.71417],[7.23112,62.71206],[7.2284,62.71123],[7.2037,62.70678],[7.2008,62.70646],[7.19921,62.70666],[7.19842,62.70744],[7.20076,62.70822],[7.20767,62.70907],[7.21596,62.71235],[7.22053,62.71305],[7.22211,62.7137],[7.22759,62.71326],[7.22801,62.7127],[7.22947,62.71243],[7.23118,62.71254],[7.23965,62.71431],[7.2394,62.71463],[7.23405,62.71452],[7.23372,62.71494],[7.23628,62.71592],[7.24618,62.7172],[7.24813,62.71676],[7.25034,62.71684],[7.26214,62.7194]],[[7.16477,62.71592],[7.1621,62.71587],[7.16188,62.71648],[7.15361,62.71546]],[[7.41869,62.72899],[7.41467,62.7291],[7.41602,62.73036],[7.41454,62.73088]],[[7.15361,62.71546],[7.13447,62.71351],[7.11681,62.71248],[7.12878,62.71428],[7.13386,62.71415],[7.14203,62.71494],[7.15417,62.71696]],[[7.16413,62.71831],[7.1672,62.71834],[7.16847,62.71783],[7.16702,62.71702],[7.1699,62.71697],[7.16901,62.71639],[7.16477,62.71592]],[[7.33185,62.72819],[7.31763,62.72599],[7.3126,62.72569],[7.3102,62.72632],[7.30712,62.7262],[7.29604,62.72424],[7.27733,62.71785],[7.27305,62.71734],[7.26322,62.71531]],[[7.12099,62.71653],[7.11466,62.7155],[7.11451,62.71472],[7.11297,62.71482],[7.1138,62.716],[7.12063,62.71682],[7.12099,62.71653]],[[7.41454,62.73088],[7.41109,62.73137],[7.40722,62.73062],[7.40102,62.73104],[7.39287,62.73031],[7.38803,62.73034],[7.3874,62.73119],[7.38599,62.73161]],[[7.38599,62.73161],[7.38435,62.7317]],[[7.15417,62.71696],[7.15964,62.71795],[7.15858,62.71919],[7.15929,62.71945],[7.16178,62.7195],[7.16223,62.71923],[7.16155,62.71836],[7.16413,62.71831]],[[7.19726,62.72088],[7.19534,62.72095],[7.19812,62.72165],[7.20539,62.72219],[7.20169,62.72129],[7.19726,62.72088]],[[7.21197,62.72294],[7.20667,62.72219],[7.20626,62.72238],[7.20944,62.72341],[7.21196,62.72333],[7.21197,62.72294]],[[7.19569,62.7219],[7.1929,62.72211],[7.19518,62.72287],[7.2005,62.72359],[7.20431,62.72356],[7.2009,62.72246],[7.19569,62.7219]],[[7.23331,62.72574],[7.23353,62.72541],[7.23566,62.72564],[7.24133,62.7267],[7.24347,62.72596],[7.24345,62.72424],[7.24106,62.72325],[7.23818,62.72312],[7.23478,62.72352],[7.23141,62.72301],[7.233,62.72193],[7.22935,62.72097],[7.22564,62.72089],[7.22892,62.72243],[7.22692,62.72256],[7.21119,62.72055],[7.20829,62.72055],[7.19427,62.71826],[7.19352,62.71848],[7.19354,62.71893],[7.19992,62.72039],[7.2134,62.72168],[7.2162,62.7225],[7.22083,62.72299],[7.22241,62.72368],[7.22931,62.72477],[7.22945,62.72506]],[[7.22945,62.72506],[7.22682,62.72632],[7.22667,62.72688],[7.23241,62.72816],[7.23794,62.72855],[7.23721,62.72766],[7.23782,62.72684],[7.23331,62.72574]],[[7.33538,62.73169],[7.34053,62.73214],[7.34115,62.73249],[7.34045,62.73302],[7.34317,62.73381],[7.34385,62.73344],[7.34278,62.73259],[7.34573,62.73164],[7.34427,62.73085],[7.33801,62.72974],[7.33421,62.72841],[7.33185,62.72819]],[[7.18219,62.72757],[7.17953,62.72778],[7.17952,62.72849],[7.18107,62.72874],[7.18219,62.72757]],[[7.39105,62.74159],[7.37,62.73963],[7.36633,62.73905],[7.36118,62.73736],[7.36257,62.73692],[7.36586,62.73696],[7.36834,62.73746],[7.37067,62.73715],[7.37011,62.7364],[7.36741,62.73563],[7.36773,62.73524],[7.373,62.73572],[7.37596,62.7355],[7.37249,62.73363],[7.36804,62.73233],[7.36967,62.73209],[7.37102,62.73117],[7.38435,62.7317]],[[7.26214,62.7194],[7.27628,62.72149],[7.29062,62.72452],[7.29631,62.72471],[7.2995,62.7258],[7.30526,62.72693],[7.30547,62.72773],[7.29699,62.72625],[7.29287,62.72611],[7.29145,62.72548],[7.28585,62.72474],[7.28388,62.72516],[7.28357,62.72578],[7.28101,62.72584],[7.27305,62.72433],[7.27272,62.72553],[7.27127,62.72648],[7.26984,62.72715],[7.2665,62.72779],[7.26794,62.72972],[7.26339,62.72984],[7.26333,62.73083],[7.26659,62.73157],[7.27367,62.73274],[7.27775,62.73265],[7.28197,62.73388],[7.29327,62.73545],[7.29533,62.73545],[7.29622,62.73576],[7.2965,62.73661],[7.29828,62.73722],[7.2989,62.73691],[7.2983,62.73624],[7.30208,62.73639],[7.30315,62.73534],[7.30421,62.73524],[7.31309,62.7354],[7.31491,62.73503],[7.32132,62.73562],[7.32894,62.73511],[7.33037,62.73486],[7.32992,62.73381],[7.33084,62.73303],[7.33538,62.73169]],[[7.20164,62.7389],[7.19801,62.73793],[7.18571,62.73601],[7.18103,62.73583],[7.17725,62.73626]],[[7.15765,62.73586],[7.15921,62.73676]],[[7.15921,62.73676],[7.17126,62.73694],[7.17725,62.73626]],[[7.11049,62.73431],[7.12226,62.73419],[7.12603,62.73429],[7.12779,62.73484],[7.13399,62.73489],[7.13747,62.73436],[7.13927,62.73351],[7.14833,62.73256],[7.14961,62.73266],[7.15442,62.73431],[7.15539,62.73421],[7.15783,62.73516],[7.15765,62.73586]],[[7.20164,62.7389],[7.2055,62.7394],[7.20566,62.73977],[7.20862,62.73993]],[[7.4093,62.74477],[7.42544,62.74791],[7.42851,62.74931],[7.42911,62.7503],[7.43649,62.75251]],[[7.20862,62.73993],[7.21323,62.7399],[7.21522,62.73863],[7.21774,62.73914],[7.21823,62.74035],[7.22333,62.74078],[7.22466,62.7412],[7.22713,62.74015],[7.22875,62.74018],[7.22923,62.74045],[7.22823,62.74132],[7.2286,62.74173]],[[7.43649,62.75251],[7.43824,62.75323]],[[7.2286,62.74173],[7.23149,62.7419]],[[7.08374,62.73439],[7.0862,62.73369],[7.08761,62.73263],[7.09536,62.73253],[7.09624,62.73282],[7.09617,62.73363],[7.10005,62.73449],[7.10389,62.73473],[7.11049,62.73431]],[[7.06244,62.73082],[7.06636,62.73249],[7.07104,62.73279],[7.07822,62.73423]],[[7.07822,62.73423],[7.08374,62.73439]],[[7.23149,62.7419],[7.23217,62.74157],[7.23357,62.74168],[7.23682,62.74267],[7.2419,62.74252],[7.24487,62.74379],[7.24967,62.74355]],[[7.43824,62.75323],[7.43976,62.75394],[7.44932,62.75596]],[[7.28779,62.74965],[7.28905,62.7489],[7.28903,62.74831],[7.27902,62.74666],[7.27681,62.74503],[7.27269,62.74562],[7.26992,62.74517],[7.26586,62.7436],[7.25607,62.74247]],[[7.28779,62.74965],[7.31508,62.75507],[7.31931,62.75496],[7.33344,62.75561],[7.35055,62.75738]],[[7.38405,62.76071],[7.3765,62.75971],[7.37334,62.75984],[7.36604,62.75921],[7.36383,62.75892],[7.3613,62.75786],[7.35719,62.758],[7.35055,62.75738]],[[7.38405,62.76071],[7.40802,62.76401],[7.42425,62.76714]],[[7.42425,62.76714],[7.43714,62.76882],[7.44061,62.76835],[7.44482,62.76904],[7.44489,62.76964],[7.44575,62.76987]],[[6.99644,62.72611],[7.0111,62.72641],[7.01181,62.72597],[7.01123,62.72491],[7.01249,62.72431],[7.01496,62.72439],[7.02167,62.72553],[7.02525,62.72757],[7.03421,62.72846],[7.03849,62.7281],[7.044,62.72852],[7.05492,62.73049],[7.06244,62.73082]],[[7.23912,62.80659],[7.23396,62.80412],[7.23232,62.80497]],[[7.17501,62.80331],[7.18068,62.80292],[7.19069,62.80326],[7.19468,62.80384],[7.19799,62.80374],[7.20261,62.80444],[7.20843,62.80614],[7.20987,62.80599]],[[7.22995,62.80517],[7.22543,62.80687],[7.21808,62.80748],[7.21605,62.80682],[7.20987,62.80599]],[[7.15643,62.81199],[7.16014,62.80708],[7.16336,62.80584],[7.16383,62.80525],[7.16634,62.80482],[7.17341,62.80457],[7.17527,62.80396],[7.17501,62.80331]],[[7.18912,62.81597],[7.20129,62.81392],[7.20357,62.81388],[7.20614,62.81216],[7.20956,62.81167],[7.21411,62.81206],[7.21853,62.81322],[7.22121,62.81289],[7.23059,62.81291],[7.2376,62.81233]],[[7.01344,62.81003],[7.01373,62.80952],[7.01201,62.80884],[7.0071,62.80847],[7.00002,62.80571],[6.99768,62.80579]],[[7.00411,62.80853],[6.99972,62.80867]],[[6.99972,62.80867],[7.00105,62.8094],[7.00448,62.80998],[7.00411,62.80853]],[[7.10584,62.81337],[7.1191,62.81581],[7.12437,62.81713],[7.13745,62.81805]],[[7.13745,62.81805],[7.15103,62.81943],[7.15347,62.81941],[7.15534,62.81893],[7.15621,62.81822],[7.15561,62.81676],[7.15702,62.8127],[7.15623,62.8133],[7.15643,62.81199]],[[7.10025,62.81776],[7.10233,62.81627],[7.10203,62.81461],[7.10403,62.81332],[7.10584,62.81337]],[[7.00566,62.81251],[7.0015,62.81161],[6.99697,62.81149]],[[7.0196,62.81331],[7.01909,62.81226],[7.01667,62.8123],[7.01212,62.81147],[7.01207,62.81042],[7.01344,62.81003]],[[7.09003,62.81731],[7.08668,62.81579],[7.08308,62.8149],[7.07909,62.81551],[7.08055,62.81677]],[[7.11532,62.81874],[7.11585,62.81835],[7.11517,62.81665],[7.11031,62.81614],[7.10945,62.8165],[7.10979,62.81842]],[[7.17771,62.82224],[7.17739,62.82105],[7.17913,62.81962],[7.18266,62.81865],[7.18398,62.81742],[7.18912,62.81597]],[[7.0196,62.81331],[7.01887,62.8137]],[[7.10979,62.81842],[7.1134,62.81925],[7.11532,62.81874]],[[7.09003,62.81731],[7.09261,62.81833],[7.09424,62.81848],[7.09958,62.81785]],[[7.13656,62.82137],[7.13527,62.82094],[7.13257,62.82103],[7.12801,62.82209]],[[7.07418,62.81914],[7.07085,62.81815],[7.07063,62.81758],[7.07491,62.81774],[7.08055,62.81677]],[[6.99998,62.81331],[7.00342,62.81284],[7.00662,62.8137],[7.01089,62.81561],[7.01251,62.81594],[7.01456,62.81557],[7.01334,62.81471],[7.00566,62.81251]],[[7.08778,62.81773],[7.08481,62.8176],[7.08262,62.81841],[7.08369,62.82037],[7.08805,62.82066],[7.08958,62.82037],[7.08967,62.82002],[7.08725,62.81938],[7.08778,62.81773]],[[7.13903,62.82471],[7.13656,62.82137]],[[7.07829,62.82224],[7.07418,62.81914]],[[7.03816,62.82038],[7.04297,62.82032],[7.04498,62.81758],[7.04707,62.81836]],[[7.03816,62.82038],[7.03809,62.82066]],[[7.01887,62.8137],[7.0178,62.81378],[7.01815,62.81454],[7.01598,62.8148],[7.0166,62.81559],[7.01563,62.8173],[7.01837,62.81852],[7.02549,62.81983],[7.02581,62.82123],[7.02727,62.82022],[7.02966,62.81992]],[[7.0377,62.82206],[7.04025,62.82232],[7.04136,62.82197],[7.03809,62.82066]],[[7.17771,62.82224],[7.1812,62.82473],[7.18618,62.82588],[7.18882,62.82761],[7.19245,62.82868],[7.19318,62.83022],[7.19938,62.8316],[7.20396,62.83194]],[[7.12801,62.82209],[7.12231,62.82336],[7.12089,62.82602],[7.12156,62.82734],[7.12243,62.82705],[7.1222,62.82581],[7.12304,62.82551],[7.13042,62.82646],[7.13309,62.82647],[7.13483,62.82778]],[[7.13483,62.82778],[7.13569,62.82846],[7.14099,62.82942],[7.14251,62.82937],[7.14334,62.82885],[7.14455,62.82899],[7.14401,62.82961],[7.14628,62.82946],[7.14572,62.82873],[7.1476,62.82806],[7.13903,62.82471]],[[7.02856,62.82337],[7.03146,62.82316],[7.0298,62.82194],[7.0284,62.82178],[7.02431,62.82234]],[[7.20383,62.83433],[7.20224,62.83394],[7.2032,62.8332],[7.20612,62.83255],[7.20396,62.83194]],[[7.20061,62.83473],[7.20124,62.83507],[7.2027,62.83508]],[[7.13437,62.82952],[7.13214,62.82938],[7.12958,62.82784],[7.1246,62.82798],[7.12186,62.8285],[7.12212,62.83063],[7.12095,62.83087],[7.12158,62.83181],[7.12375,62.83268],[7.1256,62.83268],[7.12477,62.83109],[7.1254,62.83075],[7.12948,62.83153],[7.13345,62.83294]],[[7.04707,62.81836],[7.04619,62.81944],[7.04679,62.82078],[7.05146,62.82533],[7.05264,62.82573],[7.05636,62.82574],[7.05761,62.82671],[7.06637,62.82908],[7.06745,62.82981],[7.07096,62.82936],[7.07202,62.82771],[7.06908,62.82576],[7.0696,62.82469],[7.07065,62.82482],[7.07436,62.82696],[7.08026,62.82774],[7.08453,62.82971],[7.09125,62.83124],[7.0973,62.83089],[7.10011,62.82985],[7.10312,62.8276],[7.09893,62.82633],[7.1026,62.82535],[7.10716,62.82553],[7.10916,62.82639],[7.11298,62.827],[7.1155,62.82665],[7.11329,62.82537],[7.11012,62.82504],[7.10881,62.82383],[7.10806,62.8238],[7.10671,62.82463],[7.10514,62.82388],[7.10147,62.82328],[7.10016,62.82254],[7.09454,62.82198],[7.08661,62.82219],[7.08221,62.82142],[7.08052,62.82166],[7.08178,62.82287],[7.0805,62.82337],[7.07829,62.82224]],[[7.20061,62.83473],[7.19926,62.83438],[7.19687,62.83498],[7.19048,62.83369],[7.18538,62.83431],[7.17833,62.83702]],[[7.13345,62.83294],[7.13715,62.8344],[7.14217,62.83511],[7.14469,62.835],[7.1476,62.83567],[7.15013,62.8351],[7.1535,62.83543],[7.15391,62.83439],[7.15887,62.83486],[7.16086,62.83432],[7.15954,62.83362],[7.15361,62.83269],[7.15173,62.83323],[7.15113,62.83395],[7.14969,62.83393],[7.14667,62.83233],[7.14211,62.83093],[7.13615,62.83009],[7.13437,62.82952]],[[7.02426,62.82231],[7.02063,62.82066],[7.00996,62.81817],[7.00868,62.81883],[7.00872,62.81934],[7.00739,62.81979],[7.00958,62.82282],[7.01759,62.82531],[7.01884,62.82591],[7.01874,62.82654],[7.02391,62.82877],[7.0274,62.82948],[7.02857,62.82926],[7.0279,62.82793],[7.03103,62.82654],[7.03108,62.82575],[7.02914,62.82474]],[[7.12956,62.83434],[7.12713,62.83439],[7.12871,62.83541],[7.13054,62.83511],[7.12956,62.83434]],[[7.12845,62.83821],[7.13007,62.83717],[7.12285,62.83619],[7.11791,62.83615],[7.11479,62.83497],[7.11275,62.83569],[7.11484,62.83659],[7.11956,62.83772],[7.12227,62.83774],[7.1259,62.83845],[7.12845,62.83821]],[[7.09502,62.83409],[7.09701,62.83394],[7.09844,62.83325],[7.09459,62.83235],[7.0909,62.83252],[7.0908,62.83333],[7.09456,62.83588],[7.09494,62.83696],[7.09719,62.83602],[7.09502,62.83409]],[[7.13189,62.83872],[7.12847,62.8395],[7.13141,62.84051]],[[7.11673,62.8389],[7.11618,62.83845],[7.11242,62.83887],[7.11357,62.84036],[7.11826,62.8422],[7.12347,62.84194],[7.12333,62.84156],[7.11677,62.8403],[7.11673,62.8389]],[[7.13141,62.84051],[7.1344,62.842],[7.14124,62.84363],[7.14251,62.84069],[7.14526,62.83963],[7.14196,62.83909],[7.13991,62.83974],[7.13957,62.83835],[7.14204,62.83834],[7.14224,62.83794],[7.13865,62.83578],[7.13583,62.83519],[7.13477,62.83538],[7.13515,62.836],[7.1327,62.83757],[7.13578,62.83823],[7.1357,62.83878],[7.13375,62.83888],[7.13302,62.8385],[7.13189,62.83872]],[[7.04173,62.83771],[7.04512,62.83741],[7.04912,62.83628],[7.05232,62.83695],[7.06524,62.83799],[7.07803,62.84062]],[[7.17532,62.84659],[7.17546,62.84585],[7.17441,62.84558],[7.16753,62.84585],[7.16357,62.84486],[7.1582,62.84441],[7.15486,62.84124],[7.15735,62.84006],[7.17086,62.83893],[7.17833,62.83702]],[[7.03268,62.84051],[7.03404,62.84044],[7.03641,62.83897],[7.03449,62.83724],[7.03734,62.83666],[7.04093,62.83647],[7.04173,62.83771]],[[6.99987,62.83579],[7.00249,62.83634],[7.00636,62.83793],[7.01712,62.83825],[7.01877,62.83898],[7.0232,62.83945],[7.02636,62.83906],[7.02959,62.84038],[7.03268,62.84051]],[[7.07803,62.84062],[7.08187,62.84259],[7.08552,62.84321],[7.09144,62.84506],[7.09808,62.84591],[7.10625,62.84789]],[[7.13392,62.85097],[7.1409,62.85087],[7.14741,62.85139],[7.15787,62.85017],[7.15897,62.8493],[7.15986,62.85015],[7.16852,62.84965],[7.17325,62.84989],[7.17373,62.84757],[7.17532,62.84659]],[[6.99987,62.83579],[7.00046,62.83517],[6.9999,62.8346]],[[6.99777,62.84266],[7.00232,62.8445],[7.00267,62.84512],[7.00124,62.84575],[7.00197,62.84638],[7.00734,62.84703],[7.00948,62.84778],[7.01061,62.84859],[7.01047,62.84919],[7.00987,62.84951],[7.00835,62.84918],[7.00569,62.84947],[7.00616,62.851],[7.01225,62.85302]],[[7.34506,62.69615],[7.34637,62.69622]],[[7.4166,62.72703],[7.41993,62.72805],[7.41869,62.72899]],[[7.39105,62.74159],[7.39978,62.74343],[7.40289,62.74343]],[[7.4093,62.74477],[7.40289,62.74343]],[[7.24956,62.74339],[7.24602,62.74266],[7.24686,62.74171],[7.24859,62.74134],[7.25607,62.74247]],[[7.2376,62.81233],[7.24058,62.81147],[7.24103,62.81066],[7.24084,62.80818],[7.23912,62.80659]],[[7.09958,62.81785],[7.10025,62.81776]],[[7.02966,62.81992],[7.03165,62.82053],[7.03171,62.82106],[7.03398,62.82197],[7.0377,62.82206]],[[7.02431,62.82234],[7.02426,62.82231]],[[7.02914,62.82474],[7.02856,62.82337]],[[7.12892,62.84979],[7.13081,62.84982],[7.13099,62.8503]],[[7.10625,62.84789],[7.10753,62.84726],[7.10974,62.84758],[7.1102,62.84803],[7.11779,62.84901],[7.11992,62.84969],[7.12892,62.84979]],[[7.13099,62.8503],[7.13392,62.85097]],[[7.92726,62.72264],[7.92929,62.72319],[7.93114,62.72314],[7.93172,62.72271],[7.93362,62.72276],[7.93907,62.72365],[7.94092,62.72443]],[[7.69208,62.7017],[7.69541,62.70217],[7.70207,62.70241],[7.70376,62.7035],[7.70655,62.70665],[7.70922,62.70804],[7.71307,62.7092],[7.72644,62.711],[7.74871,62.7155],[7.75423,62.7163]],[[7.92615,62.72281],[7.92104,62.72461],[7.91871,62.72642]],[[7.93933,62.72746],[7.94092,62.72443]],[[7.91478,62.72997],[7.91871,62.72642]],[[7.9259,62.73768],[7.92756,62.73762],[7.92797,62.73727],[7.92434,62.73577],[7.92315,62.7366],[7.9259,62.73768]],[[7.76243,62.71841],[7.76879,62.72018],[7.77622,62.72072],[7.78386,62.72185],[7.79025,62.72359],[7.81009,62.72582],[7.814,62.72673],[7.81663,62.72806],[7.82617,62.73028],[7.83097,62.7323],[7.83619,62.73259],[7.84081,62.73241],[7.84819,62.73378]],[[7.87148,62.73587],[7.87282,62.73577],[7.87663,62.73448],[7.88194,62.73478],[7.89085,62.73418],[7.90581,62.73205],[7.91037,62.73192],[7.91292,62.7312],[7.91478,62.72997]],[[7.93933,62.72746],[7.93705,62.73004],[7.9356,62.73341],[7.93108,62.73693],[7.93112,62.73841],[7.93218,62.73955],[7.93639,62.74098],[7.94442,62.74228]],[[7.94442,62.74228],[7.9517,62.74299],[7.9542,62.74471],[7.96026,62.74523],[7.9692,62.7449],[7.98416,62.74307],[7.98882,62.74283],[7.99257,62.74319],[7.99459,62.74284],[8.00128,62.74036]],[[7.74923,62.73658],[7.75261,62.73781],[7.75431,62.73749],[7.75864,62.7377],[7.76115,62.73891],[7.77349,62.74296],[7.77653,62.74442],[7.78267,62.74485],[7.78531,62.74469],[7.79235,62.74629],[7.80148,62.74768],[7.81594,62.7484],[7.82862,62.75158],[7.83397,62.75256],[7.84297,62.75524]],[[8.00709,62.76999],[7.99923,62.76994],[7.98266,62.76694],[7.98189,62.76705],[7.98234,62.76763],[7.98121,62.76821],[7.97557,62.76773],[7.97194,62.76703],[7.96956,62.76709],[7.95905,62.76501],[7.95708,62.76504],[7.95776,62.76618],[7.96452,62.76807]],[[7.94316,62.77031],[7.94787,62.77024],[7.94971,62.76984],[7.9508,62.76912],[7.9499,62.76853],[7.94993,62.768],[7.95074,62.76781],[7.95453,62.76768],[7.96397,62.76929],[7.96517,62.76837],[7.96452,62.76807]],[[7.84297,62.75524],[7.84738,62.75625],[7.85492,62.75884],[7.85847,62.75922],[7.86397,62.76094],[7.86929,62.76156],[7.87466,62.7631],[7.87889,62.76361],[7.88065,62.76308],[7.88306,62.76336],[7.88517,62.76309],[7.89881,62.76513],[7.90148,62.76509],[7.90615,62.76573],[7.9218,62.769],[7.93775,62.77006]],[[7.84819,62.73378],[7.85884,62.73493],[7.86232,62.73477]],[[7.86232,62.73477],[7.86377,62.73475],[7.86833,62.73591],[7.87148,62.73587]],[[7.93775,62.77006],[7.94316,62.77031]],[[7.65513,62.79232],[7.65328,62.79058],[7.6564,62.7901],[7.65888,62.79016],[7.66547,62.79185],[7.66623,62.79253],[7.66462,62.79312],[7.66698,62.79372]],[[7.6683,62.78845],[7.66489,62.78752],[7.66237,62.786],[7.66096,62.78608],[7.65686,62.78543],[7.65493,62.78445],[7.65806,62.78403],[7.65704,62.78322],[7.65978,62.78319],[7.66034,62.78254],[7.66337,62.78233],[7.66519,62.78365],[7.66677,62.78386],[7.66668,62.78489],[7.66903,62.78551]],[[7.12201,62.2776],[7.11618,62.277],[7.10465,62.27661]],[[7.04005,62.08535],[7.05557,62.0859],[7.06282,62.08728],[7.06881,62.08763],[7.07648,62.08938]],[[7.07648,62.08938],[7.08654,62.09161],[7.08857,62.0925]],[[6.99675,62.08987],[7.00489,62.08703],[7.01631,62.08471],[7.025,62.08426],[7.03057,62.08514],[7.04005,62.08535]],[[7.09568,62.09559],[7.09374,62.09478],[7.09201,62.09335],[7.08857,62.0925]],[[7.20597,62.10189],[7.20596,62.10151],[7.20221,62.10015],[7.1977,62.0978],[7.19583,62.0982],[7.19435,62.09915],[7.19388,62.10046],[7.19283,62.10115]],[[7.03754,62.09488],[7.04265,62.09445],[7.04929,62.09452],[7.06109,62.09577]],[[7.03754,62.09488],[7.03631,62.09511]],[[7.00181,62.10509],[7.01167,62.09991],[7.01664,62.09797],[7.0181,62.09675],[7.02104,62.09581],[7.03077,62.09465],[7.03414,62.09542],[7.03631,62.09511]],[[7.09568,62.09559],[7.10555,62.10038],[7.11259,62.10703],[7.11556,62.1091],[7.1179,62.10992],[7.11806,62.11142],[7.12127,62.11339],[7.12568,62.11452],[7.12862,62.11483]],[[7.12862,62.11483],[7.13812,62.11523],[7.14761,62.11511],[7.15559,62.11398],[7.16286,62.11196],[7.17432,62.11096],[7.18018,62.10915],[7.18173,62.1083],[7.18243,62.10693],[7.18128,62.1055],[7.18289,62.10413],[7.18747,62.10282],[7.18916,62.10174],[7.19283,62.10115]],[[7.00181,62.10509],[6.99113,62.10882]],[[7.15084,62.12445],[7.15534,62.12328],[7.15976,62.12273],[7.17251,62.11921],[7.17617,62.11779],[7.17994,62.11727],[7.18219,62.11637],[7.18254,62.11544],[7.18471,62.11439],[7.18606,62.11428],[7.18735,62.11467],[7.18967,62.11411],[7.19382,62.10872],[7.1993,62.10604],[7.20367,62.10295],[7.20597,62.10189]],[[7.14377,62.12514],[7.15084,62.12445]],[[7.06109,62.09577],[7.06687,62.09631],[7.07229,62.09756],[7.07989,62.09857],[7.08154,62.09916],[7.08725,62.10291],[7.09992,62.10915],[7.10977,62.11801],[7.1192,62.12314],[7.12614,62.12433]],[[7.12614,62.12433],[7.13241,62.12487],[7.14377,62.12514]],[[6.99181,62.1694],[7.00204,62.17239],[7.00947,62.17361],[7.01249,62.175],[7.01566,62.17759]],[[7.01751,62.18134],[7.01671,62.17853],[7.01566,62.17759]],[[7.04136,62.18272],[7.04022,62.17264],[7.03878,62.17012],[7.03509,62.16594],[7.03178,62.1645],[7.02828,62.16125],[7.02092,62.15776]],[[7.00672,62.21125],[7.01002,62.2084],[7.01103,62.20523],[7.01369,62.20268],[7.01237,62.20061],[7.01274,62.19773],[7.01335,62.19714],[7.01626,62.19636],[7.01662,62.19565],[7.01593,62.1898],[7.01789,62.1857],[7.01751,62.18134]],[[7.41451,62.23376],[7.41699,62.23462]],[[7.00278,62.21904],[7.00343,62.21509],[7.00454,62.21309],[7.00672,62.21125]],[[7.00278,62.21904],[7.00294,62.22031],[7.00403,62.22132]],[[7.00574,62.22293],[7.00403,62.22132]],[[7.00684,62.22585],[7.00574,62.22293]],[[7.0419,62.22788],[7.04279,62.22607],[7.04345,62.21943],[7.0428,62.21833],[7.0401,62.21682],[7.03902,62.21312],[7.03656,62.21048],[7.03628,62.20797],[7.03837,62.1972],[7.03763,62.19672],[7.03729,62.19499],[7.03909,62.19346],[7.03847,62.19344],[7.04082,62.19188],[7.0413,62.18955],[7.04284,62.18861],[7.04352,62.18718],[7.04136,62.18272]],[[7.41451,62.23376],[7.41305,62.23405],[7.4115,62.23516],[7.41108,62.23743],[7.41022,62.23836],[7.40617,62.23989],[7.40107,62.24264],[7.40315,62.24824]],[[7.43109,62.24978],[7.4309,62.24691],[7.42706,62.24473],[7.42418,62.24471],[7.41849,62.24584],[7.41334,62.24537],[7.41223,62.24486],[7.41567,62.24096],[7.42354,62.23617],[7.4237,62.23497],[7.42169,62.23389],[7.41792,62.23424]],[[7.38171,62.25681],[7.39218,62.25119],[7.39872,62.25002],[7.40109,62.25089],[7.40255,62.25058],[7.40315,62.24824]],[[7.40084,62.26341],[7.40106,62.26197],[7.40333,62.26097],[7.41679,62.25695],[7.42191,62.25434],[7.4272,62.25328],[7.43093,62.25066],[7.43109,62.24978]],[[7.22867,62.25292],[7.23299,62.25402],[7.23211,62.25459],[7.23632,62.25622]],[[7.18677,62.26217],[7.19735,62.2626],[7.20811,62.26212],[7.21369,62.26137],[7.21708,62.26032],[7.22131,62.25822],[7.22655,62.25396],[7.22867,62.25292]],[[7.37955,62.27386],[7.38768,62.27226],[7.38948,62.27159],[7.39127,62.26955],[7.39923,62.26603],[7.40084,62.26341]],[[7.37721,62.27454],[7.37955,62.27386]],[[7.03556,62.25555],[7.03449,62.25433],[7.03425,62.25193],[7.03791,62.24835],[7.03901,62.244],[7.03774,62.24139],[7.03814,62.23794],[7.03575,62.23556],[7.0419,62.22788]],[[7.03556,62.25555],[7.03278,62.25794],[7.03239,62.25963],[7.03445,62.26114],[7.03491,62.26457]],[[7.27813,62.28328],[7.28429,62.28316],[7.28614,62.28391],[7.28807,62.28394],[7.29163,62.28373],[7.29345,62.2827],[7.29666,62.28222],[7.30721,62.28213],[7.31367,62.2841],[7.31843,62.28702],[7.32243,62.28729],[7.33015,62.28675],[7.33067,62.28573],[7.32854,62.28422],[7.33602,62.27765],[7.34818,62.27232],[7.35179,62.27117],[7.35419,62.2707],[7.35982,62.27097],[7.3651,62.26948],[7.36784,62.26678],[7.3683,62.26484],[7.36938,62.26425],[7.37322,62.26397],[7.37569,62.26276],[7.38171,62.25681]],[[7.23632,62.25622],[7.23777,62.25888],[7.23688,62.26255],[7.23742,62.26648],[7.24192,62.27125],[7.24499,62.27225],[7.24827,62.27406],[7.25187,62.27906],[7.25582,62.2804],[7.26258,62.28179],[7.26411,62.28331],[7.26463,62.28506],[7.27813,62.28328]],[[6.99901,62.27053],[7.00125,62.26782],[7.00412,62.266],[7.00522,62.26455],[7.00573,62.2592],[7.00527,62.25507],[7.00703,62.25258],[7.00842,62.24737],[7.00797,62.24176],[7.00414,62.23825],[7.00581,62.23429],[7.00496,62.23186],[7.0072,62.22912],[7.00684,62.22585]],[[7.03468,62.27259],[7.03491,62.26457]],[[7.13756,62.27849],[7.14983,62.2718],[7.1603,62.26751],[7.16818,62.26319],[7.1737,62.26256],[7.17755,62.2616],[7.18677,62.26217]],[[7.35158,62.29051],[7.35385,62.28986],[7.35571,62.28833],[7.3596,62.28678],[7.3646,62.28283],[7.36585,62.28102],[7.36554,62.27986],[7.36661,62.27914],[7.37286,62.27719],[7.37721,62.27454]],[[7.12201,62.2776],[7.12314,62.27795],[7.1253,62.28006],[7.12735,62.28042],[7.13507,62.27977],[7.13756,62.27849]],[[7.08558,62.27876],[7.09559,62.27693],[7.10465,62.27661]],[[7.18076,62.28523],[7.18467,62.28504],[7.18902,62.28412],[7.19872,62.28387],[7.20247,62.2845],[7.20687,62.28614],[7.21345,62.2869]],[[7.03468,62.27259],[7.03878,62.27652],[7.04484,62.27885],[7.05207,62.27919],[7.05784,62.27868],[7.0695,62.27942],[7.07622,62.27914],[7.07935,62.27963],[7.08558,62.27876]],[[7.2813,62.29317],[7.28186,62.29306],[7.28182,62.29218],[7.28107,62.29057],[7.28236,62.29026],[7.28595,62.29098],[7.29328,62.29166],[7.29464,62.2922],[7.29254,62.29295],[7.29227,62.29354],[7.3013,62.29495],[7.30325,62.29458],[7.30338,62.29296],[7.30962,62.29251],[7.31039,62.29177],[7.31007,62.29113],[7.31078,62.29091],[7.31561,62.29239],[7.31774,62.29382],[7.32197,62.29421],[7.32357,62.29391],[7.33353,62.294],[7.33798,62.29346],[7.35158,62.29051]],[[7.23225,62.29183],[7.22331,62.28757],[7.22092,62.28745],[7.21715,62.28614],[7.21345,62.2869]],[[7.27512,62.29497],[7.27895,62.29343],[7.2813,62.29317]],[[7.2602,62.29661],[7.26034,62.29758],[7.26458,62.29754],[7.2688,62.29644],[7.27394,62.29568],[7.27512,62.29497]],[[7.23225,62.29183],[7.23873,62.29358],[7.24615,62.29688]],[[7.24615,62.29688],[7.24901,62.29729],[7.25297,62.29642],[7.25798,62.29646]],[[6.99987,62.28732],[7.00575,62.28709],[7.00762,62.28336],[7.00314,62.27869],[7.0021,62.27685],[7.00228,62.27515],[6.99876,62.27328]],[[7.07861,62.30512],[7.08833,62.30141],[7.09,62.29927],[7.08998,62.29668],[7.09088,62.29512],[7.09775,62.29454],[7.10381,62.29521],[7.1078,62.29662],[7.11243,62.29644],[7.1195,62.29783],[7.12412,62.29805],[7.13659,62.29571],[7.13847,62.29497],[7.14242,62.29573],[7.15191,62.29456],[7.15965,62.29224],[7.16068,62.29043],[7.16457,62.28894],[7.16897,62.28791],[7.17646,62.28538],[7.18076,62.28523]],[[6.99626,62.31167],[7.00015,62.31122],[7.00495,62.30839],[7.01387,62.30825],[7.01705,62.3086],[7.03069,62.30876],[7.03601,62.30981],[7.04499,62.30845],[7.04897,62.30831],[7.05157,62.30903],[7.0534,62.3091],[7.06442,62.3078],[7.07861,62.30512]],[[7.4511,62.53176],[7.45495,62.53283],[7.45748,62.5331]],[[7.45748,62.5331],[7.46998,62.53488],[7.47293,62.5356]],[[7.4381,62.53807],[7.44392,62.53509],[7.4478,62.53224],[7.4511,62.53176]],[[7.13616,62.52294],[7.13823,62.52339],[7.13877,62.52293],[7.14038,62.52294],[7.14221,62.52444]],[[7.13183,62.52434],[7.13426,62.52484],[7.1358,62.52377],[7.13575,62.52324]],[[7.12797,62.52828],[7.1273,62.52729],[7.12896,62.52668],[7.12871,62.52619],[7.12942,62.52585],[7.1308,62.52623],[7.13271,62.52606],[7.13128,62.5248],[7.13183,62.52434]],[[7.14743,62.54334],[7.14898,62.54138],[7.14766,62.53694],[7.14768,62.53299],[7.14544,62.5295],[7.14519,62.52768],[7.14221,62.52444]],[[7.12486,62.54517],[7.12453,62.54274],[7.12773,62.54189],[7.13104,62.54162],[7.13186,62.54119],[7.13174,62.5401],[7.13001,62.53912],[7.13023,62.53716],[7.13391,62.53551],[7.13373,62.53498],[7.12974,62.53395],[7.12939,62.53123],[7.12797,62.52828]],[[7.12619,62.54859],[7.12486,62.54517]],[[7.1508,62.54998],[7.15024,62.54785],[7.14908,62.54677],[7.14521,62.54501],[7.14743,62.54334]],[[7.4085,62.56429],[7.41426,62.56244],[7.41824,62.55942],[7.4206,62.55866],[7.42622,62.55394],[7.43065,62.55222],[7.43207,62.55062],[7.43623,62.54858],[7.43745,62.54626],[7.43803,62.54145],[7.43698,62.53867],[7.43769,62.53818]],[[7.40016,62.56553],[7.40386,62.56532],[7.4085,62.56429]],[[7.13181,62.55814],[7.13342,62.55692],[7.13198,62.55627],[7.12619,62.54859]],[[7.47357,62.56783],[7.46869,62.57029],[7.46225,62.57213],[7.45664,62.57652],[7.45703,62.57832],[7.46421,62.58072],[7.46837,62.58282]],[[7.46837,62.58282],[7.46982,62.58385],[7.46892,62.58494],[7.46156,62.58683],[7.45653,62.58697],[7.45587,62.58733]],[[7.12448,62.57377],[7.12394,62.57301],[7.12111,62.57216],[7.12139,62.57104],[7.12288,62.57015],[7.12304,62.56909],[7.12209,62.56813],[7.12926,62.56215],[7.13113,62.56004],[7.13068,62.559],[7.13181,62.55814]],[[7.43024,62.59095],[7.43483,62.58801],[7.44137,62.58611],[7.44288,62.58471],[7.44494,62.58402],[7.44779,62.58464],[7.44984,62.58587],[7.45587,62.58733]],[[7.11404,62.57868],[7.1202,62.57818],[7.12236,62.57648],[7.12541,62.57531],[7.12475,62.57415]],[[7.43024,62.59095],[7.42666,62.59314],[7.41803,62.59703]],[[7.1084,62.58153],[7.11053,62.57959]],[[7.10397,62.59246],[7.1046,62.5906],[7.10561,62.59012],[7.10498,62.58893],[7.10594,62.58886],[7.10663,62.58765],[7.10682,62.58505],[7.1084,62.58153]],[[7.13369,62.59414],[7.13491,62.59285],[7.13516,62.59125],[7.14209,62.58531],[7.14318,62.58328],[7.14266,62.5819],[7.14816,62.5797],[7.1489,62.57648],[7.15111,62.57466],[7.15288,62.57207],[7.15217,62.57044],[7.15386,62.56823],[7.15332,62.56471],[7.1512,62.56091],[7.1482,62.55992],[7.14713,62.55898],[7.14661,62.55616],[7.14771,62.55453],[7.15102,62.55285],[7.1508,62.54998]],[[7.34284,62.59273],[7.33342,62.60204],[7.32947,62.60507]],[[7.33104,62.60515],[7.3351,62.60263],[7.33791,62.60185],[7.33993,62.59993],[7.34547,62.59674],[7.35406,62.59327],[7.35285,62.59238],[7.34903,62.59202],[7.34774,62.59228],[7.34623,62.59337],[7.34531,62.59282],[7.34603,62.59192],[7.34542,62.59149],[7.34284,62.59273]],[[7.36065,62.60678],[7.36203,62.60549],[7.36251,62.60337],[7.3646,62.60262],[7.36485,62.60197],[7.36448,62.60066],[7.36185,62.59794],[7.36193,62.59722],[7.36315,62.59556],[7.36681,62.59433],[7.36999,62.59149],[7.36911,62.59127],[7.36827,62.59215],[7.36736,62.59218],[7.36605,62.58958],[7.36633,62.58737],[7.36698,62.58702],[7.3707,62.58689],[7.37426,62.57963],[7.37591,62.57878],[7.37858,62.57838],[7.3799,62.57746],[7.37801,62.57438],[7.37835,62.57245],[7.38298,62.57119],[7.38716,62.56839],[7.39565,62.56603],[7.40016,62.56553]],[[7.41066,62.60952],[7.41198,62.60711],[7.41207,62.60458],[7.41522,62.60011],[7.41513,62.59908],[7.41803,62.59703]],[[7.32859,62.6064],[7.3284,62.60592],[7.32947,62.60507]],[[7.30287,62.60621],[7.30859,62.60607],[7.31479,62.60684],[7.32259,62.60712],[7.328,62.60692],[7.32859,62.6064]],[[7.29146,62.60751],[7.29534,62.60767],[7.29899,62.6069]],[[7.33104,62.60515],[7.32973,62.60587],[7.32921,62.60838],[7.33156,62.61025],[7.33683,62.61117],[7.34188,62.61081],[7.35438,62.60775],[7.35908,62.60779],[7.36065,62.60678]],[[7.28523,62.60866],[7.2876,62.6078],[7.29146,62.60751]],[[7.13369,62.59414],[7.13301,62.59511],[7.13371,62.59745],[7.13132,62.59858],[7.13069,62.59944],[7.13167,62.60061]],[[7.21923,62.61275],[7.22532,62.61108],[7.2318,62.61002],[7.23724,62.6105],[7.24271,62.61227]],[[7.13167,62.60061],[7.13088,62.60454],[7.12668,62.60542],[7.13105,62.608],[7.13143,62.6091],[7.13322,62.60982]],[[7.09538,62.61291],[7.0994,62.61147],[7.10004,62.61078],[7.09916,62.60953],[7.1002,62.60659],[7.09996,62.6043],[7.1036,62.59514],[7.10397,62.59246]],[[7.13322,62.60982],[7.1344,62.61022],[7.13383,62.61067],[7.13505,62.61108],[7.13522,62.61183],[7.13803,62.61102],[7.14096,62.61205],[7.14261,62.61357],[7.14661,62.61518],[7.14793,62.61631]],[[7.24271,62.61227],[7.2462,62.61386],[7.24708,62.61547],[7.24689,62.61684],[7.24865,62.61901],[7.24808,62.61975],[7.2436,62.62064],[7.24323,62.62102],[7.24394,62.62152],[7.24846,62.622],[7.24885,62.62132],[7.25084,62.62118],[7.25256,62.62184],[7.2577,62.62199],[7.26078,62.62261],[7.2613,62.62225],[7.25923,62.62138],[7.25927,62.62099],[7.26487,62.62094],[7.27035,62.62004],[7.2723,62.61522],[7.27877,62.61145],[7.28523,62.60866]],[[7.1892,62.62387],[7.1977,62.62334],[7.20019,62.62149],[7.20774,62.61883],[7.21112,62.61645],[7.21923,62.61275]],[[7.07744,62.61837],[7.07526,62.61869],[7.07856,62.61995],[7.07847,62.62041],[7.0636,62.61842],[7.05535,62.61812],[7.05332,62.61753],[7.04649,62.61798],[7.04333,62.61771]],[[7.41066,62.60952],[7.40528,62.61467],[7.4054,62.61573],[7.40735,62.61752],[7.40673,62.61905],[7.40098,62.62312],[7.39617,62.62799],[7.39594,62.62984],[7.39734,62.63074],[7.40251,62.63254],[7.42885,62.63612],[7.43655,62.63702],[7.44889,62.63733],[7.45653,62.63806],[7.4591,62.63891],[7.46091,62.64138],[7.46215,62.64166],[7.47171,62.64203],[7.47427,62.64179]],[[7.1685,62.62747],[7.16986,62.62705],[7.17618,62.62663],[7.17854,62.62586],[7.17922,62.62467],[7.1892,62.62387]],[[7.16847,62.6283],[7.1685,62.62747]],[[7.07744,62.61837],[7.0792,62.61841],[7.08598,62.62307],[7.09103,62.62453]],[[7.09103,62.62453],[7.09383,62.62471],[7.09594,62.62389],[7.09456,62.62307],[7.09525,62.62138],[7.09639,62.62108],[7.09732,62.62135],[7.09843,62.62008],[7.09849,62.61682],[7.09407,62.61423],[7.09538,62.61291]],[[7.03176,62.61549],[7.02405,62.61497],[7.02154,62.61534],[7.02137,62.61578],[7.02392,62.61724],[7.02436,62.61826],[7.02796,62.61911],[7.02626,62.62078],[7.02627,62.62191]],[[7.14718,62.61804],[7.14633,62.61969],[7.14783,62.62115],[7.14746,62.62328],[7.14431,62.62525],[7.14832,62.62857],[7.15129,62.62946],[7.16739,62.63143],[7.16964,62.63062],[7.17009,62.63004],[7.17012,62.62918],[7.16847,62.6283]],[[7.03719,62.6242],[7.02627,62.62191]],[[7.03719,62.6242],[7.04975,62.62577],[7.05278,62.62664]],[[7.08935,62.63082],[7.09373,62.63084],[7.09617,62.63014],[7.09528,62.62843],[7.09062,62.62606]],[[7.08716,62.63155],[7.08935,62.63082]],[[7.15895,62.63423],[7.15587,62.63331],[7.1544,62.63356],[7.15755,62.6355],[7.15962,62.63488],[7.15895,62.63423]],[[7.05278,62.62664],[7.0571,62.6278],[7.06418,62.62878],[7.066,62.63059],[7.06831,62.63064],[7.07145,62.62976],[7.07196,62.62853],[7.07862,62.62718],[7.07895,62.62606],[7.07759,62.62535],[7.07758,62.62476],[7.08108,62.62503],[7.0851,62.62467],[7.08835,62.6248]],[[7.08716,62.63155],[7.08513,62.63204],[7.08213,62.63159],[7.08011,62.6333]],[[7.10125,62.63063],[7.10011,62.63049],[7.09818,62.63118],[7.10223,62.63243],[7.10213,62.63335],[7.10101,62.63419],[7.10173,62.63515],[7.10381,62.63528],[7.10801,62.63455],[7.10871,62.63341],[7.10686,62.63178],[7.10125,62.63063]],[[7.32632,62.64844],[7.3332,62.64969]],[[7.30074,62.6486],[7.2975,62.64786],[7.29585,62.64779],[7.2942,62.64824]],[[7.32632,62.64844],[7.32054,62.64791],[7.31866,62.64817],[7.31695,62.64949]],[[7.3427,62.65091],[7.3332,62.64969]],[[7.28562,62.64776],[7.2901,62.64825],[7.2942,62.64824]],[[7.30074,62.6486],[7.31267,62.64972],[7.31584,62.64983],[7.31695,62.64949]],[[7.28087,62.64801],[7.28422,62.64768]],[[7.3427,62.65091],[7.35039,62.65233],[7.35568,62.65286],[7.3637,62.65448],[7.37182,62.65513],[7.37686,62.65602]],[[7.08035,62.63624],[7.08052,62.63804],[7.08527,62.64037]],[[7.08527,62.64037],[7.08663,62.64095]],[[7.08579,62.6441],[7.08828,62.64189],[7.08663,62.64095]],[[7.08579,62.6441],[7.08495,62.645],[7.08514,62.64651]],[[7.40595,62.66426],[7.40555,62.66349],[7.40243,62.66356],[7.39971,62.66294],[7.39955,62.66225],[7.39839,62.66257],[7.39806,62.66351],[7.40387,62.66496],[7.40595,62.66426]],[[7.37492,62.66349],[7.38011,62.66186],[7.38508,62.66256],[7.38725,62.66142],[7.3875,62.66074],[7.38145,62.65703],[7.37686,62.65602]],[[7.08329,62.65339],[7.08649,62.65006],[7.08675,62.64783],[7.08514,62.64651]],[[7.43126,62.67516],[7.42976,62.67419],[7.43582,62.67467],[7.43896,62.67537],[7.43983,62.67513],[7.44034,62.67399],[7.44306,62.67403],[7.44352,62.6733],[7.43676,62.67086],[7.43366,62.67049],[7.42644,62.66792],[7.42593,62.66702],[7.42076,62.66543],[7.41458,62.66437],[7.41359,62.66484],[7.41103,62.66472],[7.40907,62.66535],[7.40877,62.66652],[7.41333,62.66799],[7.41485,62.66923],[7.42083,62.67115],[7.42061,62.67168],[7.41944,62.67193],[7.41911,62.67279],[7.42421,62.67448],[7.42375,62.67475],[7.42132,62.67431],[7.42175,62.67469],[7.43207,62.67715],[7.43335,62.67709],[7.43348,62.67571],[7.43126,62.67516]],[[7.00423,62.65293],[7.00054,62.65285],[7.00294,62.65387],[7.0054,62.65403],[7.00423,62.65293]],[[7.3091,62.67223],[7.31552,62.66903],[7.32495,62.66791],[7.33264,62.66805],[7.33821,62.6686],[7.34501,62.66756],[7.35185,62.66762],[7.35598,62.66595],[7.36338,62.66683],[7.37014,62.66715],[7.37272,62.66461],[7.37492,62.66349]],[[6.99702,62.65168],[7.00237,62.65164],[7.01159,62.65227],[7.01138,62.65288],[7.01363,62.65337],[7.01594,62.65334],[7.01692,62.65287],[7.02004,62.65287],[7.03547,62.65496],[7.03837,62.65463],[7.04644,62.65509],[7.05764,62.65346],[7.06461,62.6535],[7.06778,62.65298],[7.07672,62.65409],[7.08329,62.65339]],[[7.27263,62.67948],[7.27911,62.68004],[7.28802,62.67843],[7.29179,62.67864],[7.29859,62.67693],[7.30069,62.67564],[7.30376,62.67505],[7.3072,62.67308]],[[7.28087,62.64801],[7.27371,62.6479],[7.26938,62.64866],[7.26131,62.64854],[7.25889,62.649],[7.25748,62.64999],[7.25452,62.65055],[7.24949,62.65075],[7.24217,62.65042],[7.23855,62.65193],[7.23569,62.65246],[7.23419,62.65358],[7.23594,62.65497],[7.23459,62.65662],[7.23374,62.65967],[7.22972,62.65999],[7.22701,62.66179],[7.22214,62.66257],[7.22069,62.66368],[7.22523,62.66595],[7.23307,62.66788],[7.23408,62.66951],[7.23719,62.67017],[7.23757,62.67139],[7.23381,62.67349],[7.23441,62.67398],[7.24051,62.67427],[7.24845,62.67586],[7.25758,62.67631],[7.26081,62.67764],[7.26314,62.67804],[7.26345,62.67955],[7.26184,62.68003],[7.26259,62.68029],[7.2653,62.68053],[7.26997,62.67946],[7.27263,62.67948]],[[6.98789,62.14401],[7.01094,62.15301]],[[7.01094,62.15301],[7.01865,62.15656]],[[7.01865,62.15656],[7.02092,62.15776]],[[7.11053,62.57959],[7.11154,62.57902],[7.11404,62.57868]],[[7.29899,62.6069],[7.30287,62.60621]],[[7.14793,62.61631],[7.14718,62.61804]],[[7.03176,62.61549],[7.03724,62.61628],[7.04102,62.61638],[7.04333,62.61771]],[[7.09062,62.62606],[7.08835,62.6248]],[[7.08011,62.6333],[7.08094,62.63547],[7.08035,62.63624]],[[7.28562,62.64776],[7.28422,62.64768]],[[7.44818,62.65666],[7.45,62.65676]],[[7.3072,62.67308],[7.3091,62.67223]],[[7.65101,62.97723],[7.66076,62.97908],[7.67007,62.98138],[7.67438,62.98305],[7.68395,62.98488]],[[7.7115,62.99465],[7.69825,62.99004],[7.69176,62.9867],[7.68727,62.9855]],[[7.72481,63.00234],[7.71803,62.9988],[7.7171,62.99768],[7.7115,62.99465]],[[7.65101,62.97723],[7.64459,62.97623]],[[7.68395,62.98488],[7.68727,62.9855]],[[7.55594,62.49731],[7.55755,62.49793],[7.5586,62.4975],[7.56356,62.49748]],[[7.54217,62.50011],[7.54442,62.49871],[7.54637,62.49882],[7.54825,62.49827],[7.54847,62.49751],[7.55174,62.49699],[7.55333,62.49711]],[[7.56356,62.49748],[7.56631,62.49838],[7.56469,62.50087],[7.56711,62.50261]],[[7.53027,62.52578],[7.53352,62.51645],[7.53972,62.50797],[7.53924,62.50423],[7.54217,62.50011]],[[7.56071,62.52741],[7.56473,62.51302],[7.56718,62.50769],[7.5676,62.50326]],[[7.51503,62.53385],[7.5165,62.53354],[7.52161,62.53365],[7.52507,62.53262],[7.52617,62.53189],[7.5273,62.5293],[7.53027,62.52578]],[[7.56071,62.52741],[7.55995,62.53183],[7.56309,62.53393],[7.56917,62.53619],[7.56968,62.53699],[7.57659,62.53726],[7.58131,62.53854],[7.58244,62.53955],[7.58493,62.54031],[7.59106,62.54154],[7.59378,62.54047],[7.60165,62.54159]],[[7.51491,62.53961],[7.51138,62.53691],[7.50891,62.5366],[7.50755,62.53598],[7.50853,62.53481],[7.51407,62.53526],[7.51422,62.53426],[7.51503,62.53385]],[[7.60165,62.54159],[7.60606,62.54302],[7.61821,62.54465],[7.62529,62.54621],[7.64159,62.5468],[7.65779,62.5482]],[[7.5041,62.54113],[7.50899,62.54142],[7.51401,62.54268],[7.51677,62.54252],[7.51862,62.54144],[7.51756,62.54051],[7.51491,62.53961]],[[7.47293,62.5356],[7.47811,62.53974],[7.47746,62.5417],[7.47808,62.54365],[7.47697,62.5457],[7.47998,62.54559],[7.49105,62.54379],[7.50061,62.54114],[7.5041,62.54113]],[[7.65779,62.5482],[7.65909,62.5484],[7.66072,62.54984],[7.66285,62.55611],[7.66804,62.55596],[7.66858,62.55514],[7.67188,62.55444]],[[7.69663,62.56742],[7.72274,62.56871]],[[7.69295,62.56736],[7.69663,62.56742]],[[7.67158,62.5584],[7.66904,62.5586],[7.66857,62.55949],[7.67466,62.56041],[7.67568,62.56088],[7.67556,62.56177],[7.67405,62.56219],[7.66895,62.56132],[7.66805,62.56175],[7.66762,62.56419],[7.67858,62.56765]],[[7.67858,62.56765],[7.68748,62.56958],[7.68949,62.56809],[7.69295,62.56736]],[[7.49793,62.56547],[7.50561,62.56459],[7.50776,62.56401],[7.51323,62.56381],[7.51902,62.56167],[7.52324,62.56191],[7.52729,62.56161],[7.53292,62.55946],[7.53965,62.5585],[7.54413,62.55865],[7.54495,62.55837],[7.54515,62.55721],[7.54893,62.55532],[7.54867,62.55428],[7.5529,62.5541],[7.55998,62.55483],[7.56423,62.55626],[7.57159,62.55715],[7.57337,62.55797],[7.57541,62.55766],[7.58153,62.56005],[7.58645,62.5613],[7.59186,62.56147],[7.59394,62.56361],[7.59612,62.56371]],[[7.47357,62.56783],[7.47475,62.56617],[7.47747,62.56585],[7.48451,62.56644],[7.49793,62.56547]],[[7.67995,62.57884],[7.67309,62.57722],[7.65986,62.57533],[7.65747,62.57426],[7.65619,62.57258],[7.65077,62.57111],[7.64886,62.56995],[7.64352,62.56882],[7.64014,62.56947],[7.63802,62.56946],[7.6355,62.56845],[7.63523,62.56757],[7.63244,62.56674],[7.62958,62.56641],[7.62958,62.56718],[7.63069,62.56772],[7.62841,62.56835],[7.62526,62.56753],[7.62045,62.56723],[7.61854,62.56749],[7.61256,62.56543],[7.60615,62.56399],[7.60195,62.56348],[7.6009,62.56493],[7.59886,62.5651],[7.59732,62.56475],[7.59612,62.56371]],[[7.68971,62.58049],[7.70667,62.58185],[7.71909,62.58357]],[[7.52945,62.58561],[7.52876,62.58449],[7.52917,62.58153],[7.52782,62.58028],[7.52833,62.57999]],[[7.52945,62.58561],[7.53281,62.58768],[7.53268,62.58801],[7.53105,62.58853],[7.53036,62.58779],[7.52935,62.5879],[7.528,62.58932],[7.52575,62.58986],[7.52555,62.5924],[7.52377,62.5927],[7.52295,62.5925],[7.52259,62.59175],[7.5232,62.58969],[7.52186,62.58834],[7.51474,62.58543],[7.50861,62.58441],[7.50583,62.58465]],[[7.52242,62.59556],[7.51871,62.59549],[7.51777,62.59622],[7.51998,62.59761],[7.52299,62.59813],[7.52418,62.59758],[7.52454,62.59677],[7.52242,62.59556]],[[7.50818,62.59815],[7.50799,62.59668],[7.50956,62.59458],[7.50942,62.59243],[7.50794,62.5895],[7.50311,62.58664],[7.50404,62.58551],[7.50583,62.58465]],[[7.54528,62.60459],[7.54351,62.59975],[7.54611,62.59634],[7.54516,62.59023],[7.53627,62.58707],[7.53348,62.58692],[7.53109,62.58624],[7.53313,62.5845],[7.53728,62.58594],[7.54031,62.58581],[7.54041,62.5853],[7.5386,62.58452],[7.53849,62.58371],[7.53949,62.58271],[7.54377,62.58127],[7.54347,62.58048],[7.54141,62.57921],[7.53762,62.57794],[7.53491,62.57646],[7.53495,62.57591],[7.53807,62.57481],[7.53806,62.57389],[7.53598,62.57278],[7.5331,62.57336],[7.53039,62.57485],[7.52965,62.57705],[7.53068,62.57909],[7.52833,62.57999]],[[7.53265,62.60606],[7.5299,62.60591],[7.5299,62.60724],[7.53142,62.60871],[7.53584,62.61007],[7.53729,62.60933],[7.53728,62.60876],[7.53417,62.60642],[7.53265,62.60606]],[[7.50569,62.61466],[7.5068,62.61246],[7.50987,62.61015],[7.51109,62.60828],[7.50948,62.60001],[7.50818,62.59815]],[[7.54233,62.61663],[7.5423,62.61253],[7.54048,62.60992],[7.54077,62.60928],[7.54341,62.60809],[7.54528,62.60459]],[[7.49601,62.61841],[7.49909,62.61625],[7.50072,62.61608],[7.50308,62.61645],[7.50569,62.61466]],[[7.47876,62.64093],[7.48116,62.63995],[7.48287,62.63833],[7.48389,62.63803],[7.48591,62.63822],[7.48826,62.63916],[7.48934,62.63906],[7.49038,62.63711],[7.49516,62.63475],[7.49836,62.62878],[7.49662,62.62669],[7.49637,62.6237],[7.49753,62.62139],[7.49621,62.61985],[7.49601,62.61841]],[[7.54233,62.61663],[7.54058,62.61952],[7.53903,62.62081],[7.53376,62.623],[7.52676,62.62707],[7.51911,62.62994],[7.51371,62.63374],[7.5093,62.63491],[7.50827,62.63759],[7.50904,62.64304]],[[7.47427,62.64179],[7.47876,62.64093]],[[7.49762,62.65933],[7.5001,62.65641],[7.49982,62.65429],[7.50065,62.65211],[7.50851,62.64539],[7.50904,62.64304]],[[7.49762,62.65933],[7.49774,62.66057],[7.49948,62.66113],[7.50121,62.66237]],[[7.50121,62.66237],[7.50373,62.66398],[7.50585,62.66375]],[[7.51648,62.66592],[7.52586,62.66688],[7.53016,62.66948],[7.53367,62.67006],[7.53707,62.67167]],[[7.53707,62.67167],[7.54222,62.67423],[7.5474,62.67572],[7.559,62.67755],[7.56739,62.67818]],[[7.56739,62.67818],[7.57056,62.67809]],[[7.57056,62.67809],[7.5785,62.67744],[7.59726,62.67928],[7.603,62.68067],[7.60495,62.68359],[7.60605,62.68386],[7.60582,62.68361],[7.60721,62.68345],[7.61139,62.68614]],[[7.55599,62.69981],[7.55636,62.69985]],[[7.61139,62.68614],[7.61285,62.68863],[7.61488,62.69006],[7.62316,62.69297],[7.64156,62.69557],[7.66075,62.69726]],[[7.66075,62.69726],[7.67522,62.69741],[7.67767,62.69772],[7.68295,62.69671],[7.68668,62.69846],[7.69008,62.7009]],[[7.46735,62.68567],[7.47091,62.68495],[7.47748,62.68596],[7.48826,62.68602],[7.48995,62.68665],[7.49354,62.68706],[7.49879,62.68665],[7.50129,62.68679],[7.51359,62.69006],[7.52102,62.69126],[7.52613,62.6925],[7.52951,62.69262],[7.5475,62.69837],[7.55065,62.6986],[7.55599,62.69981]],[[7.55636,62.69985],[7.56172,62.70064]],[[7.60709,62.71027],[7.59575,62.70737],[7.56172,62.70064]],[[7.60709,62.71027],[7.61348,62.71212],[7.61801,62.7124],[7.62645,62.71432],[7.63074,62.71457],[7.65516,62.71965]],[[7.65516,62.71965],[7.68079,62.72523],[7.68402,62.72539]],[[7.44932,62.75596],[7.45711,62.75713],[7.47694,62.76186],[7.50471,62.7651],[7.51237,62.76633],[7.51552,62.76726]],[[7.51552,62.76726],[7.52132,62.76914],[7.5326,62.77182],[7.54085,62.77282]],[[7.54339,62.77299],[7.5561,62.77406],[7.57117,62.77588]],[[7.57117,62.77588],[7.57599,62.77663],[7.5824,62.77664],[7.58587,62.7771],[7.59674,62.77754],[7.61012,62.77882]],[[7.61012,62.77882],[7.61994,62.77948],[7.63327,62.77911],[7.64044,62.77851]],[[7.50769,62.77992],[7.50889,62.77937],[7.51326,62.77939]],[[7.51326,62.77939],[7.51546,62.77959],[7.51998,62.78105]],[[7.64044,62.77851],[7.64448,62.7783],[7.64982,62.77706],[7.65247,62.77696],[7.65868,62.77785],[7.66812,62.77821],[7.67067,62.77897]],[[7.5411,62.78199],[7.54261,62.78177],[7.54757,62.78291],[7.55244,62.78348],[7.55618,62.78324],[7.56338,62.78382],[7.56826,62.78503]],[[7.44575,62.76987],[7.44815,62.7702],[7.45397,62.7702],[7.45645,62.77178],[7.46632,62.7735],[7.48458,62.77826],[7.48427,62.77802],[7.48705,62.77874],[7.48861,62.77888],[7.48943,62.77857],[7.493,62.77912],[7.49418,62.78022],[7.49569,62.78071],[7.50105,62.78145],[7.50255,62.78112]],[[7.51998,62.78105],[7.5294,62.78311],[7.53483,62.78273]],[[7.56826,62.78503],[7.57064,62.78522],[7.5745,62.78645]],[[7.5745,62.78645],[7.57651,62.78688],[7.58347,62.78724],[7.59365,62.78893]],[[7.63668,62.79349],[7.64072,62.79301],[7.64909,62.79317],[7.65344,62.79362],[7.65583,62.79337],[7.65617,62.79289],[7.65513,62.79232]],[[7.59365,62.78893],[7.60369,62.78976],[7.61161,62.78993],[7.62195,62.79129],[7.63271,62.79332],[7.63668,62.79349]],[[7.43282,62.89996],[7.43437,62.90088],[7.44103,62.90199],[7.4405,62.90162],[7.44418,62.9018]],[[7.47144,62.90041],[7.47621,62.90241],[7.48032,62.90536],[7.4851,62.90672],[7.49159,62.9072],[7.50411,62.9066]],[[7.44418,62.9018],[7.44452,62.90223],[7.44751,62.90266],[7.44657,62.90129],[7.4492,62.90099],[7.4503,62.90216],[7.44929,62.90275],[7.44939,62.9037],[7.45102,62.90506],[7.45313,62.90579],[7.45837,62.90387],[7.45604,62.90318],[7.4566,62.90195],[7.45783,62.90143],[7.46081,62.90065],[7.46377,62.90054],[7.46553,62.90155],[7.46715,62.90149],[7.46796,62.90081],[7.46776,62.90008],[7.46932,62.89957],[7.46963,62.89877],[7.47144,62.90041]],[[7.50411,62.9066],[7.50694,62.90684],[7.50736,62.90825],[7.50871,62.90879]],[[7.42769,62.90499],[7.42763,62.90432],[7.43188,62.90309],[7.4308,62.89973]],[[7.50871,62.90879],[7.51502,62.90955],[7.5168,62.90794],[7.51862,62.90762],[7.52419,62.9091],[7.52726,62.91038],[7.52621,62.91088],[7.52683,62.91144],[7.5317,62.91086],[7.53372,62.91136],[7.53792,62.91143],[7.53857,62.91198]],[[7.4489,62.90938],[7.44636,62.90683],[7.4474,62.90647],[7.44961,62.90683],[7.44811,62.90475],[7.44585,62.90555],[7.44554,62.90646],[7.44273,62.90627],[7.43991,62.9072],[7.43379,62.90712],[7.43238,62.90745],[7.43055,62.90704],[7.42769,62.90499]],[[7.53857,62.91198],[7.53899,62.91264],[7.53725,62.91372],[7.53933,62.91491],[7.54719,62.91613],[7.54841,62.91742],[7.55296,62.91973],[7.55362,62.92051],[7.55666,62.92166],[7.55946,62.92198]],[[7.58968,62.92558],[7.59384,62.92653]],[[7.5614,62.9232],[7.56099,62.92411],[7.56594,62.9255],[7.57659,62.92598],[7.58311,62.92528],[7.58968,62.92558]],[[7.59384,62.92653],[7.5951,62.92935],[7.59891,62.93047],[7.59819,62.93343]],[[7.4489,62.90938],[7.45073,62.91054],[7.45207,62.91053],[7.45237,62.91198],[7.45482,62.91329],[7.45436,62.91498],[7.4572,62.91653],[7.45545,62.91795],[7.45705,62.91933],[7.45664,62.92154],[7.4544,62.92417],[7.4525,62.92519],[7.45127,62.92747]],[[7.59422,62.93508],[7.59819,62.93343]],[[7.59422,62.93508],[7.59311,62.93534]],[[7.59311,62.93534],[7.58692,62.93633],[7.5999,62.93919]],[[7.50189,62.93535],[7.49827,62.93623]],[[7.51231,62.93918],[7.51019,62.93833],[7.5074,62.9379],[7.50353,62.93538],[7.50189,62.93535]],[[7.51231,62.93918],[7.51366,62.9396],[7.51806,62.93951],[7.52014,62.94028],[7.5243,62.93992]],[[7.49193,62.94009],[7.4903,62.9366],[7.49074,62.93602],[7.49593,62.93563],[7.49827,62.93623]],[[7.43893,62.93941],[7.44692,62.93849],[7.44607,62.93651],[7.45144,62.92927],[7.45127,62.92747]],[[7.55152,62.94608],[7.54722,62.94419],[7.53749,62.94204],[7.52944,62.93948],[7.5243,62.93992]],[[7.60687,62.94298],[7.61669,62.94632],[7.62309,62.94714],[7.6279,62.94909]],[[7.42937,62.94332],[7.43121,62.94188],[7.43377,62.94111],[7.43444,62.93981],[7.43893,62.93941]],[[7.55152,62.94608],[7.55563,62.94731],[7.5595,62.94975],[7.5636,62.95028],[7.5676,62.95155],[7.57286,62.95234],[7.57878,62.95449],[7.58729,62.95686],[7.59461,62.96001]],[[7.49193,62.94009],[7.49099,62.94295],[7.48906,62.94347],[7.49024,62.94507],[7.4932,62.94626],[7.49241,62.94994],[7.49091,62.95102],[7.48556,62.95189],[7.48336,62.95263],[7.48298,62.95425],[7.48079,62.95549],[7.48181,62.95729]],[[7.41497,62.95684],[7.41483,62.95608],[7.4161,62.9555],[7.41665,62.95449],[7.41532,62.953],[7.41719,62.95171],[7.41757,62.9504],[7.42525,62.94691],[7.42587,62.94563],[7.4279,62.94501],[7.42937,62.94332]],[[7.46456,62.96094],[7.46803,62.96089],[7.47501,62.95976],[7.48002,62.95846],[7.48181,62.95729]],[[7.59461,62.96001],[7.60377,62.96369],[7.60881,62.96444],[7.62296,62.96863]],[[7.46456,62.96094],[7.46146,62.96174],[7.45566,62.96244],[7.45176,62.964],[7.44637,62.96514],[7.43955,62.96548],[7.43574,62.96606],[7.43014,62.96611],[7.42732,62.9673],[7.4278,62.96808],[7.42729,62.96852],[7.42269,62.96861],[7.42188,62.96933],[7.42203,62.97034]],[[7.41553,62.97065],[7.41292,62.97051]],[[7.41553,62.97065],[7.41914,62.97085]],[[7.6279,62.94909],[7.63159,62.94984],[7.63205,62.95036]],[[7.63205,62.95036],[7.63091,62.95165],[7.63393,62.95279],[7.63873,62.95397],[7.64789,62.95521]],[[7.64789,62.95521],[7.65418,62.95646],[7.65854,62.95793]],[[7.65854,62.95793],[7.66149,62.9591],[7.66311,62.96073],[7.66594,62.96185],[7.66521,62.96333],[7.66642,62.96388],[7.66958,62.96431],[7.67251,62.96425],[7.67423,62.9647],[7.67655,62.96613],[7.68515,62.96843],[7.69146,62.96879]],[[7.69146,62.96879],[7.6953,62.96934],[7.69968,62.96939]],[[7.706,62.96984],[7.71508,62.97014],[7.71832,62.97077],[7.71884,62.97059],[7.71833,62.96999],[7.71967,62.9696]],[[7.71967,62.9696],[7.7228,62.96896],[7.72992,62.9685],[7.73112,62.96915],[7.73501,62.96931],[7.73871,62.97004],[7.73933,62.97091],[7.73718,62.97161],[7.74144,62.9727],[7.74276,62.97133],[7.74509,62.97048],[7.74437,62.9699],[7.74503,62.96847],[7.74872,62.96741],[7.74591,62.96593],[7.74715,62.96521],[7.74799,62.96491],[7.7499,62.9651],[7.75351,62.96611],[7.7564,62.96642]],[[7.62296,62.96863],[7.62687,62.96965],[7.63156,62.97279],[7.64459,62.97623]],[[7.56711,62.50261],[7.5676,62.50326]],[[7.67188,62.55444],[7.67597,62.55582]],[[7.67995,62.57884],[7.68971,62.58049]],[[7.45,62.65676],[7.45001,62.6563],[7.44875,62.65592],[7.44595,62.65601],[7.44818,62.65666]],[[7.50585,62.66375],[7.5119,62.66541],[7.51648,62.66592]],[[7.56652,62.6816],[7.56913,62.6812],[7.56897,62.68077],[7.56683,62.68039]],[[7.56683,62.68039],[7.56574,62.68029],[7.56404,62.68119],[7.56515,62.68177],[7.56652,62.6816]],[[7.54085,62.77282],[7.54339,62.77299]],[[7.53483,62.78273],[7.53627,62.78279],[7.5411,62.78199]],[[7.50255,62.78112],[7.50353,62.78075],[7.50553,62.78097],[7.50705,62.78061]],[[7.60655,62.94285],[7.60687,62.94298]],[[7.5999,62.93919],[7.60655,62.94285]],[[7.55946,62.92198],[7.56086,62.92241],[7.5614,62.9232]],[[7.48413,62.93945],[7.48163,62.93956],[7.48168,62.94032],[7.48267,62.94071],[7.48413,62.93945]],[[7.72274,62.56871],[7.73241,62.56919],[7.74007,62.56743],[7.74538,62.56709],[7.7554,62.56881],[7.75973,62.56863],[7.76607,62.56897],[7.77731,62.57027],[7.7833,62.57135]],[[7.78592,62.57689],[7.7869,62.57646],[7.78592,62.57545],[7.78869,62.57443],[7.78616,62.57421],[7.78444,62.57576],[7.78291,62.57546],[7.78449,62.57397],[7.78773,62.57314],[7.78525,62.57189]],[[7.78592,62.57689],[7.78339,62.5772],[7.7797,62.57711]],[[7.7507,62.5783],[7.75249,62.57713],[7.76041,62.57615],[7.77096,62.5764],[7.77335,62.57684],[7.7797,62.57711]],[[7.74041,62.582],[7.74338,62.58082],[7.74737,62.58005],[7.7507,62.5783]],[[7.72038,62.58373],[7.72836,62.58453],[7.73265,62.58431],[7.73686,62.58378],[7.74041,62.582]],[[7.68402,62.72539],[7.69308,62.72746],[7.70078,62.7287],[7.70721,62.7296],[7.70964,62.72954],[7.71267,62.73037],[7.72817,62.73292],[7.73976,62.73411],[7.74923,62.73658]],[[7.67067,62.77897],[7.67614,62.77882],[7.68886,62.78198],[7.69435,62.78264],[7.6956,62.78226],[7.69707,62.78238],[7.70051,62.78465],[7.70444,62.78473],[7.70669,62.78596],[7.70721,62.78682],[7.71533,62.78922],[7.71819,62.79045],[7.72063,62.7909],[7.72211,62.79199],[7.72147,62.79254]],[[7.69968,62.96939],[7.706,62.96984]],[[7.67695,62.89662],[7.6806,62.89523],[7.6819,62.89533],[7.68014,62.89589],[7.68167,62.89642],[7.68596,62.89579]],[[7.70736,62.9053],[7.70033,62.90252],[7.69604,62.90001],[7.68596,62.89579]],[[7.70736,62.9053],[7.70919,62.90636],[7.70912,62.90756],[7.71153,62.90788],[7.71528,62.9094],[7.71973,62.91217],[7.72686,62.91449],[7.73218,62.91538]],[[7.73218,62.91538],[7.75276,62.91998]],[[7.67686,62.89775],[7.67914,62.90124],[7.68357,62.90535],[7.6961,62.91167],[7.69976,62.91437],[7.70308,62.91516],[7.70358,62.91586],[7.70296,62.91685],[7.70419,62.91798]],[[7.75276,62.91998],[7.7536,62.92061],[7.76191,62.92351]],[[7.77067,62.92728],[7.77445,62.92891],[7.78058,62.93049]],[[7.72705,62.93012],[7.71761,62.92635],[7.71676,62.92486],[7.71303,62.92479],[7.7106,62.9238],[7.70878,62.92241],[7.70645,62.91911],[7.70419,62.91798]],[[7.78058,62.93049],[7.78535,62.93203],[7.79823,62.93769]],[[7.73882,62.93666],[7.73533,62.93512],[7.72705,62.93012]],[[7.71909,62.58357],[7.72038,62.58373]],[[7.76243,62.71841],[7.75894,62.71717],[7.75423,62.7163]],[[7.76191,62.92351],[7.77067,62.92728]],[[7.66698,62.79372],[7.66949,62.79495],[7.67126,62.79502],[7.67158,62.79465],[7.66997,62.79351],[7.6751,62.79266],[7.67661,62.79167],[7.67638,62.79105],[7.67173,62.79084],[7.67172,62.78956],[7.6683,62.78845]],[[7.66903,62.78551],[7.67885,62.78659],[7.68284,62.78612],[7.68448,62.78629],[7.70702,62.78987],[7.71037,62.78966],[7.71241,62.79106],[7.71949,62.79277]],[[7.73882,62.93666],[7.7415,62.93773],[7.74327,62.93961],[7.75071,62.94325]]]}}]}