{"type":"FeatureCollection","features":[{"type":"Feature","properties":{},"geometry":{"type":"MultiLineString","coordinates":[[[8.47991,62.98581],[8.4846,62.98831],[8.48813,62.98933]],[[8.64948,62.9867],[8.65029,62.98699],[8.65431,62.98705],[8.65449,62.98821]],[[8.56026,62.98265],[8.56511,62.98346],[8.56605,62.98431],[8.57227,62.98677]],[[8.57227,62.98677],[8.57859,62.98743]],[[8.63077,62.98777],[8.63159,62.98886],[8.63373,62.98888],[8.63621,62.98973],[8.64355,62.99095],[8.65058,62.99085],[8.65449,62.98821]],[[8.61644,62.98973],[8.62162,62.98687],[8.62844,62.98673],[8.63077,62.98777]],[[8.57859,62.98743],[8.58139,62.98812],[8.58717,62.98804],[8.59006,62.98904],[8.59666,62.98925],[8.60977,62.99097],[8.61229,62.99061],[8.61437,62.98975],[8.61644,62.98973]],[[8.48813,62.98933],[8.49153,62.99052],[8.49372,62.99248],[8.50345,62.9948],[8.5071,62.99454],[8.51122,62.99518],[8.52553,62.99977],[8.52715,63.00093]],[[8.49877,63.00209],[8.48883,62.99843],[8.48977,62.99702],[8.49235,62.99639],[8.49254,62.99547],[8.4917,62.9949],[8.48853,62.99644],[8.48804,62.99723],[8.48465,62.99823],[8.47785,62.99501]],[[8.68356,62.82072],[8.68623,62.82015],[8.6871,62.81921],[8.69066,62.81869],[8.69325,62.81863],[8.69618,62.8198],[8.69767,62.81902],[8.69985,62.81904],[8.70087,62.82123],[8.69922,62.82269]],[[8.50053,62.83557],[8.51205,62.83738]],[[8.6091,62.84829],[8.61258,62.84795],[8.61127,62.84664],[8.61323,62.84332],[8.61737,62.84014],[8.62141,62.83777],[8.62409,62.83697],[8.62855,62.83345],[8.63571,62.82993],[8.63779,62.82924],[8.64316,62.82863],[8.65089,62.82932],[8.6554,62.83023],[8.66026,62.82942],[8.6639,62.82818],[8.66837,62.82746],[8.67253,62.82505],[8.68377,62.82384],[8.6844,62.8233],[8.68324,62.8229],[8.68224,62.82166],[8.68356,62.82072]],[[8.48784,62.84417],[8.48942,62.84283],[8.49191,62.84216],[8.49299,62.84081],[8.49613,62.83937],[8.49755,62.83815],[8.49764,62.83537],[8.50053,62.83557]],[[8.52124,62.84572],[8.51974,62.84304],[8.51398,62.84016],[8.51406,62.83841]],[[8.60307,62.84947],[8.6042,62.84871],[8.6091,62.84829]],[[8.6274,62.85058],[8.62723,62.84935],[8.62526,62.84836],[8.62504,62.84769],[8.62855,62.84775],[8.63109,62.84905],[8.63306,62.84877],[8.63256,62.84779],[8.6346,62.84401],[8.63161,62.84234],[8.63145,62.84165],[8.63279,62.84077],[8.63745,62.83961],[8.64,62.83946],[8.64556,62.84093],[8.64863,62.84062],[8.654,62.83852],[8.65602,62.83834],[8.66041,62.83704],[8.67783,62.83468],[8.68799,62.83266],[8.69122,62.83164],[8.69257,62.83072],[8.70016,62.82848],[8.70135,62.82744],[8.69977,62.82607]],[[8.58971,62.85979],[8.58996,62.85886],[8.59273,62.85865],[8.59458,62.85771],[8.59435,62.85539],[8.59598,62.85345],[8.59761,62.85284],[8.59943,62.85341],[8.60062,62.85312],[8.60307,62.84947]],[[8.58669,62.86603],[8.58845,62.86585],[8.59137,62.86473],[8.58933,62.86263],[8.58971,62.85979]],[[8.62054,62.8717],[8.61993,62.87028],[8.62088,62.86875],[8.62164,62.86843],[8.62404,62.86841],[8.62804,62.86723],[8.63097,62.86344],[8.63001,62.8591],[8.62775,62.85535],[8.62888,62.85308],[8.6274,62.85058]],[[8.50593,62.86904],[8.51668,62.86481],[8.52759,62.86371],[8.53826,62.86427],[8.55257,62.86374],[8.55483,62.86415],[8.55824,62.86573],[8.5638,62.86652],[8.56778,62.86481],[8.57106,62.86486],[8.58066,62.86794],[8.58286,62.86754],[8.58576,62.8661],[8.58669,62.86603]],[[8.6014,62.88351],[8.61083,62.88024]],[[8.48879,62.87854],[8.49159,62.87789],[8.49164,62.87659],[8.49342,62.87571]],[[8.53907,62.88834],[8.54277,62.88664],[8.54329,62.8841],[8.54049,62.88351],[8.53594,62.88325],[8.53509,62.88218],[8.53623,62.88095],[8.54158,62.87893],[8.55377,62.88097],[8.561,62.88147],[8.5731,62.88366],[8.58512,62.88504],[8.5939,62.88549],[8.6014,62.88351]],[[8.522,62.8883],[8.52306,62.88771],[8.52445,62.88767],[8.52865,62.88853],[8.53455,62.88848],[8.53736,62.8889]],[[8.48588,62.95911],[8.4875,62.95767],[8.489,62.95724],[8.49143,62.95738],[8.49454,62.9583],[8.49778,62.958],[8.5014,62.95685],[8.50243,62.95559],[8.50419,62.95508],[8.51151,62.95537],[8.51526,62.95624],[8.52306,62.95673],[8.52654,62.95667],[8.52832,62.95621],[8.53247,62.95642],[8.53459,62.95717],[8.54549,62.95905],[8.56802,62.96157],[8.57328,62.96398],[8.57679,62.96409],[8.58344,62.9654]],[[8.58344,62.9654],[8.58949,62.9651],[8.59425,62.96568],[8.59885,62.96496],[8.60377,62.96612],[8.60718,62.9674],[8.61488,62.9688],[8.62619,62.96898],[8.6359,62.97047],[8.64273,62.96983],[8.64984,62.97022],[8.65501,62.97]],[[8.65532,62.97171],[8.6539,62.97269],[8.6548,62.97342]],[[8.50375,62.96896],[8.50301,62.96859],[8.49901,62.9686],[8.49542,62.97003],[8.49229,62.9705],[8.48843,62.97211],[8.48409,62.97122],[8.48306,62.97171]],[[8.6548,62.97342],[8.65033,62.97722],[8.65096,62.97763],[8.65039,62.97938],[8.65229,62.98021]],[[8.69945,62.826],[8.69848,62.82591],[8.69773,62.82511],[8.69807,62.82362],[8.69922,62.82269]],[[8.67745,62.82686],[8.67509,62.82665],[8.67426,62.82701],[8.67788,62.82772],[8.67745,62.82686]],[[8.62054,62.8717],[8.61969,62.87289],[8.61568,62.87372],[8.61489,62.87768],[8.61322,62.8795],[8.61083,62.88024]],[[8.53736,62.8889],[8.53856,62.88898]],[[8.5075,62.96883],[8.50518,62.96854],[8.50375,62.96896]],[[8.53095,62.97552],[8.5298,62.97516],[8.52998,62.97455]],[[8.55898,62.98187],[8.55882,62.98101],[8.55798,62.9808],[8.54671,62.97995],[8.54319,62.97883],[8.53732,62.97775],[8.53095,62.97552]],[[8.64948,62.9867],[8.64705,62.98495],[8.65045,62.98354],[8.65089,62.98219],[8.64948,62.98173],[8.64865,62.98063],[8.65179,62.98073],[8.65229,62.98021]],[[8.07759,62.96973],[8.07827,62.96703],[8.08096,62.96458],[8.08327,62.964],[8.08887,62.96379]],[[8.08887,62.96379],[8.09571,62.96297],[8.09862,62.96076]],[[8.02674,62.99585],[8.02744,62.99441],[8.02874,62.99355],[8.03157,62.99226],[8.03491,62.99161],[8.03647,62.98993],[8.03503,62.98838],[8.03591,62.98737],[8.03939,62.98489],[8.04372,62.98279],[8.04459,62.98141],[8.04661,62.9809],[8.04826,62.97992],[8.04854,62.97859],[8.0458,62.97744],[8.04499,62.97661],[8.04793,62.97651],[8.05464,62.97309],[8.05805,62.9732],[8.06034,62.97279],[8.06383,62.97481],[8.0667,62.9748],[8.0714,62.97355],[8.07216,62.97299],[8.07143,62.97165],[8.07574,62.97063],[8.07759,62.96973]],[[8.01398,62.99924],[8.0217,62.99774],[8.02448,62.99768],[8.02674,62.99585]],[[7.99766,63.0001],[8.00003,62.99896],[8.00456,62.99932],[8.0062,62.99986],[8.00793,62.99958],[8.00956,62.99866],[8.01398,62.99924]],[[8.0364,62.95769],[8.0364,62.95769]],[[7.9943,62.96972],[8.00251,62.97034],[8.00387,62.96986],[8.00483,62.96748],[8.00935,62.96765],[8.01403,62.96659]],[[8.01403,62.96659],[8.01736,62.96623],[8.02047,62.96468],[8.02308,62.96445],[8.02504,62.96489],[8.02854,62.96731]],[[8.0289,62.96733],[8.03661,62.96631],[8.03499,62.96417],[8.03918,62.96371],[8.0364,62.95769]],[[8.09862,62.96076],[8.10444,62.95765],[8.11098,62.95676],[8.11369,62.956],[8.11479,62.95368],[8.11748,62.95327],[8.12276,62.95141]],[[8.25004,62.97811],[8.25338,62.97734],[8.25185,62.9749]],[[8.3636,62.97351],[8.36051,62.97643],[8.3573,62.97631],[8.35576,62.97661],[8.35485,62.97794],[8.35296,62.979],[8.35285,62.98027],[8.34923,62.98283]],[[8.25249,62.97438],[8.25499,62.97411],[8.25766,62.97466]],[[8.46908,62.97845],[8.46906,62.97899],[8.47114,62.9798],[8.47302,62.98158],[8.47214,62.98412],[8.47579,62.98418],[8.47991,62.98581]],[[8.2828,62.98148],[8.28521,62.98107],[8.288,62.97993]],[[8.26569,62.97886],[8.2731,62.98213],[8.27411,62.98321],[8.27629,62.98379],[8.27816,62.98374],[8.27838,62.98244],[8.27939,62.98177],[8.2828,62.98148]],[[8.4621,62.98976],[8.46556,62.99229],[8.46851,62.99286],[8.47394,62.9948],[8.47785,62.99501]],[[8.25493,62.99142],[8.25417,62.99005],[8.25473,62.9893],[8.25618,62.98889],[8.25622,62.98809],[8.25219,62.98639],[8.25074,62.9853],[8.24418,62.98403],[8.2434,62.98348],[8.24256,62.97906],[8.24408,62.97852],[8.24971,62.97849],[8.25195,62.97985],[8.2538,62.9796],[8.25292,62.97872],[8.25016,62.97857],[8.25004,62.97811]],[[8.34923,62.98283],[8.34721,62.98451],[8.34668,62.98685],[8.34377,62.98789],[8.33236,62.99023],[8.32337,62.99288],[8.3221,62.99404],[8.3227,62.99539],[8.32621,62.99694],[8.32627,62.99757],[8.32771,62.99844],[8.34001,63.00322]],[[8.24132,63.00286],[8.2455,62.99933],[8.24897,62.99924],[8.25077,62.99859],[8.25351,62.99665],[8.2565,62.99639],[8.25753,62.99403],[8.25904,62.99335],[8.25782,62.99236],[8.25493,62.99142]],[[8.46757,62.98837],[8.46915,62.98705],[8.46832,62.98654],[8.46369,62.98819]],[[8.288,62.97993],[8.29,62.97929],[8.29323,62.97931],[8.29735,62.97866],[8.30104,62.97682],[8.30437,62.97608],[8.30976,62.97406],[8.31556,62.97124]],[[8.25766,62.97466],[8.26025,62.97685],[8.26185,62.97683],[8.26569,62.97886]],[[8.35755,62.88312],[8.36271,62.88441],[8.36554,62.88611],[8.37308,62.88589],[8.37743,62.88406]],[[8.49957,62.89769],[8.50321,62.89582],[8.5095,62.89504],[8.51242,62.89227],[8.51615,62.89053]],[[8.33605,62.89185],[8.33799,62.89106],[8.33802,62.89063],[8.32991,62.88775]],[[8.10806,62.87109],[8.10868,62.87383],[8.1057,62.88065],[8.10615,62.88247],[8.10765,62.88437]],[[8.43005,62.88653],[8.42833,62.88852],[8.42539,62.88929],[8.42453,62.88998],[8.42312,62.89253],[8.42356,62.89567],[8.42152,62.89721],[8.41871,62.89794],[8.41857,62.8986],[8.41433,62.90026],[8.41347,62.9009],[8.41449,62.90176],[8.41989,62.90115],[8.4231,62.90012],[8.43831,62.89257],[8.4445,62.89006],[8.44654,62.88853],[8.45035,62.88748]],[[8.10689,62.88761],[8.10914,62.88826],[8.11085,62.88786],[8.11043,62.88667],[8.10765,62.88437]],[[8.5256,62.67054],[8.52788,62.67043],[8.5309,62.66878],[8.53208,62.66905],[8.53189,62.66941],[8.53305,62.66938]],[[8.53305,62.66938],[8.5337,62.66975],[8.53241,62.67055],[8.53185,62.67246],[8.53539,62.67186],[8.53434,62.67323],[8.53754,62.67289],[8.53999,62.67321]],[[8.54504,62.67698],[8.54444,62.67761],[8.54249,62.67789],[8.54053,62.67869]],[[8.54396,62.68167],[8.54696,62.68273]],[[8.54696,62.68273],[8.55515,62.68437],[8.55581,62.68494]],[[8.11922,62.69001],[8.1207,62.68867],[8.12741,62.68672],[8.13003,62.68526]],[[8.12138,62.69147],[8.12145,62.69103],[8.11922,62.69001]],[[8.14645,62.6927],[8.14663,62.68778],[8.14438,62.68601],[8.14409,62.68382],[8.14122,62.68307],[8.13668,62.68425],[8.13405,62.6842]],[[8.50564,62.70986],[8.5053,62.70881],[8.50626,62.70702],[8.50427,62.70302],[8.50535,62.70207],[8.50835,62.7022],[8.50514,62.69948],[8.50521,62.69887],[8.50718,62.69834],[8.50485,62.69511],[8.5051,62.69323],[8.50896,62.6914],[8.51157,62.69101],[8.51107,62.69022],[8.51164,62.68956],[8.51462,62.68875],[8.51505,62.6879],[8.51633,62.6877],[8.51718,62.68701],[8.51522,62.68275],[8.51574,62.68176],[8.51793,62.68072],[8.51783,62.67737],[8.52316,62.67507],[8.52297,62.67179]],[[8.55497,62.71214],[8.55661,62.70908],[8.55599,62.70695],[8.55917,62.70506],[8.55951,62.70055],[8.56053,62.69792],[8.56005,62.69548],[8.56074,62.6947],[8.5579,62.69182],[8.55682,62.68891],[8.55712,62.68686],[8.55581,62.68494]],[[8.42034,62.71972],[8.428,62.71866],[8.43247,62.71916],[8.43352,62.71971]],[[8.53624,62.7317],[8.54283,62.72892],[8.55154,62.72136],[8.55462,62.71761],[8.55497,62.71214]],[[8.43813,62.73134],[8.44914,62.73034],[8.4562,62.72897],[8.4603,62.72907],[8.46306,62.72967],[8.4691,62.72958],[8.47043,62.72919],[8.46926,62.72801],[8.4694,62.72665],[8.47178,62.72546],[8.47705,62.72434],[8.48104,62.72414],[8.48448,62.72525],[8.48372,62.72397],[8.48486,62.72192],[8.48742,62.72024],[8.49135,62.7187],[8.49742,62.71778],[8.50103,62.71905],[8.50522,62.7177],[8.50703,62.71474],[8.50564,62.70986]],[[8.43355,62.71973],[8.4352,62.72152],[8.43443,62.73126],[8.43523,62.73176],[8.43813,62.73134]],[[8.04792,62.72019],[8.05157,62.71892],[8.05684,62.71799],[8.06588,62.71493],[8.07377,62.71277],[8.07708,62.71133],[8.08093,62.71089],[8.08456,62.7093],[8.08638,62.70912],[8.08781,62.70949],[8.08852,62.71113],[8.09087,62.71179],[8.09214,62.71175],[8.09742,62.70852],[8.09902,62.70558],[8.09905,62.70384],[8.1018,62.70216],[8.10306,62.69921],[8.10437,62.69817],[8.10732,62.69797],[8.11131,62.69941],[8.1125,62.70059],[8.1143,62.70134],[8.11554,62.7014],[8.11429,62.69985],[8.11524,62.69806],[8.11733,62.69659],[8.12023,62.69669],[8.12138,62.69147]],[[8.4127,62.90367],[8.41231,62.90258],[8.41109,62.90261],[8.40829,62.90147],[8.40502,62.90083],[8.40325,62.90097],[8.39959,62.90315]],[[8.09673,62.73386],[8.1065,62.73087],[8.10993,62.72871],[8.11143,62.72657],[8.10954,62.72379],[8.10973,62.72232],[8.11607,62.72047],[8.11982,62.72018],[8.11949,62.71937],[8.12099,62.71857],[8.12242,62.71677],[8.12608,62.71628],[8.12816,62.71653],[8.13381,62.71368],[8.13874,62.70826],[8.13918,62.70664],[8.14448,62.70109],[8.14335,62.6995],[8.14512,62.69773],[8.14645,62.6927]],[[8.02231,62.73163],[8.02329,62.73092],[8.02837,62.72953],[8.03014,62.72935],[8.03315,62.72965],[8.03319,62.72821],[8.0379,62.72389],[8.04229,62.72184],[8.04792,62.72019]],[[8.08556,62.73477],[8.08675,62.73437],[8.09019,62.73487],[8.09426,62.73455]],[[8.39336,62.74965],[8.39793,62.74727],[8.4012,62.74646],[8.4049,62.74379],[8.40784,62.73902],[8.41138,62.73573],[8.41566,62.73023],[8.41849,62.71972]],[[8.44771,62.7522],[8.45246,62.74908],[8.45252,62.74851],[8.45108,62.7481],[8.44841,62.74809],[8.44594,62.74859],[8.44402,62.75051],[8.44455,62.75205]],[[8.46204,62.75287],[8.46521,62.75173],[8.46703,62.74953],[8.47646,62.74807],[8.47941,62.74706],[8.49183,62.74544],[8.50421,62.74066],[8.51133,62.73929],[8.51321,62.7381],[8.5216,62.73663],[8.52312,62.73608],[8.52407,62.7351],[8.52968,62.73501],[8.53358,62.73254],[8.53624,62.7317]],[[8.33317,62.90029],[8.3349,62.89721],[8.33417,62.89341],[8.33605,62.89185]],[[8.38777,62.75241],[8.39042,62.75162],[8.39336,62.74965]],[[8.44455,62.75205],[8.44277,62.75248],[8.43956,62.7525],[8.44118,62.7544],[8.44031,62.75567],[8.43826,62.75669],[8.43979,62.75761],[8.44599,62.75471],[8.44665,62.75292],[8.44771,62.7522]],[[8.04228,62.74406],[8.04568,62.74337],[8.04859,62.74194],[8.04719,62.73969],[8.05055,62.73963],[8.05108,62.73818],[8.05319,62.73723],[8.06166,62.73722],[8.06836,62.73854],[8.07213,62.73821],[8.07491,62.73735],[8.07998,62.73751],[8.08245,62.7372],[8.08385,62.73664],[8.08556,62.73477]],[[8.43035,62.76619],[8.44054,62.76214],[8.44073,62.75994],[8.44449,62.75859],[8.4442,62.75712],[8.44661,62.75721],[8.4476,62.75664],[8.45363,62.75561],[8.45558,62.7537],[8.46204,62.75287]],[[8.04228,62.74406],[8.03051,62.74527],[8.02935,62.74677],[8.02695,62.74806],[8.02174,62.74893],[8.01954,62.75055],[8.01895,62.75257],[8.02122,62.75335]],[[8.02122,62.75335],[8.02227,62.75476]],[[8.02227,62.75476],[8.02028,62.75675],[8.02076,62.75715],[8.02872,62.75895],[8.03113,62.76053],[8.03813,62.76158]],[[8.05944,62.76729],[8.05123,62.76599],[8.04541,62.76423],[8.04265,62.76272],[8.03813,62.76158]],[[8.03011,62.77169],[8.03564,62.77208]],[[8.06987,62.77642],[8.06851,62.77492],[8.06913,62.77262],[8.06752,62.7718],[8.06866,62.77019],[8.05944,62.76729]],[[8.03564,62.77208],[8.03815,62.77222],[8.04435,62.77347],[8.05469,62.77462],[8.05887,62.77473],[8.06102,62.77432],[8.0657,62.77521],[8.06948,62.7768],[8.06987,62.77642]],[[8.23739,62.78726],[8.24317,62.78425],[8.24766,62.78377],[8.25224,62.78397],[8.25779,62.78276],[8.25882,62.78212],[8.25974,62.78013],[8.26289,62.77955],[8.28244,62.77922],[8.28537,62.78011],[8.28624,62.78109],[8.28623,62.78316],[8.28739,62.78394],[8.28911,62.78433],[8.29323,62.78428],[8.29955,62.78304],[8.30486,62.78422],[8.30833,62.78386],[8.31231,62.78437],[8.31297,62.78351],[8.31088,62.78145],[8.31277,62.77632],[8.31763,62.77347],[8.32151,62.77289],[8.32362,62.77017]],[[8.33832,62.79209],[8.33813,62.78935],[8.34055,62.78911],[8.34608,62.78662],[8.35254,62.7862],[8.3606,62.78364],[8.36917,62.78204],[8.37368,62.78009],[8.376,62.77996],[8.37881,62.78052],[8.3813,62.78034],[8.38655,62.77841],[8.39162,62.77825],[8.39462,62.77778],[8.39905,62.77631],[8.40273,62.7743],[8.40564,62.77358],[8.40835,62.7722],[8.41371,62.77151],[8.41711,62.77035],[8.41966,62.76857],[8.42547,62.76786],[8.43035,62.76619]],[[8.22831,62.78966],[8.23073,62.78947],[8.23739,62.78726]],[[8.28551,62.79332],[8.28292,62.79239],[8.28181,62.79262],[8.28413,62.79498],[8.28593,62.79538],[8.28691,62.7948],[8.28551,62.79332]],[[8.32373,62.80276],[8.33102,62.79933],[8.3323,62.79718],[8.33098,62.7958],[8.3314,62.79521],[8.3365,62.79373],[8.33832,62.79209]],[[8.18392,62.80016],[8.18752,62.79939],[8.1953,62.79897],[8.20436,62.79761],[8.20623,62.79572],[8.20863,62.79456],[8.21427,62.79339],[8.22564,62.78989],[8.22831,62.78966]],[[8.17191,62.80503],[8.17212,62.80282],[8.17139,62.80226],[8.18087,62.80112],[8.18392,62.80016]],[[8.22072,62.82253],[8.22587,62.81957],[8.22834,62.81916],[8.23149,62.81755],[8.23593,62.81626],[8.24097,62.81288],[8.24514,62.81171],[8.2454,62.80993],[8.24681,62.80946],[8.25215,62.80931],[8.26356,62.80984],[8.26715,62.8094],[8.27144,62.81015],[8.27572,62.81178],[8.27719,62.81182],[8.2807,62.81019],[8.27918,62.80841],[8.27819,62.80818],[8.27838,62.80756],[8.28546,62.80678],[8.30028,62.80648],[8.32201,62.80361],[8.32373,62.80276]],[[8.13244,62.82721],[8.13652,62.82257],[8.14118,62.81939],[8.1462,62.81694],[8.16366,62.81138],[8.16752,62.81079],[8.1743,62.80878],[8.17397,62.80765],[8.17215,62.80631],[8.17191,62.80503]],[[8.19022,62.83003],[8.1912,62.82928],[8.19446,62.82866],[8.19677,62.82631],[8.2063,62.82501],[8.21128,62.82374],[8.2175,62.82358],[8.22072,62.82253]],[[8.44629,62.84974],[8.45241,62.84796],[8.45404,62.84666],[8.45759,62.84569],[8.4711,62.84455],[8.4785,62.84592],[8.4821,62.84623],[8.48542,62.84582],[8.48784,62.84417]],[[8.43695,62.85372],[8.44629,62.84974]],[[8.5081,62.85926],[8.51363,62.8578],[8.51602,62.85634],[8.51747,62.85418],[8.51781,62.84988],[8.52044,62.84789],[8.52089,62.84677]],[[8.30062,62.85456],[8.30152,62.85473]],[[8.30152,62.85473],[8.30579,62.85688],[8.31116,62.85791]],[[8.30071,62.85535],[8.30712,62.85828],[8.31059,62.86041]],[[8.11474,62.85427],[8.1177,62.85086],[8.11781,62.84854],[8.11895,62.84658],[8.12382,62.84506],[8.12511,62.84428],[8.12524,62.84181],[8.12703,62.84],[8.12571,62.8376],[8.12614,62.83635],[8.12994,62.8325],[8.13244,62.82721]],[[8.30952,62.8651],[8.30441,62.86325],[8.30365,62.86243],[8.30409,62.86191],[8.30224,62.86047],[8.29771,62.8595],[8.29791,62.86062],[8.30072,62.86231],[8.30133,62.86351],[8.30082,62.86487]],[[8.30952,62.8651],[8.31302,62.86647],[8.316,62.8663],[8.3137,62.86416],[8.31246,62.86166],[8.31059,62.86041]],[[8.4085,62.90629],[8.41282,62.90425],[8.4127,62.90367]],[[8.10689,62.88761],[8.1024,62.88739],[8.08995,62.88851],[8.08887,62.88885],[8.08676,62.89089]],[[8.40664,62.87189],[8.41582,62.87004],[8.42094,62.86707],[8.42629,62.86349],[8.43139,62.8569],[8.43609,62.85498],[8.43695,62.85372]],[[8.30214,62.86566],[8.30848,62.86965]],[[8.33828,62.87238],[8.33597,62.87083],[8.33455,62.87194],[8.32968,62.87044],[8.3275,62.87019],[8.32532,62.86916],[8.31839,62.86371],[8.31404,62.85898],[8.31116,62.85791]],[[8.33828,62.87238],[8.34273,62.87395],[8.34292,62.8773],[8.3471,62.87735],[8.34892,62.87832],[8.35119,62.87883],[8.35208,62.8787]],[[8.10806,62.87109],[8.1107,62.8638],[8.11108,62.86025],[8.11312,62.85569],[8.11474,62.85427]],[[8.16249,62.87375],[8.16365,62.87174],[8.16344,62.87044],[8.16576,62.86717],[8.16421,62.8642],[8.16275,62.86332],[8.16317,62.86231],[8.16253,62.86109],[8.15766,62.85782],[8.15667,62.85639],[8.15714,62.85597],[8.15933,62.85603],[8.16107,62.85549],[8.16325,62.85186],[8.16441,62.85111],[8.16979,62.85023],[8.17484,62.84872],[8.17739,62.84456],[8.17784,62.84242],[8.18047,62.84007],[8.18037,62.8384],[8.18326,62.83735],[8.184,62.83588],[8.18696,62.83426],[8.19022,62.83003]],[[8.32038,62.88135],[8.31674,62.87921],[8.31356,62.87565],[8.31267,62.8736],[8.30848,62.86965]],[[8.35755,62.88312],[8.35412,62.88093],[8.35393,62.88006],[8.35196,62.87913],[8.35208,62.8787]],[[8.37743,62.88406],[8.38225,62.88161],[8.38741,62.87823],[8.39382,62.87679],[8.40664,62.87189]],[[8.43005,62.88653],[8.43143,62.88548],[8.43647,62.88356],[8.44102,62.88299],[8.44602,62.87728],[8.45077,62.87567],[8.45549,62.87243],[8.47029,62.8698],[8.50254,62.86124],[8.5081,62.85926]],[[8.45035,62.88748],[8.45339,62.88531],[8.45817,62.88415],[8.46035,62.88306],[8.46899,62.88227],[8.47312,62.88117],[8.48879,62.87854]],[[8.51615,62.89053],[8.52001,62.88857],[8.522,62.8883]],[[8.02472,62.99187],[8.02335,62.99181],[8.0222,62.99236],[8.02639,62.99388],[8.02684,62.99342],[8.02389,62.99258],[8.02472,62.99187]],[[8.32469,62.90623],[8.32706,62.90431],[8.33079,62.90339],[8.33317,62.90029]],[[8.08676,62.89089],[8.08883,62.89201],[8.09403,62.89365],[8.09301,62.89615]],[[8.16249,62.87375],[8.16026,62.8764],[8.15979,62.87804],[8.15797,62.87924],[8.15782,62.88098],[8.15612,62.88165],[8.15763,62.8835],[8.1569,62.88472],[8.15065,62.88874],[8.14972,62.89019],[8.15315,62.89235],[8.16199,62.89635],[8.16512,62.89932],[8.1669,62.89993],[8.16866,62.89933],[8.17393,62.89935],[8.18023,62.90216],[8.18185,62.90268],[8.18327,62.90264]],[[8.18327,62.90264],[8.18452,62.90231],[8.19054,62.90283],[8.19239,62.90349]],[[8.39694,62.91488],[8.40028,62.91277],[8.40056,62.91114],[8.40183,62.9101],[8.40514,62.90914],[8.40913,62.90871],[8.41076,62.90819],[8.4085,62.90629]],[[8.09301,62.89615],[8.0931,62.89709],[8.09518,62.89841],[8.0994,62.89945],[8.10359,62.90158]],[[8.19239,62.90349],[8.19381,62.90551],[8.19583,62.90659],[8.20109,62.90717]],[[8.46003,62.91969],[8.45741,62.91609],[8.45754,62.91523],[8.46092,62.90931],[8.46436,62.90718],[8.46853,62.90598],[8.4726,62.90388],[8.47619,62.90118],[8.47978,62.90197],[8.48592,62.90174],[8.48989,62.901],[8.49465,62.89949],[8.49809,62.8991],[8.49957,62.89769]],[[8.10311,62.90361],[8.10555,62.90276],[8.10359,62.90158]],[[8.39959,62.90315],[8.39483,62.90704],[8.39279,62.90751],[8.39091,62.9073],[8.38966,62.9077],[8.39027,62.90843],[8.3882,62.90945],[8.38573,62.91251],[8.38334,62.91409],[8.38463,62.91534],[8.38412,62.91619],[8.38556,62.91829],[8.38733,62.91903],[8.39423,62.91563],[8.39694,62.91488]],[[8.2032,62.91264],[8.20488,62.91094],[8.20544,62.90888],[8.2034,62.9077]],[[8.19957,62.91367],[8.2032,62.91264]],[[8.19273,62.91365],[8.18767,62.91192],[8.18359,62.91116],[8.17964,62.91137],[8.17381,62.91105]],[[8.19273,62.91365],[8.19957,62.91367]],[[8.29671,62.92103],[8.29865,62.92014],[8.29928,62.91901],[8.29873,62.91846],[8.30034,62.91773],[8.31233,62.91534],[8.31927,62.91277],[8.32403,62.90818],[8.32469,62.90623]],[[8.29414,62.92132],[8.29671,62.92103]],[[8.11159,62.91633],[8.10974,62.91435],[8.11,62.91326],[8.11138,62.91317],[8.11147,62.91261],[8.1077,62.91086],[8.10517,62.9091],[8.10476,62.90805],[8.10228,62.90715]],[[8.15434,62.91842],[8.15821,62.91696],[8.15915,62.91597],[8.1535,62.91194],[8.15342,62.91084],[8.15173,62.90913],[8.15524,62.90919],[8.16084,62.91077],[8.17381,62.91105]],[[8.29414,62.92132],[8.29296,62.92185],[8.29189,62.9237],[8.29262,62.92509]],[[8.43942,62.93202],[8.44445,62.92934],[8.44507,62.92829],[8.45718,62.92402],[8.45818,62.9217],[8.45978,62.92083]],[[8.29959,62.93173],[8.30151,62.93137],[8.30258,62.93049],[8.3018,62.92913],[8.29833,62.92847],[8.29667,62.92934],[8.29611,62.9305],[8.29701,62.93174],[8.29959,62.93173]],[[8.10408,62.92488],[8.10011,62.92345],[8.10162,62.92081],[8.10256,62.92034],[8.11051,62.92075],[8.11189,62.92111],[8.11216,62.9218],[8.11419,62.92196],[8.11723,62.92183],[8.11512,62.92104],[8.1158,62.92042],[8.11903,62.92065],[8.11497,62.9189],[8.11159,62.91633]],[[8.29262,62.92509],[8.2879,62.92638],[8.28475,62.92584],[8.28308,62.92751],[8.28382,62.92813],[8.2872,62.92875],[8.28965,62.92973],[8.28868,62.93031],[8.28871,62.93146],[8.29218,62.93335],[8.29354,62.93483]],[[8.10694,62.92627],[8.10408,62.92488]],[[8.29518,62.93709],[8.29354,62.93483]],[[8.09703,62.92934],[8.10226,62.92906],[8.10407,62.92756],[8.10607,62.92681],[8.10751,62.92749],[8.10869,62.92747],[8.10859,62.92646],[8.10694,62.92627]],[[8.30269,62.94163],[8.30094,62.93975],[8.29703,62.93846],[8.29518,62.93709]],[[8.08125,62.93348],[8.08194,62.93197],[8.08398,62.9315],[8.08567,62.93029],[8.0867,62.93012],[8.08906,62.93047],[8.09068,62.93136],[8.09136,62.93116],[8.09156,62.92982],[8.09703,62.92934]],[[8.48551,62.95932],[8.48588,62.95911]],[[8.43942,62.93202],[8.43823,62.9326],[8.43501,62.93308],[8.43187,62.93498],[8.43028,62.93513],[8.43098,62.93609],[8.43044,62.93722],[8.42793,62.93852],[8.42813,62.94136],[8.42494,62.9437],[8.42161,62.94771],[8.42322,62.95061],[8.42739,62.95185],[8.43219,62.95243],[8.43727,62.95235],[8.44378,62.95164],[8.45379,62.95287],[8.46436,62.95505],[8.46785,62.95601],[8.472,62.95778],[8.48081,62.96003],[8.48243,62.96009]],[[8.07057,62.94124],[8.07251,62.93928],[8.07278,62.93713],[8.07569,62.93563],[8.07914,62.93533],[8.08125,62.93348]],[[8.12781,62.94987],[8.13312,62.94779],[8.13569,62.94727],[8.13836,62.94475],[8.1392,62.94349],[8.13904,62.93884],[8.13992,62.93784],[8.14794,62.93555],[8.14943,62.93469],[8.1516,62.93134],[8.15002,62.92942],[8.1527,62.92663],[8.15264,62.92372],[8.15379,62.9219],[8.15238,62.91978],[8.15434,62.91842]],[[8.12781,62.94987],[8.12276,62.95141]],[[8.52998,62.97455],[8.5318,62.97439],[8.52402,62.97236],[8.518,62.97132],[8.51352,62.9693],[8.50964,62.96867],[8.5075,62.96883]],[[8.45881,62.9716],[8.45448,62.97009],[8.45131,62.97078],[8.45204,62.97129],[8.45785,62.97252],[8.45881,62.9716]],[[8.53999,62.67321],[8.54053,62.67409],[8.54252,62.6739],[8.546,62.67434],[8.54578,62.67487],[8.544,62.67452],[8.54381,62.67511],[8.54518,62.67568]],[[8.43352,62.71971],[8.43355,62.71973]],[[8.09426,62.73455],[8.09673,62.73386]],[[8.37553,62.7567],[8.37821,62.7563],[8.38169,62.75461],[8.38518,62.75427],[8.38777,62.75241]],[[8.32629,62.76867],[8.32948,62.76761],[8.33205,62.76617]],[[8.32362,62.77017],[8.32558,62.7688]],[[8.52124,62.84572],[8.52089,62.84677]],[[8.30214,62.86566],[8.30082,62.86487]],[[8.49342,62.87571],[8.50029,62.87164],[8.50593,62.86904]],[[8.32991,62.88775],[8.32507,62.884],[8.32038,62.88135]],[[8.20109,62.90717],[8.2034,62.9077]],[[8.46003,62.91969],[8.45978,62.92083]],[[8.10311,62.90361],[8.10043,62.90389],[8.09991,62.9043],[8.10228,62.90715]],[[8.29211,62.92751],[8.2898,62.92763],[8.29047,62.92842],[8.29172,62.92876],[8.29346,62.92825],[8.29211,62.92751]],[[8.3212,62.93372],[8.32009,62.93358],[8.32061,62.93439],[8.32359,62.93512],[8.32352,62.93463],[8.3212,62.93372]],[[8.30418,62.94255],[8.30269,62.94163]],[[8.48243,62.96009],[8.4845,62.96015],[8.48551,62.95932]],[[8.03768,62.95678],[8.0364,62.95769]],[[8.4621,62.98976],[8.46473,62.9885],[8.46665,62.98864],[8.46757,62.98837]],[[8.02854,62.96731],[8.0289,62.96733]],[[8.46369,62.98819],[8.45964,62.98916],[8.45361,62.98829]],[[8.31556,62.97124],[8.32346,62.96742],[8.32779,62.96656],[8.33324,62.9642],[8.33255,62.96101],[8.33308,62.95722],[8.3305,62.95551],[8.32375,62.9531],[8.31804,62.95187],[8.31619,62.95103],[8.31128,62.94828],[8.31057,62.94728],[8.31141,62.94639],[8.30932,62.94577],[8.30418,62.94255]],[[8.3636,62.97351],[8.36491,62.9697],[8.36593,62.96926],[8.36902,62.96889],[8.37157,62.96908],[8.37254,62.96842],[8.37898,62.96881],[8.38451,62.96973]],[[8.03768,62.95678],[8.04018,62.95609],[8.04143,62.95502],[8.04163,62.95379],[8.04286,62.95329],[8.04826,62.95299],[8.05439,62.9541],[8.0632,62.95284],[8.06471,62.951],[8.06251,62.94934],[8.06507,62.94766],[8.0685,62.94755],[8.06942,62.94675],[8.07057,62.94124]],[[8.41606,62.97598],[8.40885,62.97431],[8.40601,62.97452],[8.40199,62.97311],[8.39804,62.97271],[8.38451,62.96973]],[[8.46908,62.97845],[8.47016,62.97457],[8.4671,62.97209],[8.46361,62.97048],[8.46362,62.9698],[8.46546,62.96913],[8.47172,62.97098],[8.47886,62.9715],[8.48085,62.9721],[8.48306,62.97171]],[[8.55898,62.98187],[8.56026,62.98265]],[[8.33205,62.76617],[8.33502,62.76405],[8.34108,62.76357],[8.3459,62.76409],[8.35113,62.76401],[8.35179,62.76351],[8.35097,62.76259],[8.35129,62.76195],[8.3533,62.76076],[8.35785,62.75914],[8.36459,62.75809],[8.36776,62.75696],[8.37553,62.7567]],[[8.44759,62.98745],[8.45066,62.9882],[8.45361,62.98829]],[[8.41606,62.97598],[8.42008,62.97717],[8.4241,62.97897],[8.43694,62.98298],[8.4419,62.98521],[8.44416,62.98562],[8.44759,62.98745]],[[7.99459,62.74284],[8.00128,62.74036],[8.00528,62.73985],[8.007,62.73923],[8.01132,62.73746],[8.01617,62.73452],[8.02231,62.73163]],[[8.01294,62.77051],[8.00831,62.7697],[8.00709,62.76999],[7.99923,62.76994]],[[8.01294,62.77051],[8.02004,62.77096],[8.02176,62.77138],[8.02424,62.77124],[8.03011,62.77169]]]}}]}