{"type":"FeatureCollection","features":[{"type":"Feature","properties":{},"geometry":{"type":"MultiLineString","coordinates":[[[11.05411,63.69632],[11.05079,63.69542],[11.04813,63.69551],[11.04798,63.69628],[11.04402,63.69686],[11.04302,63.69722],[11.04282,63.69795]],[[11.04282,63.69795],[11.04186,63.69931],[11.04335,63.70053],[11.04408,63.70257]],[[11.04376,63.70325],[11.04375,63.70433],[11.04506,63.70553],[11.04418,63.70668],[11.04471,63.71095],[11.04209,63.71156],[11.03839,63.71067]],[[11.00399,63.71069],[11.0051,63.7092],[11.00451,63.70638],[11.00118,63.70231]],[[11.15252,63.71737],[11.15586,63.71663],[11.15734,63.71537],[11.15936,63.71469],[11.16106,63.71432],[11.16201,63.71466],[11.16442,63.71452],[11.16424,63.71285],[11.16338,63.71243],[11.16394,63.71207],[11.16884,63.71173]],[[11.15119,63.70616],[11.15235,63.7076],[11.14673,63.70879],[11.14821,63.70969],[11.14887,63.71106],[11.14739,63.71588],[11.14815,63.71733],[11.15018,63.71771],[11.15252,63.71737]],[[11.00399,63.71069],[10.9978,63.71167]],[[10.99575,63.71255],[11.00024,63.71256],[11.00446,63.71169],[11.006,63.7117],[11.00754,63.71212],[11.01044,63.71403],[11.01959,63.71478],[11.02181,63.7145],[11.0224,63.7137],[11.0246,63.71314],[11.02779,63.71426],[11.02939,63.71409],[11.03202,63.71322],[11.03372,63.71213],[11.03839,63.71067]],[[11.0006,63.70205],[10.99757,63.70154]],[[11.09925,63.70476],[11.09039,63.70399],[11.08953,63.70359],[11.09056,63.70288],[11.09017,63.7022],[11.08824,63.70161],[11.08559,63.70173],[11.08199,63.70299],[11.07966,63.70119],[11.0783,63.70081],[11.07486,63.70087],[11.06972,63.69871],[11.06703,63.69895],[11.06355,63.69863],[11.06176,63.6972],[11.05411,63.69632]],[[11.08222,63.7043],[11.08263,63.70397],[11.08365,63.70434]],[[11.15011,63.70471],[11.14774,63.70458],[11.14752,63.70387],[11.14477,63.70397],[11.14096,63.70484],[11.13955,63.70585]],[[11.13955,63.70585],[11.13861,63.70646],[11.13631,63.70691],[11.13132,63.70633],[11.12971,63.70671]],[[11.0994,63.70478],[11.10547,63.70627],[11.10851,63.70747],[11.11149,63.70785],[11.11897,63.70767],[11.12383,63.70704],[11.1269,63.70723],[11.12971,63.70671]],[[11.08222,63.7043],[11.08123,63.70526],[11.07901,63.70573],[11.08016,63.70618],[11.08012,63.7082],[11.08469,63.7102],[11.08817,63.71046],[11.08852,63.7098],[11.08601,63.70896],[11.08462,63.70791],[11.0869,63.70564],[11.08365,63.70434]],[[11.25252,63.72749],[11.25653,63.72803],[11.26078,63.72648],[11.26602,63.7275],[11.26811,63.72864]],[[11.24427,63.72876],[11.24891,63.72685],[11.25252,63.72749]],[[11.27922,63.73102],[11.27376,63.72889],[11.27026,63.729],[11.26811,63.72864]],[[11.3932,63.84723],[11.39838,63.84793],[11.40178,63.84742]],[[11.24427,63.72876],[11.24262,63.73126],[11.24057,63.73217],[11.24054,63.73345],[11.24345,63.7349],[11.25138,63.73611]],[[11.25138,63.73611],[11.26077,63.73737]],[[11.27922,63.73102],[11.28017,63.73157],[11.28043,63.73355],[11.2762,63.74005],[11.27644,63.74224],[11.27872,63.74306],[11.28668,63.74307]],[[11.12162,63.73024],[11.11938,63.73022],[11.11847,63.73065],[11.11792,63.73334],[11.11924,63.73455],[11.11963,63.73608],[11.13322,63.73952],[11.13466,63.73951],[11.13488,63.73895],[11.13375,63.73822],[11.13609,63.73663],[11.13615,63.73575],[11.13407,63.73314],[11.12162,63.73024]],[[11.27468,63.7434],[11.27205,63.74144],[11.26864,63.73981]],[[11.27468,63.7434],[11.28156,63.74492],[11.2841,63.74484]],[[11.20925,63.75188],[11.20724,63.74407],[11.20815,63.74093],[11.20768,63.73884],[11.20714,63.73771],[11.20402,63.73575],[11.20547,63.73494],[11.20746,63.73536],[11.20915,63.73518],[11.21079,63.73418],[11.21316,63.73146],[11.21473,63.72554],[11.21421,63.72512],[11.21099,63.72521],[11.20942,63.72459],[11.2116,63.72312],[11.21395,63.72256],[11.21389,63.72007],[11.21305,63.71939],[11.20882,63.71918],[11.20452,63.71814],[11.20227,63.71748],[11.19874,63.71525],[11.19259,63.71418],[11.19026,63.71187],[11.18885,63.71124],[11.18434,63.71145],[11.18143,63.71211]],[[11.30647,63.75516],[11.31189,63.75663],[11.31716,63.75582],[11.32026,63.75655],[11.32313,63.75595],[11.32344,63.75632],[11.3217,63.75688],[11.32246,63.75711],[11.32353,63.75695],[11.32464,63.75613],[11.32623,63.75639]],[[11.04236,63.74814],[11.04654,63.75053]],[[11.03277,63.74387],[11.02819,63.74376],[11.02479,63.74324],[11.01754,63.7439],[11.00943,63.74299],[11.00407,63.74311],[11.00241,63.74372],[11.00136,63.74556],[10.99959,63.74696]],[[11.2841,63.74484],[11.29129,63.74609],[11.29516,63.74831],[11.29393,63.74866],[11.2953,63.75058],[11.2912,63.75176],[11.29256,63.75314],[11.2884,63.75393],[11.2867,63.75465]],[[11.29671,63.75491],[11.29623,63.75375],[11.29501,63.75305],[11.29626,63.75173],[11.29904,63.75122],[11.29992,63.74876],[11.29372,63.74495],[11.28668,63.74307]],[[11.30471,63.74974],[11.30275,63.75155],[11.29912,63.75233],[11.29904,63.7547],[11.2981,63.75494]],[[11.30647,63.75516],[11.30581,63.75459],[11.30719,63.75427],[11.30631,63.75352],[11.30372,63.75293],[11.30141,63.75311],[11.30081,63.75277],[11.30096,63.75221],[11.30363,63.75178]],[[11.28185,63.75982],[11.28353,63.75888],[11.28547,63.75848],[11.28554,63.75749],[11.28737,63.75656],[11.28612,63.75524],[11.2867,63.75465]],[[11.2317,63.75861],[11.2349,63.75759],[11.23485,63.75668],[11.23559,63.75648],[11.24836,63.75889]],[[11.24836,63.75889],[11.25499,63.75999]],[[11.20889,63.75262],[11.20773,63.75438],[11.20955,63.75616],[11.21272,63.75714],[11.22063,63.75819],[11.22554,63.75975],[11.22908,63.75956],[11.2317,63.75861]],[[11.25499,63.75999],[11.25887,63.76137],[11.26174,63.76139],[11.26576,63.76257]],[[11.05087,63.75802],[11.05164,63.75675],[11.05102,63.75325],[11.04968,63.75187],[11.04654,63.75053]],[[11.05676,63.76088],[11.05245,63.75999],[11.05087,63.75802]],[[11.26576,63.76257],[11.26678,63.76385],[11.27134,63.76521],[11.27475,63.76547],[11.27854,63.7632],[11.28374,63.76282],[11.28083,63.76085],[11.28185,63.75982]],[[11.05676,63.76088],[11.06623,63.76075],[11.07063,63.76144],[11.07448,63.76278],[11.08129,63.76343],[11.08264,63.76538],[11.0858,63.76685],[11.08798,63.76692],[11.09075,63.76825],[11.10318,63.7766],[11.10893,63.77908]],[[11.11563,63.78156],[11.11336,63.78169],[11.11171,63.77967],[11.1102,63.77905],[11.10893,63.77908]],[[10.99864,63.74736],[11.00317,63.75076],[11.00682,63.75694],[11.01456,63.76246],[11.02984,63.7706],[11.03546,63.77748],[11.03665,63.78009]],[[11.03665,63.78009],[11.03627,63.78187],[11.03408,63.78477]],[[11.11563,63.78156],[11.11514,63.78034],[11.12715,63.78288],[11.13089,63.78434],[11.13352,63.78642],[11.13855,63.78831],[11.13886,63.78948]],[[11.20779,63.79661],[11.20196,63.79355],[11.19787,63.79279],[11.19156,63.79344],[11.18468,63.796]],[[11.03408,63.78477],[11.03564,63.78798],[11.03921,63.79087],[11.04061,63.79289]],[[11.13886,63.78948],[11.13922,63.79166],[11.14143,63.79359],[11.141,63.79479],[11.14183,63.79574]],[[11.00479,63.79205],[11.00001,63.78819],[10.99889,63.78592]],[[11.20779,63.79661],[11.21109,63.79692],[11.21225,63.79764]],[[11.14303,63.79711],[11.14187,63.79578]],[[11.18227,63.79709],[11.18075,63.79736],[11.17301,63.79712],[11.17064,63.79748],[11.16885,63.79845],[11.1626,63.79719],[11.1598,63.79727]],[[11.14303,63.79711],[11.14503,63.79855],[11.14982,63.80001],[11.1509,63.80072]],[[11.1509,63.80072],[11.15192,63.80152],[11.15486,63.80131],[11.15498,63.79961],[11.1598,63.79727]],[[11.04079,63.79304],[11.04602,63.79682],[11.05165,63.7984],[11.05254,63.7998],[11.05384,63.80031],[11.05588,63.79983],[11.0585,63.80031],[11.05691,63.79885],[11.0589,63.79781],[11.0668,63.79863],[11.06907,63.79821],[11.06998,63.79712],[11.07146,63.79682],[11.07356,63.79738],[11.076,63.79734],[11.07676,63.79531],[11.07842,63.79474],[11.08153,63.79528],[11.08469,63.79661],[11.0909,63.79813],[11.09524,63.79819],[11.10265,63.79919],[11.10829,63.79874],[11.1129,63.79894],[11.13342,63.80194],[11.1407,63.804]],[[11.1407,63.804],[11.1442,63.80485],[11.15119,63.80471]],[[11.21835,63.81385],[11.2178,63.81318],[11.2194,63.81149],[11.22626,63.81132],[11.22885,63.81012],[11.22907,63.80836],[11.22724,63.80713],[11.22739,63.80667],[11.22815,63.80646],[11.23204,63.80691],[11.21841,63.80134],[11.21724,63.79964],[11.21324,63.79776],[11.21223,63.79768]],[[11.15173,63.80478],[11.15594,63.80608],[11.15808,63.8077],[11.16001,63.80844],[11.16564,63.80941],[11.17179,63.81166],[11.18385,63.81461]],[[11.18385,63.81461],[11.18948,63.81619],[11.19689,63.81732],[11.19966,63.81617],[11.20755,63.81594],[11.21141,63.81496],[11.22034,63.81766],[11.22568,63.81813],[11.22602,63.81587],[11.21925,63.81436],[11.21835,63.81385]],[[11.00479,63.79205],[11.00931,63.80052],[11.01118,63.8014],[11.01113,63.80334],[11.01006,63.80393],[11.00493,63.80358],[11.00381,63.80519],[11.01221,63.80872],[11.01063,63.80978],[11.0074,63.81046],[11.00298,63.81086],[10.99924,63.8106]],[[10.99887,63.81182],[11.00121,63.81288]],[[11.01377,63.81978],[11.0126,63.81881],[11.00768,63.81673],[11.00462,63.81387],[11.00121,63.81288]],[[11.01377,63.81978],[11.01535,63.82039],[11.01735,63.82247]],[[11.01735,63.82247],[11.02419,63.82252],[11.02681,63.82288],[11.03245,63.82545],[11.03601,63.82553]],[[11.31062,63.8381],[11.31515,63.83709],[11.31508,63.83608],[11.31238,63.83574],[11.3106,63.83648],[11.30734,63.83692],[11.30578,63.83642],[11.30669,63.83553],[11.30613,63.83529],[11.30219,63.83635],[11.30295,63.83701],[11.30165,63.83757],[11.30241,63.83798],[11.30929,63.83849],[11.31062,63.8381]],[[11.12156,63.83953],[11.12362,63.83893],[11.1287,63.83871],[11.13127,63.83961],[11.13325,63.83976],[11.13594,63.83876]],[[11.06846,63.83873],[11.06754,63.83796],[11.06582,63.83767],[11.06486,63.83615],[11.0628,63.83602],[11.05011,63.83258],[11.04855,63.83156],[11.04864,63.83085],[11.04623,63.82822],[11.04121,63.82559],[11.03765,63.82463],[11.03648,63.82474],[11.03689,63.82533],[11.03601,63.82553]],[[11.09274,63.83939],[11.09208,63.83909],[11.09155,63.83936]],[[11.11901,63.8401],[11.1137,63.83917],[11.1033,63.83833],[11.09887,63.83891],[11.09571,63.83813],[11.09436,63.83943]],[[11.14572,63.84081],[11.14034,63.83901],[11.13594,63.83876]],[[11.30542,63.84499],[11.31071,63.84299],[11.3119,63.8421]],[[11.11901,63.8401],[11.11993,63.84022]],[[11.09274,63.83939],[11.09436,63.83943]],[[11.14808,63.84115],[11.14987,63.84093]],[[11.14572,63.84081],[11.14808,63.84115]],[[11.30542,63.84499],[11.30431,63.8458],[11.30483,63.84844],[11.30592,63.84892],[11.30793,63.84863],[11.31007,63.84928]],[[11.18868,63.85534],[11.18901,63.85393],[11.18686,63.85124],[11.1827,63.84995],[11.18186,63.84898],[11.17874,63.84753],[11.17711,63.84576],[11.17144,63.84425],[11.16021,63.84271],[11.15607,63.84109]],[[11.18868,63.85534],[11.19031,63.85644],[11.19756,63.85667],[11.19879,63.85631],[11.19793,63.85506],[11.20018,63.85535],[11.20308,63.85727],[11.21187,63.85955],[11.21146,63.85979]],[[11.29595,63.86368],[11.2973,63.86346],[11.2984,63.86387],[11.29875,63.86236]],[[11.31327,63.86296],[11.30778,63.86448],[11.3038,63.86496],[11.30574,63.86547],[11.3075,63.86664],[11.30671,63.86751],[11.30067,63.86656],[11.29879,63.86701]],[[11.26916,63.86686],[11.27012,63.86563],[11.26817,63.86448],[11.26437,63.86415],[11.26122,63.86448],[11.25466,63.86425]],[[11.21146,63.85979],[11.21552,63.86076],[11.22134,63.86309],[11.22695,63.86578],[11.2276,63.86649]],[[11.29595,63.86368],[11.29306,63.86473],[11.29128,63.86631],[11.29083,63.86825],[11.29144,63.86895],[11.29311,63.86905],[11.29879,63.86701]],[[11.26916,63.86686],[11.26833,63.86804],[11.26979,63.86923],[11.27124,63.86957],[11.27463,63.86977],[11.28111,63.86879]],[[11.2276,63.86649],[11.22878,63.86661],[11.22814,63.86488],[11.23078,63.86508],[11.23136,63.86545],[11.22956,63.86842],[11.23153,63.86934],[11.23357,63.86969]],[[11.23357,63.86969],[11.23657,63.86942],[11.24343,63.86966],[11.24457,63.86939],[11.24633,63.86686],[11.24268,63.86515],[11.2446,63.86222],[11.25054,63.86258],[11.25466,63.86425]],[[11.30331,63.87396],[11.30196,63.87296],[11.3012,63.87121],[11.30344,63.86983],[11.30249,63.86875],[11.30127,63.86835],[11.29939,63.86848],[11.29599,63.87066],[11.29227,63.87109],[11.29028,63.87078],[11.28625,63.86918],[11.28111,63.86879]],[[11.0416,63.87385],[11.04535,63.87219],[11.04762,63.8731],[11.04914,63.87302],[11.04855,63.87149],[11.04675,63.87095],[11.04848,63.86823],[11.04508,63.86641],[11.04783,63.8641],[11.04649,63.86242],[11.04802,63.86065],[11.04819,63.85836],[11.05088,63.85667],[11.05359,63.85605],[11.05907,63.8511],[11.06057,63.84824],[11.06278,63.84698],[11.06615,63.8463],[11.06882,63.84284],[11.07056,63.84221],[11.06851,63.84006],[11.06906,63.83965],[11.06846,63.83873]],[[11.30976,63.88377],[11.30821,63.88199],[11.30487,63.88014],[11.3051,63.87931],[11.30611,63.87869],[11.30807,63.87835],[11.30871,63.87731],[11.30331,63.87396]],[[11.03285,63.88074],[11.03686,63.88016],[11.04102,63.88055],[11.04412,63.87933],[11.04592,63.87948],[11.04721,63.88024],[11.04892,63.88033],[11.04955,63.87919],[11.04761,63.87768],[11.04341,63.87684],[11.04244,63.87624]],[[11.07428,63.88382],[11.07308,63.8808],[11.07395,63.87934],[11.07712,63.87797],[11.07729,63.87579],[11.07461,63.87084],[11.07121,63.86969],[11.06999,63.86881],[11.0723,63.86565],[11.07229,63.85891],[11.07536,63.85684],[11.07838,63.8522],[11.07807,63.85021],[11.0822,63.84733],[11.08235,63.84398],[11.08824,63.84239],[11.09056,63.84089],[11.09155,63.83936]],[[10.99748,63.88888],[11.00061,63.88916],[11.00254,63.88894],[11.00542,63.88812],[11.00963,63.88573],[11.01403,63.88464],[11.02257,63.88562],[11.02598,63.88356],[11.02788,63.88318]],[[11.08235,63.89335],[11.08144,63.89304],[11.07847,63.89319],[11.07803,63.89383],[11.08191,63.8969],[11.08456,63.89633],[11.08482,63.89543],[11.08235,63.89335]],[[11.12904,63.90654],[11.13041,63.90567],[11.13325,63.90591],[11.13877,63.90904],[11.14051,63.90907],[11.13646,63.90704],[11.13692,63.9066],[11.13595,63.90529],[11.13223,63.90177],[11.13479,63.90276]],[[11.07428,63.88382],[11.07584,63.88628],[11.07817,63.88761],[11.08221,63.88801],[11.09008,63.89143],[11.10001,63.8947],[11.10298,63.89463],[11.10417,63.89564],[11.10894,63.8973],[11.11335,63.89779],[11.12128,63.90244],[11.12653,63.90705]],[[11.13479,63.90276],[11.13552,63.90302],[11.13823,63.90294],[11.13954,63.90371],[11.13978,63.9046],[11.13881,63.90506],[11.13953,63.90565],[11.14232,63.90737],[11.14401,63.9075],[11.14532,63.90552],[11.13968,63.90294]],[[11.12653,63.90705],[11.12995,63.90807],[11.12904,63.90654]],[[11.14017,63.9027],[11.1428,63.90342],[11.14571,63.90326],[11.15054,63.90509],[11.1532,63.90475],[11.15726,63.90701],[11.16207,63.90832],[11.16459,63.90766],[11.16595,63.90772],[11.16659,63.90847],[11.17041,63.90892],[11.1732,63.90977],[11.17794,63.91264]],[[11.18589,63.91234],[11.18764,63.91626],[11.18765,63.91722],[11.18702,63.91738],[11.18117,63.91504],[11.17794,63.91264]],[[11.215,63.93251],[11.21173,63.93049],[11.21068,63.92749],[11.20819,63.92579],[11.20634,63.92032],[11.20094,63.91644],[11.1948,63.91479],[11.19277,63.91373],[11.1904,63.91353],[11.18944,63.91225],[11.18589,63.91234]],[[11.215,63.93251],[11.21712,63.93327],[11.2201,63.93563],[11.22197,63.93548],[11.22468,63.93589]],[[11.22408,63.94034],[11.22742,63.94112],[11.22804,63.94079],[11.22658,63.93881],[11.22758,63.93804],[11.22603,63.93734],[11.22552,63.93618],[11.22468,63.93589]],[[11.22408,63.94034],[11.22337,63.93893],[11.21963,63.93755],[11.21399,63.93419],[11.21145,63.93363],[11.20992,63.9342],[11.20953,63.93481],[11.2121,63.93686],[11.22396,63.94122]],[[10.99322,63.94277],[11.00052,63.94369]],[[11.22396,63.94122],[11.22639,63.94271],[11.22828,63.94263],[11.22936,63.94395],[11.23357,63.94531],[11.23501,63.94622],[11.23569,63.94554],[11.23715,63.94561],[11.24009,63.94712],[11.24615,63.94896],[11.24783,63.95003],[11.25642,63.95266],[11.26057,63.95635],[11.26171,63.95689],[11.26266,63.95685]],[[11.26266,63.95685],[11.26397,63.9572]],[[11.00052,63.94369],[11.00267,63.94367],[11.00633,63.94452],[11.00956,63.94585],[11.01242,63.94829],[11.01819,63.95149]],[[11.01804,63.95255],[11.01867,63.9518],[11.01819,63.95149]],[[11.01804,63.95255],[11.01557,63.95256],[11.01473,63.95318],[11.01771,63.95486]],[[11.26397,63.9572],[11.26374,63.95777],[11.26212,63.95754],[11.25969,63.9581],[11.26064,63.95988],[11.26418,63.96222],[11.26747,63.96228],[11.26997,63.96335],[11.2724,63.96365]],[[11.26528,63.96374],[11.26392,63.96367],[11.26348,63.96458],[11.26383,63.96545],[11.2658,63.96585],[11.26705,63.96453],[11.26528,63.96374]],[[11.2724,63.96365],[11.27373,63.9642],[11.27436,63.96612]],[[11.29134,63.9729],[11.29411,63.97135],[11.29891,63.97199]],[[11.27436,63.96612],[11.27218,63.96675],[11.27258,63.96748],[11.27563,63.97067],[11.28293,63.9757],[11.28541,63.97605],[11.28665,63.97551],[11.28642,63.97414],[11.28924,63.97417],[11.28989,63.97485],[11.28777,63.9762],[11.28929,63.97683],[11.29148,63.97696],[11.29167,63.97562],[11.29284,63.97488],[11.29489,63.97523],[11.29615,63.97503],[11.29433,63.97426],[11.29212,63.97404],[11.29134,63.9729]],[[11.07678,63.97376],[11.07156,63.97075],[11.06202,63.96904],[11.05475,63.96722],[11.04168,63.96243],[11.0329,63.96041],[11.0309,63.95968],[11.02921,63.95822],[11.02631,63.9579],[11.01771,63.95486]],[[11.07678,63.97376],[11.07921,63.97498],[11.08455,63.97567],[11.09138,63.97747],[11.10056,63.98182],[11.10282,63.98172]],[[11.11577,63.98478],[11.12597,63.98542],[11.1288,63.98676],[11.13213,63.98689],[11.14357,63.98912],[11.15598,63.99268],[11.16077,63.99322],[11.16429,63.99312],[11.17017,63.99548],[11.17353,63.99764],[11.17572,63.99836],[11.18147,64.00262]],[[11.41848,63.76729],[11.41995,63.76743],[11.42273,63.76691],[11.4243,63.76879]],[[11.34419,63.76397],[11.34231,63.76605],[11.34178,63.76796],[11.34049,63.76877],[11.3366,63.7682],[11.33468,63.7686],[11.3299,63.76852],[11.32823,63.76888],[11.32988,63.76956],[11.33623,63.77086],[11.34294,63.77018],[11.34292,63.76949],[11.34428,63.76918],[11.34838,63.77016]],[[11.4243,63.76879],[11.42322,63.76919],[11.4233,63.76959],[11.42927,63.77262],[11.43084,63.77532],[11.43475,63.77836],[11.43632,63.77874],[11.4366,63.77844],[11.43426,63.77731],[11.43673,63.77593]],[[11.34838,63.77016],[11.35118,63.77088],[11.36694,63.77293],[11.37204,63.7725],[11.37411,63.77283],[11.37616,63.77381],[11.37872,63.77671],[11.38298,63.77875],[11.38435,63.7801],[11.38629,63.78046]],[[11.38629,63.78046],[11.38794,63.78042],[11.38863,63.77878],[11.38939,63.7785],[11.39239,63.77791],[11.39594,63.7783],[11.39971,63.77774],[11.40054,63.7771],[11.40006,63.77558],[11.41139,63.77145],[11.41158,63.76978],[11.41447,63.76763],[11.41679,63.76729],[11.41859,63.76779],[11.41848,63.76729]],[[11.43947,63.77646],[11.4376,63.77723],[11.43929,63.78034],[11.43896,63.78136],[11.43785,63.78186]],[[11.43785,63.78186],[11.43195,63.78198],[11.43003,63.78249],[11.4364,63.78459],[11.44027,63.78508],[11.44041,63.78709],[11.43959,63.78736],[11.43274,63.78728],[11.43261,63.79228],[11.43559,63.79264],[11.43575,63.79491],[11.43073,63.79513],[11.42885,63.79605],[11.43057,63.79711],[11.43333,63.79752],[11.43472,63.79729],[11.43648,63.79611],[11.43862,63.7961],[11.43908,63.79685],[11.44177,63.79654],[11.44233,63.79609],[11.4437,63.79632]],[[11.4437,63.79632],[11.44589,63.79723],[11.44629,63.7988]],[[11.44629,63.7988],[11.44747,63.79918],[11.44916,63.79916],[11.45475,63.79783]],[[11.45475,63.79783],[11.45835,63.80169],[11.45966,63.80233]],[[11.44532,63.80651],[11.45593,63.80456],[11.46011,63.80454]],[[11.44532,63.80651],[11.44099,63.8113],[11.43852,63.81307],[11.43654,63.81359],[11.43266,63.81367]],[[11.43266,63.81367],[11.42973,63.81289],[11.42651,63.81263],[11.42444,63.81303],[11.41836,63.81305],[11.41375,63.81467],[11.40702,63.81606]],[[11.40702,63.81606],[11.40096,63.81737],[11.39779,63.81955],[11.40092,63.82169],[11.40707,63.82237]],[[11.40707,63.82237],[11.41192,63.8233],[11.42304,63.8229],[11.42617,63.82215]],[[11.40178,63.84742],[11.40819,63.84533],[11.41024,63.84233]],[[11.42617,63.82215],[11.42913,63.8213],[11.43238,63.82163],[11.43553,63.82262],[11.43831,63.82416],[11.43968,63.82593],[11.43984,63.8304],[11.43892,63.83189],[11.43678,63.83253],[11.42655,63.83315],[11.42319,63.83422]],[[11.37366,63.83637],[11.37692,63.83656],[11.3802,63.83729],[11.38215,63.83885],[11.38494,63.83921]],[[11.33943,63.83912],[11.32967,63.83658],[11.32559,63.83728]],[[11.37366,63.83637],[11.3694,63.83513],[11.3629,63.83515],[11.35439,63.83598],[11.33943,63.83912]],[[11.41024,63.84233],[11.40989,63.84188],[11.40702,63.84111],[11.40725,63.84015],[11.41715,63.83516],[11.42319,63.83422]],[[11.31624,63.84026],[11.32036,63.83982],[11.32106,63.83907],[11.32559,63.83728]],[[11.38494,63.83921],[11.38812,63.83937],[11.38972,63.84006],[11.38995,63.84224],[11.39321,63.84721]],[[11.32599,63.86053],[11.3317,63.85925],[11.33684,63.85904]],[[11.31457,63.85306],[11.31558,63.85298],[11.31598,63.85422],[11.31424,63.85556]],[[11.33684,63.85904],[11.3471,63.86052],[11.35244,63.86253],[11.35717,63.86497]],[[11.32599,63.86053],[11.32439,63.86129],[11.32079,63.86163],[11.31779,63.86262],[11.31327,63.86296]],[[11.33515,63.87204],[11.33408,63.87159],[11.33187,63.87169],[11.33326,63.87342],[11.33492,63.87381]],[[11.32169,63.89033],[11.31917,63.88852],[11.31328,63.88577]],[[11.3624,63.89136],[11.37046,63.88859],[11.37347,63.88809],[11.37595,63.8859],[11.37805,63.88515],[11.3765,63.88387],[11.37767,63.8822],[11.37748,63.88099],[11.37611,63.87994],[11.37299,63.87955],[11.37042,63.87869],[11.36922,63.87762],[11.37064,63.87711],[11.36895,63.87518],[11.35717,63.86497]],[[11.3609,63.89269],[11.35909,63.89388],[11.35694,63.89403]],[[11.32891,63.8971],[11.33141,63.89602],[11.33101,63.89506],[11.32609,63.8919],[11.32448,63.89174],[11.32264,63.89248],[11.32086,63.89186],[11.32169,63.89033]],[[11.35496,63.9029],[11.35405,63.90129],[11.35426,63.89897],[11.35179,63.89857],[11.35142,63.89807],[11.35243,63.89578],[11.35109,63.89421],[11.35213,63.89369],[11.35694,63.89403]],[[11.32891,63.8971],[11.32938,63.89964],[11.32842,63.90056],[11.32679,63.90102],[11.32817,63.90249],[11.3274,63.90291]],[[11.35496,63.9029],[11.36204,63.90627],[11.36229,63.90718]],[[11.32283,63.90735],[11.32426,63.90596],[11.32828,63.9064],[11.32897,63.90414],[11.32865,63.90311],[11.32717,63.90342],[11.3274,63.90291]],[[11.32283,63.90735],[11.32254,63.91015]],[[11.36923,63.9118],[11.36822,63.9115],[11.36733,63.91195],[11.36338,63.912],[11.36073,63.91117],[11.35936,63.9092],[11.35927,63.90776],[11.35993,63.90727],[11.36162,63.9075],[11.36229,63.90718]],[[11.32254,63.91015],[11.32204,63.91236],[11.32071,63.91337],[11.31782,63.91394],[11.31762,63.91533],[11.31884,63.91626],[11.32727,63.91964],[11.32877,63.92084]],[[11.36923,63.9118],[11.37033,63.91246],[11.37415,63.91255],[11.37818,63.91565],[11.37798,63.91829],[11.37158,63.9188],[11.36788,63.91983],[11.36678,63.92072],[11.3668,63.92125],[11.37007,63.9232],[11.37229,63.92436],[11.37581,63.92515],[11.37726,63.92646],[11.37829,63.92672],[11.37489,63.92671],[11.37508,63.92772],[11.37247,63.92879]],[[11.34087,63.93174],[11.3438,63.93029],[11.34611,63.9276],[11.34499,63.92654],[11.34552,63.92513],[11.34375,63.92387]],[[11.34087,63.93174],[11.33945,63.93289],[11.34153,63.93333],[11.34292,63.93316],[11.34605,63.93398],[11.34276,63.93579]],[[11.3584,63.93619],[11.36148,63.93512],[11.36249,63.93529],[11.36284,63.9363]],[[11.37652,63.93664],[11.37671,63.93419],[11.37486,63.93242],[11.37348,63.93209],[11.37008,63.93225],[11.36872,63.93178],[11.36685,63.9298],[11.36785,63.92858],[11.37247,63.92879]],[[11.35341,63.93791],[11.35531,63.93724],[11.35429,63.9364],[11.35546,63.93624],[11.35695,63.93669],[11.3584,63.93619]],[[11.34529,63.93848],[11.34759,63.93809],[11.34918,63.93846],[11.35086,63.93828],[11.35163,63.93716],[11.35275,63.93719],[11.35341,63.93791]],[[11.36284,63.9363],[11.36376,63.93947],[11.36553,63.9399],[11.36684,63.94077],[11.36561,63.94223],[11.3666,63.94292]],[[11.38204,63.9442],[11.38082,63.94195],[11.38191,63.94006],[11.3784,63.93898],[11.37652,63.93664]],[[11.3666,63.94292],[11.36971,63.94499],[11.37196,63.94572],[11.37265,63.94767],[11.37191,63.94826],[11.37435,63.9496],[11.37686,63.94716],[11.37615,63.9463],[11.37675,63.94572],[11.37783,63.94561],[11.38137,63.94705],[11.38397,63.94648],[11.38401,63.94513],[11.38204,63.9442]],[[11.3683,63.97006],[11.37266,63.96909],[11.37377,63.96773],[11.37792,63.96874],[11.38047,63.96879],[11.38208,63.9681],[11.38317,63.96885]],[[11.42624,63.9828],[11.42889,63.98433],[11.43232,63.98487],[11.43405,63.98474],[11.43571,63.98524],[11.44495,63.98911],[11.45907,63.99396]],[[11.30266,63.96824],[11.30739,63.96813],[11.31214,63.96889],[11.31015,63.96792],[11.31109,63.96601],[11.30955,63.96512],[11.31084,63.96444],[11.31352,63.9648],[11.31592,63.96405],[11.31568,63.96256],[11.31782,63.96247],[11.31928,63.96289],[11.31941,63.96364],[11.32244,63.96581],[11.32276,63.96669]],[[11.32276,63.96669],[11.32838,63.96869],[11.33289,63.96921],[11.335,63.97019],[11.33724,63.97047],[11.33812,63.97017],[11.33977,63.97069]],[[11.38413,63.97194],[11.38317,63.96885]],[[11.29891,63.97199],[11.30237,63.97158],[11.30347,63.97096],[11.30548,63.97088],[11.30496,63.96992],[11.30195,63.96849],[11.30266,63.96824]],[[11.3683,63.97006],[11.36798,63.97039],[11.36972,63.97204],[11.36766,63.97413],[11.36584,63.97489],[11.36437,63.97491],[11.36301,63.97328],[11.36177,63.97429],[11.35871,63.97518],[11.35144,63.97231],[11.35231,63.97233],[11.35144,63.97179],[11.34685,63.97115],[11.34318,63.97161],[11.33977,63.97069]],[[11.41661,63.9743],[11.41283,63.97218],[11.40878,63.97188],[11.40739,63.97288],[11.40778,63.97429],[11.40602,63.97421],[11.40517,63.97361],[11.40296,63.97372],[11.4018,63.97545],[11.40257,63.97643],[11.40039,63.97674]],[[11.41661,63.9743],[11.42089,63.97767],[11.42318,63.98078]],[[11.38413,63.97194],[11.3829,63.97482],[11.38078,63.9767],[11.38155,63.97926],[11.38397,63.97927],[11.39196,63.98154],[11.39687,63.98143],[11.39687,63.98102],[11.39483,63.98051],[11.39822,63.97981],[11.39668,63.97852],[11.39773,63.97818],[11.39879,63.97841],[11.39942,63.97774],[11.39874,63.97717],[11.40039,63.97674]],[[11.36938,63.98139],[11.36783,63.97962],[11.36366,63.97825],[11.36195,63.97889],[11.36305,63.98049],[11.36473,63.98127]],[[11.45907,63.99396],[11.46319,63.99633],[11.46769,63.99734],[11.47413,63.99989],[11.48017,64.00144]],[[11.16884,63.71173],[11.17574,63.71257],[11.18143,63.71211]],[[11.04408,63.70257],[11.04376,63.70325]],[[11.15119,63.70616],[11.15086,63.70582]],[[11.0994,63.70478],[11.09925,63.70476]],[[11.0006,63.70205],[11.00118,63.70231]],[[11.26864,63.73981],[11.26586,63.73852],[11.26077,63.73737]],[[11.30566,63.74989],[11.30363,63.75178]],[[11.03277,63.74387],[11.03704,63.74427],[11.03754,63.74569]],[[11.04236,63.74814],[11.03909,63.74713],[11.03754,63.74569]],[[11.20889,63.75262],[11.20925,63.75188]],[[11.29671,63.75491],[11.2981,63.75494]],[[11.14183,63.79574],[11.14187,63.79578]],[[11.18288,63.79687],[11.18468,63.796]],[[11.04079,63.79304],[11.04061,63.79289]],[[11.21223,63.79768],[11.21225,63.79764]],[[11.18227,63.79709],[11.18288,63.79687]],[[11.15119,63.80471],[11.15173,63.80478]],[[11.3119,63.8421],[11.31172,63.84137],[11.31624,63.84026]],[[11.11993,63.84022],[11.12066,63.84014]],[[11.14987,63.84093],[11.15003,63.84087]],[[11.12066,63.84014],[11.12156,63.83953]],[[11.15607,63.84109],[11.15229,63.84032],[11.15003,63.84087]],[[11.31011,63.84932],[11.31007,63.84928]],[[11.21238,63.85256],[11.2106,63.85251],[11.20956,63.85337],[11.20984,63.85389],[11.21146,63.85349],[11.21238,63.85256]],[[11.0416,63.87385],[11.04244,63.87624]],[[11.30976,63.88377],[11.31047,63.88428]],[[11.03285,63.88074],[11.02915,63.88259]],[[11.02788,63.88318],[11.02915,63.88259]],[[11.00842,63.89697],[11.00427,63.8947],[11.00121,63.89587],[11.00155,63.89667],[11.0044,63.89673],[11.00765,63.89731],[11.00842,63.89697]],[[11.13968,63.90294],[11.14017,63.9027]],[[11.13466,63.90941],[11.13305,63.90893],[11.13193,63.9092],[11.13427,63.91091],[11.1351,63.91097],[11.13573,63.91026],[11.13466,63.90941]],[[11.10978,63.98299],[11.11518,63.98478]],[[11.11518,63.98478],[11.11577,63.98478]],[[11.43673,63.77593],[11.43979,63.77569],[11.44044,63.77418]],[[11.44166,63.77385],[11.44231,63.7745],[11.44109,63.77582],[11.43947,63.77646]],[[11.3932,63.84723],[11.39321,63.84721]],[[11.33492,63.87381],[11.33621,63.87369],[11.3371,63.87304],[11.33515,63.87204]],[[11.31047,63.88428],[11.31328,63.88577]],[[11.3609,63.89269],[11.3624,63.89136]],[[11.33071,63.92187],[11.32877,63.92084]],[[11.33071,63.92187],[11.33322,63.92284],[11.34159,63.92337],[11.34375,63.92387]],[[11.34276,63.93579],[11.34205,63.93671],[11.3442,63.93801],[11.34427,63.93861],[11.34529,63.93848]],[[11.42624,63.9828],[11.42318,63.98078]],[[11.36473,63.98127],[11.36811,63.98211],[11.36974,63.98195],[11.36938,63.98139]],[[11.32647,63.76192],[11.32779,63.76161],[11.33051,63.7617],[11.33577,63.76199],[11.34178,63.76304],[11.34397,63.76276],[11.34493,63.76346],[11.34419,63.76397]],[[11.32714,63.75672],[11.3325,63.75983],[11.32657,63.76114]],[[11.31424,63.85556],[11.31228,63.85711],[11.30958,63.85804],[11.30026,63.86035],[11.29751,63.86041],[11.29714,63.86102],[11.29875,63.86236]],[[11.32623,63.75639],[11.32714,63.75672]],[[11.32657,63.76114],[11.32295,63.76184],[11.3247,63.76233],[11.32647,63.76192]],[[11.31011,63.84932],[11.31023,63.85036],[11.30602,63.85025],[11.30606,63.85107],[11.30957,63.85199],[11.31139,63.85191],[11.31457,63.85306]]]}}]}