{"type":"FeatureCollection","features":[{"type":"Feature","properties":{},"geometry":{"type":"MultiLineString","coordinates":[[[10.85775,63.65392],[10.86228,63.65608],[10.86555,63.65579],[10.86755,63.65613],[10.8725,63.65828],[10.87432,63.66025],[10.87658,63.66471],[10.88041,63.6665],[10.89019,63.67342],[10.89227,63.67392],[10.89823,63.67795],[10.90681,63.6806],[10.90959,63.68209],[10.91071,63.68203],[10.91321,63.68439],[10.92257,63.68804],[10.93117,63.68948],[10.94639,63.69652],[10.94939,63.69875],[10.9523,63.7001]],[[10.00569,63.49101],[10.0155,63.49439]],[[10.70863,63.69364],[10.72161,63.69572],[10.73039,63.69817],[10.73449,63.69816],[10.73836,63.69868],[10.74361,63.70059],[10.74845,63.70163],[10.74928,63.70205],[10.74928,63.70282]],[[10.01714,63.49447],[10.02453,63.49452],[10.03141,63.49398],[10.03331,63.49367],[10.03747,63.49212]],[[11.00399,63.71069],[10.9978,63.71167],[10.99575,63.71255],[11.00024,63.71256]],[[10.10113,63.3619],[10.10225,63.36116],[10.10257,63.35945]],[[10.17606,63.31144],[10.18216,63.31239]],[[10.18268,63.31254],[10.18311,63.31299]],[[10.1526,63.31566],[10.15737,63.31407],[10.16048,63.31431],[10.16161,63.3126],[10.16582,63.31231],[10.16638,63.31117],[10.16767,63.31072],[10.17606,63.31144]],[[10.18311,63.31299],[10.19134,63.31534],[10.19343,63.31649],[10.1937,63.31719]],[[10.06988,63.33369],[10.06951,63.33309],[10.07177,63.33072],[10.07159,63.32838]],[[10.19322,63.31757],[10.19259,63.31806],[10.19294,63.31944],[10.19483,63.32108],[10.19615,63.32132],[10.19854,63.32108],[10.20551,63.32282]],[[10.13532,63.32117],[10.13724,63.32134],[10.13915,63.32227],[10.14352,63.31973],[10.14909,63.31954],[10.15092,63.31844],[10.15192,63.31617]],[[10.20551,63.32282],[10.20873,63.3229],[10.2117,63.32574]],[[10.10464,63.32777],[10.10676,63.32839],[10.1136,63.32593],[10.11516,63.32482],[10.11789,63.32487],[10.1244,63.32265],[10.12989,63.32302],[10.13239,63.32266],[10.13393,63.32136],[10.13532,63.32117]],[[10.07891,63.32498],[10.081,63.32494],[10.08322,63.32549],[10.08911,63.32563],[10.09314,63.32621],[10.09777,63.32762],[10.1004,63.32911],[10.10178,63.32912],[10.10464,63.32777]],[[10.07159,63.32838],[10.07604,63.32654],[10.07607,63.32515],[10.07891,63.32498]],[[10.2117,63.32574],[10.21458,63.32989],[10.21578,63.33577],[10.21758,63.33714]],[[10.21758,63.33714],[10.21819,63.3375],[10.21906,63.33724],[10.21987,63.33749],[10.21966,63.33847],[10.21787,63.33861],[10.21862,63.33915],[10.22032,63.33941],[10.22135,63.33913],[10.22393,63.34028],[10.22841,63.34078]],[[10.22172,63.34187],[10.21719,63.34176],[10.21665,63.34233],[10.22041,63.3428],[10.22261,63.34229],[10.22172,63.34187]],[[10.06196,63.33769],[10.0675,63.3353],[10.06988,63.33369]],[[10.1847,63.34635],[10.18908,63.34585],[10.1905,63.34482],[10.19282,63.34457],[10.20164,63.34604]],[[10.14718,63.34529],[10.1524,63.34459],[10.16083,63.34455],[10.16398,63.34433],[10.16555,63.34378],[10.16933,63.3438],[10.1756,63.34456],[10.17856,63.34574],[10.1847,63.34635]],[[10.68112,63.43832],[10.68496,63.43792],[10.68844,63.43681]],[[9.99097,63.34625],[10.00143,63.34592]],[[10.00143,63.34592],[10.01142,63.34653],[10.02283,63.34814],[10.0325,63.34851]],[[10.03964,63.34882],[10.04221,63.34888],[10.04788,63.34774],[10.05335,63.34435],[10.05589,63.34388],[10.05916,63.3417],[10.05902,63.33978],[10.0613,63.33876],[10.06196,63.33769]],[[10.03878,63.34887],[10.03964,63.34882]],[[10.0325,63.34851],[10.03532,63.35013],[10.03648,63.35009],[10.03878,63.34887]],[[10.10257,63.35945],[10.10297,63.35834],[10.10722,63.35702],[10.10688,63.35458],[10.10786,63.35327],[10.10916,63.35309],[10.11321,63.35382],[10.11491,63.35378],[10.11684,63.35196],[10.11813,63.35289],[10.12117,63.35297],[10.12308,63.35354],[10.12373,63.35298],[10.12792,63.35182],[10.12905,63.35209],[10.13057,63.35185],[10.1341,63.34996],[10.13835,63.34869],[10.13984,63.34749],[10.14338,63.34709],[10.14528,63.34549],[10.14718,63.34529]],[[10.0987,63.36262],[10.09517,63.36386],[10.09151,63.36639],[10.09061,63.36765],[10.08459,63.37037],[10.08291,63.37079],[10.07525,63.37085],[10.07153,63.37038],[10.06903,63.37161],[10.07047,63.37285]],[[10.79248,63.41233],[10.79832,63.41341],[10.80183,63.41452]],[[10.06767,63.40322],[10.06573,63.40136],[10.06407,63.39765],[10.06585,63.39488],[10.06588,63.39317],[10.06178,63.38836],[10.05678,63.38607],[10.05645,63.38508],[10.06109,63.38149],[10.06082,63.38034],[10.06297,63.38],[10.06452,63.37907],[10.06622,63.37671],[10.06656,63.37694],[10.06681,63.3767],[10.06669,63.37556],[10.06823,63.37519],[10.07047,63.37285]],[[10.77422,63.4259],[10.77815,63.42269],[10.77954,63.41765],[10.7821,63.41621],[10.78382,63.41351],[10.78785,63.41248],[10.79242,63.41233]],[[10.80311,63.42675],[10.80497,63.42051],[10.80801,63.42053],[10.81035,63.41882],[10.80832,63.41732],[10.80419,63.41614],[10.80292,63.4152]],[[10.74081,63.43355],[10.7467,63.4329],[10.75249,63.43332],[10.76212,63.4318],[10.76589,63.43082],[10.77049,63.42884],[10.77422,63.4259]],[[10.73359,63.43319],[10.73504,63.43268],[10.74081,63.43355]],[[10.07322,63.40585],[10.08623,63.41261]],[[10.80429,63.42974],[10.80548,63.43082],[10.8047,63.43287],[10.80764,63.43472],[10.81064,63.43551],[10.81372,63.43582],[10.81746,63.43483],[10.82067,63.43486],[10.8235,63.43547]],[[10.68844,63.43681],[10.69551,63.43573],[10.70053,63.43564],[10.70288,63.43515]],[[10.70288,63.43515],[10.70605,63.43496],[10.71128,63.43576],[10.71274,63.43526],[10.71532,63.43328]],[[10.83307,63.43492],[10.83511,63.43748],[10.83844,63.43752],[10.83925,63.43815],[10.84123,63.43773],[10.84509,63.43889],[10.84137,63.43587],[10.84153,63.43535],[10.84289,63.43512]],[[10.71532,63.43328],[10.71749,63.43234],[10.72236,63.43267],[10.7249,63.43358],[10.72588,63.43563],[10.72722,63.43587],[10.72841,63.43555],[10.72923,63.43403],[10.73171,63.43391],[10.73359,63.43319]],[[10.8235,63.43547],[10.82997,63.43947],[10.8321,63.43974],[10.8333,63.43949],[10.83222,63.43777],[10.83107,63.43743],[10.83037,63.43792],[10.82927,63.43787],[10.82768,63.43738],[10.82624,63.43489],[10.82731,63.43425],[10.82897,63.43422],[10.83307,63.43492]],[[10.55877,63.42984],[10.56096,63.43077],[10.56194,63.43223],[10.56436,63.43361],[10.56949,63.43353],[10.57299,63.43485],[10.5777,63.4359]],[[10.84289,63.43512],[10.84536,63.43534],[10.85141,63.43767],[10.85459,63.43976],[10.86009,63.44145],[10.86253,63.44368],[10.86583,63.44455],[10.87613,63.44452],[10.88719,63.44611]],[[10.86604,63.44583],[10.86466,63.44556],[10.86322,63.4461],[10.86598,63.44673],[10.86742,63.44603],[10.86604,63.44583]],[[10.66951,63.4404],[10.66884,63.44097],[10.66936,63.44131],[10.67592,63.4404],[10.67983,63.44092],[10.68126,63.44042],[10.68112,63.43832]],[[10.65686,63.44095],[10.66078,63.43842],[10.66267,63.43769],[10.66465,63.4375],[10.66709,63.43784],[10.66951,63.4404]],[[10.88784,63.44622],[10.89027,63.44681],[10.89049,63.44821],[10.89178,63.44813],[10.89312,63.44882],[10.90035,63.44814],[10.90704,63.44633]],[[10.90349,63.45535],[10.90719,63.45538]],[[10.65149,63.44164],[10.65474,63.44199],[10.65686,63.44095]],[[10.38783,63.43328],[10.38121,63.43179],[10.37946,63.43226],[10.38762,63.43458]],[[10.35201,63.43346],[10.35552,63.4325],[10.36316,63.43214]],[[10.36316,63.43214],[10.36336,63.43245],[10.361,63.43326],[10.36322,63.43383],[10.36815,63.43254],[10.3776,63.43193],[10.38004,63.43132],[10.3825,63.43145],[10.38795,63.43253]],[[10.48978,63.43893],[10.49495,63.43854],[10.49615,63.43713],[10.49966,63.43581],[10.50017,63.43655],[10.50161,63.43694],[10.50091,63.43736],[10.50119,63.43788],[10.50671,63.43709],[10.50818,63.43919],[10.51376,63.43625],[10.51243,63.43596],[10.50764,63.43631],[10.51188,63.43539],[10.51138,63.43303],[10.51523,63.43323],[10.51714,63.43293],[10.52006,63.4321],[10.52185,63.43056],[10.52403,63.43125],[10.52745,63.43085],[10.52871,63.43122],[10.53491,63.43074],[10.53946,63.43147],[10.54189,63.43079],[10.54596,63.43158],[10.54895,63.43034],[10.55188,63.42967],[10.5543,63.43076],[10.55691,63.42967],[10.55877,63.42984]],[[10.5877,63.43909],[10.59582,63.4415],[10.60372,63.44269],[10.60574,63.44241],[10.60759,63.44127],[10.6094,63.4389],[10.60887,63.43903],[10.6086,63.43812],[10.60978,63.43815],[10.61291,63.4367],[10.62392,63.43954],[10.62854,63.43999],[10.63187,63.44158]],[[10.48686,63.4419],[10.48769,63.44164],[10.48791,63.43991]],[[10.47463,63.43849],[10.47547,63.43956],[10.48193,63.44098],[10.48408,63.44234],[10.48686,63.4419]],[[10.90932,63.44761],[10.90695,63.44967],[10.90546,63.449],[10.90437,63.44931],[10.90607,63.45008],[10.90562,63.45154],[10.90917,63.45449],[10.90876,63.4552],[10.90719,63.45538]],[[10.90349,63.45535],[10.90036,63.45006],[10.89395,63.45076],[10.89628,63.45433],[10.89602,63.45545]],[[10.38762,63.43458],[10.39131,63.43624],[10.3923,63.43601],[10.39632,63.43719],[10.40076,63.43908],[10.39981,63.43999],[10.4,63.44083],[10.40212,63.44196]],[[10.10121,63.41905],[10.10699,63.42138],[10.11516,63.42375],[10.11913,63.42436],[10.1293,63.42443],[10.13621,63.42541],[10.13908,63.42445],[10.14109,63.42477],[10.14471,63.42643],[10.14951,63.43014],[10.1525,63.43037],[10.15337,63.43136],[10.15249,63.43248],[10.15432,63.43442]],[[10.40212,63.44196],[10.40373,63.44411],[10.40483,63.44426],[10.40722,63.44377],[10.40625,63.44146],[10.408,63.44143],[10.41008,63.4438],[10.41376,63.44465]],[[10.41672,63.44426],[10.41756,63.44471],[10.41862,63.44441],[10.41863,63.44332],[10.41698,63.44169],[10.41783,63.44093],[10.42003,63.44107],[10.42068,63.44211],[10.42229,63.44209],[10.42146,63.44053],[10.42307,63.44012],[10.42564,63.44296],[10.42151,63.4438],[10.42069,63.44507]],[[10.8861,63.45833],[10.88932,63.45841],[10.8902,63.45914],[10.89896,63.45882],[10.9002,63.45917],[10.90036,63.45965]],[[10.90318,63.45903],[10.90811,63.45851],[10.91026,63.46062]],[[10.16806,63.43809],[10.16963,63.43848]],[[10.46651,63.44926],[10.46622,63.4483],[10.46815,63.4469],[10.46798,63.44492],[10.47063,63.44343],[10.47134,63.44099],[10.47304,63.43865]],[[10.46341,63.45258],[10.46573,63.45184],[10.46651,63.44926]],[[10.16963,63.43848],[10.17205,63.44004],[10.17631,63.44106],[10.17971,63.44131]],[[10.91202,63.46429],[10.91201,63.46308],[10.91026,63.46062]],[[10.90036,63.45965],[10.90026,63.46285],[10.89864,63.46567],[10.9002,63.46611],[10.90024,63.46749],[10.90159,63.46676],[10.90438,63.46695],[10.90529,63.46599],[10.90513,63.46274],[10.90281,63.45948],[10.90318,63.45903]],[[10.38448,63.45057],[10.38244,63.45042],[10.38167,63.45158],[10.38405,63.45207],[10.38448,63.45057]],[[10.88484,63.46707],[10.88316,63.46626],[10.88144,63.46629],[10.88258,63.4679],[10.8846,63.46878]],[[10.42069,63.44507],[10.42057,63.44562],[10.42342,63.44799],[10.42575,63.44857],[10.42923,63.44866],[10.43453,63.45027],[10.43624,63.4517]],[[10.88443,63.46993],[10.88553,63.46987],[10.88588,63.46922],[10.8846,63.46878]],[[10.43624,63.4517],[10.43633,63.45254],[10.43813,63.45336],[10.4399,63.45519],[10.44482,63.45697],[10.44702,63.45726],[10.44971,63.45729],[10.45549,63.45617],[10.45809,63.45484],[10.46127,63.45413],[10.46341,63.45258]],[[10.17971,63.44131],[10.18175,63.44277],[10.18376,63.4459],[10.18284,63.44752],[10.17985,63.44759],[10.18024,63.44842],[10.181,63.44898],[10.18433,63.44924]],[[10.22759,63.45363],[10.22616,63.45227],[10.22367,63.45158],[10.22054,63.4514],[10.21737,63.45042],[10.21384,63.4504],[10.20957,63.44943],[10.20802,63.44945]],[[10.28435,63.45195],[10.30222,63.45452],[10.3049,63.45407],[10.3086,63.45235],[10.31051,63.45263],[10.31492,63.45188],[10.31554,63.45126],[10.32136,63.44964],[10.32626,63.44942],[10.32746,63.44881],[10.32728,63.448],[10.33038,63.44716],[10.33889,63.44745],[10.34062,63.44722],[10.34284,63.44571],[10.34141,63.44461],[10.34605,63.44357],[10.34895,63.44249],[10.34847,63.44048],[10.34976,63.43954],[10.34952,63.43843],[10.35202,63.43682],[10.35025,63.43573],[10.35114,63.43379],[10.35201,63.43346]],[[10.18433,63.44924],[10.18976,63.4505],[10.19531,63.45004],[10.20066,63.45167],[10.20326,63.45107],[10.20367,63.45014],[10.20802,63.44945]],[[10.91202,63.46429],[10.90939,63.4688],[10.90517,63.4688],[10.90068,63.47201],[10.90022,63.47367]],[[10.89656,63.4736],[10.89546,63.47301],[10.89584,63.47224],[10.89409,63.47221],[10.89201,63.4706],[10.88484,63.46707]],[[10.23068,63.45373],[10.24141,63.45196],[10.24276,63.45206],[10.24576,63.45315],[10.25015,63.45251],[10.25795,63.45338],[10.26245,63.45302],[10.26633,63.4532],[10.27572,63.45166],[10.28435,63.45195]],[[10.84836,63.47302],[10.84383,63.47102],[10.83793,63.4705],[10.82676,63.47089],[10.82161,63.47169],[10.82031,63.4722]],[[10.881,63.47396],[10.88105,63.47324],[10.87852,63.47207],[10.8789,63.47169]],[[10.84836,63.47302],[10.85231,63.47576]],[[10.88131,63.47413],[10.87884,63.47565],[10.87693,63.476],[10.87927,63.4779]],[[10.8546,63.47611],[10.86595,63.47724],[10.87419,63.47719],[10.87598,63.47796]],[[10.81599,63.47306],[10.81336,63.4723],[10.80968,63.47285],[10.80676,63.47414],[10.8062,63.47548],[10.79636,63.47867]],[[10.78392,63.48368],[10.7876,63.48258],[10.79252,63.48052],[10.79394,63.47935],[10.79636,63.47867]],[[10.76432,63.49838],[10.76648,63.49661],[10.77447,63.49398],[10.77656,63.49247],[10.77644,63.4898],[10.77486,63.48859],[10.77472,63.48745],[10.77747,63.48529],[10.78187,63.48395]],[[10.76432,63.49838],[10.76055,63.49935],[10.75846,63.50034],[10.75534,63.50317],[10.75275,63.51018],[10.75542,63.51171],[10.75562,63.51306]],[[9.99926,63.4886],[10.00088,63.4899],[10.00569,63.49101]],[[10.03747,63.49212],[10.04061,63.49135],[10.04455,63.49116]],[[10.06758,63.49316],[10.06572,63.49269],[10.06282,63.49261],[10.05288,63.49066],[10.04882,63.49043],[10.04455,63.49116]],[[10.75502,63.51522],[10.75562,63.51306]],[[10.75502,63.51522],[10.75543,63.51754],[10.75729,63.52039],[10.75985,63.52053],[10.76106,63.51964]],[[10.07663,63.49453],[10.09158,63.49466],[10.10009,63.49523],[10.11974,63.49995],[10.1281,63.5031]],[[10.76485,63.52508],[10.76895,63.53025],[10.76987,63.53405],[10.77117,63.53604],[10.77398,63.5373]],[[10.77398,63.5373],[10.77928,63.53865],[10.78241,63.53892],[10.78595,63.54005],[10.79195,63.53983],[10.79465,63.53907],[10.7968,63.53899],[10.80055,63.54064],[10.80331,63.54109],[10.80544,63.54098],[10.80789,63.54022],[10.8136,63.54154],[10.8215,63.54011],[10.82989,63.54118],[10.83079,63.54098],[10.83114,63.54021]],[[10.83114,63.54021],[10.83472,63.53957],[10.84057,63.54067],[10.84507,63.54233],[10.84867,63.54306],[10.85392,63.54287],[10.86631,63.54495],[10.86961,63.54463],[10.8736,63.54497]],[[10.81456,63.54335],[10.81325,63.54279],[10.81157,63.54319],[10.81236,63.54396],[10.81382,63.54432],[10.81527,63.54394],[10.81456,63.54335]],[[10.1281,63.5031],[10.13287,63.50664],[10.13664,63.50844],[10.14163,63.5098],[10.14209,63.5124],[10.14587,63.516],[10.14764,63.51659],[10.15184,63.51671],[10.15191,63.51909],[10.15576,63.52141],[10.16063,63.52346],[10.16832,63.52514],[10.17121,63.52693]],[[10.63914,63.54291],[10.64368,63.54021],[10.64388,63.5393],[10.64602,63.53987],[10.64918,63.53896],[10.65346,63.53941],[10.65919,63.54091],[10.66818,63.54161],[10.67242,63.54278]],[[10.89272,63.55249],[10.89115,63.55167],[10.8833,63.55065],[10.88079,63.55159],[10.87655,63.55148],[10.87534,63.55187],[10.87638,63.55265],[10.88572,63.55589],[10.89063,63.55518],[10.89264,63.55354],[10.89272,63.55249]],[[10.70863,63.69364],[10.69631,63.69019],[10.68649,63.6856],[10.67574,63.68248],[10.67426,63.6815],[10.67369,63.68028],[10.67215,63.67949],[10.66159,63.67711],[10.65216,63.67547]],[[10.97328,63.70129],[10.97395,63.70085],[10.9734,63.7],[10.97043,63.6994],[10.96743,63.70076],[10.96397,63.70103]],[[11.0006,63.70205],[10.99757,63.70154],[10.99456,63.70188]],[[10.631,63.54568],[10.62891,63.54609],[10.62749,63.54704],[10.63065,63.549]],[[10.6387,63.55012],[10.64158,63.54968],[10.64482,63.55064],[10.6468,63.55203]],[[10.87145,63.55978],[10.87292,63.5593],[10.87161,63.55868]],[[10.87161,63.55868],[10.86776,63.5586],[10.86708,63.55916],[10.86944,63.56002],[10.87145,63.55978]],[[10.20897,63.54294],[10.2054,63.54139],[10.20403,63.53995],[10.20387,63.53874],[10.19928,63.53579],[10.1947,63.53395],[10.19131,63.53333],[10.18753,63.53186],[10.17493,63.52865],[10.17121,63.52693]],[[10.64989,63.55702],[10.6468,63.55203]],[[10.66751,63.55755],[10.66529,63.55692],[10.65855,63.55607],[10.65501,63.55717]],[[10.67242,63.54278],[10.67575,63.54359],[10.67864,63.54507],[10.68512,63.54705],[10.69338,63.55345],[10.69643,63.55477],[10.70001,63.55771],[10.70303,63.55862]],[[10.86098,63.56327],[10.85903,63.56275],[10.85777,63.56318]],[[10.87945,63.5638],[10.87613,63.56275],[10.87107,63.56243]],[[10.89934,63.56437],[10.8896,63.56161],[10.88984,63.56251],[10.89347,63.56421]],[[10.91384,63.56479],[10.91031,63.56397],[10.91012,63.56468]],[[10.92014,63.56497],[10.91152,63.56191],[10.90939,63.56065],[10.90925,63.55991],[10.91182,63.56007],[10.91432,63.56074],[10.91791,63.56073],[10.92111,63.56171],[10.92696,63.56221],[10.93732,63.56439],[10.94005,63.5646],[10.94126,63.56423],[10.93222,63.56],[10.9205,63.55659],[10.91961,63.5555],[10.9085,63.55289],[10.90548,63.55061],[10.9008,63.54918],[10.89993,63.54718],[10.89614,63.54562],[10.89182,63.54474],[10.89094,63.5448],[10.89006,63.54556],[10.88703,63.54519],[10.88429,63.5454],[10.8736,63.54497]],[[10.65501,63.55717],[10.65023,63.55739],[10.64989,63.55702]],[[10.95496,63.70078],[10.95992,63.70154],[10.96397,63.70103]],[[10.86098,63.56327],[10.86372,63.56423],[10.86604,63.56342]],[[10.66992,63.55917],[10.66751,63.55755]],[[10.88708,63.56631],[10.88372,63.5641],[10.89056,63.56512],[10.89246,63.56453],[10.89617,63.56608],[10.90076,63.56632],[10.89766,63.56497],[10.89347,63.56421]],[[10.87945,63.5638],[10.88345,63.56577],[10.88662,63.56641]],[[10.91384,63.56479],[10.9225,63.56781]],[[10.70303,63.55862],[10.71007,63.56179],[10.71258,63.56224]],[[10.71868,63.56303],[10.71258,63.56224]],[[10.89934,63.56437],[10.90132,63.56526],[10.90259,63.56661],[10.9198,63.56941],[10.91905,63.56865],[10.91397,63.56693],[10.91012,63.56468]],[[10.85777,63.56318],[10.86572,63.5688],[10.86987,63.57066]],[[10.20897,63.54294],[10.21063,63.54335],[10.21102,63.5444],[10.21033,63.54634],[10.20911,63.54731],[10.21089,63.54986],[10.21386,63.5512],[10.21703,63.55196]],[[10.76941,63.56811],[10.76874,63.56742],[10.7672,63.56713],[10.76398,63.56798],[10.75218,63.56776],[10.75013,63.56817],[10.74824,63.56944]],[[10.97328,63.70129],[10.97305,63.70215],[10.97513,63.70263],[10.97831,63.70251],[10.98093,63.70193],[10.98776,63.70277],[10.99456,63.70188]],[[10.86934,63.57432],[10.87075,63.57421],[10.87354,63.57268],[10.86987,63.57066]],[[10.21703,63.55196],[10.2203,63.55261],[10.2218,63.55256],[10.22634,63.55412],[10.22695,63.55482],[10.23241,63.55572]],[[10.23241,63.55572],[10.24413,63.55638],[10.24615,63.55504],[10.24994,63.55467],[10.26345,63.55546],[10.26709,63.55619]],[[10.85611,63.65302],[10.85775,63.65392]],[[10.59902,63.57056],[10.5907,63.56473],[10.58793,63.56372],[10.58352,63.56374],[10.58361,63.56513],[10.5872,63.56733],[10.59353,63.57245]],[[10.71868,63.56303],[10.71991,63.56309],[10.72367,63.56565],[10.72415,63.567],[10.72566,63.5679],[10.73048,63.56973],[10.7309,63.57074],[10.73258,63.57092],[10.73389,63.5706],[10.73901,63.5714],[10.73875,63.57303],[10.73941,63.5736],[10.74175,63.57417],[10.74706,63.57384],[10.74945,63.57331],[10.74816,63.57121],[10.74824,63.56944]],[[10.6118,63.57042],[10.61136,63.56754],[10.61018,63.56639],[10.60901,63.56617],[10.6076,63.56729],[10.61081,63.56914],[10.60998,63.57019],[10.60454,63.57126],[10.60228,63.57124],[10.59902,63.57056]],[[10.86934,63.57432],[10.86387,63.57414],[10.85725,63.57186],[10.85028,63.57473],[10.85357,63.57646],[10.8583,63.57764],[10.86185,63.57933],[10.8643,63.57972],[10.86833,63.58128]],[[10.79362,63.57945],[10.79065,63.57844],[10.79021,63.57712],[10.78796,63.57611],[10.7756,63.57297],[10.77488,63.57194],[10.77531,63.57091],[10.77435,63.56974],[10.77028,63.5687],[10.76941,63.56811]],[[10.62449,63.57617],[10.62538,63.57532],[10.61979,63.57383],[10.61791,63.5729],[10.61697,63.57137],[10.61919,63.57006],[10.61886,63.56907],[10.6167,63.56901],[10.61653,63.57034],[10.61581,63.5706],[10.61351,63.57074],[10.6118,63.57042]],[[10.40654,63.56937],[10.39908,63.57153]],[[10.79362,63.57945],[10.804,63.58129],[10.80705,63.58039],[10.81057,63.58069],[10.81735,63.58323],[10.82125,63.58365],[10.82258,63.58436],[10.82156,63.58512],[10.8189,63.58541],[10.80695,63.58434],[10.80478,63.58436],[10.80535,63.58469]],[[10.92178,63.58888],[10.92136,63.58899]],[[10.86833,63.58128],[10.87261,63.58293],[10.87432,63.58392],[10.87519,63.58542],[10.87767,63.58661],[10.87732,63.58692],[10.87492,63.58693],[10.87427,63.58755],[10.873,63.58708],[10.87256,63.58758],[10.87308,63.58825],[10.87501,63.58825],[10.8767,63.58926],[10.87848,63.58936],[10.8811,63.58847],[10.88344,63.58852],[10.8849,63.58792],[10.88154,63.58634],[10.88526,63.58599],[10.88798,63.58525],[10.89029,63.58567],[10.89559,63.58539],[10.90044,63.58396],[10.90419,63.58435],[10.90658,63.58595],[10.91045,63.58668],[10.91711,63.58583],[10.91556,63.58446],[10.91615,63.58399],[10.91981,63.58618],[10.92178,63.58888]],[[10.68217,63.58414],[10.68013,63.58355],[10.67673,63.58328],[10.67441,63.58228],[10.67259,63.58235],[10.67153,63.58167],[10.67471,63.5806],[10.67791,63.5732],[10.67666,63.57096],[10.67173,63.57032],[10.67108,63.56976],[10.67185,63.56374],[10.67116,63.56081],[10.66992,63.55917]],[[10.39908,63.57153],[10.3906,63.57285],[10.37995,63.57281],[10.36491,63.57471]],[[10.26709,63.55619],[10.27193,63.55693],[10.28406,63.55597],[10.29625,63.55651],[10.30713,63.55511],[10.31247,63.55673],[10.32287,63.56218],[10.32925,63.56314],[10.33593,63.56465],[10.34206,63.56678],[10.3444,63.56952],[10.34541,63.57013],[10.3475,63.57053],[10.34799,63.57133],[10.35111,63.57259],[10.35615,63.57404],[10.36491,63.57471]],[[10.59353,63.57245],[10.59722,63.57442],[10.59815,63.57613],[10.60204,63.57789],[10.6058,63.57846],[10.6138,63.57713],[10.61717,63.57829],[10.6216,63.57818],[10.62554,63.58015],[10.62502,63.58188],[10.61844,63.58222],[10.61525,63.58314],[10.61071,63.58351],[10.61038,63.5839],[10.61263,63.58418],[10.61459,63.58366],[10.61719,63.5851],[10.62029,63.58585],[10.62306,63.58565],[10.62518,63.58504],[10.62927,63.58528],[10.63993,63.5842],[10.63979,63.58388],[10.633,63.58298],[10.62963,63.58217],[10.6255,63.57827],[10.62449,63.57617]],[[10.41733,63.57983],[10.41934,63.57436],[10.42062,63.57313],[10.42259,63.57324],[10.42304,63.57258],[10.42032,63.57089],[10.41602,63.56979],[10.41014,63.56889],[10.40654,63.56937]],[[10.68217,63.58414],[10.69044,63.58889],[10.69324,63.58906],[10.69458,63.58958],[10.69528,63.59072],[10.69907,63.59175]],[[10.92136,63.58899],[10.91874,63.58921],[10.91489,63.5902],[10.91165,63.59334],[10.90842,63.59424],[10.90457,63.59376],[10.89758,63.59122],[10.89223,63.59092],[10.88986,63.59241],[10.89955,63.59529],[10.90698,63.59535],[10.908,63.59686],[10.91114,63.59808],[10.91182,63.59937],[10.91441,63.60029],[10.91533,63.60107],[10.92277,63.60079],[10.93406,63.60154],[10.94754,63.60136]],[[10.88102,63.59622],[10.87829,63.59632],[10.87866,63.59751],[10.88077,63.59951],[10.88242,63.60014],[10.88543,63.60017],[10.88545,63.59906],[10.8828,63.59774],[10.88207,63.59646],[10.88102,63.59622]],[[10.80535,63.58469],[10.80941,63.58549],[10.80883,63.58622],[10.81827,63.58814],[10.82134,63.58818],[10.82578,63.58909],[10.82724,63.5889],[10.82745,63.58799],[10.83155,63.58828],[10.83562,63.59123],[10.8432,63.59232],[10.84963,63.59407],[10.85298,63.59672],[10.85566,63.59768],[10.85536,63.59829],[10.85656,63.59879],[10.86555,63.60041]],[[10.42697,63.58909],[10.42467,63.58826],[10.42239,63.5867],[10.42116,63.58486],[10.41727,63.58144],[10.41733,63.57983]],[[10.70544,63.60063],[10.70481,63.59686],[10.70064,63.59229],[10.69907,63.59175]],[[10.92823,63.60793],[10.92478,63.60735],[10.9219,63.60579],[10.917,63.60507],[10.91597,63.60446],[10.91639,63.60375],[10.92243,63.603],[10.92961,63.60302],[10.93648,63.60265],[10.94115,63.6019],[10.94679,63.60195]],[[10.45947,63.59606],[10.45891,63.5952],[10.45676,63.59425],[10.45057,63.59267],[10.44621,63.59266],[10.44237,63.59137],[10.43631,63.59125],[10.43621,63.59087],[10.4378,63.59061],[10.43964,63.58969],[10.43968,63.58924],[10.43859,63.58892],[10.43157,63.59008],[10.42697,63.58909]],[[10.70306,63.60357],[10.70435,63.60329],[10.70544,63.60063]],[[10.89174,63.6091],[10.888,63.60755],[10.88158,63.60658],[10.87763,63.6042],[10.87756,63.60327],[10.86555,63.60041]],[[10.9152,63.60977],[10.91431,63.609],[10.91204,63.60851],[10.91157,63.60778],[10.91175,63.6072],[10.9145,63.60626],[10.90616,63.60464],[10.90109,63.60431],[10.9005,63.60447],[10.9009,63.60489],[10.90595,63.60628],[10.90334,63.60756],[10.90412,63.60848],[10.90052,63.6084],[10.89976,63.6087],[10.90072,63.60936]],[[10.9249,63.61004],[10.92348,63.60966],[10.92307,63.60999]],[[10.9249,63.61004],[10.9288,63.6114],[10.93056,63.61295],[10.93483,63.61301]],[[10.9152,63.60977],[10.91968,63.61125],[10.92186,63.61259],[10.92595,63.61313],[10.92756,63.61205],[10.92538,63.61063],[10.92307,63.60999]],[[10.45947,63.59606],[10.45987,63.59795],[10.45857,63.59964],[10.4617,63.60043]],[[10.89174,63.6091],[10.89918,63.61072],[10.9008,63.6118],[10.90725,63.61336],[10.90993,63.61546],[10.91359,63.61551],[10.91281,63.61394],[10.9073,63.61137],[10.90072,63.60936]],[[10.70306,63.60357],[10.70497,63.60501],[10.70387,63.60536],[10.70403,63.606],[10.70623,63.60604],[10.70653,63.60763],[10.71184,63.60937],[10.71313,63.6103],[10.71326,63.61231],[10.71162,63.61431],[10.71217,63.61541],[10.71831,63.61784],[10.72181,63.62006],[10.72365,63.62042],[10.72707,63.61999],[10.73022,63.62086],[10.73228,63.62037],[10.73356,63.62045],[10.74225,63.624],[10.74955,63.62503],[10.75035,63.62669],[10.75226,63.62711],[10.7544,63.62876],[10.76007,63.63082]],[[10.4617,63.60043],[10.46805,63.601],[10.47368,63.60257],[10.47839,63.60243],[10.48151,63.60295],[10.48736,63.60479],[10.49565,63.60888],[10.50109,63.61017],[10.50449,63.61027],[10.50632,63.61069],[10.5115,63.61406],[10.51684,63.61527],[10.51981,63.61714],[10.52757,63.62036],[10.53165,63.62285],[10.5339,63.62307],[10.53662,63.62211],[10.5405,63.62442],[10.54437,63.6254],[10.55609,63.62583],[10.55861,63.62643]],[[10.76007,63.63082],[10.76747,63.63371],[10.7709,63.63434],[10.77653,63.63615],[10.78035,63.63661],[10.7818,63.63651],[10.78182,63.63537],[10.78266,63.6348],[10.78207,63.63402],[10.78068,63.63358]],[[10.78068,63.63358],[10.78164,63.63283],[10.78448,63.63217],[10.78785,63.63239],[10.79735,63.63185],[10.80434,63.63199],[10.82303,63.6355],[10.82612,63.63664],[10.83199,63.63776],[10.83661,63.63818],[10.84271,63.63807],[10.84533,63.63905],[10.85396,63.6438]],[[10.85396,63.6438],[10.85414,63.64501],[10.85059,63.64611],[10.85069,63.64703],[10.85544,63.6491],[10.8582,63.65089]],[[10.85795,63.6526],[10.85913,63.65186],[10.8582,63.65089]],[[10.6007,63.64542],[10.59405,63.64309],[10.58785,63.63982],[10.58419,63.63868],[10.57111,63.6311],[10.56642,63.62895],[10.55861,63.62643]],[[10.85611,63.65302],[10.85588,63.6522],[10.85795,63.6526]],[[10.6007,63.64542],[10.60666,63.64776],[10.60814,63.64905],[10.60959,63.65328],[10.60985,63.65744],[10.60873,63.66031]],[[10.87453,63.66884],[10.87366,63.66878],[10.87363,63.66961],[10.87555,63.6707],[10.87579,63.66987],[10.87453,63.66884]],[[10.60873,63.66031],[10.60903,63.66368],[10.61522,63.66719]],[[10.61522,63.66719],[10.61676,63.66715],[10.61891,63.66815],[10.61733,63.66855],[10.61728,63.66901],[10.62223,63.67127],[10.63175,63.67194],[10.6364,63.67418],[10.63924,63.67449]],[[10.63924,63.67449],[10.64149,63.67441]],[[10.74928,63.70282],[10.75518,63.70389],[10.75985,63.70548],[10.76348,63.7058],[10.76617,63.70558],[10.76875,63.70596],[10.77015,63.70709],[10.77793,63.70868],[10.78231,63.7088],[10.7854,63.70807],[10.78825,63.70835],[10.79147,63.70769],[10.79421,63.70865],[10.79691,63.70862],[10.80295,63.70934],[10.8091,63.71078],[10.81819,63.71386],[10.82208,63.71354],[10.8277,63.71443],[10.83185,63.71468],[10.83744,63.71677],[10.8412,63.71637],[10.84398,63.71779],[10.8482,63.71917]],[[10.03686,63.71972],[10.03971,63.71948],[10.04075,63.71778],[10.04221,63.71716]],[[10.01199,63.71611],[10.01675,63.71751],[10.02518,63.71808],[10.03102,63.71956],[10.03686,63.71972]],[[10.8482,63.71917],[10.85873,63.72133],[10.8666,63.72485],[10.86953,63.72513],[10.87207,63.72418],[10.87833,63.72472],[10.88186,63.72639],[10.88471,63.72693],[10.88746,63.72834],[10.90307,63.7311],[10.90878,63.73344],[10.91506,63.73369],[10.92051,63.73485],[10.92357,63.73452],[10.92672,63.73503],[10.93262,63.73778],[10.93594,63.73894],[10.93956,63.73905],[10.94146,63.74054],[10.94629,63.74207]],[[10.95548,63.74573],[10.94629,63.74207]],[[11.00136,63.74556],[10.99959,63.74696]],[[10.04611,63.72182],[10.04166,63.72057],[10.0394,63.72126],[10.03945,63.7216],[10.04478,63.72284],[10.04611,63.72182]],[[10.04395,63.71722],[10.0474,63.7189],[10.05001,63.7241],[10.05274,63.72498],[10.0587,63.72542],[10.0603,63.72596]],[[9.99982,63.72878],[10.00599,63.72983],[10.00633,63.72778],[10.0071,63.72734],[9.99983,63.72559]],[[10.05955,63.73105],[10.05758,63.73097],[10.06287,63.73247],[10.05955,63.73105]],[[10.07068,63.73405],[10.06573,63.73305],[10.0705,63.73491],[10.07176,63.73469],[10.07068,63.73405]],[[10.03477,63.73163],[10.0249,63.72985],[10.02429,63.73049],[10.02047,63.72982],[10.01607,63.72989],[10.01418,63.73063],[10.01435,63.73141],[10.01758,63.73297],[10.01855,63.73527],[10.02047,63.73619]],[[10.06097,63.72677],[10.06325,63.72866],[10.06561,63.72953],[10.07071,63.73001],[10.07342,63.72939],[10.07512,63.72985],[10.07591,63.73216],[10.07947,63.73354],[10.07691,63.73651],[10.08298,63.73956]],[[10.01872,63.73852],[10.01344,63.73556],[10.00762,63.73406],[10.00646,63.7342],[10.00743,63.73492],[10.00755,63.73648],[10.00318,63.73612],[10.0041,63.73731],[10.00834,63.73802],[10.01083,63.73928],[10.01801,63.74126],[10.02011,63.74065],[10.01872,63.73852]],[[10.02047,63.73619],[10.02131,63.73759],[10.02067,63.73888],[10.02421,63.74145],[10.03264,63.74374]],[[10.99959,63.74696],[10.99864,63.74736],[11.00317,63.75076]],[[10.03629,63.73185],[10.04216,63.73264],[10.04684,63.73537],[10.05183,63.7372],[10.05809,63.74032],[10.0608,63.73973],[10.06047,63.73949],[10.07123,63.74246],[10.07371,63.74435],[10.07534,63.74816],[10.0801,63.74989],[10.0849,63.74845],[10.0886,63.74917],[10.10468,63.75012],[10.11009,63.75115],[10.11624,63.75133],[10.12169,63.75238],[10.12219,63.75291],[10.12383,63.75327]],[[10.12383,63.75327],[10.12527,63.75301],[10.12887,63.75408],[10.12948,63.75394],[10.12752,63.75256],[10.12771,63.75118],[10.12482,63.7501],[10.12437,63.75033],[10.12347,63.7498],[10.11679,63.74844],[10.11135,63.74781],[10.1016,63.7454],[10.09307,63.74427],[10.08332,63.74075],[10.08298,63.73956]],[[10.07094,63.76018],[10.07235,63.76114],[10.0717,63.76147],[10.07215,63.76211]],[[10.01087,63.76105],[10.00262,63.75828],[9.99876,63.75759]],[[10.06664,63.76297],[10.06518,63.76174],[10.06228,63.76124],[10.06547,63.76115],[10.0656,63.76041],[10.0644,63.75976],[10.06042,63.7599],[10.05065,63.7592],[10.04728,63.75837],[10.04434,63.75641],[10.04026,63.75462],[10.04049,63.7539],[10.03799,63.75178],[10.04007,63.74983],[10.04028,63.74874],[10.03774,63.7464],[10.03264,63.74374]],[[10.07094,63.76018],[10.06971,63.76054],[10.06926,63.76143],[10.07042,63.7631]],[[10.07582,63.76329],[10.07514,63.76263],[10.07273,63.7625],[10.07215,63.76211]],[[11.00001,63.78819],[10.99889,63.78592],[10.99476,63.78345],[10.99315,63.78154],[10.98796,63.77828],[10.9888,63.77693],[10.98068,63.77266],[10.97704,63.766],[10.97187,63.76272],[10.9658,63.75772],[10.95548,63.74573]],[[10.06664,63.76297],[10.06729,63.76381],[10.06851,63.76317],[10.07042,63.7631]],[[10.01087,63.76105],[10.01817,63.76224],[10.02756,63.76268],[10.0294,63.76211]],[[10.07582,63.76329],[10.07524,63.76431],[10.07666,63.76677],[10.07578,63.76769],[10.06963,63.76714],[10.06648,63.76614],[10.06477,63.76616],[10.0684,63.76829],[10.07109,63.76893],[10.07313,63.77142],[10.07846,63.77382],[10.0861,63.77574],[10.09254,63.77602],[10.09506,63.77459],[10.09276,63.77236],[10.09444,63.77194],[10.09769,63.7739],[10.0997,63.77724],[10.10124,63.77788],[10.10557,63.7785],[10.11047,63.7778],[10.11395,63.77812],[10.11516,63.77694],[10.11872,63.77758],[10.12009,63.77971],[10.11841,63.7812],[10.11953,63.78223]],[[10.0294,63.76211],[10.0315,63.76222],[10.03566,63.76345],[10.04012,63.76508],[10.04327,63.76737],[10.05413,63.7703],[10.06465,63.77443],[10.07142,63.77523],[10.07424,63.77592],[10.07948,63.77631],[10.10497,63.78316],[10.1106,63.78377],[10.11222,63.78324],[10.11444,63.78314],[10.12052,63.78422],[10.12075,63.78373]],[[11.00298,63.81086],[10.99924,63.8106],[10.99887,63.81182],[11.00121,63.81288]],[[10.63129,63.81075],[10.62824,63.81002],[10.62171,63.80736],[10.61959,63.80578],[10.61632,63.80457],[10.60833,63.80315],[10.60057,63.79958],[10.5904,63.79669],[10.59111,63.79777],[10.59644,63.80069],[10.59998,63.80437],[10.59867,63.8051],[10.59139,63.80416],[10.59204,63.80509],[10.59119,63.80608],[10.59162,63.80666],[10.59896,63.80843],[10.60156,63.80737],[10.60398,63.80711],[10.60548,63.80734],[10.60883,63.81025],[10.63001,63.81898]],[[10.64721,63.82664],[10.64103,63.82346],[10.63001,63.81898]],[[10.67867,63.82759],[10.66425,63.82454],[10.66451,63.82405],[10.66796,63.82423],[10.67227,63.82515],[10.67508,63.82399],[10.67432,63.82301],[10.67261,63.82274],[10.67374,63.82218],[10.67237,63.82062],[10.66928,63.81923],[10.66734,63.81746],[10.65771,63.81568],[10.65663,63.81577],[10.65758,63.8162],[10.65723,63.81648],[10.65354,63.81598],[10.64871,63.8151],[10.64396,63.81367],[10.6425,63.81221],[10.64687,63.81264],[10.64626,63.81116],[10.64974,63.80986],[10.64975,63.80916],[10.64558,63.80811],[10.64563,63.80922],[10.6415,63.81162],[10.64021,63.8118],[10.6377,63.81169],[10.63411,63.81084],[10.63129,63.81075]],[[10.70859,63.83869],[10.70936,63.83958],[10.70879,63.83987]],[[10.67867,63.82759],[10.68429,63.82889],[10.68203,63.82932],[10.68186,63.8302],[10.67806,63.83217],[10.67853,63.83276],[10.6816,63.83321],[10.68395,63.83286],[10.68697,63.83341],[10.68927,63.83499],[10.68806,63.83569],[10.68008,63.83408],[10.67943,63.83484],[10.67824,63.83487],[10.6772,63.83441],[10.67779,63.83389],[10.6761,63.83342],[10.67353,63.83457],[10.67508,63.8368],[10.67836,63.83697],[10.68056,63.83617],[10.68324,63.83875],[10.68455,63.83925],[10.68813,63.83979],[10.69908,63.84009],[10.69934,63.8398],[10.69625,63.83843],[10.69543,63.83756],[10.69671,63.83514],[10.7051,63.83654],[10.70859,63.83869]],[[10.70879,63.83987],[10.70759,63.84131],[10.7125,63.84193],[10.71399,63.84263],[10.72147,63.84402],[10.72353,63.84485],[10.72777,63.84524]],[[10.64721,63.82664],[10.65254,63.82866],[10.66564,63.83554],[10.67224,63.83806],[10.6832,63.84312],[10.68845,63.84456],[10.69555,63.84571],[10.7014,63.84783],[10.70533,63.84855],[10.71082,63.84893],[10.7124,63.84962],[10.71336,63.85107],[10.72636,63.85451]],[[10.72777,63.84524],[10.73575,63.84713],[10.74453,63.84837],[10.75189,63.84835],[10.75873,63.84893],[10.76355,63.8478],[10.76822,63.84721],[10.77997,63.84818],[10.7843,63.84927],[10.79691,63.8504],[10.80082,63.8514],[10.81239,63.85339],[10.82146,63.85661],[10.82392,63.858],[10.82769,63.85814]],[[10.72636,63.85451],[10.73693,63.85749],[10.74728,63.85932],[10.77712,63.86635],[10.79108,63.86886],[10.79976,63.86944],[10.80232,63.87139],[10.80872,63.87306],[10.82506,63.87578]],[[10.87669,63.88926],[10.86879,63.88661],[10.8545,63.88271],[10.84127,63.87961]],[[10.87637,63.87831],[10.87138,63.87644],[10.86576,63.87509],[10.86279,63.87334],[10.85513,63.87106],[10.8544,63.87],[10.85577,63.86929],[10.8501,63.86673],[10.85311,63.86647],[10.85356,63.86569],[10.85266,63.86491],[10.83941,63.86207],[10.8349,63.86052],[10.83112,63.85845],[10.82769,63.85814]],[[10.82899,63.87695],[10.83684,63.87914],[10.84127,63.87961]],[[10.99748,63.88888],[11.00061,63.88916]],[[10.87669,63.88926],[10.87881,63.89046],[10.88168,63.89095],[10.88522,63.89217]],[[10.87637,63.87831],[10.87867,63.88057],[10.88182,63.88195],[10.90799,63.88866],[10.90996,63.8912],[10.91623,63.89175],[10.91948,63.89311],[10.9225,63.89352],[10.92427,63.89461]],[[10.09865,63.94809],[10.10073,63.94853],[10.10221,63.94822],[10.10225,63.94612],[10.10138,63.94497],[10.10429,63.94414]],[[10.89481,63.89549],[10.90601,63.89949],[10.91284,63.90261]],[[10.91284,63.90261],[10.92053,63.90342],[10.92289,63.90409]],[[10.92427,63.89461],[10.9313,63.8964],[10.93378,63.89779],[10.9348,63.89935],[10.93862,63.90026],[10.93793,63.90266],[10.93901,63.90421],[10.94273,63.90435],[10.95077,63.90633],[10.95517,63.90549],[10.95695,63.90362],[10.95871,63.90655],[10.96024,63.90698],[10.96488,63.9062],[10.96632,63.90446],[10.96601,63.90268],[10.97131,63.90095],[10.97209,63.89915],[10.97006,63.89778],[10.96941,63.89665],[10.97419,63.89421],[10.97399,63.8932],[10.97837,63.89248],[10.97825,63.8916],[10.98232,63.8918],[10.98578,63.89039],[10.99097,63.88915],[10.99748,63.88888]],[[10.94145,63.91759],[10.94053,63.91706],[10.94037,63.91569],[10.93889,63.91403],[10.92289,63.90409]],[[10.95893,63.92559],[10.9488,63.92051],[10.94145,63.91759]],[[9.99975,63.89742],[10.00112,63.89753],[10.00372,63.89669],[10.00542,63.8975]],[[10.95893,63.92559],[10.96444,63.92834],[10.97385,63.93149],[10.98095,63.93547],[10.98839,63.94129],[10.99003,63.9422],[10.99322,63.94277]],[[10.99322,63.94277],[11.00052,63.94369]],[[10.00231,63.91493],[10.00406,63.91476],[10.00504,63.91369],[10.00467,63.91272],[10.00285,63.9119]],[[10.00285,63.9119],[10.00087,63.91164],[9.99702,63.91027]],[[10.04357,63.91845],[10.04015,63.91724],[10.03893,63.91773],[10.04173,63.91918],[10.04343,63.91898],[10.04357,63.91845]],[[10.0379,63.91759],[10.03656,63.91704],[10.03532,63.91735],[10.03301,63.91703],[10.03261,63.91654],[10.02962,63.91674],[10.02734,63.9179],[10.03041,63.9194],[10.03388,63.9183],[10.03701,63.9181],[10.0379,63.91759]],[[10.00231,63.91493],[10.00097,63.91536],[10.00077,63.91599],[9.99742,63.91583]],[[9.99842,63.91844],[10.00011,63.91768],[10.00183,63.91759]],[[10.00542,63.8975],[10.00874,63.90078],[10.0168,63.90421],[10.02351,63.90646],[10.02513,63.90657],[10.02575,63.9059],[10.02729,63.90587],[10.02818,63.90738],[10.03279,63.90896],[10.04862,63.9122],[10.05746,63.91253],[10.05826,63.91303],[10.05741,63.91371],[10.06352,63.91472],[10.06854,63.91637],[10.07342,63.91702],[10.07492,63.91796],[10.07904,63.91885],[10.0855,63.9196],[10.09584,63.92016],[10.09765,63.9213],[10.1032,63.92214]],[[10.04542,63.92245],[10.04513,63.92347]],[[10.03974,63.91981],[10.03745,63.91953],[10.03618,63.92106],[10.03304,63.92213],[10.03276,63.92264],[10.03505,63.92337],[10.03627,63.92326],[10.03789,63.92234],[10.04068,63.92208],[10.0408,63.92043],[10.03974,63.91981]],[[10.14928,63.92562],[10.15002,63.92612],[10.1542,63.92634],[10.15555,63.92672],[10.15727,63.92865],[10.15947,63.9295],[10.15923,63.93096]],[[10.04513,63.92347],[10.04478,63.92545],[10.04779,63.92647],[10.04791,63.92713],[10.04694,63.92832],[10.04499,63.92859]],[[10.04432,63.92867],[10.0428,63.92872],[10.03833,63.92763],[10.03272,63.92554],[10.0259,63.92499],[10.02513,63.92354],[10.0195,63.92191],[10.01783,63.92086],[10.01309,63.92038],[10.00965,63.91889],[10.00183,63.91759]],[[10.11842,63.93072],[10.11444,63.93088],[10.11698,63.93164],[10.11964,63.93156],[10.11842,63.93072]],[[10.08801,63.93029],[10.09329,63.93079],[10.09174,63.92909],[10.09007,63.92841],[10.08004,63.92554],[10.07476,63.92465],[10.06093,63.92038],[10.05628,63.91967],[10.05406,63.91987],[10.04846,63.92088],[10.04542,63.92245]],[[10.22207,63.93632],[10.22094,63.93281],[10.22313,63.9311],[10.22232,63.92905],[10.22446,63.92825],[10.22447,63.92777],[10.21368,63.92383],[10.21123,63.92448],[10.20486,63.92505]],[[10.09807,63.95141],[10.09283,63.95014],[10.09205,63.95043],[10.09788,63.95254]],[[10.1032,63.92214],[10.10698,63.92142],[10.11119,63.92114],[10.11008,63.9226],[10.11502,63.92405],[10.11614,63.92388],[10.11728,63.92298],[10.11978,63.92297],[10.12046,63.92396],[10.11565,63.92531],[10.11507,63.92636],[10.11296,63.92674],[10.11261,63.92727],[10.11383,63.92808],[10.11703,63.9285],[10.12553,63.92854],[10.13034,63.92911],[10.13131,63.92978],[10.13072,63.93036],[10.13225,63.93099],[10.13798,63.9305],[10.1392,63.93126],[10.14099,63.9315],[10.14751,63.93139],[10.14831,63.9319],[10.14712,63.93248],[10.1471,63.93384],[10.15153,63.93514],[10.15289,63.93483],[10.15307,63.93441],[10.151,63.93235],[10.15423,63.93182],[10.15565,63.93113],[10.15575,63.93039],[10.15451,63.92953],[10.1484,63.92747],[10.14525,63.92564],[10.14514,63.92504],[10.14816,63.92465],[10.14949,63.92495],[10.14928,63.92562]],[[9.99999,63.92792],[10.00676,63.93026],[10.01079,63.93044],[10.01303,63.92934]],[[10.1384,63.93628],[10.13916,63.93595],[10.13571,63.93457],[10.13086,63.93449],[10.12958,63.93507],[10.13236,63.9361],[10.1384,63.93628]],[[10.20295,63.9362],[10.20583,63.93637],[10.20992,63.93756],[10.2131,63.93622],[10.21419,63.93624],[10.21711,63.93798],[10.22074,63.93919],[10.22206,63.93862],[10.2205,63.9372],[10.22216,63.93665]],[[10.22048,63.9571],[10.21946,63.95648]],[[10.08317,63.93567],[10.08066,63.93444],[10.08089,63.9337],[10.08775,63.93407],[10.0918,63.93357],[10.09784,63.93441],[10.0971,63.93397],[10.09075,63.93316],[10.08886,63.93204],[10.09018,63.93182],[10.09024,63.93146],[10.08801,63.93029]],[[10.15923,63.93096],[10.15879,63.93189],[10.15654,63.93287],[10.15847,63.93413],[10.15827,63.93559],[10.1561,63.93608],[10.15586,63.93647],[10.1595,63.9373],[10.16577,63.94024],[10.1731,63.94198],[10.1755,63.94179],[10.17571,63.94123],[10.17428,63.94014],[10.17135,63.93922],[10.17019,63.93767],[10.17042,63.93736],[10.17324,63.93705],[10.17599,63.93625],[10.17725,63.93671],[10.17765,63.93833],[10.17962,63.93972],[10.18177,63.94043],[10.18609,63.94077],[10.18735,63.93854],[10.1847,63.93621],[10.18827,63.93618],[10.18558,63.93443],[10.1855,63.93366],[10.18971,63.93305],[10.18991,63.93031],[10.19276,63.92896],[10.19629,63.92845],[10.19774,63.92744],[10.20013,63.92745],[10.20294,63.92688],[10.20289,63.92601],[10.20486,63.92505]],[[10.01666,63.93124],[10.0158,63.9328],[10.02444,63.93721],[10.02758,63.9383],[10.03548,63.93875]],[[10.16227,63.9444],[10.15876,63.94413],[10.16001,63.94481],[10.16344,63.94496],[10.16227,63.9444]],[[10.1879,63.94454],[10.18684,63.94419],[10.1833,63.94447],[10.18505,63.94582],[10.18672,63.94556],[10.18812,63.94485],[10.1879,63.94454]],[[10.05085,63.94233],[10.04865,63.94077],[10.04419,63.93914],[10.04231,63.93895],[10.04276,63.94012],[10.04085,63.94039],[10.03548,63.93875]],[[10.09399,63.9438],[10.09465,63.94174],[10.09625,63.94093],[10.09468,63.93975],[10.09571,63.93913],[10.09267,63.93838],[10.0878,63.938],[10.08653,63.93695],[10.08317,63.93567]],[[10.10549,63.94389],[10.10636,63.94316],[10.11066,63.94165],[10.10962,63.94086],[10.11013,63.94065],[10.11562,63.94151],[10.11402,63.9423],[10.11435,63.94297],[10.11949,63.94457],[10.12196,63.94416],[10.12062,63.94313],[10.12223,63.94288],[10.12542,63.94341],[10.12871,63.94497]],[[10.20337,63.94746],[10.20376,63.94579],[10.20171,63.94343]],[[10.14657,63.94902],[10.14369,63.94701],[10.14097,63.94595],[10.13746,63.94549],[10.13493,63.9462],[10.13362,63.94573],[10.13005,63.9456],[10.12871,63.94497]],[[10.09399,63.9438],[10.09425,63.94463],[10.09662,63.94588],[10.09865,63.94809]],[[10.05085,63.94233],[10.05145,63.94386],[10.0528,63.94436],[10.05907,63.94436],[10.06819,63.94666],[10.07528,63.94799],[10.07627,63.94769],[10.07729,63.94614],[10.07819,63.946],[10.07943,63.94639],[10.08209,63.94605],[10.08208,63.94518],[10.08378,63.94487]],[[10.14657,63.94902],[10.15322,63.95146]],[[10.03056,63.94163],[10.02886,63.94208],[10.03302,63.94351],[10.03381,63.94524],[10.03282,63.94559],[10.03,63.94559],[10.03239,63.94685],[10.03867,63.94793],[10.04058,63.94686],[10.0424,63.94666],[10.04284,63.94611],[10.04715,63.94616],[10.04399,63.94492],[10.0324,63.94169]],[[10.1748,63.95074],[10.17389,63.95068],[10.17245,63.95147],[10.17426,63.95244],[10.17565,63.95264],[10.1748,63.95074]],[[10.20337,63.94746],[10.20475,63.94904],[10.20396,63.95037],[10.20435,63.95167],[10.20818,63.95277],[10.21054,63.95286],[10.214,63.95394],[10.2148,63.95378],[10.21516,63.95301],[10.2175,63.95253],[10.21762,63.95194],[10.21603,63.95076],[10.21667,63.94978],[10.22096,63.94976],[10.22209,63.94808]],[[10.08378,63.94487],[10.08735,63.94547],[10.08891,63.94649],[10.0884,63.94711],[10.08988,63.94793],[10.09561,63.95009],[10.09822,63.95057]],[[10.09807,63.95141],[10.09884,63.95142],[10.0993,63.95079],[10.09822,63.95057]],[[10.1656,63.95409],[10.15993,63.95203],[10.15322,63.95146]],[[10.22564,63.95254],[10.22121,63.95306],[10.22051,63.95451],[10.21806,63.95519],[10.21847,63.9561],[10.21946,63.95648]],[[10.19975,63.95489],[10.20369,63.95526],[10.20678,63.95498],[10.20811,63.95589],[10.20853,63.95715],[10.21071,63.95624],[10.21357,63.95618],[10.21492,63.95646],[10.21534,63.95694],[10.21441,63.95728],[10.21499,63.95768],[10.21857,63.95813],[10.21917,63.95775]],[[10.19975,63.95489],[10.19614,63.95405],[10.19437,63.95198],[10.19251,63.95095],[10.18944,63.95051],[10.185,63.95137],[10.18548,63.95217],[10.18855,63.95357],[10.18824,63.95427],[10.18691,63.95432],[10.18651,63.95466],[10.18822,63.95633],[10.1907,63.95702],[10.19609,63.9576],[10.1979,63.95749],[10.19922,63.95796]],[[10.18957,63.95982],[10.1881,63.95844],[10.17911,63.95684],[10.17833,63.95597],[10.17455,63.95547],[10.16861,63.95329],[10.1656,63.95409]],[[10.19884,63.96018],[10.20178,63.96083],[10.2025,63.96046],[10.20017,63.95971],[10.19922,63.95796]],[[10.18957,63.95982],[10.19342,63.96066]],[[10.19342,63.96066],[10.19884,63.96018]],[[10.07265,63.95658],[10.06674,63.9546],[10.06588,63.95467],[10.06574,63.95564],[10.06019,63.95478],[10.06231,63.95562],[10.06683,63.95639],[10.07234,63.9569],[10.07265,63.95658]],[[10.09788,63.95254],[10.10335,63.95516],[10.10384,63.95612],[10.10631,63.95747],[10.1065,63.95843]],[[10.03118,63.95412],[10.02803,63.95346],[10.02713,63.95379],[10.03082,63.95582],[10.0369,63.95746],[10.03791,63.95739],[10.03118,63.95412]],[[10.03026,63.95638],[10.02726,63.95572],[10.02643,63.95591],[10.02641,63.95659],[10.02768,63.95739],[10.03214,63.95851],[10.03302,63.9581],[10.03199,63.95748],[10.03211,63.95696],[10.03026,63.95638]],[[10.03876,63.96005],[10.0339,63.95826],[10.03424,63.95922],[10.03833,63.96033],[10.03876,63.96005]],[[10.09188,63.9611],[10.08648,63.95952],[10.08548,63.95969],[10.08586,63.96069],[10.08289,63.96042],[10.08016,63.9597],[10.07916,63.95994],[10.0803,63.9613],[10.0864,63.96294],[10.08869,63.96412],[10.09224,63.9648],[10.09462,63.96447],[10.09559,63.96287],[10.09188,63.9611]],[[10.1065,63.95843],[10.10421,63.95803],[10.101,63.9586],[10.10395,63.95927],[10.10533,63.96027],[10.10732,63.96041],[10.10869,63.9617],[10.1132,63.96214],[10.11507,63.96271],[10.11556,63.96393],[10.11424,63.96456],[10.11704,63.96584],[10.118,63.9661],[10.12234,63.96605],[10.12287,63.96565],[10.12191,63.96478],[10.12347,63.96446]],[[9.99654,63.97667],[10.00266,63.97608],[10.00645,63.97709]],[[10.12347,63.96446],[10.1257,63.96504],[10.13001,63.9672],[10.1344,63.96815],[10.14133,63.97085],[10.14482,63.97103],[10.14574,63.97154],[10.14541,63.97232],[10.1466,63.97264],[10.1483,63.97204]],[[10.09516,63.96803],[10.09136,63.96749],[10.08789,63.96615],[10.08612,63.96601],[10.08663,63.96686],[10.08449,63.96668],[10.07351,63.96439],[10.08255,63.96785],[10.09192,63.96992],[10.09462,63.97108]],[[10.09516,63.96803],[10.11123,63.97269],[10.11221,63.97267],[10.10866,63.9711],[10.11208,63.9715],[10.11252,63.97126],[10.10472,63.9676],[10.09555,63.9658]],[[10.1483,63.97204],[10.15346,63.97339],[10.15347,63.9745],[10.15112,63.97457],[10.15405,63.97572],[10.15853,63.97585]],[[9.99532,63.95452],[10.01004,63.95853],[10.02055,63.96076],[10.02766,63.96287],[10.02499,63.96521],[10.02161,63.96564],[10.01752,63.96738],[10.01436,63.96744],[10.01156,63.96862],[10.01068,63.96993],[10.00746,63.97146],[10.00812,63.97196],[10.01666,63.9697],[10.02138,63.96769],[10.02397,63.96764],[10.0311,63.96878],[10.03039,63.96781],[10.02594,63.96727],[10.02412,63.96668],[10.02701,63.9652],[10.03171,63.964],[10.03328,63.96405],[10.03862,63.96547],[10.05379,63.96753],[10.05331,63.96679],[10.05001,63.96543],[10.046,63.96477],[10.04732,63.96436],[10.04634,63.96314],[10.04038,63.96157],[10.04651,63.96068],[10.05093,63.96195],[10.05621,63.96446],[10.08495,63.97139],[10.09412,63.97394]],[[10.14121,63.97407],[10.13843,63.97343],[10.13937,63.97426],[10.14172,63.97504],[10.14115,63.97566],[10.14167,63.97614],[10.14472,63.97684],[10.14745,63.97645],[10.14121,63.97407]],[[10.15853,63.97585],[10.16349,63.97772],[10.16367,63.97818],[10.16203,63.97839],[10.16235,63.97886],[10.17092,63.98241]],[[10.12923,63.98251],[10.12871,63.98155],[10.12525,63.98018],[10.11632,63.97768],[10.11052,63.97519],[10.09462,63.97108]],[[10.09412,63.97394],[10.10976,63.97798],[10.10997,63.9777],[10.10841,63.97713],[10.10803,63.9764],[10.10863,63.97626],[10.1216,63.97991],[10.12064,63.97999],[10.11207,63.97829],[10.11173,63.97862],[10.12851,63.98284]],[[10.17092,63.98241],[10.17287,63.98347],[10.16985,63.9836],[10.17273,63.98473],[10.18034,63.98705],[10.18752,63.98846]],[[10.18752,63.98846],[10.19374,63.98986]],[[9.99937,63.98007],[10.00561,63.9784],[10.00645,63.97709]],[[10.04859,63.98722],[10.05156,63.98406],[10.04877,63.98458],[10.04439,63.98708]],[[10.19149,63.99204],[10.18889,63.99069],[10.18138,63.98849],[10.17484,63.98707],[10.1684,63.98624],[10.15797,63.98191],[10.15148,63.98035],[10.14816,63.97996],[10.14619,63.97835],[10.14137,63.97682],[10.13632,63.97581],[10.13378,63.97469],[10.13227,63.97508],[10.1305,63.97366],[10.12799,63.97317],[10.12291,63.97035],[10.12328,63.96885],[10.12427,63.96868],[10.12564,63.96928],[10.12643,63.96918],[10.12405,63.96791],[10.12235,63.96764],[10.1193,63.96791],[10.11287,63.96565],[10.10919,63.96474],[10.10793,63.96507],[10.10408,63.96368],[10.09988,63.96361],[10.09862,63.96319],[10.09577,63.96457]],[[10.20665,63.99254],[10.20361,63.99221],[10.19374,63.98986]],[[10.19026,63.99283],[10.19228,63.99292],[10.19149,63.99204]],[[10.18498,63.99182],[10.1841,63.99262],[10.19293,63.99457]],[[10.22156,63.99828],[10.21704,63.9971],[10.21047,63.99468],[10.20665,63.99254]],[[10.02754,63.99233],[10.04439,63.98708]],[[9.99961,63.98702],[10.0014,63.98601],[10.00431,63.98684],[10.00477,63.98724],[10.00372,63.98871],[10.0053,63.99178]],[[10.19293,63.99457],[10.19574,63.99552],[10.20199,63.99651],[10.20344,63.99726],[10.20946,63.99722],[10.22327,64.00157]],[[10.22647,64.00062],[10.22156,63.99828]],[[10.0019,63.9925],[9.99887,63.99136]],[[9.99877,63.99971],[10.00843,63.99812],[10.01084,63.99732],[10.01215,63.99599],[10.01755,63.99414],[10.0185,63.9934],[10.02593,63.99291],[10.02754,63.99233]],[[10.02339,64.00124],[10.02723,63.99895],[10.03301,63.99837],[10.0374,63.99731],[10.04464,63.9939],[10.05075,63.9926],[10.0545,63.9909],[10.05608,63.98992],[10.0562,63.98811],[10.05503,63.98784],[10.0493,63.98814],[10.0483,63.98787],[10.04859,63.98722]],[[10.15192,63.31617],[10.1526,63.31566]],[[10.19322,63.31757],[10.1937,63.31719]],[[10.20164,63.34604],[10.20692,63.34663],[10.21901,63.34503],[10.22872,63.34428]],[[10.0987,63.36262],[10.10113,63.3619]],[[10.79242,63.41233],[10.79248,63.41233]],[[10.06767,63.40322],[10.06978,63.40473]],[[10.06978,63.40473],[10.07322,63.40585]],[[10.80311,63.42675],[10.80303,63.42865],[10.80429,63.42974]],[[10.78187,63.48395],[10.78392,63.48368]],[[10.08623,63.41261],[10.08971,63.41517]],[[10.08971,63.41517],[10.09232,63.41661],[10.10121,63.41905]],[[10.88635,63.45659],[10.88857,63.45579],[10.89602,63.45545]],[[10.88719,63.44611],[10.88784,63.44622]],[[10.38795,63.43253],[10.39455,63.43465]],[[10.5777,63.4359],[10.5877,63.43909]],[[10.38783,63.43328],[10.39247,63.43518],[10.3938,63.43529]],[[10.63187,63.44158],[10.63667,63.44304],[10.64043,63.44266],[10.64427,63.44151],[10.64449,63.44176],[10.64651,63.44147],[10.65149,63.44164]],[[10.47304,63.43865],[10.47463,63.43849]],[[10.48791,63.43991],[10.48978,63.43893]],[[10.88635,63.45659],[10.88366,63.45737],[10.88379,63.45801],[10.8861,63.45833]],[[10.15432,63.43442],[10.16266,63.43812],[10.16529,63.43864],[10.16806,63.43809]],[[10.88443,63.46993],[10.88181,63.47018],[10.8789,63.47169]],[[10.89971,63.47402],[10.90022,63.47367]],[[10.881,63.47396],[10.88131,63.47413]],[[10.22759,63.45363],[10.22878,63.45401],[10.23068,63.45373]],[[10.81599,63.47306],[10.82031,63.4722]],[[10.85231,63.47576],[10.8546,63.47611]],[[10.87598,63.47796],[10.87921,63.47932],[10.87927,63.4779]],[[10.06758,63.49316],[10.07607,63.49449]],[[10.07663,63.49453],[10.07607,63.49449]],[[10.76106,63.51964],[10.76485,63.52508]],[[10.63914,63.54291],[10.631,63.54568]],[[10.6387,63.55012],[10.63495,63.55014],[10.63065,63.549]],[[10.85688,63.55686],[10.85565,63.55661],[10.85386,63.55692],[10.85567,63.55765],[10.85772,63.55774],[10.85688,63.55686]],[[10.86604,63.56342],[10.86743,63.56255],[10.867,63.56191],[10.87107,63.56243]],[[10.92014,63.56497],[10.92402,63.56681]],[[10.88662,63.56641],[10.88708,63.56631]],[[10.9225,63.56781],[10.92416,63.56729],[10.92402,63.56681]],[[10.9328,63.61027],[10.927,63.60864],[10.92853,63.60826],[10.92823,63.60793]],[[10.93483,63.61301],[10.9355,63.61281],[10.93534,63.61139],[10.9328,63.61027]],[[10.95496,63.70078],[10.9523,63.7001]],[[10.64149,63.67441],[10.64786,63.67479],[10.65216,63.67547]],[[10.01199,63.71611],[10.00719,63.71369],[10.00116,63.71304],[9.99877,63.71214]],[[10.04395,63.71722],[10.04221,63.71716]],[[10.03629,63.73185],[10.03477,63.73163]],[[10.82899,63.87695],[10.82506,63.87578]],[[10.89481,63.89549],[10.88977,63.89334],[10.88522,63.89217]],[[10.0324,63.94169],[10.03056,63.94163]],[[10.04499,63.92859],[10.04432,63.92867]],[[10.01666,63.93124],[10.01558,63.93008],[10.01303,63.92934]],[[10.20188,63.94248],[10.20193,63.94216]],[[10.20295,63.9362],[10.20055,63.94029],[10.20193,63.94216]],[[10.20188,63.94248],[10.20171,63.94343]],[[10.22314,63.94684],[10.22387,63.94678]],[[10.10549,63.94389],[10.10429,63.94414]],[[10.22314,63.94684],[10.22209,63.94808]],[[10.22545,63.94819],[10.22387,63.94678]],[[10.22564,63.95254],[10.22653,63.95169],[10.22649,63.95022],[10.22545,63.94819]],[[10.09577,63.96457],[10.09555,63.9658]],[[10.18607,63.99186],[10.18498,63.99182]],[[10.18607,63.99186],[10.18617,63.99186]],[[10.18617,63.99186],[10.19026,63.99283]],[[10.0053,63.99178],[10.00452,63.99224],[10.0019,63.9925]]]}}]}