{"type":"FeatureCollection","features":[{"type":"Feature","properties":{},"geometry":{"type":"MultiLineString","coordinates":[[[12.19433,64.99554],[12.19176,64.9955],[12.19106,64.99631],[12.19297,64.99701],[12.19468,64.9968],[12.19433,64.99554]],[[12.18232,64.98729],[12.18188,64.98162]],[[12.18232,64.98729],[12.18227,64.98986],[12.18341,64.99004],[12.18487,64.98939],[12.18786,64.99218],[12.1915,64.99402],[12.19269,64.99398],[12.19362,64.99337],[12.19456,64.9918],[12.19945,64.99082],[12.20088,64.99088],[12.20323,64.99147],[12.20391,64.99263],[12.20504,64.99284],[12.20429,64.9937],[12.2061,64.99404],[12.20646,64.99475],[12.20996,64.99476],[12.21192,64.9952],[12.21207,64.99742],[12.20933,64.9993],[12.21126,65.0012]],[[12.02089,64.92949],[12.01981,64.92979],[12.01988,64.9304],[12.02247,64.93113],[12.02089,64.92949]],[[12.00234,64.94828],[12.00357,64.9476],[12.00382,64.94671],[12.00915,64.94629],[12.01634,64.94961]],[[12.40888,64.90161],[12.41183,64.89939],[12.41873,64.89553],[12.41975,64.89435],[12.42594,64.89098],[12.42765,64.88875],[12.43311,64.88559],[12.43517,64.88548],[12.43761,64.88638],[12.4406,64.88656]],[[12.42913,64.90196],[12.43401,64.89938],[12.44226,64.89749],[12.444,64.89617],[12.44398,64.89408],[12.44815,64.89155],[12.45772,64.88946],[12.4559,64.88875],[12.45002,64.88901],[12.44854,64.88849]],[[12.38987,64.91008],[12.39304,64.90931],[12.39455,64.90775],[12.40109,64.90582],[12.40241,64.90454],[12.40888,64.90161]],[[12.03701,64.93965],[12.03754,64.93958]],[[12.39913,64.92034],[12.40313,64.91924],[12.40127,64.91833],[12.40135,64.91721],[12.40462,64.91567],[12.40761,64.91502],[12.4077,64.91442],[12.40648,64.9138],[12.40804,64.91236],[12.41264,64.91081],[12.41534,64.90906],[12.42163,64.90813],[12.42091,64.90585],[12.42913,64.90196]],[[12.35638,64.9218],[12.35652,64.92176]],[[12.35721,64.92155],[12.36054,64.92141],[12.36118,64.92185],[12.36329,64.92204],[12.37252,64.92048],[12.37989,64.91658],[12.38207,64.91363],[12.38746,64.9139],[12.38809,64.91365],[12.38922,64.91211],[12.38865,64.91071]],[[12.35532,64.93257],[12.36268,64.93034],[12.36574,64.93045],[12.36648,64.92944],[12.37252,64.92766],[12.37993,64.9272],[12.3835,64.9253],[12.39126,64.92502],[12.39324,64.9235],[12.39218,64.92266],[12.39263,64.92157],[12.39618,64.92131]],[[12.03754,64.93958],[12.03827,64.93918],[12.0372,64.93789]],[[12.24928,64.93453],[12.25533,64.93394],[12.25777,64.93416],[12.25862,64.93468],[12.26443,64.93429],[12.26946,64.93471],[12.27529,64.93463],[12.27961,64.93441],[12.28137,64.93364],[12.28245,64.93391],[12.28257,64.93455],[12.28877,64.93441],[12.28946,64.93411],[12.2881,64.93349],[12.28443,64.93317],[12.28459,64.93198],[12.29006,64.9318],[12.29294,64.93077],[12.29453,64.92929],[12.30695,64.92878],[12.31252,64.92797],[12.31614,64.92819],[12.31624,64.92901],[12.31704,64.92919],[12.3192,64.92877],[12.3211,64.92725],[12.32335,64.92674],[12.33195,64.92688],[12.33364,64.92729],[12.33413,64.92791],[12.33514,64.92787],[12.33829,64.92721],[12.33751,64.92672],[12.33793,64.9264],[12.34177,64.92583],[12.34214,64.9232],[12.34565,64.92418],[12.35046,64.92426],[12.35638,64.9218]],[[12.17208,64.93455],[12.17676,64.93305],[12.18812,64.93381],[12.1954,64.93563],[12.19677,64.93533],[12.19697,64.93489],[12.19527,64.93356],[12.20127,64.93472],[12.20431,64.93365],[12.20494,64.9314],[12.20865,64.93191],[12.21072,64.93177],[12.21507,64.93292],[12.21666,64.93446],[12.2159,64.93501],[12.2135,64.93509],[12.21372,64.93558],[12.21681,64.93712],[12.21939,64.93728],[12.22115,64.93858],[12.22434,64.93825],[12.22776,64.93873],[12.22865,64.93774],[12.22993,64.9374],[12.23264,64.93798],[12.23211,64.93874],[12.22907,64.93898],[12.23013,64.94032],[12.23188,64.94056],[12.24107,64.93989],[12.24431,64.9376],[12.244,64.93575],[12.24585,64.93506],[12.24928,64.93453]],[[11.99891,64.93342],[12.00243,64.93281],[12.00677,64.93261],[12.00935,64.93334],[12.0129,64.93356],[12.01641,64.93042],[12.02072,64.92858],[12.03115,64.93259],[12.03258,64.93476],[12.03572,64.93586],[12.0372,64.93789]],[[12.19308,64.94259],[12.18786,64.94154],[12.18665,64.94034],[12.18846,64.939],[12.18602,64.93766],[12.17843,64.93691],[12.17611,64.936],[12.17233,64.93527]],[[12.30096,64.94458],[12.30167,64.94265],[12.30553,64.94138],[12.3146,64.93998],[12.31797,64.9371],[12.32229,64.9368],[12.32497,64.9374],[12.32804,64.93588],[12.33172,64.93662],[12.33395,64.93665],[12.33755,64.93451],[12.34777,64.9335],[12.34913,64.93382],[12.35532,64.93257]],[[12.03701,64.93965],[12.03419,64.94022],[12.0359,64.94273],[12.03573,64.94419],[12.03649,64.94435]],[[12.03279,64.96385],[12.0331,64.96311],[12.03445,64.96273]],[[12.2481,64.94608],[12.25449,64.94696],[12.25205,64.94754],[12.25367,64.94875],[12.2526,64.94997],[12.25307,64.95067],[12.26089,64.94888],[12.27002,64.94748],[12.28369,64.94645],[12.29893,64.94668],[12.30316,64.9458],[12.30089,64.94506],[12.30096,64.94458]],[[11.99826,64.94786],[12.00058,64.94878],[12.00234,64.94828]],[[12.18014,64.95884],[12.18438,64.95778],[12.18801,64.95471],[12.19126,64.95425],[12.19241,64.95139],[12.19117,64.95014],[12.19336,64.94995],[12.19482,64.9507],[12.19647,64.94921],[12.19799,64.94874],[12.2153,64.94584],[12.21744,64.94651],[12.22574,64.9457],[12.22677,64.94668],[12.2287,64.94705],[12.23014,64.94621],[12.23475,64.94554],[12.23821,64.94641],[12.24339,64.94574],[12.2481,64.94608]],[[12.18014,64.95884],[12.17363,64.959],[12.16868,64.96012]],[[12.14029,64.96398],[12.14243,64.96374],[12.14546,64.96268],[12.15181,64.96364],[12.15423,64.9636],[12.15627,64.96268],[12.15672,64.961],[12.16177,64.95751],[12.16537,64.95655],[12.16994,64.95605],[12.1768,64.95606],[12.1803,64.9556],[12.18285,64.95415],[12.18455,64.95021],[12.18622,64.94981],[12.18664,64.94809],[12.18967,64.94651],[12.18881,64.94523],[12.19097,64.9446],[12.19465,64.94441],[12.19308,64.94259]],[[12.03649,64.94435],[12.03895,64.94419],[12.04384,64.94482],[12.05029,64.94667],[12.05424,64.94598],[12.05684,64.94596],[12.06408,64.94812],[12.06899,64.95143],[12.06857,64.95344],[12.06682,64.95412],[12.06523,64.95413],[12.06514,64.95463],[12.07199,64.95576],[12.07452,64.95711],[12.07674,64.95744],[12.07939,64.95648],[12.08574,64.95652],[12.0901,64.95578],[12.09586,64.95569],[12.1014,64.95888],[12.10215,64.96062],[12.09761,64.96016],[12.09638,64.96074],[12.09711,64.9618],[12.10279,64.96311],[12.10443,64.96317],[12.10779,64.96237],[12.1151,64.96372],[12.11589,64.96352],[12.11486,64.96305],[12.11518,64.96273],[12.11726,64.96245],[12.11999,64.96301],[12.12887,64.96338],[12.13065,64.96383],[12.13437,64.96294],[12.13773,64.96403],[12.14029,64.96398]],[[12.08627,64.96597],[12.08487,64.96499],[12.07717,64.96387],[12.07292,64.96576],[12.07102,64.96603],[12.06926,64.96575]],[[12.02814,64.96298],[12.02637,64.9625],[12.02414,64.95994],[12.02593,64.95895],[12.02757,64.95943],[12.03119,64.95942],[12.03152,64.95741],[12.0292,64.95603],[12.02487,64.95499],[12.01634,64.94961]],[[12.02814,64.96298],[12.03279,64.96385]],[[12.1398,64.96859],[12.14346,64.96792],[12.14852,64.96807],[12.15001,64.96745],[12.16064,64.96573],[12.16339,64.96415],[12.16524,64.96152],[12.16868,64.96012]],[[12.08627,64.96597],[12.09383,64.96748],[12.09834,64.96729],[12.11743,64.97088],[12.11873,64.97038],[12.118,64.96984],[12.11947,64.96895],[12.13313,64.96932],[12.1337,64.9688],[12.13556,64.96849],[12.1398,64.96859]],[[12.03445,64.96273],[12.03871,64.96278],[12.04602,64.9643],[12.04805,64.96558],[12.05022,64.96834],[12.05238,64.96874],[12.05574,64.97134],[12.05831,64.97082],[12.06214,64.96869],[12.06074,64.96652],[12.0624,64.96473],[12.06594,64.96501],[12.06926,64.96575]],[[12.18188,64.98162],[12.18049,64.98199],[12.1785,64.98343],[12.17701,64.98324],[12.17571,64.98357],[12.17578,64.98444],[12.17878,64.98617],[12.17823,64.98711],[12.17631,64.98671],[12.17573,64.98716]],[[12.18731,65.00013],[12.1836,64.99697],[12.17991,64.99619],[12.17771,64.9947],[12.17631,64.99168],[12.17742,64.98965],[12.17573,64.98716]]]}}]}