{"type":"FeatureCollection","features":[{"type":"Feature","properties":{},"geometry":{"type":"MultiLineString","coordinates":[[[9.99522,64.0007],[9.99274,64.00143],[9.99268,64.00217],[9.99495,64.00179],[9.99522,64.0007]],[[9.8547,63.99888],[9.85486,64.00022],[9.8582,63.99918]],[[9.88452,64.00052],[9.89187,63.99927]],[[9.84501,63.99983],[9.84529,64.00028],[9.85011,64.00138],[9.85148,64.00048],[9.84892,64.00001],[9.84873,63.99914]],[[9.94851,64.01437],[9.9545,64.01533],[9.95571,64.01411],[9.95266,64.013]],[[9.88452,64.00052],[9.88366,64.00095],[9.88364,64.00189],[9.88124,64.00175],[9.87373,64.00269],[9.87235,64.00352],[9.87155,64.00519],[9.87392,64.00876],[9.87592,64.0105],[9.88107,64.01291],[9.88225,64.01286]],[[10.00047,64.01163],[9.99848,64.01203],[9.99807,64.01261],[9.99896,64.01317],[10.00139,64.01354]],[[9.95266,64.013],[9.94983,64.01129],[9.9496,64.01008],[9.95091,64.00949],[9.95073,64.00896],[9.94579,64.00621],[9.94168,64.0059],[9.94094,64.00533],[9.94124,64.00447],[9.93911,64.00434],[9.93601,64.00347],[9.9335,64.00474],[9.93108,64.00494],[9.92514,64.00241],[9.92251,64.00188],[9.91781,64.00016],[9.91638,63.99918]],[[9.86555,64.01293],[9.87304,64.01344],[9.87382,64.01289],[9.87232,64.01127],[9.87261,64.00898],[9.87058,64.00766],[9.86759,64.00681],[9.86776,64.00496],[9.86614,64.00324],[9.86399,64.00317],[9.86212,64.00382],[9.85951,64.00388],[9.85978,64.00477],[9.85779,64.0047],[9.85585,64.00517],[9.85587,64.00678],[9.8545,64.00628],[9.85228,64.0063],[9.85075,64.00474],[9.8496,64.00499],[9.84929,64.00573],[9.84673,64.00598],[9.84525,64.00863],[9.84803,64.00975],[9.84814,64.01058],[9.85187,64.01099],[9.85187,64.01173],[9.85353,64.01234],[9.85878,64.01228],[9.86369,64.01322],[9.86555,64.01293]],[[9.94512,64.01677],[9.94651,64.01524],[9.94851,64.01437]],[[9.88042,64.02284],[9.8823,64.02267],[9.88163,64.02191],[9.8828,64.02151],[9.884,64.02215],[9.88579,64.02217],[9.88713,64.02084],[9.89029,64.021],[9.89016,64.01987],[9.89255,64.01941],[9.89106,64.01773],[9.88786,64.01751],[9.8861,64.01692],[9.88293,64.01462],[9.88295,64.01314],[9.88225,64.01286]],[[9.88042,64.02284],[9.87909,64.02302],[9.8802,64.02406]],[[9.88005,64.02485],[9.88074,64.02453],[9.8802,64.02406]],[[9.92851,64.02613],[9.93384,64.02674],[9.93556,64.02591],[9.94019,64.0254],[9.94275,64.02467],[9.94364,64.01929],[9.94512,64.01677]],[[9.92851,64.02613],[9.92554,64.02662],[9.9225,64.02647],[9.92393,64.02766],[9.92532,64.02784]],[[9.18324,64.00003],[9.182,63.99975]],[[9.84278,64.02502],[9.84616,64.02191],[9.84814,64.02103],[9.85256,64.02103],[9.8554,64.02259],[9.85781,64.02321],[9.86696,64.02406],[9.87202,64.02391],[9.88005,64.02485]],[[9.92717,64.028],[9.92811,64.02753],[9.92769,64.02729],[9.92652,64.02724],[9.92532,64.02784]],[[9.92234,64.03267],[9.9262,64.03269],[9.92955,64.03222],[9.92996,64.03145],[9.92816,64.03008],[9.92972,64.02936],[9.92699,64.02861],[9.92717,64.028]],[[9.17941,63.99988],[9.17863,64.00143],[9.17867,64.00194],[9.17978,64.0019],[9.17904,64.00235],[9.17933,64.00297],[9.18118,64.00238],[9.17873,64.00372],[9.1802,64.0047],[9.18221,64.00479],[9.18808,64.00403],[9.18953,64.00337],[9.18982,64.00268],[9.19217,64.00194],[9.18811,64.00079],[9.18292,64.00068],[9.18374,64.00041],[9.18341,64.00015],[9.18269,64.00036],[9.18324,64.00003]],[[9.99233,64.03429],[9.98916,64.03434],[9.98877,64.0351],[9.9927,64.03546],[9.99351,64.03602],[9.994,64.03478],[9.99233,64.03429]],[[9.88141,64.03184],[9.88129,64.03238]],[[9.08978,64.00203],[9.09318,64.00059],[9.09317,63.99949]],[[9.08857,63.99932],[9.08891,64.00026],[9.08693,63.99973]],[[9.08439,63.99929],[9.08418,64.00036],[9.08243,64.00038],[9.08292,64.00134],[9.08472,64.00198],[9.0849,64.00176],[9.08649,64.00294],[9.08978,64.00203]],[[9.11776,63.99973],[9.11611,64.00212],[9.11626,64.00334],[9.11892,64.00455],[9.12298,64.00211],[9.12236,64.00198],[9.12129,64.00245],[9.11937,64.00234],[9.12303,64.00153],[9.12115,64.00178],[9.12383,64.00019],[9.12278,64.00035],[9.12468,63.9996]],[[9.19033,64.00663],[9.19191,64.00717],[9.19565,64.00699],[9.19591,64.00656],[9.1949,64.00594],[9.19536,64.0053],[9.19241,64.00432],[9.18973,64.00464],[9.18762,64.00552],[9.18753,64.00607],[9.18881,64.0074],[9.19068,64.00728],[9.19033,64.00663]],[[9.98067,64.03566],[9.97748,64.03549],[9.9758,64.03647],[9.97792,64.03788],[9.9802,64.03823]],[[9.15144,63.99997],[9.15212,64.00075],[9.15259,64.0006],[9.15183,64.00125],[9.15214,64.00203],[9.15363,64.00116],[9.15362,64.00039],[9.1569,63.99994]],[[9.1569,63.99994],[9.15655,64.00147],[9.1553,64.00204],[9.15649,64.00183],[9.15559,64.00217],[9.15751,64.00213],[9.15732,64.00243],[9.15941,64.00299],[9.15775,64.00477],[9.161,64.00653],[9.16435,64.00708],[9.16538,64.00784]],[[9.90915,64.03641],[9.90939,64.03566],[9.91183,64.03566]],[[9.91183,64.03566],[9.91338,64.03626],[9.91432,64.03738],[9.91803,64.03756],[9.92238,64.03491],[9.92614,64.03449],[9.92218,64.03279]],[[10.0069,64.04179],[9.99944,64.04037],[9.98816,64.03671],[9.98199,64.03609],[9.98067,64.03566]],[[9.16538,64.00784],[9.16619,64.00923],[9.17009,64.01058],[9.16977,64.00841],[9.17331,64.00605],[9.1725,64.00474],[9.17394,64.00465],[9.17499,64.005],[9.17708,64.00358],[9.1776,64.00059],[9.17691,63.99978]],[[9.88129,64.03238],[9.88032,64.03251],[9.87935,64.03329],[9.88137,64.03556],[9.88564,64.03715],[9.88756,64.03852]],[[9.14144,64.01171],[9.14471,64.01172],[9.14578,64.01107],[9.14421,64.00827],[9.14123,64.00736],[9.13842,64.00828],[9.13801,64.0098],[9.14144,64.01171]],[[9.84278,64.02502],[9.84141,64.02618],[9.84129,64.0274],[9.84254,64.02933],[9.84403,64.03013],[9.84621,64.03412],[9.84437,64.03385],[9.84391,64.03241],[9.8422,64.0321],[9.84049,64.03316],[9.84178,64.03492],[9.84581,64.0363],[9.84737,64.03526],[9.8491,64.03545],[9.84921,64.0361],[9.85367,64.03867],[9.85756,64.03833],[9.86077,64.03903],[9.86638,64.03843],[9.86999,64.03529],[9.87433,64.0353],[9.87715,64.03441],[9.87846,64.0335]],[[9.88694,64.03875],[9.88475,64.03862],[9.88319,64.03913],[9.88514,64.04069],[9.88681,64.04011],[9.88694,64.03875]],[[9.92152,64.03851],[9.91973,64.03809],[9.91385,64.03997],[9.91732,64.0419],[9.91895,64.04153],[9.91883,64.04047],[9.92143,64.03962],[9.92152,64.03851]],[[9.94323,64.04135],[9.94219,64.04098],[9.93881,64.04181],[9.9386,64.04353],[9.93964,64.04365],[9.94323,64.04135]],[[9.8498,64.03846],[9.84868,64.03796],[9.84667,64.03799],[9.8454,64.03906],[9.85077,64.04079],[9.85326,64.03998],[9.85323,64.03937],[9.8498,64.03846]],[[9.97996,64.03957],[9.9754,64.03975],[9.97315,64.04112],[9.96681,64.041],[9.9604,64.0419],[9.95955,64.04227],[9.95922,64.0434],[9.95674,64.04442],[9.95337,64.04443],[9.94712,64.04578],[9.94475,64.04743],[9.94417,64.04895],[9.9403,64.04934],[9.93923,64.05046],[9.93932,64.05123],[9.94036,64.05134],[9.945,64.05091]],[[9.88756,64.03852],[9.88886,64.03885],[9.88901,64.04016],[9.88798,64.04092],[9.88945,64.04205],[9.88843,64.04252],[9.88677,64.04166],[9.8853,64.04174],[9.88666,64.04335],[9.88415,64.04271],[9.88334,64.0433],[9.88578,64.04577],[9.88401,64.0464],[9.88171,64.0463],[9.881,64.04665],[9.88154,64.04736],[9.88454,64.04848],[9.8867,64.04754],[9.88912,64.04763],[9.8899,64.04873],[9.886,64.04918],[9.8885,64.05122],[9.89223,64.05108],[9.89666,64.04968],[9.89759,64.05094],[9.90143,64.05074],[9.90395,64.05018],[9.90286,64.04859],[9.90473,64.04884],[9.90694,64.04823],[9.90752,64.04745],[9.90685,64.04576],[9.90499,64.04515],[9.90476,64.04453],[9.90731,64.04302],[9.90587,64.04112],[9.90864,64.03799],[9.90915,64.03641]],[[9.86626,64.04936],[9.86478,64.04919],[9.8638,64.04952],[9.86548,64.05034],[9.86761,64.05057],[9.86759,64.04987],[9.86626,64.04936]],[[9.945,64.05091],[9.94777,64.05094],[9.95009,64.05349],[9.9496,64.0552],[9.94697,64.0559],[9.94738,64.05657],[9.94647,64.05698]],[[9.92656,64.05919],[9.92517,64.05953],[9.92489,64.06016],[9.92708,64.06145],[9.92827,64.06093],[9.92656,64.05919]],[[9.20142,64.03465],[9.20173,64.03405],[9.20591,64.03278],[9.20563,64.03307],[9.20831,64.03338],[9.20745,64.03344],[9.21027,64.03342],[9.21026,64.03406],[9.21218,64.03472],[9.21565,64.03482],[9.21491,64.03366],[9.21157,64.03263],[9.20926,64.03108],[9.20798,64.03115],[9.20642,64.0308],[9.20658,64.03051],[9.20531,64.03048],[9.20446,64.03105],[9.20452,64.03046],[9.20188,64.03134],[9.20219,64.03031],[9.20101,64.03046],[9.20055,64.03018],[9.19986,64.03068],[9.20081,64.03091],[9.19933,64.03118],[9.19924,64.03153],[9.1985,64.0311],[9.19718,64.03162],[9.19589,64.03362],[9.19609,64.03448],[9.19786,64.03558],[9.20031,64.03561],[9.20142,64.03465]],[[9.18338,64.03552],[9.1829,64.03495],[9.18513,64.03468],[9.18585,64.03409],[9.18507,64.03375],[9.18271,64.03374],[9.18262,64.03323],[9.18489,64.03225],[9.18631,64.03285],[9.18759,64.03238],[9.1875,64.03038],[9.18664,64.0303],[9.18752,64.03015],[9.18757,64.02966],[9.18684,64.02956],[9.1846,64.03125],[9.18477,64.03202],[9.18214,64.02968],[9.18325,64.02765],[9.18105,64.02618],[9.18029,64.02689],[9.17832,64.02688],[9.1771,64.02729],[9.17744,64.02865],[9.18059,64.03079],[9.18101,64.03189],[9.17949,64.031],[9.17756,64.03127],[9.17673,64.03203],[9.17614,64.031],[9.17512,64.03097],[9.1748,64.03146],[9.1741,64.03111],[9.17238,64.03114],[9.17172,64.032],[9.1735,64.03415],[9.18002,64.03554],[9.17927,64.03648],[9.1827,64.03615],[9.18338,64.03552]],[[9.93353,64.06484],[9.9321,64.06466],[9.93041,64.0653],[9.93017,64.06594],[9.93165,64.06667],[9.93433,64.06604],[9.93353,64.06484]],[[9.16012,64.03296],[9.15737,64.03158],[9.1557,64.03384],[9.15328,64.03434],[9.1526,64.03408],[9.15206,64.03475],[9.14936,64.03548],[9.15047,64.03617],[9.15177,64.03647],[9.15237,64.03623],[9.15299,64.03675],[9.15493,64.03682],[9.15622,64.03626],[9.15518,64.03847],[9.15702,64.03967],[9.15785,64.03959],[9.15798,64.03911],[9.15879,64.03929]],[[9.14211,64.03871],[9.14426,64.03787],[9.14355,64.03798],[9.14438,64.03713],[9.14082,64.03363],[9.13985,64.03421],[9.13931,64.03408],[9.14024,64.03322],[9.13782,64.03242],[9.1373,64.03306],[9.13817,64.03366],[9.13751,64.03377],[9.13884,64.03611],[9.13752,64.03577],[9.13659,64.03622],[9.13757,64.03439],[9.13688,64.03317],[9.13591,64.03312],[9.13142,64.0343],[9.13121,64.03482],[9.13226,64.03559],[9.13196,64.0368],[9.13366,64.03808],[9.13553,64.03703],[9.13631,64.03708],[9.13587,64.03674],[9.13665,64.03678],[9.13646,64.03734],[9.13733,64.03767],[9.13904,64.03643],[9.14045,64.03803],[9.14019,64.03858],[9.1394,64.03831],[9.13906,64.03882],[9.14112,64.03932],[9.14211,64.03871]],[[9.19608,64.04556],[9.19628,64.04515],[9.19447,64.04388],[9.1939,64.04411],[9.19372,64.0435],[9.19294,64.0436],[9.19171,64.04539]],[[9.12778,64.03994],[9.12769,64.03919],[9.12841,64.03964],[9.12921,64.0392],[9.13,64.03748],[9.12935,64.0372],[9.12844,64.03766],[9.12894,64.03683],[9.1274,64.03625],[9.12669,64.03682],[9.12665,64.03597],[9.12472,64.03568],[9.12369,64.03625],[9.12277,64.0343],[9.12037,64.03439],[9.12007,64.03502],[9.12168,64.03576],[9.12131,64.03661],[9.12255,64.03789],[9.1249,64.0385],[9.12564,64.03825],[9.1269,64.03984],[9.12603,64.03975],[9.12704,64.04014],[9.12778,64.03994]],[[9.15879,64.03929],[9.15966,64.04135],[9.16135,64.04208],[9.1622,64.04148],[9.16291,64.04187],[9.16492,64.04152],[9.16466,64.04178],[9.16702,64.0427],[9.17115,64.04194],[9.17176,64.04118],[9.17207,64.04184],[9.17274,64.04166],[9.17269,64.04045],[9.16957,64.03858],[9.16793,64.0368],[9.16549,64.03596],[9.16269,64.03379],[9.16012,64.03296]],[[9.97306,64.07781],[9.9763,64.07844],[9.97794,64.07939],[9.97882,64.08075],[9.98089,64.08076],[9.98344,64.0822],[9.98725,64.08233],[10.00187,64.07557]],[[9.94484,64.07359],[9.94417,64.07259],[9.94103,64.07259],[9.94174,64.07139],[9.9403,64.07118],[9.93687,64.0687],[9.93526,64.06842],[9.93452,64.06751],[9.93564,64.06712],[9.9397,64.06774],[9.94037,64.06846],[9.94192,64.06799],[9.94057,64.06672],[9.93723,64.06542],[9.93663,64.06449],[9.93414,64.0634],[9.93221,64.06147],[9.93219,64.06069],[9.93363,64.0579],[9.9353,64.05739],[9.9389,64.05695],[9.94307,64.05787],[9.94452,64.05733],[9.94311,64.05647],[9.94458,64.05643],[9.94487,64.0571],[9.94647,64.05698]],[[9.94484,64.07359],[9.94768,64.07425],[9.94899,64.07399],[9.94998,64.07422],[9.95035,64.07609],[9.95422,64.07719],[9.95746,64.07703],[9.95894,64.07648],[9.96309,64.0768],[9.96447,64.07805],[9.96703,64.07879],[9.97306,64.07781]],[[9.19171,64.04539],[9.19282,64.04635],[9.19566,64.04713],[9.19387,64.04771],[9.19181,64.0469],[9.18955,64.0467],[9.18884,64.04743],[9.1912,64.0486],[9.19246,64.0484],[9.19198,64.04897],[9.19354,64.04993],[9.19596,64.05039],[9.19814,64.0493],[9.19901,64.04826],[9.19819,64.04774],[9.19694,64.04782],[9.19604,64.04704],[9.19608,64.04556]],[[9.84899,64.08398],[9.84739,64.08394],[9.84739,64.0842],[9.84974,64.08537],[9.85124,64.0854],[9.84899,64.08398]],[[9.85739,64.08491],[9.85587,64.08471],[9.85377,64.08554],[9.85569,64.0865],[9.85684,64.08648],[9.85759,64.08593],[9.85739,64.08491]],[[9.86266,64.08677],[9.86159,64.08662],[9.86037,64.08711],[9.8602,64.08754],[9.862,64.0882],[9.86309,64.087],[9.86266,64.08677]],[[9.86827,64.08883],[9.86473,64.08764],[9.86335,64.08779],[9.86275,64.08832],[9.86457,64.08987],[9.86787,64.09101]],[[9.86787,64.09101],[9.8725,64.09224],[9.87401,64.09214],[9.87436,64.09095],[9.86827,64.08883]],[[9.86744,64.09332],[9.86225,64.09288],[9.86113,64.09383],[9.86316,64.09412],[9.86466,64.09502],[9.86443,64.09534],[9.86277,64.09528],[9.86299,64.09601],[9.8669,64.09623]],[[9.8669,64.09623],[9.86847,64.09638],[9.86869,64.09709],[9.8701,64.09772],[9.87248,64.09705],[9.87335,64.09545],[9.87191,64.09435],[9.86921,64.09346],[9.86744,64.09332]],[[9.11489,64.07189],[9.11811,64.07078],[9.11781,64.06979],[9.11583,64.06954],[9.11613,64.07069],[9.11489,64.07048],[9.11432,64.06938],[9.11301,64.06894],[9.1119,64.06902],[9.11219,64.06866],[9.11018,64.06811],[9.10848,64.0681],[9.1083,64.06744],[9.10732,64.06736],[9.1068,64.06791],[9.10734,64.06817],[9.10626,64.0688],[9.10743,64.0689],[9.10712,64.06938],[9.11218,64.07023],[9.11288,64.07151],[9.11402,64.07082],[9.11405,64.07157],[9.11325,64.07144],[9.11302,64.07171],[9.11489,64.07189]],[[9.88231,64.10241],[9.88059,64.10229],[9.8792,64.10265],[9.87857,64.1031],[9.87906,64.10357],[9.88184,64.10347],[9.88231,64.10241]],[[9.16365,64.07732],[9.16406,64.0758],[9.16256,64.07501],[9.16175,64.07514],[9.16176,64.07454],[9.15944,64.07407],[9.15829,64.07318],[9.15687,64.07319],[9.15528,64.07384],[9.15492,64.07491],[9.15355,64.07406],[9.15268,64.07423],[9.15202,64.07518],[9.15281,64.07587],[9.15343,64.0758],[9.15271,64.07485],[9.15528,64.07572],[9.15744,64.0751],[9.15568,64.07582],[9.15753,64.07712],[9.15853,64.07709],[9.15997,64.07769],[9.16365,64.07732]],[[9.89389,64.1073],[9.89529,64.10771],[9.89713,64.10674],[9.89745,64.10554],[9.89949,64.10385],[9.89839,64.10304],[9.89332,64.10248],[9.88678,64.10267],[9.88485,64.10329],[9.88469,64.10529],[9.89106,64.10685],[9.89233,64.10797],[9.89389,64.1073]],[[9.96713,64.1106],[9.95785,64.11005],[9.9558,64.11155],[9.95625,64.11313],[9.95808,64.11358],[9.95937,64.11496],[9.96373,64.11671],[9.96611,64.11621]],[[9.95588,64.11482],[9.95382,64.1149],[9.95284,64.11588],[9.95457,64.11647],[9.95701,64.11669],[9.95717,64.11556],[9.95588,64.11482]],[[9.96611,64.11621],[9.96731,64.11595],[9.96674,64.11698],[9.96744,64.11787],[9.96936,64.11789],[9.97106,64.11414],[9.96825,64.11245],[9.96797,64.11095],[9.96713,64.1106]],[[9.9598,64.12012],[9.95899,64.1198],[9.95536,64.12004],[9.95922,64.12099],[9.95997,64.12068],[9.9598,64.12012]],[[9.99356,64.16523],[9.99242,64.16554],[9.99483,64.16834],[9.99558,64.16815],[9.99648,64.16661],[9.99473,64.16527]],[[9.41338,64.17722],[9.41434,64.1767],[9.41414,64.17597],[9.41133,64.17501],[9.41044,64.17535],[9.41073,64.17479],[9.41236,64.17488],[9.4108,64.1733],[9.40997,64.1738],[9.4104,64.17326],[9.40973,64.17293],[9.40936,64.17367],[9.41045,64.17471],[9.41009,64.17506],[9.40829,64.17468],[9.40696,64.17808],[9.41268,64.17813],[9.41338,64.17722]],[[9.42333,64.17867],[9.42418,64.17775],[9.42403,64.1785],[9.42676,64.17841],[9.42848,64.17683],[9.42565,64.17651],[9.42514,64.17735],[9.42403,64.17762],[9.42439,64.17674],[9.42295,64.17551],[9.41876,64.17518],[9.41781,64.17659],[9.4186,64.1773],[9.42018,64.17721],[9.41902,64.17809],[9.42033,64.1786],[9.42333,64.17867]],[[9.18124,63.99995],[9.18086,64.00017],[9.18156,63.99997]],[[9.92218,64.03279],[9.92234,64.03267]],[[9.97996,64.03957],[9.98031,64.03937]],[[9.87851,64.03321],[9.87954,64.03201],[9.88141,64.03184]],[[9.87851,64.03321],[9.87848,64.03342]],[[9.87846,64.0335],[9.87848,64.03342]],[[9.98031,64.03937],[9.98074,64.03835]],[[9.98074,64.03835],[9.9802,64.03823]],[[9.85762,64.04281],[9.85499,64.04295],[9.85586,64.04387],[9.85714,64.04396],[9.85828,64.04337],[9.85762,64.04281]],[[9.99473,64.16527],[9.99356,64.16523]],[[9.99141,64.16341],[9.99014,64.16312],[9.98851,64.16334],[9.98854,64.16413],[9.99001,64.16482],[9.99135,64.16483],[9.99199,64.16445],[9.99141,64.16341]]]}}]}