{"type":"FeatureCollection","features":[{"type":"Feature","properties":{},"geometry":{"type":"MultiLineString","coordinates":[[[10.92254,65.00108],[10.92,65.00099],[10.91884,65.00041],[10.91815,65.00084],[10.91881,65.00148],[10.92134,65.00208],[10.92376,65.00162],[10.92254,65.00108]],[[10.99416,65.02675],[10.99145,65.02556],[10.99217,65.02703],[10.99453,65.02737],[10.99416,65.02675]],[[10.99137,65.19716],[10.98997,65.19655],[10.98736,65.19703],[10.98845,65.19785],[10.99102,65.19779],[10.99137,65.19716]],[[10.96756,65.00777],[10.96762,65.00742]],[[10.87445,65.00177],[10.87032,65.00149],[10.86249,65.00027]],[[10.88454,65.00205],[10.88343,65.00159],[10.88191,65.00184],[10.87967,65.00038],[10.87767,64.99973]],[[10.96771,65.00679],[10.97271,65.0059],[10.97162,65.0054],[10.96794,65.00528]],[[10.87445,65.00177],[10.88138,65.00278],[10.88004,65.00382],[10.88157,65.0046],[10.88661,65.00413],[10.88809,65.00443],[10.88827,65.00403],[10.88549,65.00333],[10.88606,65.00279],[10.88454,65.00205]],[[10.87401,65.00225],[10.87117,65.002],[10.87068,65.00227],[10.87355,65.00396],[10.87798,65.00445],[10.87859,65.00295],[10.87401,65.00225]],[[10.96771,65.00679],[10.96762,65.00742]],[[10.85185,65.00247],[10.85046,65.0025],[10.84874,65.00384],[10.84957,65.00486],[10.85203,65.00445],[10.85185,65.00247]],[[10.88802,64.99939],[10.88847,65.00088],[10.88987,65.00053],[10.89175,64.99864]],[[10.89703,64.99987],[10.90304,65.00045],[10.90697,65.00039],[10.91396,65.00125],[10.91454,65.00058],[10.91394,64.99977]],[[10.85921,64.99902],[10.86249,65.00027]],[[10.85934,65.0008],[10.85656,64.99812]],[[10.85721,64.99954],[10.85677,65.00021],[10.85513,64.99981]],[[10.85513,64.99981],[10.85527,65.00044],[10.85731,65.00093],[10.85934,65.0008]],[[10.85546,65.00125],[10.85298,65.0005],[10.85228,65.00088],[10.85281,65.00117]],[[10.86171,65.0053],[10.86373,65.00479],[10.86687,65.00554],[10.86761,65.00534],[10.86714,65.0043],[10.8621,65.00279]],[[10.8621,65.00279],[10.85923,65.00213],[10.86056,65.00369],[10.86007,65.00446],[10.86071,65.00534],[10.86171,65.0053]],[[10.85281,65.00117],[10.85342,65.00127],[10.85283,65.00249],[10.85512,65.00369],[10.85256,65.00434],[10.85265,65.00543],[10.85434,65.00541],[10.85493,65.00509],[10.85713,65.00564],[10.85899,65.00566],[10.85972,65.00515],[10.8578,65.0047],[10.8568,65.00388],[10.85823,65.00334],[10.8582,65.00201],[10.85546,65.00125]],[[10.99603,65.00538],[10.99529,65.00532],[10.99507,65.00576],[10.99746,65.00682],[10.99658,65.00753],[10.99528,65.00773],[10.99538,65.00819],[11.0022,65.01121]],[[11.00298,65.00947],[10.99935,65.00674],[10.99603,65.00538]],[[10.96794,65.00528],[10.96643,65.00527],[10.96321,65.0061],[10.96407,65.00687],[10.9635,65.00714],[10.96047,65.00683],[10.95853,65.00724],[10.95799,65.00773],[10.95959,65.0085],[10.95652,65.00842],[10.95571,65.00914],[10.95602,65.01039],[10.9581,65.01034],[10.96084,65.00916],[10.96705,65.0083],[10.96756,65.00777]],[[10.95158,65.00892],[10.94719,65.00896],[10.94456,65.00985],[10.94518,65.01077],[10.95083,65.01138],[10.95522,65.01066],[10.95158,65.00892]],[[10.83653,65.00833],[10.83988,65.00826],[10.84062,65.00883],[10.84357,65.00883],[10.84643,65.00782],[10.84628,65.00709],[10.84328,65.00753],[10.84709,65.00541],[10.84578,65.00501],[10.84052,65.00479],[10.84309,65.00401],[10.84293,65.00307],[10.83996,65.00349],[10.83856,65.00313],[10.84235,65.00261],[10.84172,65.00144],[10.83786,65.00178],[10.8367,65.00228],[10.83301,65.00115],[10.83057,65.00095],[10.82366,65.00206],[10.82372,65.00243],[10.82576,65.0029],[10.82917,65.00301],[10.82797,65.00393],[10.8291,65.00538],[10.83529,65.00873],[10.83653,65.00833]],[[10.98431,65.02688],[10.98251,65.02739],[10.98388,65.02956],[10.98482,65.02968],[10.98607,65.02942],[10.98661,65.0287],[10.98431,65.02688]],[[10.93594,65.11102],[10.93472,65.11073],[10.93416,65.11121],[10.9364,65.11251],[10.93691,65.11185],[10.93594,65.11102]],[[10.96668,65.19906],[10.96494,65.19914],[10.96417,65.19992],[10.96537,65.20113],[10.97046,65.20203],[10.97587,65.2021],[10.97521,65.20118],[10.96889,65.19991],[10.96668,65.19906]],[[10.96826,65.20293],[10.96512,65.20224],[10.96298,65.20235],[10.96419,65.20364],[10.96589,65.20437],[10.96739,65.20394],[10.96826,65.20293]],[[11.00245,65.20233],[10.99856,65.19944],[10.99701,65.1994],[10.9951,65.20019],[10.99234,65.20012],[10.99177,65.19977],[10.99288,65.19878],[10.97926,65.19719],[10.97881,65.1985],[10.98187,65.20015],[10.9829,65.20012],[10.98456,65.20075],[10.98811,65.2007],[10.98982,65.20206],[10.99812,65.20365],[11.00088,65.20555]],[[10.99627,65.20557],[10.98754,65.20406],[10.98558,65.20433],[10.98656,65.20592],[10.98825,65.20567],[10.98941,65.20482],[10.9961,65.20718],[10.99828,65.20718],[10.99859,65.20626],[10.99627,65.20557]],[[10.98068,65.2089],[10.97824,65.20691],[10.97119,65.20554],[10.96842,65.20589],[10.96838,65.20631],[10.97164,65.20733],[10.97836,65.20829],[10.98166,65.21],[10.98248,65.20949],[10.98068,65.2089]],[[10.96673,65.20828],[10.96456,65.20799],[10.96944,65.21106],[10.97147,65.21101],[10.97007,65.20936],[10.96673,65.20828]],[[10.97618,65.20966],[10.9747,65.2096],[10.97405,65.21009],[10.97426,65.21082],[10.97681,65.21209],[10.97849,65.21102],[10.97618,65.20966]],[[10.94577,65.21018],[10.94425,65.21021],[10.94376,65.21069],[10.94634,65.21164],[10.94674,65.21075],[10.94577,65.21018]],[[10.98287,65.21172],[10.98005,65.21124],[10.9794,65.21143],[10.98101,65.21264],[10.98238,65.21252],[10.98287,65.21172]],[[10.95804,65.21183],[10.95653,65.21175],[10.95552,65.21239],[10.95778,65.21355],[10.9598,65.21312],[10.95804,65.21183]],[[10.96562,65.21601],[10.9615,65.21513],[10.96019,65.21526],[10.95944,65.21578],[10.96494,65.2164],[10.96562,65.21601]],[[10.95128,65.21534],[10.95015,65.21525],[10.95016,65.21566],[10.95302,65.21677],[10.95421,65.21677],[10.95427,65.21608],[10.95128,65.21534]],[[10.95844,65.21756],[10.95643,65.2174],[10.95596,65.21788],[10.95689,65.21852],[10.95952,65.21886],[10.96095,65.21828],[10.95844,65.21756]]]}}]}