{"type":"FeatureCollection","features":[{"type":"Feature","properties":{},"geometry":{"type":"MultiLineString","coordinates":[[[13.16551,65.90013],[13.16691,65.90234]],[[13.18427,65.86033],[13.18187,65.86217]],[[13.13572,65.88019],[13.13617,65.87936]],[[13.09413,65.88725],[13.09433,65.8874]],[[13.12464,65.9353],[13.12206,65.9349],[13.12163,65.9351],[13.13163,65.93641]],[[13.108,65.93908],[13.1108,65.93978],[13.11627,65.93966],[13.11795,65.94132]],[[13.12441,65.94451],[13.12102,65.94353],[13.11795,65.94132]],[[13.13358,65.94467],[13.13318,65.94462]],[[13.12441,65.94451],[13.13097,65.9454]],[[13.13097,65.9454],[13.13274,65.94538]],[[13.021,65.94546],[13.02213,65.94562]],[[13.02213,65.94562],[13.03348,65.94708],[13.03589,65.94675],[13.0427,65.94746],[13.05127,65.94759]],[[13.19157,65.85557],[13.18427,65.86033]],[[13.16123,65.85521],[13.16249,65.85404],[13.16315,65.85182],[13.16894,65.84714],[13.17222,65.84655],[13.17674,65.84398],[13.17932,65.84448]],[[13.19157,65.85557],[13.19191,65.85477],[13.19336,65.85466],[13.19352,65.85422],[13.19217,65.85229],[13.18999,65.85221],[13.19168,65.85056],[13.19068,65.85045],[13.18626,65.85228],[13.18574,65.85202],[13.18789,65.84988],[13.18627,65.84969],[13.18344,65.85104],[13.18235,65.85065],[13.18489,65.84808],[13.18365,65.84517]],[[13.18187,65.86217],[13.18195,65.86342],[13.18282,65.86368],[13.1863,65.86363],[13.18808,65.86272]],[[13.18808,65.86272],[13.18934,65.8624],[13.18937,65.86379],[13.19047,65.86436],[13.18962,65.86571],[13.18755,65.86602]],[[13.14043,65.87217],[13.14262,65.87113],[13.15087,65.86414],[13.15378,65.86286],[13.15643,65.85933],[13.16123,65.85521]],[[13.13946,65.87408],[13.14043,65.87217]],[[13.13617,65.87936],[13.13878,65.87614],[13.13946,65.87408]],[[13.13254,65.88802],[13.13309,65.88695],[13.13247,65.8851],[13.13572,65.88019]],[[13.09433,65.8874],[13.10002,65.88839],[13.10692,65.89197]],[[13.10692,65.89197],[13.10894,65.89277],[13.11903,65.8919],[13.12171,65.89316],[13.1235,65.89504],[13.12608,65.89594],[13.12802,65.8937],[13.12866,65.8913],[13.13254,65.88802]],[[13.0561,65.89878],[13.05798,65.89631],[13.06092,65.89583],[13.06338,65.89494],[13.07056,65.89041],[13.07563,65.89096],[13.08207,65.88839],[13.0863,65.88842],[13.09076,65.88806],[13.09186,65.88761]],[[13.16551,65.90013],[13.16147,65.89617],[13.15577,65.89376],[13.15536,65.89314],[13.15584,65.89087],[13.15902,65.88707],[13.15906,65.88535],[13.15771,65.8842],[13.16263,65.88117],[13.16354,65.87885],[13.16852,65.87289],[13.17466,65.87168],[13.17908,65.86942],[13.18755,65.86602]],[[13.16672,65.90276],[13.16494,65.90295],[13.16471,65.90352],[13.16979,65.90634],[13.17089,65.90762],[13.17096,65.9093],[13.16972,65.91058],[13.16741,65.91119],[13.15471,65.91228],[13.15268,65.91304],[13.14943,65.91572],[13.14699,65.91675]],[[13.14433,65.91724],[13.14699,65.91675]],[[13.13318,65.94462],[13.13106,65.94415]],[[13.13217,65.92896],[13.13415,65.92803],[13.13511,65.92678],[13.13345,65.92409],[13.13394,65.92074],[13.14031,65.91726],[13.14191,65.9169],[13.14433,65.91724]],[[13.02252,65.92578],[13.03156,65.92441],[13.03448,65.92313],[13.04409,65.92036],[13.04487,65.91922],[13.04769,65.91871],[13.04947,65.91744],[13.05071,65.91615],[13.05075,65.9129],[13.05155,65.91206],[13.05104,65.90886],[13.04967,65.90708],[13.0499,65.90574],[13.05087,65.90359],[13.05602,65.89997],[13.0561,65.89878]],[[12.99719,65.9272],[13.00129,65.92751],[13.00195,65.92698],[13.00399,65.9267],[13.01622,65.92648],[13.02252,65.92578]],[[13.13217,65.92896],[13.13102,65.93024],[13.13135,65.93109],[13.1303,65.93181]],[[13.1303,65.93181],[13.12903,65.93285]],[[13.108,65.93908],[13.10491,65.93762],[13.09837,65.93304],[13.09472,65.93243],[13.08838,65.93239],[13.08596,65.93359],[13.07829,65.93366],[13.07414,65.93426],[13.06975,65.93505],[13.06508,65.93742]],[[13.13112,65.94336],[13.13463,65.93992],[13.13299,65.93715],[13.13163,65.93641]],[[13.13112,65.94336],[13.13106,65.94415]],[[13.05127,65.94759],[13.05916,65.94457],[13.05991,65.94371]],[[13.06508,65.93742],[13.06389,65.93924],[13.06467,65.94052],[13.06659,65.94158],[13.06,65.94223],[13.05991,65.94371]],[[12.99338,65.94866],[13.00385,65.94724],[13.01131,65.94686],[13.01787,65.94547],[13.021,65.94546]]]}}]}