{"type":"FeatureCollection","features":[{"type":"Feature","properties":{},"geometry":{"type":"MultiLineString","coordinates":[[[14.12354,66.30691],[14.11137,66.30578],[14.10822,66.30352]],[[14.01763,66.30669],[14.01609,66.30702]],[[14.01609,66.30702],[14.00715,66.30922]],[[14.10805,66.30341],[14.10822,66.30352]],[[13.99908,66.31097],[14.00715,66.30922]],[[14.12881,66.31237],[14.12753,66.3131]],[[14.02386,66.98462],[14.02555,66.98542],[14.02656,66.98464]],[[14.00928,66.96387],[14.01168,66.96219]],[[14.02386,66.98462],[14.02276,66.98462]],[[14.0301,66.98466],[14.02921,66.98397],[14.02785,66.98391],[14.02646,66.98414],[14.02656,66.98464]],[[14.12881,66.31237],[14.12852,66.31007],[14.12943,66.30913]],[[14.0618,66.28975],[14.06675,66.29037],[14.07448,66.29034],[14.07845,66.29131]],[[13.99771,66.27409],[14.00405,66.27375],[14.00858,66.27396],[14.01173,66.27338],[14.01538,66.27327],[14.0261,66.27484],[14.03086,66.2759],[14.0334,66.27759],[14.03437,66.27979],[14.04236,66.28169],[14.0448,66.28421],[14.04418,66.28746],[14.04523,66.28924],[14.04799,66.2899],[14.0523,66.2892],[14.0618,66.28975]],[[14.07845,66.29131],[14.08291,66.29269],[14.08828,66.29317],[14.0974,66.29845],[14.10283,66.29993]],[[14.10283,66.29993],[14.10248,66.3015],[14.10652,66.30243],[14.10805,66.30341]],[[14.12354,66.30691],[14.12928,66.30836],[14.12943,66.30913]],[[14.03749,66.31183],[14.02934,66.30958],[14.02799,66.30875],[14.02862,66.30817],[14.02701,66.30735],[14.0229,66.30671],[14.01763,66.30669]],[[14.03749,66.31183],[14.0394,66.31272],[14.04432,66.31328],[14.04773,66.31434],[14.04946,66.31547],[14.0601,66.31783],[14.07128,66.32164],[14.08051,66.3223],[14.08942,66.32482],[14.09251,66.32511],[14.10128,66.32888]],[[14.10128,66.32888],[14.10711,66.32978]],[[14.12753,66.3131],[14.12483,66.31327],[14.12278,66.31539],[14.1233,66.31663],[14.12955,66.31738],[14.13305,66.31849],[14.13387,66.3204],[14.13299,66.32131],[14.13933,66.32555],[14.13906,66.326],[14.1424,66.32683],[14.14713,66.329],[14.14757,66.33082]],[[14.14757,66.33082],[14.14502,66.33278],[14.1414,66.33417],[14.13766,66.33504],[14.14099,66.33631]],[[14.10711,66.32978],[14.11937,66.33126],[14.12164,66.33214],[14.12199,66.33256],[14.11908,66.33325],[14.11781,66.33417],[14.11814,66.33569],[14.11921,66.33636],[14.11882,66.33694],[14.12096,66.33786],[14.12113,66.3389],[14.1223,66.33965],[14.12652,66.34036],[14.13065,66.34055],[14.13434,66.34006],[14.1398,66.34028],[14.14154,66.33946]],[[13.99544,66.80078],[14.00097,66.79774],[13.99936,66.7968]],[[14.00356,66.97453],[14.00309,66.97486],[14.00172,66.97461],[14.00119,66.9739]],[[14.00928,66.96387],[14.00849,66.96587],[14.00529,66.96517],[14.00448,66.9653],[14.00614,66.96695],[14.00432,66.96848],[14.0024,66.96806],[14.00208,66.96921],[14.00083,66.97],[14.00119,66.9739]],[[14.01297,66.97782],[14.01225,66.97798],[14.0082,66.97701],[14.00794,66.97453],[14.0055,66.97261],[14.00356,66.97453]],[[14.15107,66.98067],[14.14738,66.97917],[14.14908,66.9777]],[[14.01473,66.97933],[14.01881,66.98209],[14.01862,66.98109],[14.02137,66.98118],[14.02143,66.98041],[14.01823,66.97926],[14.0167,66.97756],[14.0125,66.97662],[14.01227,66.9753],[14.01096,66.97475],[14.01064,66.97564],[14.01297,66.97782]],[[14.00882,66.98453],[14.00929,66.98301],[14.0128,66.9841],[14.01353,66.98394],[14.00923,66.98177],[14.00625,66.98182],[14.00472,66.98139],[14.00351,66.9824],[14.00188,66.98271],[13.99871,66.98147]],[[14.01581,66.98457],[14.0155,66.983],[14.01334,66.98164],[14.01461,66.98085],[14.01413,66.97947],[14.01473,66.97933]],[[14.03757,66.98471],[14.03793,66.98375],[14.03516,66.98233],[14.03423,66.98061],[14.03247,66.97968],[14.02897,66.97872],[14.02801,66.97898],[14.02661,66.97879],[14.01952,66.97687],[14.01594,66.97501],[14.01509,66.97397],[14.01651,66.97239],[14.01471,66.97066],[14.01499,66.96848],[14.01401,66.96727],[14.01565,66.96416],[14.01364,66.96214],[14.01268,66.96185],[14.01168,66.96219]],[[14.15343,66.98537],[14.1535,66.98503],[14.15481,66.985],[14.15523,66.98409],[14.15345,66.982],[14.15107,66.98067]],[[14.163,66.98542],[14.15672,66.97947],[14.1524,66.97939],[14.15132,66.97897],[14.15138,66.97821],[14.15259,66.97772]],[[14.0301,66.98466],[14.03389,66.98644],[14.03519,66.98624],[14.03841,66.98696],[14.03876,66.98586],[14.03757,66.98471]],[[14.00882,66.98453],[14.00848,66.98549],[14.00949,66.98644],[14.01379,66.9882],[14.0159,66.98755],[14.01486,66.98565],[14.01581,66.98457]],[[14.05656,66.98869],[14.05928,66.98953],[14.06217,66.99124]],[[14.16198,66.9922],[14.15677,66.98915],[14.15343,66.98537]],[[14.02276,66.98462],[14.02278,66.98589],[14.02734,66.98808],[14.02772,66.98885],[14.02939,66.9895],[14.03246,66.98973],[14.03373,66.99029],[14.03692,66.99072],[14.03952,66.99233],[14.04081,66.99205],[14.04095,66.99132],[14.03859,66.99084],[14.03772,66.99023],[14.03907,66.98949],[14.03811,66.9882],[14.03927,66.98767],[14.04123,66.98787],[14.04382,66.98906],[14.04869,66.98841],[14.05244,66.98864],[14.05511,66.98839],[14.05656,66.98869]],[[14.163,66.98542],[14.16586,66.98817],[14.17667,66.99507],[14.17961,66.99853],[14.18345,66.99966],[14.1844,66.99954],[14.18434,66.99877],[14.18631,66.997],[14.18483,66.99508],[14.18293,66.99454],[14.18258,66.99396],[14.18404,66.99406],[14.18722,66.99522],[14.19061,66.99532],[14.19414,66.99381],[14.19749,66.99344]],[[14.16944,67.00119],[14.16568,66.99931],[14.16712,66.99578],[14.16529,66.99433],[14.165,66.99311],[14.1636,66.9923],[14.16198,66.9922]],[[14.14055,67.0006],[14.13957,66.99912],[14.14056,66.99561],[14.14098,66.99513],[14.14313,66.99488],[14.14723,66.99668],[14.14839,66.99847],[14.15152,67.00063]],[[14.04772,67.00058],[14.05315,66.99824],[14.05638,66.99577],[14.05948,66.9949],[14.06199,66.99216]],[[14.24126,67.00056],[14.23871,66.99962],[14.23771,66.99814],[14.2324,66.99689],[14.23053,66.99596],[14.22099,66.99304],[14.21722,66.99242],[14.21082,66.99283],[14.20537,66.99231],[14.19749,66.99344]]]}}]}