{"type":"FeatureCollection","features":[{"type":"Feature","properties":{},"geometry":{"type":"MultiLineString","coordinates":[[[11.69161,66.0171],[11.69406,66.0172],[11.6949,66.01651],[11.69197,66.01433]],[[11.76887,66.02837],[11.76753,66.02788],[11.76832,66.02978],[11.7696,66.03006],[11.76887,66.02837]],[[11.87424,66.04493],[11.87278,66.04485],[11.87308,66.04595],[11.87561,66.04639],[11.87602,66.04613],[11.87424,66.04493]],[[11.77699,66.04724],[11.77486,66.04749],[11.77632,66.04822],[11.77842,66.04833],[11.77823,66.04763],[11.77699,66.04724]],[[11.90692,66.06159],[11.90695,66.06131]],[[11.95005,66.1211],[11.94804,66.12086],[11.94814,66.12164],[11.95033,66.12225],[11.95091,66.12164],[11.95005,66.1211]],[[12.00166,66.05035],[11.99879,66.04965],[11.9981,66.04994],[11.99915,66.05069],[12.00242,66.05158]],[[11.80752,66.03641],[11.80524,66.03574],[11.80343,66.03605],[11.80675,66.03931],[11.80847,66.03961],[11.80927,66.03905],[11.80898,66.03743],[11.80752,66.03641]],[[11.69197,66.01433],[11.69002,66.01309],[11.68727,66.01218],[11.6845,66.01251],[11.68273,66.01189],[11.6814,66.01227],[11.68129,66.01281],[11.68663,66.01472],[11.68141,66.01369],[11.67983,66.01464],[11.6807,66.01528],[11.686,66.01583],[11.69161,66.0171]],[[11.9536,66.02773],[11.95027,66.02682],[11.95129,66.02824],[11.95341,66.02895],[11.95404,66.02875],[11.9536,66.02773]],[[11.77556,66.02462],[11.77466,66.02442],[11.77347,66.02468],[11.77524,66.02637],[11.77703,66.02604],[11.77556,66.02462]],[[11.98616,66.02734],[11.985,66.02709],[11.98488,66.02758],[11.99012,66.03075],[11.99327,66.03146],[11.99484,66.03128],[11.99216,66.02946],[11.98616,66.02734]],[[11.96591,66.02949],[11.96518,66.02995],[11.96639,66.03033],[11.96764,66.03186],[11.96953,66.03312],[11.97166,66.03376],[11.97076,66.03258],[11.96862,66.03173],[11.96838,66.0307],[11.96591,66.02949]],[[11.79125,66.02912],[11.7897,66.02832],[11.79042,66.02646],[11.78919,66.02605],[11.7899,66.0246],[11.78884,66.0241],[11.78366,66.02375],[11.78222,66.02674],[11.78298,66.02858],[11.78557,66.03002],[11.78769,66.0289],[11.78858,66.03043],[11.79498,66.03268],[11.79635,66.03193],[11.79533,66.03018],[11.79307,66.02927],[11.79125,66.02912]],[[11.75921,66.02922],[11.7581,66.02893],[11.75742,66.02946],[11.7596,66.03174],[11.76028,66.02982],[11.75921,66.02922]],[[11.98691,66.04569],[11.98237,66.04272],[11.97969,66.04243],[11.97895,66.04273],[11.97722,66.04189],[11.97637,66.04193],[11.97664,66.04293],[11.98001,66.04401],[11.98202,66.04395],[11.98217,66.04537],[11.98643,66.04595],[11.98691,66.04569]],[[11.98705,66.03236],[11.98536,66.03185],[11.98673,66.03141],[11.98323,66.03046],[11.98196,66.03046],[11.98465,66.03154],[11.98335,66.03196],[11.98665,66.03354],[11.99644,66.03666],[11.9982,66.03677],[11.99747,66.03519],[11.99094,66.033],[11.98705,66.03236]],[[11.8002,66.03119],[11.79914,66.03276],[11.79993,66.03336]],[[11.99781,66.03309],[11.99747,66.03277],[11.99644,66.03303],[11.99326,66.03154],[11.99238,66.03181],[11.99283,66.03252],[11.9974,66.03383],[11.9994,66.0356],[12.00217,66.03661]],[[12.00616,66.03679],[11.99781,66.03309]],[[11.98267,66.03443],[11.97746,66.03328],[11.9768,66.03349],[11.98234,66.03566],[11.98698,66.03809],[11.98839,66.03826],[11.98673,66.03636],[11.9872,66.03596],[11.98267,66.03443]],[[11.79993,66.03336],[11.80353,66.03447],[11.80523,66.03444],[11.80307,66.03128],[11.8002,66.03119]],[[11.97492,66.03601],[11.97313,66.03608],[11.9736,66.03683],[11.97847,66.03827],[11.97724,66.03676],[11.97492,66.03601]],[[11.8142,66.03405],[11.81078,66.03325],[11.80969,66.03341],[11.80913,66.03405],[11.81094,66.03619],[11.81629,66.03665],[11.81583,66.03455],[11.8142,66.03405]],[[11.70592,66.03031],[11.70205,66.0311],[11.70208,66.03158],[11.70573,66.03345],[11.71037,66.03509],[11.71135,66.0339],[11.70803,66.03118],[11.70592,66.03031]],[[11.79965,66.03556],[11.79861,66.03604],[11.79947,66.03702]],[[11.98693,66.03876],[11.97997,66.03559],[11.97878,66.03549],[11.97894,66.03622],[11.98342,66.03837],[11.98179,66.03852],[11.98209,66.03894],[11.98966,66.04194],[11.98684,66.03954],[11.98693,66.03876]],[[11.79947,66.03702],[11.80067,66.03823],[11.80183,66.03827],[11.80219,66.03762],[11.79965,66.03556]],[[11.99633,66.04604],[11.99428,66.04572],[11.99373,66.04595],[11.99652,66.04705],[11.99766,66.04846],[12.00257,66.04985]],[[12.00246,66.04835],[11.99633,66.04604]],[[11.93613,66.05015],[11.93484,66.05007],[11.93657,66.05152],[11.94096,66.05322],[11.94088,66.05259],[11.93613,66.05015]],[[11.83998,66.04597],[11.83893,66.04599],[11.83905,66.04663],[11.84183,66.04825],[11.84298,66.04843],[11.83998,66.04597]],[[12.00053,66.03843],[11.99919,66.03875],[11.99385,66.03661],[11.99019,66.0362],[11.98998,66.03666],[11.99266,66.03788],[11.99113,66.03806],[11.99118,66.03883],[11.99229,66.03972],[11.99562,66.04083],[11.99375,66.04102],[11.99439,66.04254],[11.99912,66.04393],[12.00031,66.0454]],[[11.87947,66.04876],[11.87761,66.04775],[11.87459,66.04717],[11.87362,66.04733],[11.87312,66.04801],[11.87415,66.04884],[11.87561,66.04864],[11.87729,66.0495],[11.87913,66.04959],[11.88005,66.04927],[11.87947,66.04876]],[[11.88837,66.05177],[11.8872,66.05167],[11.88704,66.05246],[11.89201,66.05368],[11.89121,66.05283],[11.88837,66.05177]],[[11.99363,66.05864],[11.99242,66.05807],[11.99124,66.05843],[11.99313,66.06003],[11.99564,66.06026],[11.99363,66.05864]],[[11.94171,66.05541],[11.93953,66.05465],[11.93854,66.05505],[11.939,66.05614],[11.94191,66.05699],[11.94247,66.05625],[11.94171,66.05541]],[[11.90764,66.05568],[11.90576,66.05438],[11.90346,66.05439],[11.90528,66.05672],[11.90743,66.05738]],[[11.90743,66.05738],[11.90822,66.05696],[11.90764,66.05568]],[[11.84302,66.05414],[11.84121,66.05419],[11.84212,66.05502],[11.84607,66.05615],[11.8459,66.0556],[11.84302,66.05414]],[[11.90403,66.05947],[11.90174,66.05824],[11.8988,66.05783],[11.89746,66.05933]],[[11.89585,66.0593],[11.89317,66.0566],[11.89447,66.05573],[11.89158,66.0549],[11.88955,66.05552],[11.8892,66.05711],[11.89316,66.05925]],[[11.94915,66.06037],[11.94755,66.0568],[11.94579,66.05554],[11.94372,66.05493],[11.94355,66.05776],[11.94644,66.06031]],[[11.89316,66.05925],[11.89552,66.05971],[11.89585,66.0593]],[[11.94644,66.06031],[11.949,66.0613],[11.94915,66.06037]],[[11.90403,66.05947],[11.90695,66.06131]],[[11.89746,66.05933],[11.90097,66.06128],[11.90433,66.06159],[11.90458,66.06129],[11.90303,66.06063],[11.90357,66.06052],[11.90611,66.06162],[11.90692,66.06159]],[[11.94458,66.06701],[11.94429,66.06521],[11.94001,66.06444],[11.94108,66.06572],[11.94356,66.06674],[11.9419,66.06694],[11.94234,66.06742],[11.94443,66.0679],[11.94458,66.06701]],[[11.99429,66.12685],[11.99308,66.12676],[11.99243,66.12726],[11.99528,66.12881],[11.99429,66.12685]],[[11.93283,66.12288],[11.93089,66.12295],[11.93048,66.12381],[11.93269,66.12603],[11.93781,66.1276],[11.94048,66.12793],[11.94056,66.127],[11.93511,66.12532],[11.93283,66.12288]],[[11.93654,66.12324],[11.9351,66.1229],[11.93483,66.12377],[11.93759,66.12522],[11.93654,66.12324]],[[11.98786,66.12633],[11.98634,66.12651],[11.98661,66.12725],[11.98799,66.12801],[11.99044,66.12839],[11.98786,66.12633]],[[11.97923,66.12834],[11.97643,66.12692],[11.97502,66.12672],[11.97564,66.12798],[11.98013,66.12933],[11.97923,66.12834]],[[11.95475,66.12713],[11.9528,66.12698],[11.95489,66.12828],[11.95704,66.12892],[11.95475,66.12713]],[[11.95942,66.12995],[11.95668,66.12961],[11.96153,66.13248],[11.9633,66.13252],[11.95942,66.12995]],[[11.97496,66.12896],[11.97291,66.12834],[11.97332,66.12939],[11.97689,66.13064],[11.97782,66.12986],[11.97496,66.12896]],[[11.94354,66.13043],[11.94061,66.12932],[11.93961,66.13016],[11.9374,66.12864],[11.93644,66.12862],[11.93855,66.13093],[11.94014,66.13107],[11.94048,66.13029],[11.94485,66.13193],[11.94512,66.13137],[11.94354,66.13043]],[[11.94722,66.13187],[11.94618,66.13181],[11.94607,66.13214],[11.94675,66.13372],[11.94882,66.13472],[11.94907,66.13372],[11.94722,66.13187]],[[11.7397,66.14836],[11.7358,66.14841],[11.73549,66.14879],[11.73756,66.15061],[11.73986,66.15099],[11.74086,66.15041],[11.74099,66.14901],[11.7397,66.14836]],[[11.95474,66.46457],[11.949,66.46179],[11.94707,66.46153],[11.94667,66.46186],[11.94876,66.46445]],[[11.94876,66.46445],[11.94937,66.46506],[11.95368,66.46656],[11.95625,66.46674],[11.95474,66.46457]],[[12.00052,66.50545],[11.99981,66.50613],[12.00223,66.507]]]}}]}