{"type":"FeatureCollection","features":[{"type":"Feature","properties":{},"geometry":{"type":"MultiLineString","coordinates":[[[16.41929,67.83566],[16.42184,67.8336]],[[16.27348,67.9748],[16.27307,67.97551]],[[16.37769,67.87883],[16.37015,67.88043]],[[16.42695,67.92327],[16.43044,67.92046]],[[16.42631,67.92388],[16.42695,67.92327]],[[16.46673,67.9676],[16.47081,67.96721]],[[16.46673,67.9676],[16.46498,67.96779]],[[16.45277,67.83333],[16.45172,67.83425],[16.43932,67.83683],[16.43692,67.83829],[16.43571,67.84067]],[[16.40405,67.84238],[16.40999,67.83919],[16.41929,67.83566]],[[16.43575,67.84368],[16.43571,67.84067]],[[16.48817,67.8137],[16.49032,67.81298]],[[16.51325,67.81634],[16.5171,67.81579]],[[16.49032,67.81298],[16.49224,67.81275],[16.49375,67.81404],[16.49911,67.81633],[16.5091,67.81674]],[[16.49828,67.82384],[16.50938,67.8218],[16.51125,67.82115],[16.51858,67.81741],[16.5171,67.81579]],[[16.49828,67.82384],[16.48863,67.82546],[16.47528,67.82666],[16.4666,67.82874]],[[16.45952,67.83064],[16.4666,67.82874]],[[16.42499,67.83142],[16.43177,67.83071],[16.43703,67.82918],[16.44815,67.82417],[16.45307,67.82264],[16.455,67.82133],[16.47572,67.81816],[16.48508,67.81569],[16.48817,67.8137]],[[16.42184,67.8336],[16.42346,67.83175],[16.42499,67.83142]],[[16.45277,67.83333],[16.45505,67.83206],[16.45952,67.83064]],[[16.42686,67.86204],[16.43847,67.86017],[16.4486,67.86],[16.45822,67.86042],[16.46541,67.85942],[16.4673,67.85754],[16.46649,67.85622],[16.46384,67.85607],[16.45769,67.85485],[16.45531,67.85295],[16.43575,67.84368]],[[16.35044,67.86595],[16.35523,67.86371],[16.35944,67.86058],[16.3635,67.85899],[16.36786,67.85647],[16.37335,67.85125],[16.37655,67.84946],[16.38484,67.84706],[16.39922,67.84513],[16.40405,67.84238]],[[16.33669,67.86689],[16.34446,67.86685],[16.34817,67.86656],[16.35044,67.86595]],[[16.30851,67.8722],[16.3101,67.87111],[16.30969,67.86946],[16.31831,67.86736],[16.32349,67.86789],[16.33395,67.86681],[16.33669,67.86689]],[[16.29132,67.87953],[16.29371,67.87836],[16.29612,67.87787],[16.29826,67.87546],[16.30851,67.8722]],[[16.37769,67.87883],[16.38982,67.87578],[16.3946,67.87356],[16.40707,67.87044],[16.40716,67.86927],[16.4041,67.86754],[16.40486,67.86668],[16.42686,67.86204]],[[16.35221,67.88273],[16.35823,67.88165],[16.3627,67.88171],[16.367,67.88117],[16.37015,67.88043]],[[16.30942,67.88855],[16.31402,67.88828],[16.31675,67.88766],[16.32254,67.88739],[16.32684,67.88646],[16.33883,67.8856],[16.34076,67.88444],[16.34307,67.88381],[16.35221,67.88273]],[[16.2194,67.88965],[16.22541,67.89001],[16.23068,67.88939],[16.2363,67.89052],[16.23952,67.89067],[16.24807,67.89335],[16.25759,67.89449],[16.25846,67.89499],[16.26536,67.89419],[16.27079,67.89263],[16.27414,67.89062],[16.27554,67.88797],[16.28137,67.88274],[16.2847,67.88275],[16.2903,67.88173],[16.29132,67.87953]],[[16.20775,67.8954],[16.20889,67.89448],[16.21117,67.8946],[16.21431,67.8937],[16.21523,67.89048],[16.2172,67.88964],[16.2194,67.88965]],[[16.20606,67.92504],[16.20447,67.92304],[16.2071,67.92074],[16.20594,67.91985],[16.20578,67.91803],[16.20666,67.91513],[16.20341,67.91506],[16.20221,67.9147],[16.20131,67.91355],[16.199,67.91265],[16.19611,67.91061],[16.19468,67.90852],[16.19779,67.9036],[16.20021,67.90266],[16.20039,67.90128],[16.20242,67.8998],[16.20312,67.89813],[16.20775,67.8954]],[[16.25197,67.92469],[16.25136,67.92079],[16.25336,67.91536],[16.25248,67.91232],[16.25171,67.91129],[16.24593,67.90927],[16.24251,67.90726],[16.24027,67.90506],[16.23801,67.90421],[16.23823,67.90324],[16.23951,67.90272],[16.24307,67.90256],[16.25003,67.90326],[16.25661,67.90438],[16.26541,67.90361],[16.27173,67.90156],[16.2754,67.90096],[16.27809,67.89941],[16.27816,67.89866],[16.28066,67.89789],[16.28254,67.89767],[16.28461,67.89792],[16.28731,67.89737],[16.28861,67.89619],[16.28647,67.89519],[16.28734,67.89451],[16.29266,67.89327],[16.29484,67.89037],[16.29945,67.88976],[16.30354,67.88872],[16.30942,67.88855]],[[16.4487,67.92308],[16.46327,67.91853],[16.46161,67.917],[16.46205,67.91572],[16.45993,67.91472],[16.44371,67.91686],[16.43044,67.92046]],[[16.42243,67.92826],[16.42631,67.92388]],[[16.43251,67.95402],[16.45246,67.95345],[16.45943,67.95439],[16.46531,67.95567],[16.46847,67.95589],[16.47355,67.95323],[16.4723,67.95223],[16.46749,67.95169],[16.46635,67.95119],[16.45898,67.95068],[16.45433,67.95139],[16.45081,67.94995],[16.45042,67.94773],[16.45261,67.94348],[16.4511,67.94157],[16.44418,67.9392],[16.44145,67.93402],[16.44462,67.92696],[16.4487,67.92308]],[[16.52631,67.96723],[16.52394,67.96508],[16.51299,67.96484],[16.50892,67.96549],[16.50522,67.96507],[16.4987,67.96508],[16.49057,67.96454],[16.48715,67.96477],[16.48342,67.96678],[16.47762,67.96768]],[[16.25197,67.92469],[16.2582,67.93466],[16.2606,67.93628],[16.26406,67.93682],[16.27058,67.94331],[16.27006,67.94822],[16.26899,67.95005],[16.27718,67.95235],[16.27986,67.95631],[16.27996,67.95828],[16.28101,67.95884],[16.28367,67.95908],[16.28501,67.9598],[16.28553,67.96194],[16.28389,67.96454],[16.28485,67.9666]],[[16.22194,67.96977],[16.22656,67.96404],[16.22516,67.9527],[16.22089,67.94599],[16.22087,67.94226],[16.21985,67.94043],[16.21447,67.93599],[16.21497,67.9344],[16.21418,67.93339],[16.21157,67.93194],[16.21292,67.93053],[16.21264,67.92936],[16.21364,67.92796],[16.21138,67.92643],[16.2076,67.92584],[16.20606,67.92504]],[[16.27811,67.96935],[16.28485,67.9666]],[[16.35257,67.96875],[16.35359,67.96791],[16.35564,67.9674],[16.35671,67.96567],[16.36473,67.96315],[16.37068,67.9592],[16.37533,67.95521],[16.3795,67.95362],[16.38582,67.94919],[16.39847,67.94595],[16.40192,67.943],[16.40781,67.94324],[16.41357,67.94192],[16.41396,67.93888],[16.41232,67.93338],[16.42028,67.93017],[16.42243,67.92826]],[[16.37231,67.96859],[16.37428,67.96632],[16.37803,67.96397],[16.37873,67.96256],[16.38295,67.96016],[16.3868,67.95613],[16.3926,67.9529],[16.40016,67.95067],[16.40151,67.95054],[16.4035,67.95108],[16.4071,67.95325],[16.41229,67.95402],[16.42514,67.95431],[16.43251,67.95402]],[[16.4751,67.9677],[16.47268,67.96713],[16.47081,67.96721]],[[16.4751,67.9677],[16.47762,67.96768]],[[16.27811,67.96935],[16.27312,67.97356],[16.27348,67.9748]],[[16.50466,67.97543],[16.50338,67.97695],[16.50407,67.97746],[16.50624,67.97772],[16.51518,67.97791],[16.51916,67.97643],[16.52316,67.97571],[16.52783,67.97769],[16.5297,67.97799],[16.53101,67.97791],[16.53152,67.97734],[16.53516,67.97622],[16.53737,67.9771],[16.54002,67.97703],[16.53922,67.97639],[16.53747,67.97606],[16.53786,67.97439],[16.54002,67.9743],[16.53914,67.97374],[16.53729,67.9736],[16.53555,67.97466],[16.53548,67.97536],[16.53365,67.97565],[16.5313,67.97473],[16.52668,67.97412],[16.52455,67.97295],[16.52418,67.97074],[16.52607,67.96911],[16.52631,67.96723]],[[16.27307,67.97551],[16.27153,67.97682],[16.27075,67.97938],[16.26656,67.9794],[16.26422,67.98058]],[[16.31543,67.99481],[16.31646,67.99525],[16.31895,67.99502],[16.31955,67.99389]],[[16.50466,67.97543],[16.50619,67.97468],[16.50587,67.97401],[16.49646,67.97266],[16.48469,67.97399],[16.47654,67.97568],[16.47275,67.97703],[16.47287,67.97804],[16.49005,67.97863],[16.4901,67.97932],[16.48238,67.9813]],[[16.44883,67.98264],[16.45118,67.98195],[16.45253,67.98067],[16.4527,67.97718],[16.4518,67.97511],[16.45314,67.97304],[16.45639,67.97191],[16.46061,67.9689],[16.46498,67.96779]],[[16.44778,67.98472],[16.44883,67.98264]],[[16.1955,67.9885],[16.20528,67.98062],[16.20988,67.97869],[16.21286,67.97553],[16.22012,67.97248],[16.22194,67.96977]],[[16.26422,67.98058],[16.25984,67.98428],[16.26188,67.98563],[16.26553,67.98534],[16.26693,67.98452],[16.27316,67.98437],[16.27641,67.98363],[16.28193,67.98436],[16.2834,67.98624],[16.27689,67.98829],[16.27652,67.98874]],[[16.18761,67.99655],[16.19108,67.99447],[16.19308,67.99041],[16.1955,67.9885]],[[16.31955,67.99389],[16.31982,67.99277],[16.32324,67.99057],[16.3249,67.98773],[16.3285,67.98656],[16.33079,67.98307],[16.3342,67.98038],[16.33431,67.97733],[16.3359,67.97685],[16.3396,67.9769],[16.34137,67.97606],[16.342,67.97437],[16.34096,67.97175],[16.34147,67.97032],[16.34401,67.96914],[16.34603,67.96886],[16.35025,67.97034],[16.35257,67.96875]],[[16.30896,67.99487],[16.3128,67.99401],[16.31543,67.99481]],[[16.46245,67.9936],[16.46382,67.99161],[16.46971,67.98782],[16.47266,67.9867],[16.4759,67.98392],[16.48238,67.9813]],[[16.43504,67.99499],[16.44323,67.98974],[16.44778,67.98472]],[[15.99963,67.99679],[16.0009,67.99612],[15.99991,67.99462]],[[16.27652,67.98874],[16.27497,67.99012],[16.27064,67.99226],[16.26391,67.99462],[16.25946,67.99815]],[[16.46245,67.9936],[16.4605,67.99668]],[[16.18086,68.00108],[16.18761,67.99655]],[[16.45822,68.00307],[16.46014,67.99963],[16.4605,67.99668]],[[16.33067,68.00217],[16.3337,67.99988],[16.33583,67.99704],[16.33535,67.99591],[16.3394,67.99135],[16.34334,67.98954],[16.348,67.98618],[16.34937,67.98708],[16.35019,67.98705],[16.34875,67.98517],[16.35677,67.9795],[16.3591,67.97583],[16.36232,67.97311],[16.36447,67.97207],[16.36958,67.97203],[16.37206,67.97156],[16.37149,67.96948],[16.37231,67.96859]],[[16.24671,68.00086],[16.25358,67.99931],[16.25656,67.99912],[16.25946,67.99815]],[[16.31285,68.00106],[16.31373,67.99851],[16.31297,67.99755],[16.31074,67.99751],[16.30849,67.99676],[16.30896,67.99487]],[[16.43061,68.00059],[16.43093,67.9972],[16.43504,67.99499]]]}}]}