{"type":"FeatureCollection","features":[{"type":"Feature","properties":{},"geometry":{"type":"MultiLineString","coordinates":[[[12.07112,67.48937],[12.06847,67.49003],[12.06739,67.49097],[12.06798,67.49156],[12.06988,67.49165],[12.07112,67.48937]],[[12.07122,67.49934],[12.07018,67.49932]],[[12.11399,67.50011],[12.11581,67.50014]],[[12.07145,67.50493],[12.07139,67.50546]],[[12.07116,67.50731],[12.07283,67.50753],[12.07127,67.50642]],[[12.00477,67.52133],[12.0037,67.5214],[12.00398,67.52176],[12.00843,67.5237],[12.00785,67.52286],[12.00477,67.52133]],[[12.17005,67.52592],[12.16885,67.52562],[12.16812,67.52596],[12.16919,67.52721],[12.17023,67.52725],[12.17128,67.52802],[12.1722,67.52793],[12.17131,67.5264],[12.17005,67.52592]],[[12.69879,67.6441],[12.69845,67.6441]],[[12.69879,67.6441],[12.70051,67.64507],[12.69929,67.64411]],[[12.56768,67.6422],[12.56877,67.64274],[12.5701,67.64223]],[[12.59544,67.64261],[12.59416,67.64483],[12.59432,67.64602],[12.59727,67.64811],[12.59571,67.65077],[12.59634,67.65267],[12.60344,67.65563],[12.60382,67.65654],[12.60459,67.65677],[12.60577,67.65643],[12.60928,67.65784],[12.61122,67.65751],[12.61393,67.65837],[12.61591,67.65997],[12.62266,67.66025],[12.63176,67.65986],[12.6392,67.65626],[12.64105,67.65275],[12.64276,67.65248]],[[12.64276,67.65248],[12.64371,67.65174],[12.64765,67.65101],[12.65037,67.65126],[12.65273,67.65065],[12.6531,67.65117],[12.654,67.65097],[12.65511,67.65249],[12.65413,67.65273],[12.6515,67.65525],[12.64844,67.66168],[12.65262,67.66511],[12.65833,67.66706],[12.66005,67.66711],[12.66617,67.66552],[12.67117,67.66604],[12.67127,67.66709],[12.66644,67.67059],[12.66868,67.67054],[12.6718,67.66977],[12.67581,67.6671],[12.67398,67.66582],[12.6735,67.66463],[12.67525,67.66489],[12.67491,67.66363],[12.6757,67.66346],[12.67733,67.66482],[12.67647,67.66766],[12.67863,67.66787],[12.68085,67.66709],[12.67972,67.66638],[12.6812,67.665],[12.68015,67.66419],[12.68128,67.66296],[12.68241,67.66305],[12.68352,67.66255],[12.67995,67.66116],[12.68032,67.66063],[12.68153,67.65954],[12.68404,67.65871],[12.68343,67.65802],[12.68589,67.65581],[12.6856,67.65402],[12.68745,67.65344],[12.68789,67.65375],[12.68845,67.65325],[12.68887,67.65385],[12.68787,67.65399],[12.68945,67.65443],[12.69041,67.65334],[12.6927,67.65299],[12.69308,67.65219],[12.69516,67.65148],[12.69545,67.64769],[12.69845,67.6441]],[[12.56347,67.64213],[12.56204,67.6437],[12.56028,67.64389],[12.56001,67.64448],[12.56439,67.64599],[12.56274,67.64568],[12.56732,67.64883],[12.56906,67.65159],[12.56873,67.65291],[12.56749,67.653],[12.56742,67.65379],[12.57044,67.65408],[12.57202,67.65368],[12.57608,67.65558],[12.57969,67.65588],[12.57987,67.65697],[12.5826,67.65708],[12.58264,67.65737],[12.58357,67.65717],[12.58333,67.65754],[12.58461,67.65763],[12.58672,67.65873],[12.59675,67.6586],[12.60711,67.65981],[12.60915,67.66112],[12.61641,67.6638],[12.61704,67.66937],[12.61795,67.67026],[12.62057,67.67132],[12.62923,67.6736],[12.63339,67.67699],[12.63604,67.67835],[12.63603,67.6798],[12.63991,67.68097]],[[12.66964,67.68856],[12.67246,67.69013],[12.68229,67.69116],[12.69112,67.69341],[12.69342,67.69359],[12.6929,67.69395],[12.70163,67.69456],[12.71293,67.69361],[12.72308,67.69368],[12.72684,67.69416],[12.72635,67.69292],[12.72268,67.69245],[12.71667,67.68923]],[[12.75148,67.74871],[12.75148,67.74869]],[[12.75148,67.74871],[12.75148,67.74874]],[[12.75229,67.74022],[12.74765,67.74144],[12.74322,67.74154],[12.74047,67.74255],[12.73921,67.74363],[12.7406,67.74421],[12.74049,67.74469],[12.74253,67.74522],[12.74618,67.74714],[12.75148,67.74869]],[[12.75132,67.75038],[12.75316,67.7497],[12.75148,67.74874]],[[12.75132,67.75038],[12.75071,67.75139],[12.74855,67.75197],[12.74829,67.75247],[12.7495,67.75318],[12.75109,67.7528]],[[12.75109,67.7528],[12.7536,67.75224],[12.75478,67.75249],[12.75686,67.75453],[12.75913,67.75493],[12.75828,67.75596],[12.76195,67.75774],[12.76478,67.75738],[12.76785,67.75621],[12.76733,67.75488],[12.76482,67.75425],[12.76675,67.75125],[12.76359,67.74854],[12.76441,67.74782],[12.76339,67.7476],[12.76465,67.74739],[12.76528,67.74635],[12.76749,67.74523],[12.76673,67.74275],[12.76742,67.74273],[12.76581,67.7421],[12.76451,67.74037],[12.7599,67.73841],[12.75229,67.74022]],[[12.75932,67.76925],[12.75468,67.76894],[12.75382,67.76926],[12.756,67.77057],[12.75759,67.77086],[12.7596,67.76972],[12.75932,67.76925]],[[12.79929,67.78239],[12.7979,67.78252],[12.79548,67.78393],[12.79893,67.78548],[12.80051,67.78478],[12.79929,67.78239]],[[12.82291,67.8253],[12.81948,67.82441],[12.81364,67.82387],[12.81281,67.82399],[12.81315,67.82466],[12.8107,67.82468],[12.8109,67.82514]],[[12.82291,67.8253],[12.82242,67.82561],[12.81542,67.82558],[12.81982,67.82632],[12.82114,67.82694],[12.82156,67.82814],[12.82303,67.82841],[12.83089,67.82857],[12.83343,67.82804],[12.83778,67.829],[12.84184,67.82879],[12.84541,67.82785],[12.84797,67.82655],[12.85253,67.82734],[12.85408,67.82718],[12.86264,67.82791]],[[12.78186,67.83813],[12.78858,67.83784],[12.79046,67.83605],[12.78765,67.83571],[12.78527,67.8348],[12.78348,67.83482],[12.78345,67.83534],[12.78571,67.83535],[12.786,67.83588],[12.78297,67.83579],[12.7835,67.83644],[12.77694,67.83721],[12.78186,67.83813]],[[12.78168,67.84157],[12.77918,67.84086],[12.77636,67.84101],[12.77522,67.84142],[12.77792,67.84364],[12.77588,67.84431],[12.77713,67.84564],[12.77897,67.84535],[12.77888,67.84416],[12.7824,67.84211],[12.78168,67.84157]],[[12.86213,67.87068],[12.86127,67.86854],[12.85902,67.86749]],[[12.85828,67.87548],[12.86121,67.87384],[12.86213,67.87068]],[[12.84451,67.87747],[12.84395,67.87668],[12.83737,67.87544],[12.83416,67.87527],[12.8331,67.87554],[12.83263,67.87658],[12.8333,67.877],[12.83677,67.87705],[12.8386,67.87763],[12.84229,67.87784],[12.84451,67.87747]],[[12.85568,67.90377],[12.85356,67.90497],[12.8555,67.90571]],[[12.93507,67.87162],[12.93823,67.87226],[12.9403,67.87225],[12.94143,67.87361],[12.94568,67.87455],[12.9565,67.87245],[12.96296,67.87312],[12.964,67.87374],[12.9625,67.8749],[12.96245,67.87697],[12.96391,67.87838],[12.96721,67.87947],[12.97013,67.87795],[12.9728,67.87765],[12.97277,67.87703],[12.97619,67.87509],[12.97732,67.87531]],[[12.85828,67.87548],[12.85693,67.87632],[12.85285,67.87654],[12.85309,67.87809],[12.85115,67.87908],[12.85019,67.8805],[12.8511,67.88125],[12.85259,67.88155],[12.8531,67.88342],[12.85633,67.88599],[12.85616,67.88699],[12.85454,67.8876],[12.85222,67.88758],[12.8465,67.88889],[12.84738,67.88944],[12.84703,67.89022],[12.84227,67.89089],[12.8478,67.89157],[12.84934,67.89122],[12.85375,67.89121],[12.85689,67.8906]],[[12.83994,67.89256],[12.83765,67.89239],[12.83683,67.89268],[12.83839,67.89342],[12.84252,67.89312],[12.83994,67.89256]],[[12.85631,67.8969],[12.86097,67.89549],[12.86435,67.8918],[12.86197,67.89076],[12.85689,67.8906]],[[12.85631,67.8969],[12.85006,67.89784],[12.8486,67.89941],[12.84427,67.90068],[12.84724,67.90178],[12.84929,67.90201],[12.85587,67.90173]],[[12.85568,67.90377],[12.85788,67.90249],[12.85587,67.90173]],[[12.89608,67.95757],[12.89418,67.95698],[12.8917,67.95751],[12.89416,67.95818],[12.89621,67.9579],[12.89608,67.95757]],[[12.91347,67.96108],[12.91387,67.95941],[12.91249,67.95851],[12.90566,67.95669],[12.90639,67.95554],[12.91235,67.95565],[12.91378,67.95471],[12.91273,67.95382],[12.9099,67.95283],[12.90793,67.9504],[12.90809,67.9495],[12.90666,67.94882],[12.90878,67.94666],[12.9148,67.94614],[12.91563,67.94506],[12.90851,67.94124],[12.90709,67.93938],[12.89882,67.93873],[12.88955,67.93584],[12.88693,67.93614],[12.88536,67.9358],[12.88537,67.93351],[12.88675,67.93339],[12.88834,67.93244],[12.89056,67.93203],[12.89237,67.93213],[12.89723,67.93052],[12.89772,67.92969],[12.89627,67.92693],[12.89979,67.92321],[12.89968,67.92153],[12.89602,67.9205],[12.88984,67.91717],[12.88641,67.91692],[12.88106,67.9158]],[[12.99783,67.96213],[12.99597,67.96364],[12.99694,67.96431],[12.9947,67.96415],[12.99112,67.96471],[12.9892,67.96532],[12.9873,67.96667],[12.98481,67.96729],[12.9837,67.96971],[12.98518,67.97125],[12.98821,67.97118],[12.99141,67.97049],[12.99486,67.9681],[13.0016,67.96634]],[[12.96791,67.98314],[12.96962,67.98238],[12.96996,67.98145],[12.96952,67.98065],[12.96813,67.98061]],[[12.07204,67.50014],[12.07292,67.50037],[12.07385,67.50005],[12.07269,67.49936]],[[12.01657,67.46895],[12.01556,67.46867],[12.01258,67.46904],[12.01293,67.47117],[12.01568,67.47199],[12.0174,67.47148],[12.01736,67.46931],[12.01657,67.46895]],[[12.03288,67.47456],[12.02989,67.47445],[12.03038,67.4764],[12.03231,67.4777],[12.03123,67.47795],[12.03167,67.47848],[12.03446,67.47768],[12.03288,67.47456]],[[12.06773,67.49324],[12.06221,67.49348],[12.06471,67.49441],[12.06832,67.49355],[12.06773,67.49324]],[[12.03043,67.48413],[12.02694,67.48072],[12.02693,67.47905],[12.02161,67.47755],[12.01707,67.47528],[12.01751,67.47484],[12.01985,67.47459],[12.01927,67.47402],[12.01559,67.47301],[12.01377,67.47385],[12.01351,67.47471],[12.00958,67.47481],[12.00544,67.474],[12.00391,67.47418],[12.00357,67.47611],[12.00551,67.47849],[12.00948,67.47988],[12.00916,67.48069],[12.00536,67.48155],[12.00807,67.48377],[12.01724,67.48457],[12.01954,67.48391],[12.02254,67.4837],[12.02433,67.48442],[12.02878,67.48502],[12.03001,67.48488],[12.03043,67.48413]],[[12.03832,67.47835],[12.03587,67.47841],[12.03491,67.47893],[12.03608,67.48214],[12.03781,67.48204],[12.0387,67.48145],[12.03832,67.47835]],[[12.07332,67.48974],[12.07136,67.49092],[12.07302,67.49224]],[[12.07302,67.49224],[12.0758,67.49261],[12.07658,67.49214],[12.07445,67.49099],[12.07545,67.49073],[12.0755,67.4895],[12.07332,67.48974]],[[12.0835,67.49254],[12.0819,67.49268],[12.08551,67.49445],[12.08731,67.49367],[12.0835,67.49254]],[[12.07956,67.49949],[12.07797,67.49926],[12.07806,67.49866],[12.07674,67.49821],[12.07497,67.49837],[12.07507,67.49922],[12.07377,67.49905],[12.07269,67.49936]],[[12.1013,67.49733],[12.10077,67.4969],[12.09888,67.49728],[12.09976,67.49855],[12.10277,67.49811],[12.1013,67.49733]],[[12.06372,67.49776],[12.06504,67.49788],[12.06504,67.49879],[12.06795,67.4985],[12.06745,67.49781],[12.07065,67.49695],[12.06984,67.49592],[12.06526,67.49604],[12.06252,67.49647],[12.05945,67.49877],[12.06208,67.49899],[12.06372,67.49776]],[[12.09156,67.4971],[12.09262,67.49671],[12.08985,67.49568],[12.08945,67.49605],[12.09088,67.49691],[12.08924,67.49702],[12.08708,67.49593],[12.08588,67.49667],[12.08883,67.49912],[12.09057,67.49964],[12.09314,67.49953],[12.09423,67.49906],[12.09257,67.49813],[12.09055,67.49778],[12.09156,67.4971]],[[12.11581,67.50014],[12.11555,67.49941],[12.11255,67.49876],[12.11213,67.49917],[12.11399,67.50011]],[[12.07122,67.49934],[12.07204,67.50014]],[[12.07018,67.49932],[12.06942,67.50136],[12.0683,67.50125],[12.06719,67.5001],[12.0649,67.50049],[12.06498,67.50089],[12.06767,67.50212],[12.06918,67.50219],[12.07124,67.50154],[12.07199,67.50058]],[[12.07199,67.50058],[12.07304,67.5005],[12.07586,67.50259],[12.07914,67.50278],[12.08312,67.50425],[12.0846,67.50431],[12.08498,67.50406],[12.08353,67.50337],[12.08638,67.50307],[12.08635,67.50191],[12.07906,67.50064],[12.0784,67.50002],[12.07956,67.49949]],[[12.07814,67.50325],[12.07565,67.50334],[12.07575,67.50377],[12.07863,67.50429],[12.07735,67.505],[12.08354,67.50548],[12.08252,67.50461],[12.07814,67.50325]],[[12.07127,67.50642],[12.06915,67.50555],[12.06739,67.50546],[12.06379,67.50652],[12.06452,67.50741],[12.06705,67.50788],[12.06917,67.50767],[12.07029,67.50716],[12.07116,67.50731]],[[12.1501,67.50972],[12.15143,67.509],[12.1551,67.50879],[12.15513,67.5081],[12.15343,67.50773],[12.15231,67.50815],[12.14901,67.50605],[12.14656,67.50599],[12.1458,67.50631],[12.14634,67.50704],[12.15046,67.50876],[12.1454,67.50814],[12.14338,67.50827],[12.14232,67.50907],[12.1501,67.50972]],[[12.10962,67.50977],[12.11042,67.50952],[12.1122,67.5098],[12.11434,67.50917],[12.11422,67.50882],[12.11116,67.50844],[12.10861,67.50859],[12.10883,67.50962],[12.10962,67.50977]],[[12.18823,67.50855],[12.18537,67.50909],[12.18093,67.50781],[12.17865,67.50773],[12.17997,67.50856],[12.18207,67.50898],[12.18146,67.50996],[12.17892,67.50978],[12.176,67.509],[12.17482,67.50932],[12.17266,67.50882],[12.17115,67.50757],[12.17016,67.50793],[12.17298,67.50978],[12.17054,67.50988],[12.17132,67.51053],[12.17458,67.51091],[12.17633,67.5102],[12.17929,67.5115],[12.18783,67.51195]],[[12.07734,67.50812],[12.07635,67.50818],[12.07725,67.50883],[12.0768,67.50928],[12.07855,67.51006],[12.08165,67.50973],[12.07734,67.50812]],[[12.15133,67.51058],[12.14909,67.50977],[12.1463,67.51025],[12.14548,67.51092],[12.14661,67.5112],[12.14756,67.51047],[12.14904,67.51122],[12.15032,67.51132],[12.15154,67.51095],[12.15133,67.51058]],[[12.03342,67.50659],[12.03035,67.5052],[12.027,67.50566],[12.02885,67.50659],[12.02787,67.50703],[12.02909,67.50837],[12.03044,67.50911],[12.03262,67.50946],[12.03342,67.50659]],[[12.07139,67.50546],[12.074,67.50657],[12.07835,67.50645],[12.07869,67.50729],[12.08147,67.50887],[12.08285,67.5089],[12.08318,67.50947],[12.08824,67.5108],[12.08726,67.50878],[12.08504,67.50783],[12.08384,67.50834],[12.08239,67.50789],[12.08225,67.50667],[12.08071,67.50653],[12.0795,67.50586],[12.0754,67.50565],[12.07145,67.50493]],[[12.18783,67.51195],[12.19162,67.51292],[12.19386,67.51164],[12.19256,67.51003],[12.18823,67.50855]],[[12.05653,67.51073],[12.05962,67.50978],[12.05671,67.50847],[12.05545,67.50835],[12.054,67.50926],[12.05511,67.50996],[12.05383,67.51084],[12.05765,67.51385],[12.05787,67.51277],[12.0567,67.51253],[12.05592,67.5112],[12.05653,67.51073]],[[12.08881,67.5124],[12.08823,67.51199],[12.08585,67.51204],[12.08765,67.51136],[12.08514,67.51046],[12.08394,67.51065],[12.0827,67.51024],[12.08043,67.5108],[12.08298,67.51208],[12.08505,67.51239],[12.08914,67.51468],[12.08952,67.5127],[12.08881,67.5124]],[[12.06293,67.51196],[12.06164,67.51345],[12.06463,67.51436],[12.06293,67.51196]],[[12.06952,67.51363],[12.06829,67.51149],[12.06435,67.51119],[12.06498,67.51312],[12.0674,67.51359],[12.06899,67.51503],[12.06952,67.51363]],[[12.14748,67.51894],[12.14634,67.51891],[12.14368,67.51711],[12.14187,67.51678],[12.14135,67.51792],[12.14358,67.51907],[12.14522,67.52099],[12.14754,67.52103],[12.14748,67.51894]],[[12.0544,67.51842],[12.05615,67.51845],[12.0563,67.51702],[12.0551,67.51708],[12.05366,67.51632],[12.05174,67.51614],[12.05238,67.51764],[12.05112,67.51778],[12.05043,67.51881],[12.05302,67.52],[12.05523,67.5198],[12.0544,67.51842]],[[12.00149,67.52104],[12.00349,67.52081],[12.00259,67.51946],[12.00124,67.51872],[11.9979,67.51823]],[[11.9979,67.51823],[12.00149,67.52104]],[[12.14555,67.52427],[12.14452,67.52319],[12.14297,67.5239],[12.14217,67.52288],[12.14125,67.52287],[12.14092,67.52367],[12.14178,67.52437],[12.1435,67.52422],[12.14548,67.52524],[12.14696,67.52489],[12.14555,67.52427]],[[12.00888,67.51992],[12.00804,67.51993],[12.00927,67.52101],[12.0089,67.52315],[12.01105,67.52361],[12.01243,67.52334],[12.01263,67.52276],[12.00888,67.51992]],[[12.04662,67.52147],[12.04475,67.52188],[12.04097,67.52408],[12.04114,67.52446],[12.04305,67.52417],[12.04662,67.52147]],[[12.08478,67.52947],[12.08537,67.52847],[12.08429,67.52636],[12.08116,67.52832],[12.07807,67.52858],[12.07731,67.529],[12.08268,67.53013],[12.08478,67.52947]],[[12.06899,67.52486],[12.06809,67.52485],[12.06749,67.5258],[12.06455,67.52602],[12.06348,67.52571],[12.06379,67.52437],[12.06028,67.52472],[12.0594,67.52456],[12.0594,67.52389],[12.05854,67.52383],[12.05772,67.52426],[12.05875,67.52462],[12.05708,67.5255],[12.05734,67.52626],[12.05902,67.52684],[12.06869,67.52728]],[[12.06869,67.52728],[12.07496,67.52747],[12.0741,67.5267],[12.07052,67.52664],[12.06899,67.52486]],[[12.00651,67.52428],[12.00365,67.52429],[12.00811,67.52673],[12.01116,67.52761],[12.00986,67.52583],[12.00651,67.52428]],[[12.16184,67.53005],[12.16385,67.52873],[12.16352,67.52693],[12.1587,67.5265],[12.15782,67.52763],[12.15696,67.52771],[12.15752,67.5257],[12.15633,67.52479],[12.15481,67.52494],[12.15453,67.52346],[12.15241,67.5242],[12.15162,67.52319],[12.14866,67.52277],[12.14921,67.52437],[12.15075,67.52521],[12.15272,67.52458],[12.15178,67.52629],[12.15415,67.52707],[12.15493,67.52783],[12.15329,67.52878],[12.15172,67.52878],[12.15057,67.52798],[12.14844,67.52877],[12.15337,67.52989],[12.15668,67.52996],[12.15922,67.53049],[12.16184,67.53005]],[[12.09867,67.53368],[12.10161,67.53335],[12.10271,67.53282],[12.09991,67.53079],[12.10007,67.52862],[12.10116,67.52858],[12.1018,67.52946],[12.10385,67.53036],[12.10804,67.53095],[12.10918,67.52982],[12.1082,67.52844],[12.11092,67.52914],[12.11246,67.52851],[12.11195,67.52628],[12.11307,67.52643],[12.11411,67.52779],[12.11583,67.52801],[12.11743,67.52764],[12.11994,67.52831],[12.12216,67.52867],[12.12331,67.5285],[12.12756,67.52929],[12.13489,67.52835],[12.14099,67.52895],[12.1407,67.52771],[12.13881,67.52705],[12.1382,67.52629],[12.1391,67.52468],[12.13617,67.52393],[12.13489,67.52227],[12.13377,67.52221],[12.13319,67.52282],[12.13202,67.52254],[12.1337,67.51938],[12.12918,67.51756],[12.12838,67.51879],[12.1267,67.51877],[12.12713,67.51708],[12.1286,67.51683],[12.12701,67.51513],[12.12524,67.51553],[12.12162,67.51448],[12.12086,67.51525],[12.11709,67.51368],[12.11478,67.51388],[12.1134,67.51347],[12.11226,67.51371],[12.11171,67.51465],[12.11334,67.51541],[12.11084,67.51537],[12.11031,67.51429],[12.11099,67.51293],[12.1133,67.51219],[12.11187,67.51168],[12.1103,67.51205],[12.10849,67.51172],[12.1093,67.51302],[12.10787,67.51344],[12.10612,67.51173],[12.10375,67.51133],[12.1043,67.51402],[12.10097,67.51208],[12.09971,67.51281],[12.09814,67.51232],[12.09111,67.5123],[12.09281,67.51413],[12.0955,67.51487],[12.0961,67.51669],[12.0996,67.51758],[12.09874,67.51794],[12.09741,67.51731],[12.09623,67.51752],[12.09687,67.5184],[12.09893,67.51928],[12.09787,67.52002],[12.09471,67.51781],[12.08668,67.51428],[12.08434,67.51488],[12.08261,67.51394],[12.07803,67.51263],[12.07292,67.51297],[12.07277,67.51363],[12.07474,67.51368],[12.0754,67.51456],[12.07694,67.51488],[12.07628,67.51536],[12.07439,67.5153],[12.07391,67.5162],[12.07716,67.51682],[12.07842,67.51758],[12.07816,67.51813],[12.07571,67.5182],[12.07571,67.5191],[12.07758,67.51972],[12.07847,67.51918],[12.07997,67.51955],[12.08158,67.52169],[12.08683,67.52449],[12.08495,67.52538],[12.09149,67.52573],[12.09154,67.52641],[12.0945,67.52703],[12.09279,67.52791],[12.08943,67.52738],[12.08891,67.52774],[12.0915,67.52871],[12.09772,67.52957],[12.09813,67.5307],[12.09708,67.53133],[12.0941,67.53098],[12.09322,67.53053],[12.0914,67.53105],[12.09129,67.5316],[12.09867,67.53368]],[[12.56768,67.6422],[12.56347,67.64213]],[[12.59544,67.64261],[12.60327,67.64113],[12.60509,67.64],[12.60359,67.63913],[12.60053,67.63818],[12.59857,67.63808],[12.59716,67.63738],[12.5976,67.63608],[12.59574,67.63393],[12.59641,67.63279],[12.59749,67.63253],[12.59728,67.63126],[12.59538,67.63062],[12.59462,67.63079],[12.59505,67.63117],[12.59386,67.63094],[12.59367,67.63207],[12.58761,67.63213],[12.58431,67.63111],[12.5846,67.63183],[12.57961,67.63141],[12.57564,67.6319],[12.57581,67.63234],[12.57419,67.63263],[12.57441,67.63293],[12.57306,67.6334],[12.57362,67.63363],[12.57279,67.6337],[12.57476,67.63478],[12.57388,67.63458],[12.57356,67.63524],[12.57189,67.63566],[12.57439,67.63919],[12.57357,67.63958],[12.57179,67.63896],[12.57079,67.6392],[12.57175,67.64003],[12.57368,67.64056],[12.57149,67.6404],[12.5722,67.64188],[12.57133,67.64151],[12.5701,67.64223]],[[12.70558,67.6442],[12.70368,67.64364],[12.70459,67.64329],[12.70234,67.64307],[12.70114,67.6424],[12.70129,67.64126],[12.70172,67.64155],[12.70224,67.64122],[12.69913,67.63889],[12.69746,67.63915],[12.69751,67.6405],[12.69692,67.6393],[12.69404,67.6377],[12.69387,67.63843],[12.69537,67.63929],[12.69526,67.64074],[12.69697,67.64147],[12.69929,67.64411]],[[12.66964,67.68856],[12.65951,67.68563],[12.65425,67.68479],[12.6528,67.68325],[12.64653,67.68253],[12.63991,67.68097]],[[12.88106,67.9158],[12.87619,67.91538],[12.87528,67.91373],[12.86583,67.91145],[12.86581,67.9108],[12.86883,67.91095],[12.87061,67.90833],[12.86845,67.90667],[12.8555,67.90571]],[[13.00255,67.88634],[12.9993,67.88619],[13.0013,67.88398]],[[13.0013,67.88398],[12.99955,67.8833],[12.99389,67.88323],[12.98872,67.88407],[12.98496,67.88393],[12.98684,67.88286],[12.98305,67.88192],[12.98536,67.88131],[12.98538,67.87985],[12.98899,67.88016],[12.98786,67.87837],[12.98626,67.87831],[12.98515,67.87741],[12.98174,67.87778],[12.98162,67.87705],[12.97732,67.87531]],[[12.93507,67.87162],[12.93411,67.87004],[12.92958,67.86995],[12.92705,67.86868],[12.92697,67.86742],[12.92977,67.86325],[12.9292,67.86254],[12.92676,67.86234],[12.92158,67.86316],[12.91957,67.86299],[12.91814,67.86364],[12.91306,67.8629],[12.90383,67.8646],[12.90062,67.86439],[12.89737,67.86333],[12.89559,67.85845],[12.89991,67.85726],[12.90088,67.85651],[12.90463,67.8558],[12.9054,67.85488],[12.90415,67.85349],[12.90058,67.85319],[12.90199,67.8509],[12.90069,67.84917],[12.89959,67.84846],[12.89635,67.84788],[12.8929,67.8484],[12.88892,67.84835],[12.88687,67.84463],[12.88805,67.84428],[12.88815,67.84301],[12.89045,67.84198],[12.89024,67.84096],[12.8871,67.83969],[12.88123,67.84031],[12.87923,67.84009],[12.87946,67.83747],[12.87875,67.83691],[12.87556,67.83636],[12.87477,67.83472],[12.87496,67.83354],[12.87609,67.83286],[12.87574,67.83211],[12.87395,67.83079],[12.87019,67.83003],[12.86981,67.82954],[12.87008,67.82922],[12.87275,67.82915],[12.87289,67.82858],[12.8663,67.82734],[12.86556,67.8281],[12.86264,67.82791]],[[12.9636,68.00059],[12.96064,67.99881],[12.96007,67.99726],[12.95635,67.99603],[12.95621,67.99327],[12.96049,67.98976],[12.96025,67.98731],[12.96362,67.98646],[12.96791,67.98314]],[[12.71667,67.68923],[12.71672,67.68799],[12.71262,67.68654],[12.70951,67.68417],[12.71006,67.68287],[12.70904,67.68226],[12.70953,67.68179],[12.7083,67.68161],[12.70819,67.68076],[12.71103,67.67823],[12.70887,67.6781],[12.70855,67.67728],[12.70324,67.67746],[12.70007,67.67808],[12.69911,67.6776],[12.6995,67.67682],[12.70311,67.6755],[12.69733,67.67418],[12.69603,67.67302],[12.69941,67.67072],[12.70437,67.66974],[12.70785,67.66948],[12.70943,67.66888],[12.70866,67.66861],[12.71192,67.66794],[12.7154,67.66647],[12.72094,67.6622],[12.72166,67.66071],[12.72066,67.6599],[12.72292,67.65917],[12.72246,67.65884],[12.72345,67.65884],[12.72181,67.65824],[12.71917,67.65874],[12.71949,67.65802],[12.72356,67.6569],[12.72542,67.65704],[12.72724,67.65658],[12.72616,67.65607],[12.72832,67.65458],[12.72729,67.65342],[12.72491,67.65456],[12.72375,67.65422],[12.72442,67.65256],[12.72569,67.65236],[12.72604,67.65158],[12.72344,67.65043],[12.72394,67.65115],[12.72043,67.65307],[12.72009,67.65579],[12.71774,67.65317],[12.71716,67.65457],[12.71063,67.65677],[12.70869,67.65822],[12.70942,67.65835],[12.70827,67.65852],[12.70911,67.65863],[12.70785,67.6587],[12.70269,67.6615],[12.69807,67.66159],[12.70032,67.66042],[12.69821,67.65987],[12.69639,67.66057],[12.69558,67.66034],[12.69792,67.65961],[12.69814,67.6588],[12.69713,67.65852],[12.69863,67.65784],[12.69994,67.65817],[12.7015,67.65766],[12.70346,67.65644],[12.70629,67.65608],[12.71002,67.65336],[12.70917,67.65257],[12.71038,67.65272],[12.70953,67.6521],[12.71027,67.65067],[12.70497,67.65111],[12.70202,67.64943],[12.70153,67.64812],[12.70368,67.648],[12.7044,67.64739],[12.703,67.64686],[12.70386,67.64642],[12.7032,67.64618],[12.70447,67.64635],[12.70485,67.64616],[12.70405,67.64613],[12.70616,67.64547],[12.70558,67.6442]],[[12.8109,67.82514],[12.80868,67.82532],[12.80807,67.82585],[12.81019,67.82642],[12.81098,67.82848],[12.80774,67.82726],[12.80475,67.82734],[12.80557,67.82834],[12.8034,67.82911],[12.80867,67.82977],[12.82076,67.83034],[12.82141,67.83117],[12.81999,67.83137],[12.81779,67.83059],[12.81488,67.8305],[12.81375,67.83079],[12.80932,67.83016],[12.80501,67.8303],[12.80774,67.83127],[12.81292,67.83173],[12.8138,67.83172],[12.81433,67.83116],[12.81766,67.83166],[12.82005,67.83149],[12.82155,67.83246],[12.81914,67.83412],[12.82045,67.8347],[12.82041,67.83526],[12.81881,67.83555],[12.80949,67.83554],[12.80699,67.8352],[12.80467,67.83579],[12.80428,67.83293],[12.8029,67.8322],[12.80116,67.83199],[12.80236,67.83294],[12.79965,67.833],[12.7977,67.83516],[12.7987,67.83571],[12.80236,67.83605],[12.79806,67.83787],[12.79677,67.83929],[12.79877,67.83972],[12.79894,67.84012],[12.79628,67.84057],[12.79584,67.84129],[12.79772,67.84178],[12.80063,67.84111],[12.80722,67.84262],[12.81425,67.84282],[12.82487,67.8416],[12.82628,67.84213],[12.82555,67.84375],[12.82926,67.84519],[12.83153,67.84672],[12.83442,67.84622],[12.83821,67.84703],[12.84318,67.84635],[12.84671,67.84661],[12.84757,67.84814],[12.84233,67.84953],[12.84098,67.85093],[12.83525,67.85271],[12.83563,67.85357],[12.83753,67.85346],[12.83915,67.8538],[12.83918,67.85481],[12.82991,67.85631],[12.82847,67.85913],[12.82986,67.85936],[12.83414,67.8584],[12.83827,67.85652],[12.84387,67.85637],[12.84728,67.85721],[12.84839,67.85862],[12.8512,67.8596],[12.85179,67.86082],[12.85117,67.86362],[12.84939,67.8647],[12.84914,67.8658],[12.8503,67.86626],[12.85211,67.86597],[12.8542,67.86615],[12.85902,67.86749]],[[12.91347,67.96108],[12.91231,67.96288],[12.91115,67.96358],[12.90841,67.96413],[12.90759,67.96481],[12.90805,67.9657],[12.90566,67.96712],[12.90803,67.96773],[12.90878,67.9699],[12.91136,67.97159],[12.91515,67.97259],[12.91916,67.9752],[12.92182,67.97592],[12.92334,67.97798],[12.92203,67.97897],[12.92457,67.98141],[12.92796,67.98141],[12.93493,67.98047],[12.93893,67.97875],[12.94402,67.97798],[12.95279,67.98128],[12.95404,67.98088],[12.95513,67.97885],[12.96397,67.97946],[12.96813,67.98061]],[[12.99783,67.96213],[13.00209,67.96117]],[[13.00626,67.95838],[12.99853,67.95638],[12.99921,67.95558],[12.9969,67.9548],[12.98978,67.95363],[12.98517,67.94997],[12.98146,67.9485],[12.97764,67.94472],[12.97764,67.94318],[12.97626,67.94191],[12.97621,67.94095],[12.97878,67.93966],[12.98076,67.93946],[12.98532,67.94],[12.98703,67.94147],[12.98824,67.94416],[12.99029,67.94505],[12.99402,67.94519],[12.99734,67.94588],[12.99815,67.94701],[13.00055,67.9477]],[[13.00055,67.9477],[12.99922,67.94851],[12.9999,67.94887],[13.00337,67.9489]]]}}]}