{"type":"FeatureCollection","features":[{"type":"Feature","properties":{},"geometry":{"type":"MultiLineString","coordinates":[[[13.93427,67.02891],[13.93271,67.02823],[13.93239,67.02889]],[[13.90524,67.0145],[13.90551,67.01399],[13.90449,67.01391],[13.90253,67.01448],[13.90127,67.01367],[13.90005,67.0137],[13.90135,67.01493],[13.90524,67.0145]],[[13.93362,67.02415],[13.93452,67.02374],[13.93576,67.02408]],[[13.95608,67.02905],[13.95552,67.02711]],[[13.93239,67.02889],[13.93448,67.03027],[13.93427,67.02891]],[[13.6205,67.05887],[13.62052,67.05845]],[[13.66112,67.04643],[13.66002,67.04658],[13.66322,67.04822],[13.66551,67.04877],[13.66454,67.0472],[13.66112,67.04643]],[[13.92909,67.05247],[13.9283,67.05251],[13.92758,67.05357],[13.92851,67.05482],[13.93021,67.05499],[13.92909,67.05247]],[[13.66191,67.04866],[13.66031,67.04881],[13.66208,67.04954],[13.66593,67.04976],[13.66569,67.04935],[13.66191,67.04866]],[[13.74711,67.05121],[13.74551,67.05127],[13.74541,67.05176],[13.74926,67.05217],[13.74941,67.05136],[13.74711,67.05121]],[[13.64118,67.04895],[13.63944,67.04906],[13.64153,67.05081],[13.64373,67.05135],[13.64305,67.05012],[13.64118,67.04895]],[[13.67818,67.05979],[13.67469,67.05922],[13.67399,67.05944],[13.6748,67.06041],[13.67788,67.06018],[13.67818,67.05979]],[[13.84754,67.08104],[13.84944,67.0799]],[[13.8386,67.08851],[13.83769,67.08833],[13.83421,67.08979],[13.83862,67.08916],[13.8386,67.08851]],[[13.82333,67.09562],[13.8243,67.09415],[13.82167,67.09493],[13.81912,67.09482],[13.81776,67.0953],[13.81867,67.09551],[13.82033,67.09523],[13.82189,67.09594],[13.82333,67.09562]],[[13.80451,67.09974],[13.80165,67.10007],[13.8008,67.10069],[13.80163,67.10103],[13.80346,67.101],[13.80457,67.10051],[13.80451,67.09974]],[[13.82101,67.10961],[13.82065,67.1085],[13.81914,67.10825],[13.8166,67.10872],[13.81815,67.10974],[13.82024,67.10988],[13.82101,67.10961]],[[13.79923,67.11196],[13.80018,67.11139],[13.79832,67.11166],[13.79635,67.11125],[13.79708,67.11058],[13.7952,67.11055],[13.79515,67.11159],[13.79603,67.11212],[13.79786,67.11227],[13.79923,67.11196]],[[13.9675,67.11884],[13.96285,67.11877]],[[13.95223,67.12148],[13.95094,67.12133],[13.95266,67.12079],[13.95207,67.12054],[13.94908,67.12079],[13.94736,67.12144],[13.9497,67.12205],[13.95191,67.12191],[13.95223,67.12148]],[[13.82776,67.12291],[13.82635,67.12274],[13.82509,67.12321],[13.82728,67.1245],[13.83082,67.12413],[13.82776,67.12291]],[[13.96137,67.15322],[13.96213,67.15364]],[[13.73061,67.15184],[13.73059,67.15221]],[[13.77467,67.15259],[13.77338,67.15274],[13.77446,67.15371],[13.77755,67.15466],[13.77691,67.15376],[13.77564,67.15362],[13.77626,67.15307],[13.77467,67.15259]],[[13.97802,67.16376],[13.97635,67.16307],[13.97477,67.16315],[13.9747,67.16374]],[[13.9747,67.16374],[13.97701,67.16471],[13.97878,67.1649],[13.97933,67.16445],[13.97802,67.16376]],[[13.76564,67.1672],[13.76414,67.16689],[13.7641,67.16762],[13.76658,67.16855],[13.76735,67.16821],[13.76564,67.1672]],[[13.79836,67.16866],[13.79499,67.16885],[13.79754,67.16978],[13.79939,67.16888],[13.79836,67.16866]],[[13.76791,67.16979],[13.76606,67.16999],[13.76725,67.17055],[13.77114,67.17116],[13.77065,67.17045],[13.76791,67.16979]],[[13.77973,67.1733],[13.77649,67.17281],[13.77522,67.17299],[13.77836,67.17425],[13.77967,67.17412],[13.77973,67.1733]],[[13.76768,67.17325],[13.76498,67.17294],[13.76538,67.17415],[13.76862,67.1744],[13.76768,67.17325]],[[13.97247,67.23653],[13.97111,67.23622],[13.97023,67.2365],[13.9713,67.2374],[13.97345,67.23781],[13.97374,67.23719],[13.97247,67.23653]],[[13.75918,67.17716],[13.75802,67.17679],[13.75373,67.17675],[13.75441,67.17732],[13.75812,67.17779],[13.75959,67.17752],[13.75918,67.17716]],[[13.76216,67.18019],[13.75924,67.17999],[13.7588,67.18034],[13.76419,67.18097],[13.76216,67.18019]],[[13.78502,67.18293],[13.77975,67.18301],[13.7808,67.18361],[13.78451,67.18424],[13.78621,67.18353],[13.78502,67.18293]],[[13.73947,67.1837],[13.73672,67.18346],[13.73606,67.184],[13.73682,67.18483],[13.74007,67.18447],[13.73947,67.1837]],[[13.72878,67.18666],[13.7258,67.18609],[13.72459,67.18619],[13.72799,67.18736],[13.72871,67.18802]],[[13.72871,67.18802],[13.73094,67.18846],[13.73204,67.18811],[13.72878,67.18666]],[[13.99128,67.22287],[13.98865,67.2229],[13.98835,67.22338],[13.991,67.22402],[13.99204,67.22371],[13.99128,67.22287]],[[13.99604,67.22527],[13.99386,67.22512],[13.99336,67.2256],[13.99955,67.2265],[13.99816,67.22571],[13.99604,67.22527]],[[13.95591,67.27943],[13.95591,67.27951]],[[13.9473,67.4327],[13.94887,67.43292],[13.94819,67.43271]],[[13.00248,67.88218],[13.00441,67.88199],[13.00214,67.88021],[13.00114,67.88058],[13.00038,67.8822],[13.00193,67.88274],[13.00248,67.88218]],[[13.02551,67.88988],[13.0217,67.8892],[13.02165,67.88833],[13.02839,67.8891]],[[13.04212,67.9178],[13.04813,67.91634]],[[13.07158,67.91359],[13.07503,67.91335],[13.0766,67.91277],[13.07621,67.91188],[13.07156,67.90924],[13.06454,67.90972],[13.06282,67.90907],[13.05736,67.90879],[13.05237,67.90717],[13.05187,67.90635],[13.05343,67.90485],[13.06136,67.90342],[13.06023,67.90248],[13.05651,67.90106],[13.05693,67.90037],[13.0556,67.89961],[13.05424,67.8997],[13.04999,67.89872],[13.051,67.89811],[13.05053,67.8977],[13.0491,67.89757],[13.0452,67.89809],[13.0447,67.90011],[13.04601,67.90087],[13.04396,67.90177],[13.03314,67.90166],[13.03048,67.90091],[13.02867,67.89926],[13.03189,67.89885],[13.03356,67.8972],[13.0345,67.89676],[13.03588,67.89676],[13.03506,67.89558],[13.03916,67.89575],[13.0345,67.89395],[13.03738,67.89403],[13.03869,67.89348],[13.03055,67.89072],[13.02551,67.88988]],[[13.08355,67.91752],[13.08162,67.91448],[13.07869,67.91393],[13.07346,67.91575],[13.06946,67.91812]],[[13.04813,67.91634],[13.05018,67.91552],[13.05397,67.91483],[13.06518,67.91377],[13.07158,67.91359]],[[13.08373,67.91829],[13.08355,67.91752]],[[13.04212,67.9178],[13.04083,67.91838],[13.04165,67.91996],[13.04555,67.91998],[13.05059,67.92149],[13.05887,67.92093],[13.06946,67.91812]],[[13.08203,67.92403],[13.07979,67.92284],[13.07912,67.92104],[13.08097,67.91947],[13.08373,67.91829]],[[13.10757,67.92649],[13.10631,67.92656],[13.10488,67.92787],[13.10958,67.92822],[13.11011,67.92777],[13.10757,67.92649]],[[13.08203,67.92403],[13.085,67.92776],[13.08626,67.92801]],[[13.08626,67.92801],[13.08874,67.92787],[13.08937,67.9256],[13.09227,67.92496]],[[13.09237,67.93006],[13.09458,67.92913],[13.09491,67.92831],[13.09383,67.9275],[13.09503,67.9269],[13.09409,67.92555],[13.09227,67.92496]],[[13.11792,67.93155],[13.11703,67.93157],[13.11596,67.93251],[13.1158,67.93378],[13.11756,67.93501],[13.11922,67.93261],[13.11792,67.93155]],[[13.09063,67.93548],[13.09142,67.93531]],[[13.09142,67.93531],[13.09285,67.93504],[13.09696,67.93531],[13.10095,67.93638],[13.10222,67.93631],[13.09519,67.93374],[13.09502,67.93257],[13.09237,67.93006]],[[13.08672,67.92904],[13.08811,67.93112],[13.08577,67.93321],[13.08732,67.93368],[13.08762,67.9343],[13.08595,67.93482],[13.08548,67.93567],[13.08696,67.93623],[13.0907,67.9366],[13.09106,67.93619],[13.09004,67.93573],[13.09063,67.93548]],[[13.0907,67.94401],[13.09476,67.94391]],[[13.09115,67.93856],[13.08882,67.93828],[13.08645,67.93921],[13.08403,67.93831],[13.08237,67.93818],[13.08134,67.93893],[13.07903,67.93903],[13.07763,67.93958],[13.07824,67.94001]],[[13.11202,67.94196],[13.11531,67.94191],[13.11607,67.94144],[13.11961,67.94225],[13.11933,67.94122],[13.12135,67.94128],[13.12158,67.94085],[13.11884,67.93796],[13.11182,67.93606],[13.10918,67.93594],[13.10867,67.93655],[13.10956,67.93835],[13.11631,67.94029],[13.11533,67.94142],[13.10825,67.94006],[13.10953,67.94199],[13.1109,67.94224],[13.11202,67.94196]],[[13.09476,67.94391],[13.10273,67.9435],[13.1044,67.9424],[13.10148,67.94196],[13.10012,67.94233],[13.09914,67.94128],[13.09444,67.94005],[13.09115,67.93856]],[[13.07824,67.94001],[13.08327,67.94129],[13.08936,67.94388],[13.0907,67.94401]],[[13.12642,67.94437],[13.12445,67.94333],[13.12354,67.94395],[13.12098,67.94394],[13.12285,67.9452],[13.12616,67.94632],[13.12708,67.94607],[13.12761,67.94479],[13.12642,67.94437]],[[13.13571,67.9463],[13.13695,67.94629],[13.13735,67.94694],[13.13817,67.94696],[13.13803,67.94608],[13.1364,67.94517],[13.13675,67.94473],[13.1343,67.94402],[13.13222,67.94429],[13.13207,67.94552],[13.12951,67.94729],[13.13156,67.94849],[13.13311,67.94832],[13.1328,67.94707],[13.13571,67.9463]],[[13.16429,67.96371],[13.16093,67.96318]],[[13.09248,67.96326],[13.09476,67.96683],[13.09609,67.96734],[13.10018,67.96765],[13.09894,67.96923],[13.10149,67.96979],[13.10258,67.96942],[13.10284,67.96734],[13.10496,67.96729],[13.10856,67.96835],[13.11105,67.96787],[13.1116,67.96581],[13.11355,67.9635]],[[12.99486,67.9681],[13.0016,67.96634],[13.00308,67.96494],[13.00726,67.96359],[13.00673,67.96224]],[[13.174,67.9879],[13.17279,67.98779],[13.17241,67.98864],[13.17666,67.99008],[13.174,67.9879]],[[13.18579,67.99913],[13.18337,67.99802],[13.18261,67.99616],[13.18039,67.99591],[13.17709,67.9942],[13.17664,67.99458],[13.1791,67.99656],[13.17893,67.99961],[13.18115,67.99983],[13.18295,67.99899],[13.18575,68.00017]],[[13.18575,68.00017],[13.18579,67.99913]],[[13.02543,67.96246],[13.02292,67.96638],[13.02286,67.96806],[13.01687,67.97478],[13.0166,67.9785],[13.01479,67.9787],[13.01208,67.9775],[13.00948,67.97886],[13.00896,67.98002],[13.00585,67.98106],[13.00912,67.9843],[13.01002,67.98674],[13.01018,67.98822],[13.0088,67.98911],[13.00896,67.98998],[13.01263,67.99135],[13.01454,67.99343],[13.01657,67.99394],[13.02319,67.99333],[13.0201,67.99122],[13.02001,67.98841],[13.02828,67.98427],[13.04069,67.97388],[13.04315,67.97276],[13.04607,67.96731],[13.04483,67.96387],[13.04523,67.9627]],[[13.18932,67.99411],[13.18744,67.99407],[13.18845,67.99449],[13.18753,67.99563],[13.18967,67.99853],[13.19055,67.99483],[13.18932,67.99411]],[[13.20587,67.99822],[13.20477,67.99837],[13.20347,67.99786],[13.20188,67.99852],[13.20447,68.00029]],[[13.20571,68.00035],[13.20751,67.99897],[13.20728,67.99842],[13.20587,67.99822]],[[13.723,67.16781],[13.72167,67.16806],[13.72468,67.16938],[13.72835,67.16967],[13.72743,67.16873],[13.723,67.16781]],[[13.8989,67.00361],[13.89654,67.00409],[13.89888,67.00539],[13.90084,67.0044],[13.8989,67.00361]],[[13.9675,67.00966],[13.96888,67.0096],[13.97158,67.0087],[13.97306,67.01013],[13.9752,67.01076],[13.97493,67.00967],[13.9758,67.00948],[13.97823,67.01001],[13.98114,67.008],[13.98213,67.00791],[13.98384,67.00802],[13.98543,67.00885],[13.99196,67.00948],[13.99369,67.00901],[13.99612,67.0095],[13.99732,67.00744],[14.00235,67.00394]],[[13.86836,66.99911],[13.87338,67.00153],[13.8753,67.00195],[13.88301,67.00189],[13.906,67.00348],[13.9132,67.00538],[13.91543,67.00698],[13.92469,67.01014],[13.92533,67.00931],[13.93075,67.01026],[13.93836,67.01005],[13.94125,67.01046],[13.94472,67.00957],[13.95253,67.01046],[13.95575,67.01165],[13.96036,67.01245],[13.96581,67.01076],[13.96591,67.00973],[13.9675,67.00966]],[[13.67864,67.01926],[13.66859,67.01605],[13.66587,67.0161],[13.65518,67.01336],[13.65312,67.01357],[13.65367,67.01422],[13.66502,67.01635],[13.67178,67.01826],[13.67293,67.01819],[13.67817,67.01959],[13.67864,67.01926]],[[13.65766,67.0219],[13.64958,67.01819],[13.64553,67.0173],[13.6442,67.0175],[13.64246,67.01608],[13.63882,67.01528],[13.63975,67.0164],[13.64296,67.01797],[13.64568,67.01805],[13.65437,67.0218],[13.65722,67.02217],[13.65766,67.0219]],[[13.96126,67.02598],[13.96496,67.02312],[13.96457,67.02228],[13.96324,67.02207],[13.96365,67.02114],[13.962,67.02035],[13.95886,67.01978],[13.95388,67.0195],[13.94312,67.01481],[13.93923,67.01373],[13.9385,67.014],[13.9387,67.0159],[13.93757,67.01596],[13.93494,67.01451],[13.91819,67.01003],[13.9203,67.01168],[13.91889,67.01256],[13.91627,67.01178],[13.91367,67.01157],[13.91373,67.01321],[13.91224,67.01316],[13.91031,67.01241],[13.90917,67.0133],[13.90615,67.01325],[13.90583,67.01353],[13.91225,67.01459],[13.91605,67.01686],[13.91699,67.01688],[13.91837,67.01599],[13.92047,67.0162],[13.92076,67.01717],[13.92514,67.02125],[13.92814,67.02298],[13.9305,67.0237],[13.93153,67.02516],[13.93242,67.02516],[13.93362,67.02415]],[[13.95552,67.02711],[13.95577,67.02654],[13.9573,67.02612],[13.96126,67.02598]],[[13.93576,67.02408],[13.93869,67.02493],[13.93902,67.02362],[13.94071,67.02323],[13.94482,67.02446],[13.9484,67.029]],[[13.60048,67.03301],[13.59599,67.03211],[13.59728,67.03277],[13.59697,67.03327],[13.60061,67.03424],[13.60127,67.03403],[13.60048,67.03301]],[[13.65378,67.04425],[13.65188,67.04417],[13.65068,67.04365],[13.64725,67.04087],[13.64534,67.04117],[13.64082,67.04023],[13.63213,67.03628],[13.62906,67.03542],[13.6334,67.03883],[13.6448,67.0435],[13.65221,67.04561],[13.65554,67.04527],[13.65378,67.04425]],[[13.94528,67.04761],[13.9416,67.04471],[13.94017,67.04125],[13.93858,67.03963],[13.92785,67.0337],[13.9232,67.03193],[13.9193,67.03119],[13.92259,67.03476],[13.92382,67.0344],[13.92464,67.0346],[13.93109,67.03817],[13.93672,67.04277],[13.94025,67.04439],[13.9399,67.04464],[13.93695,67.0446],[13.93425,67.04384],[13.93811,67.04619],[13.93763,67.04697],[13.93929,67.04744],[13.9426,67.04738],[13.94462,67.04797],[13.94555,67.04787],[13.94528,67.04761]],[[13.65993,67.04603],[13.66428,67.04612],[13.6639,67.04573],[13.66042,67.04517],[13.65998,67.04422],[13.65866,67.04379],[13.65599,67.04398],[13.65595,67.04204],[13.65402,67.04113],[13.64951,67.04038],[13.64953,67.04137],[13.6513,67.04298],[13.65741,67.04501],[13.6596,67.04643],[13.65993,67.04603]],[[13.62143,67.04259],[13.62044,67.04062],[13.60328,67.03454],[13.60236,67.0345],[13.60132,67.03503],[13.59673,67.03358],[13.59387,67.03319],[13.59521,67.03454],[13.59855,67.03558],[13.60307,67.03655],[13.60532,67.03646],[13.61561,67.0423],[13.61568,67.0429],[13.60539,67.03787],[13.58938,67.03427],[13.59745,67.03764],[13.60309,67.03927],[13.6077,67.04008],[13.60991,67.04119],[13.61095,67.04256],[13.61471,67.04379],[13.61629,67.04342],[13.61852,67.04527],[13.62121,67.04631]],[[13.6838,67.04689],[13.68282,67.04648],[13.68036,67.04701],[13.68036,67.04774],[13.68235,67.04812],[13.68369,67.04766],[13.6838,67.04689]],[[13.62121,67.04631],[13.62972,67.0481],[13.631,67.04788],[13.62969,67.04607],[13.62403,67.04441],[13.62143,67.04259]],[[13.73592,67.05035],[13.73556,67.05066],[13.73295,67.05034],[13.73224,67.05059],[13.73581,67.05241]],[[13.73581,67.05241],[13.73725,67.0523],[13.73771,67.05145],[13.7375,67.05073],[13.73592,67.05035]],[[13.59252,67.04796],[13.59041,67.048],[13.58972,67.05003],[13.59242,67.05122],[13.59462,67.05158],[13.59351,67.04853],[13.59252,67.04796]],[[13.58805,67.05148],[13.58694,67.05133],[13.58689,67.052],[13.58957,67.05374],[13.59067,67.05347],[13.58805,67.05148]],[[13.68704,67.05404],[13.6855,67.05329],[13.68527,67.05241],[13.6821,67.05346],[13.68044,67.05289],[13.68072,67.05087],[13.67827,67.0497],[13.6775,67.04986],[13.67719,67.05104],[13.67536,67.05139],[13.67251,67.04927],[13.67117,67.04938],[13.67045,67.05042],[13.67666,67.05266],[13.67744,67.0536],[13.67465,67.05259],[13.67362,67.05337],[13.67244,67.05341],[13.67184,67.05225],[13.6676,67.05243],[13.67133,67.05515],[13.67524,67.05425],[13.67732,67.05528],[13.67942,67.05508],[13.67825,67.05403],[13.67879,67.05382],[13.68372,67.05446],[13.68779,67.05575],[13.68828,67.0551],[13.68704,67.05404]],[[13.65912,67.05509],[13.66046,67.05496],[13.66094,67.05439],[13.6634,67.05556],[13.66564,67.05513],[13.66656,67.05452],[13.66566,67.05245],[13.66784,67.05213],[13.6675,67.05172],[13.6609,67.05085],[13.6547,67.04935],[13.64981,67.04789],[13.62685,67.03909],[13.62481,67.03853],[13.62329,67.03873],[13.64125,67.04531],[13.64365,67.04681],[13.65205,67.05001],[13.66268,67.05179],[13.66237,67.05208],[13.66043,67.05198],[13.66128,67.05243],[13.663,67.05225],[13.66366,67.05252],[13.6602,67.05409],[13.65988,67.05376],[13.66084,67.05344],[13.66015,67.05266],[13.65776,67.05167],[13.64663,67.0491],[13.64401,67.04797],[13.64159,67.04777],[13.64369,67.04923],[13.64832,67.05011],[13.64586,67.05066],[13.65298,67.05505],[13.65497,67.05545],[13.65564,67.05482],[13.65719,67.05491],[13.6591,67.05606],[13.65912,67.05509]],[[13.9484,67.029],[13.95001,67.0312],[13.95334,67.03345],[13.95361,67.03496],[13.9516,67.03418],[13.94836,67.03121],[13.94556,67.03],[13.94289,67.03057],[13.94292,67.03132],[13.94764,67.03394],[13.94619,67.03481],[13.94314,67.0333],[13.94143,67.03334],[13.9425,67.03575],[13.93818,67.03277],[13.93394,67.03221],[13.93211,67.03124],[13.93159,67.03176],[13.93221,67.03303],[13.9402,67.03977],[13.94526,67.0454],[13.94672,67.04932],[13.94499,67.05038],[13.94675,67.05322],[13.94926,67.05483],[13.94899,67.05537],[13.94693,67.0554],[13.94643,67.05651],[13.94948,67.05744],[13.95233,67.0552],[13.95429,67.0553],[13.95534,67.0585],[13.9599,67.05977],[13.96102,67.05948],[13.96307,67.0548],[13.96339,67.05084],[13.96173,67.0438],[13.96273,67.04209],[13.96212,67.03952],[13.95608,67.02905]],[[13.70833,67.05654],[13.70989,67.05658],[13.71376,67.0554],[13.71615,67.05523],[13.72088,67.05576],[13.72521,67.05556],[13.71676,67.05326],[13.72088,67.05221],[13.71934,67.05175],[13.71749,67.05179],[13.71382,67.05045],[13.71397,67.05016],[13.72552,67.05223],[13.72778,67.05296],[13.72969,67.05311],[13.73187,67.05272],[13.73237,67.05182],[13.72966,67.04973],[13.73055,67.04798],[13.72937,67.04728],[13.72743,67.04741],[13.72698,67.04626],[13.72597,67.04624],[13.72515,67.04695],[13.72563,67.048],[13.72822,67.04933],[13.72783,67.04956],[13.72072,67.04783],[13.71605,67.04725],[13.71395,67.04608],[13.70513,67.04382],[13.7056,67.04486],[13.70388,67.04513],[13.70477,67.04677],[13.70812,67.04854],[13.71334,67.05001],[13.70928,67.0494],[13.7087,67.04967],[13.71001,67.05027],[13.70931,67.05042],[13.70615,67.04954],[13.70574,67.04847],[13.70441,67.0478],[13.70218,67.04792],[13.70049,67.04726],[13.69883,67.04734],[13.69862,67.04781],[13.70032,67.04895],[13.70363,67.04948],[13.70567,67.0507],[13.70497,67.05086],[13.70292,67.05001],[13.70062,67.04977],[13.69967,67.05005],[13.70037,67.05095],[13.69906,67.05106],[13.69917,67.0515],[13.70211,67.05347],[13.70386,67.05392],[13.70499,67.05349],[13.70641,67.05378],[13.70764,67.05566],[13.70673,67.05631],[13.70534,67.05651],[13.70008,67.05563],[13.69954,67.05539],[13.70039,67.05486],[13.70417,67.0554],[13.70499,67.05501],[13.70155,67.05363],[13.69903,67.0534],[13.69854,67.05388],[13.69976,67.05484],[13.69535,67.05378],[13.69625,67.05499],[13.69506,67.0563],[13.69812,67.05728],[13.70081,67.05628],[13.70595,67.05895],[13.70833,67.05654]],[[13.68793,67.05827],[13.68758,67.05645],[13.68606,67.05672],[13.68611,67.0579],[13.68422,67.0572],[13.6823,67.05722],[13.68229,67.05636],[13.67998,67.05614],[13.68057,67.05861],[13.68272,67.05739],[13.6861,67.05897],[13.68691,67.05992],[13.68793,67.05827]],[[13.59092,67.05686],[13.5861,67.05574],[13.58501,67.05593],[13.5859,67.05688],[13.59103,67.05837],[13.59301,67.05994],[13.59396,67.05842],[13.59352,67.0578],[13.59092,67.05686]],[[13.62052,67.05845],[13.61901,67.05737],[13.61333,67.05548],[13.60906,67.05493],[13.61212,67.05691],[13.61359,67.05689],[13.61495,67.0587],[13.61726,67.06013],[13.61896,67.06017],[13.6205,67.05887]],[[13.64497,67.05787],[13.6403,67.05692],[13.63917,67.05703],[13.64317,67.05817],[13.6453,67.05968],[13.64797,67.06046],[13.65088,67.06073],[13.64709,67.05941],[13.64497,67.05787]],[[13.95665,67.06118],[13.95544,67.06116],[13.95511,67.06196],[13.95757,67.06308],[13.95873,67.06306],[13.96012,67.06201],[13.95665,67.06118]],[[13.61283,67.05966],[13.61175,67.05957],[13.61146,67.06018],[13.61504,67.06266],[13.61616,67.06277],[13.61642,67.06128],[13.61283,67.05966]],[[13.9589,67.06344],[13.95513,67.06408],[13.95441,67.06641],[13.95514,67.06712],[13.95635,67.06704],[13.95758,67.06619],[13.9589,67.06344]],[[13.65835,67.06297],[13.65623,67.06313],[13.65709,67.06448],[13.65868,67.06546],[13.66171,67.06604],[13.6629,67.06532],[13.66256,67.06486],[13.66118,67.06373],[13.65835,67.06297]],[[13.6471,67.06129],[13.64566,67.06115],[13.64513,67.0617],[13.64979,67.06391],[13.64906,67.06409],[13.6494,67.06461],[13.65265,67.06645],[13.65345,67.0626],[13.6471,67.06129]],[[13.67256,67.06554],[13.67104,67.06454],[13.66607,67.06398],[13.66361,67.06413],[13.66526,67.06561],[13.66734,67.06551],[13.67273,67.06792],[13.67469,67.06712],[13.67256,67.06554]],[[13.94355,67.06914],[13.94469,67.06646],[13.94559,67.0661],[13.94643,67.06618],[13.9492,67.06879],[13.95148,67.06878],[13.95107,67.06361],[13.94844,67.06138],[13.94824,67.05954],[13.9469,67.05955],[13.94584,67.06081],[13.94392,67.06126],[13.94233,67.05775],[13.94083,67.05686],[13.93771,67.05969],[13.93815,67.0612],[13.9351,67.06047],[13.93398,67.06068],[13.93379,67.06367],[13.93715,67.06666],[13.93783,67.07003],[13.94042,67.07301],[13.94164,67.07321],[13.94274,67.0723],[13.94355,67.06914]],[[13.75431,67.07246],[13.7524,67.07105],[13.7505,67.07063],[13.74924,67.06758],[13.76068,67.06491],[13.76377,67.06286],[13.77275,67.06147],[13.77449,67.06058],[13.7746,67.05896],[13.77149,67.05474],[13.76369,67.05419],[13.75908,67.05235],[13.75498,67.05213],[13.7528,67.05127],[13.7504,67.05114],[13.74828,67.04976],[13.74943,67.04928],[13.75089,67.04975],[13.75144,67.04938],[13.74865,67.04751],[13.75094,67.04702],[13.74901,67.04555],[13.74984,67.04448],[13.75103,67.04493],[13.75441,67.0442],[13.75735,67.04445],[13.75841,67.04552],[13.762,67.04717],[13.76358,67.04722],[13.76888,67.04891],[13.7726,67.05158],[13.77174,67.05209],[13.77265,67.05254],[13.776,67.05265],[13.78151,67.05136],[13.7828,67.05199],[13.78734,67.05214],[13.78862,67.05251],[13.79407,67.052],[13.80245,67.05216],[13.80998,67.05383],[13.81684,67.05485],[13.82988,67.05842],[13.83325,67.05838],[13.84205,67.06041],[13.84411,67.06007],[13.8473,67.06067],[13.8503,67.06189]],[[13.86575,67.07329],[13.87075,67.07143],[13.87111,67.07073],[13.86847,67.06646],[13.86619,67.06514],[13.86847,67.06455],[13.86794,67.06355],[13.86219,67.05982],[13.86126,67.06152],[13.85838,67.06062],[13.8573,67.06227],[13.85536,67.06291],[13.85332,67.06301],[13.8503,67.06189]],[[13.85426,67.07628],[13.85904,67.07417],[13.86575,67.07329]],[[13.77804,67.10583],[13.77665,67.1055],[13.77197,67.10627],[13.77186,67.10712],[13.77357,67.1074],[13.77786,67.10707],[13.77901,67.10657],[13.77804,67.10583]],[[13.84944,67.0799],[13.85426,67.07628]],[[13.7615,67.16516],[13.75764,67.16431],[13.75803,67.16524],[13.76062,67.16673],[13.76248,67.16714],[13.76337,67.16656],[13.7615,67.16516]],[[13.75431,67.07246],[13.75908,67.07419],[13.7635,67.07521],[13.76819,67.08016],[13.77069,67.08014],[13.77124,67.07913],[13.77513,67.08024],[13.78476,67.07926],[13.78972,67.07926],[13.7945,67.0802],[13.79901,67.0799],[13.8004,67.08067],[13.80379,67.08097],[13.80364,67.0821],[13.80604,67.0832],[13.80828,67.08341],[13.81122,67.0829],[13.8126,67.08321],[13.81397,67.08397],[13.81132,67.08404],[13.8106,67.08443],[13.81298,67.08519],[13.81542,67.0853],[13.81554,67.08445],[13.81844,67.08487],[13.82087,67.08452],[13.82414,67.08668],[13.82629,67.08611],[13.82811,67.0842],[13.83058,67.0843],[13.84484,67.08226],[13.84754,67.08104]],[[13.76542,67.09773],[13.75927,67.09713],[13.75659,67.09787],[13.75929,67.09948],[13.77344,67.10334],[13.77436,67.10328],[13.77512,67.10287],[13.77321,67.10152],[13.76542,67.09773]],[[13.79265,67.10354],[13.79392,67.10287],[13.79637,67.10246],[13.79268,67.10083],[13.78945,67.10159],[13.79084,67.10202],[13.79267,67.10168],[13.79331,67.10231],[13.78993,67.10264],[13.78886,67.10337],[13.78673,67.10334],[13.78057,67.10451],[13.78334,67.10578],[13.78587,67.10585],[13.7926,67.10443],[13.79265,67.10354]],[[13.77351,67.10475],[13.77194,67.10379],[13.76447,67.1018],[13.75897,67.101],[13.75768,67.10128],[13.75734,67.10242],[13.75899,67.10495],[13.76432,67.10482],[13.7676,67.10413],[13.76758,67.10475],[13.76435,67.10548],[13.76473,67.10577],[13.77223,67.10519],[13.77351,67.10475]],[[13.81601,67.10687],[13.81187,67.10694],[13.81078,67.10726],[13.81122,67.10797],[13.81577,67.10846],[13.81775,67.1073],[13.81601,67.10687]],[[13.82708,67.10998],[13.82525,67.10985],[13.82278,67.11042],[13.82485,67.11257],[13.82903,67.11413],[13.83074,67.11428],[13.83186,67.11386],[13.83038,67.11334],[13.83039,67.11094],[13.82708,67.10998]],[[13.7736,67.10834],[13.7696,67.10668],[13.76159,67.10762],[13.76297,67.10834],[13.76692,67.10828],[13.76838,67.10881],[13.77299,67.10872],[13.7736,67.10834]],[[13.82543,67.10842],[13.829,67.10731],[13.82781,67.10597],[13.8256,67.10612],[13.82371,67.10468],[13.82199,67.1052],[13.82102,67.10626],[13.82472,67.10819],[13.82369,67.10841],[13.822,67.10815],[13.82167,67.10846],[13.82394,67.10961],[13.82503,67.10941],[13.82543,67.10842]],[[13.92059,67.11086],[13.92526,67.10981],[13.92767,67.11029]],[[14.00032,67.09961],[13.99449,67.09976],[13.98872,67.10291],[13.99979,67.1101],[13.99952,67.11125],[14.00353,67.11146]],[[13.84149,67.11798],[13.84033,67.11724],[13.84016,67.11571],[13.83843,67.11457],[13.83436,67.11306],[13.835,67.11198],[13.83443,67.11084],[13.83066,67.10855],[13.83306,67.10768],[13.83029,67.10651],[13.82998,67.10585],[13.83069,67.10521],[13.83336,67.10501],[13.83784,67.10361],[13.83961,67.10458],[13.83769,67.10556],[13.8406,67.10577],[13.84232,67.10509],[13.84043,67.10449],[13.84133,67.10391],[13.8405,67.10298],[13.84192,67.10226],[13.84448,67.10191],[13.84742,67.10259],[13.84402,67.10695],[13.84651,67.10762],[13.84515,67.10876],[13.84503,67.11031],[13.84788,67.11276]],[[13.88948,67.11832],[13.90098,67.11661],[13.91905,67.11169],[13.92059,67.11086]],[[13.96147,67.1188],[13.96285,67.11877]],[[13.72929,67.17685],[13.72927,67.17724]],[[13.92767,67.11029],[13.92914,67.11113],[13.93048,67.11092],[13.93341,67.1098],[13.93366,67.10896],[13.93597,67.10792],[13.92329,67.10303],[13.92089,67.10225],[13.91869,67.10203],[13.91625,67.10072],[13.91315,67.10077],[13.91543,67.10178],[13.91505,67.10204],[13.91144,67.1016],[13.90637,67.10036],[13.90047,67.09982],[13.89665,67.10026],[13.89613,67.09963],[13.89686,67.09901],[13.89607,67.09878],[13.89416,67.09908],[13.89404,67.09945],[13.90015,67.10327],[13.89984,67.10356],[13.89628,67.10306],[13.89473,67.10217],[13.89494,67.10148],[13.89216,67.10066],[13.89058,67.10103],[13.89317,67.10191],[13.89194,67.10236],[13.89367,67.10351],[13.89313,67.10383],[13.88991,67.10316],[13.88672,67.10174],[13.88354,67.10135],[13.87532,67.10273],[13.87021,67.10137],[13.86891,67.10139],[13.86838,67.10213],[13.86703,67.10156],[13.86745,67.10078],[13.86627,67.10005],[13.86394,67.10108],[13.86198,67.10107],[13.86203,67.10165],[13.86649,67.10327],[13.8681,67.1036],[13.86963,67.10339],[13.8775,67.1057],[13.87706,67.10638],[13.87308,67.10567],[13.86674,67.10596],[13.86528,67.10582],[13.86435,67.10518],[13.8595,67.10527],[13.8597,67.10337],[13.85875,67.10256],[13.85231,67.10179],[13.85023,67.10221],[13.84905,67.10368],[13.84895,67.10777],[13.85158,67.11323]],[[13.84979,67.11364],[13.84788,67.11276]],[[13.85158,67.11323],[13.85107,67.11362],[13.84979,67.11364]],[[13.80805,67.11384],[13.80547,67.11359],[13.80898,67.11286],[13.80628,67.11168],[13.80163,67.11182],[13.79752,67.11297],[13.79875,67.11365],[13.80653,67.11547],[13.80821,67.11509],[13.80805,67.11384]],[[13.94304,67.11536],[13.94159,67.11464],[13.93739,67.11524],[13.93799,67.11701],[13.93922,67.11766],[13.94151,67.11732],[13.94335,67.11582],[13.94304,67.11536]],[[13.82087,67.11782],[13.82152,67.117],[13.82522,67.11675],[13.82784,67.11588],[13.82668,67.11542],[13.82542,67.11593],[13.82448,67.11574],[13.82254,67.11436],[13.81944,67.1135],[13.81957,67.11298],[13.81481,67.11205],[13.81408,67.11227],[13.81468,67.11283],[13.81688,67.11318],[13.82022,67.11453],[13.81933,67.11505],[13.81841,67.11444],[13.81657,67.11435],[13.81498,67.11529],[13.81607,67.11693],[13.81903,67.11781]],[[13.71751,67.1671],[13.71279,67.16684],[13.71217,67.16735],[13.71358,67.16792],[13.71979,67.16876],[13.72088,67.16817],[13.72058,67.16769],[13.71751,67.1671]],[[13.81903,67.11781],[13.82087,67.11782]],[[13.96147,67.1188],[13.96278,67.12032]],[[13.96278,67.12032],[13.96761,67.1225],[13.96904,67.12035],[13.9675,67.11884]],[[13.93026,67.12359],[13.93378,67.12237],[13.933,67.12216],[13.92853,67.12279],[13.92822,67.12258],[13.93071,67.12172],[13.93031,67.12144],[13.92364,67.12271],[13.92246,67.12386],[13.92422,67.12444],[13.92767,67.12421],[13.93026,67.12359]],[[13.84149,67.11798],[13.84531,67.12306],[13.84733,67.12447]],[[13.84733,67.12447],[13.84861,67.12514],[13.84964,67.12517],[13.86111,67.12316],[13.86956,67.12255],[13.87279,67.12192],[13.87667,67.12037],[13.87826,67.12067],[13.88948,67.11832]],[[13.94473,67.12342],[13.94421,67.12446],[13.94175,67.12598],[13.94261,67.12405],[13.944,67.1231]],[[13.72981,67.1671],[13.7276,67.16654],[13.72708,67.16689],[13.72537,67.1665],[13.72325,67.16682],[13.7297,67.16917]],[[13.84366,67.12545],[13.84527,67.12383],[13.83937,67.12074],[13.83737,67.11913],[13.83573,67.11889],[13.8309,67.11925],[13.83024,67.12022],[13.83459,67.12458],[13.83952,67.12538],[13.84013,67.1258],[13.84366,67.12545]],[[13.96265,67.12331],[13.95618,67.12401],[13.95486,67.12325],[13.95307,67.12319],[13.95232,67.12375],[13.9563,67.12575],[13.96132,67.1274],[13.96243,67.12842]],[[13.96243,67.12842],[13.96575,67.12933],[13.96717,67.12935],[13.96709,67.12852],[13.96585,67.12798],[13.96663,67.12701],[13.96525,67.1254],[13.96557,67.12432],[13.96265,67.12331]],[[13.96234,67.13069],[13.94852,67.12311],[13.94653,67.12285],[13.94473,67.12342]],[[14.00269,67.12465],[13.99874,67.12333],[13.9977,67.12325],[13.99705,67.12384],[13.9947,67.12261],[13.99331,67.1225],[13.9932,67.12314],[13.99519,67.12409],[13.99612,67.12525],[13.99746,67.12586],[14.00003,67.12574]],[[13.9393,67.13013],[13.94434,67.12988],[13.94339,67.13116]],[[13.944,67.1231],[13.94347,67.12088],[13.94105,67.12085],[13.9298,67.12445],[13.93217,67.1249],[13.93155,67.12546],[13.93361,67.12637],[13.9349,67.12638],[13.93531,67.12691],[13.93156,67.12841],[13.93236,67.12906],[13.93055,67.12984],[13.93021,67.13103],[13.93269,67.13171],[13.93337,67.13021],[13.9393,67.13013]],[[13.97951,67.13067],[13.97842,67.13036],[13.97598,67.13074],[13.97781,67.13217],[13.98112,67.1315],[13.97951,67.13067]],[[13.73056,67.15268],[13.73059,67.15221]],[[13.94054,67.13148],[13.93834,67.13116],[13.93818,67.13052],[13.93617,67.13091],[13.93431,67.13148],[13.93472,67.13303],[13.93686,67.13289],[13.94054,67.13148]],[[13.99592,67.13151],[13.9929,67.13066],[13.99119,67.13063],[13.99579,67.13513],[13.99812,67.1359],[13.99964,67.13707],[14.00196,67.13733]],[[14.00166,67.1365],[13.99725,67.13346],[13.99592,67.13151]],[[13.98424,67.1366],[13.9849,67.13628],[13.98656,67.13652],[13.98575,67.13571],[13.98684,67.13593],[13.98945,67.13544],[13.98618,67.13468],[13.98537,67.1331],[13.98274,67.13251],[13.98026,67.13244],[13.97895,67.13288],[13.97979,67.13398],[13.97827,67.13404],[13.97887,67.13504],[13.98013,67.13554],[13.98057,67.13473],[13.98269,67.13509],[13.98347,67.13558],[13.98203,67.1363],[13.98431,67.13786],[13.98488,67.13759],[13.98424,67.1366]],[[13.71544,67.13548],[13.7095,67.13519],[13.70939,67.13677],[13.71076,67.13779],[13.72168,67.13825],[13.72183,67.13757],[13.71544,67.13548]],[[13.90692,67.13789],[13.90818,67.13749],[13.91239,67.13749],[13.91963,67.13494],[13.92052,67.13412],[13.92005,67.133],[13.91422,67.13352],[13.917,67.13436],[13.90464,67.1373],[13.90524,67.13805],[13.90692,67.13789]],[[13.93724,67.13928],[13.93389,67.13837],[13.93494,67.13727],[13.93255,67.13603],[13.92675,67.13434],[13.91508,67.13819],[13.92099,67.14034],[13.92335,67.1406],[13.92491,67.14201],[13.93211,67.14149],[13.93509,67.1407],[13.93724,67.13928]],[[13.99375,67.13917],[13.99194,67.13738],[13.98843,67.1366],[13.98792,67.13681],[13.98919,67.13835],[13.98732,67.13858],[13.98566,67.13823],[13.98496,67.13888],[13.98584,67.13962],[13.98814,67.14029],[13.9907,67.13889],[13.99267,67.13918],[13.99237,67.14091],[13.99834,67.14387],[13.99885,67.14356],[13.99709,67.14256],[13.99737,67.14131],[13.99375,67.13917]],[[13.80179,67.16254],[13.80774,67.16323],[13.81032,67.16313],[13.81051,67.16261]],[[13.95613,67.14849],[13.95354,67.14796],[13.95251,67.14836],[13.95622,67.15001],[13.95769,67.14948],[13.95613,67.14849]],[[13.94339,67.13116],[13.94472,67.13337],[13.94085,67.13363],[13.93944,67.13423],[13.94139,67.13575],[13.93835,67.13569],[13.93686,67.13454],[13.93459,67.13502],[13.93715,67.1364],[13.93815,67.13777],[13.94334,67.13996],[13.94623,67.14007],[13.94988,67.13879],[13.95153,67.13939],[13.95175,67.13975],[13.94861,67.14082],[13.95605,67.1429],[13.95745,67.14414],[13.95074,67.14243],[13.94968,67.14248],[13.94994,67.14313],[13.94625,67.14268],[13.94567,67.14291],[13.94915,67.14603],[13.95644,67.14788],[13.95929,67.14814],[13.96036,67.14865],[13.9588,67.14968],[13.9599,67.1506]],[[13.9599,67.1506],[13.95953,67.15209],[13.96137,67.15322]],[[13.73061,67.15184],[13.73185,67.15217],[13.7327,67.15195],[13.7307,67.15011]],[[13.74448,67.15253],[13.74772,67.15226],[13.74398,67.15102],[13.74372,67.15212],[13.74448,67.15253]],[[13.7307,67.15011],[13.7297,67.14958],[13.72805,67.14962],[13.72821,67.15103],[13.72515,67.14997],[13.72287,67.15022],[13.72565,67.15176],[13.73056,67.15268]],[[13.7734,67.16233],[13.78072,67.16392],[13.78557,67.16323],[13.78437,67.16241]],[[13.96213,67.15364],[13.96365,67.15476],[13.96628,67.15479],[13.973,67.15344],[13.97593,67.15146],[13.98567,67.14841],[13.98763,67.14605],[13.98735,67.14489],[13.98888,67.14489],[13.98993,67.14555],[13.99384,67.14641],[13.99815,67.14672],[13.99943,67.14626],[13.99907,67.14545],[14.00073,67.14535]],[[14.00062,67.14457],[13.99777,67.14405],[13.99614,67.14418],[13.99556,67.14465],[13.99416,67.14451],[13.99474,67.14347],[13.99366,67.14276],[13.99136,67.14262],[13.99094,67.14196],[13.98233,67.14019],[13.98295,67.13962],[13.9816,67.13825],[13.97856,67.13679],[13.97791,67.13755],[13.97592,67.13732],[13.97609,67.13806],[13.97875,67.13983],[13.97703,67.13975],[13.97279,67.13659],[13.96874,67.13449],[13.96669,67.13239],[13.96884,67.13161],[13.96767,67.13037],[13.96393,67.12964],[13.96298,67.1301],[13.96513,67.13132],[13.96478,67.13158],[13.96234,67.13069]],[[13.72021,67.15295],[13.71833,67.15264],[13.71756,67.15295],[13.7193,67.15388],[13.72164,67.15409],[13.72021,67.15295]],[[13.69834,67.15317],[13.69669,67.15295],[13.69369,67.15322],[13.69201,67.15388],[13.69837,67.15408],[13.69914,67.15377],[13.69834,67.15317]],[[13.73448,67.14971],[13.73287,67.14956],[13.73292,67.15075],[13.73724,67.15394],[13.74234,67.15467],[13.74259,67.15377],[13.73613,67.15095],[13.73448,67.14971]],[[13.69352,67.15191],[13.69533,67.15186],[13.69791,67.15106],[13.69493,67.14964],[13.69275,67.14999],[13.69342,67.15177],[13.69121,67.1509],[13.68679,67.15023],[13.68558,67.15069],[13.68247,67.15071],[13.68455,67.15184],[13.684,67.15268],[13.68543,67.15384],[13.68696,67.15421],[13.69041,67.15412],[13.69168,67.15275],[13.69352,67.15191]],[[13.79387,67.15368],[13.7914,67.15347],[13.78674,67.15168],[13.7821,67.15158],[13.77949,67.15216],[13.77964,67.1527],[13.78098,67.15314],[13.7901,67.15456],[13.79855,67.15542],[13.79717,67.15446],[13.79387,67.15368]],[[13.81051,67.16261],[13.80909,67.1609],[13.80695,67.15983],[13.80147,67.15845],[13.7994,67.1571],[13.79701,67.15664],[13.79254,67.15665],[13.79004,67.1558],[13.78278,67.1549],[13.78005,67.15419],[13.77845,67.15432],[13.78011,67.15542],[13.78096,67.15734],[13.78216,67.1578],[13.78921,67.16013],[13.80179,67.16254]],[[13.96053,67.15402],[13.95517,67.15095],[13.94979,67.1497],[13.9472,67.14789],[13.9439,67.14905],[13.94753,67.15006],[13.9435,67.15054],[13.93931,67.15241],[13.94147,67.1538],[13.93796,67.15344],[13.93662,67.15372],[13.94066,67.15659],[13.94454,67.15716],[13.94851,67.15711],[13.95901,67.15575],[13.96053,67.15402]],[[13.76005,67.15479],[13.75679,67.15483],[13.7564,67.15553],[13.75746,67.15661],[13.76381,67.15652],[13.76457,67.1562],[13.76375,67.1554],[13.76005,67.15479]],[[13.69859,67.1545],[13.69597,67.15439],[13.69327,67.15492],[13.69766,67.15559],[13.69717,67.15627],[13.70128,67.15642],[13.70082,67.15495],[13.69859,67.1545]],[[13.72025,67.15562],[13.71834,67.15538],[13.71702,67.15628],[13.71883,67.15696],[13.72146,67.15718],[13.72194,67.15668],[13.72025,67.15562]],[[13.74183,67.15509],[13.73849,67.15526],[13.74156,67.15661],[13.74718,67.15813],[13.74554,67.15636],[13.74183,67.15509]],[[13.7304,67.15584],[13.72815,67.15565],[13.72714,67.15643],[13.72821,67.15749],[13.73028,67.15801]],[[13.73028,67.15801],[13.73359,67.15832],[13.73555,67.15813],[13.73512,67.15716],[13.7304,67.15584]],[[13.70568,67.15848],[13.70302,67.15712],[13.6995,67.15764],[13.69601,67.1575],[13.69751,67.15812],[13.70473,67.15873],[13.70568,67.15848]],[[13.7375,67.15781],[13.73661,67.15845],[13.73792,67.15901],[13.74129,67.15909],[13.74104,67.1587],[13.7375,67.15781]],[[13.70965,67.15762],[13.71225,67.15796],[13.71405,67.15787],[13.71435,67.15752],[13.71159,67.15662],[13.71147,67.15444],[13.70957,67.15357],[13.70522,67.15416],[13.70549,67.15535],[13.70863,67.15682],[13.70777,67.1569],[13.70486,67.15596],[13.7043,67.1564],[13.70769,67.15877],[13.71192,67.15902],[13.71235,67.15857],[13.70965,67.15762]],[[13.75103,67.15495],[13.74733,67.15455],[13.74655,67.15534],[13.74913,67.15691],[13.74997,67.15819],[13.75375,67.15936],[13.75551,67.15943],[13.75607,67.15821],[13.75535,67.15718],[13.75103,67.15495]],[[13.96115,67.15833],[13.95604,67.16032],[13.96101,67.16145]],[[13.72635,67.15843],[13.72327,67.15795],[13.72175,67.15825],[13.723,67.15988],[13.7293,67.15985],[13.72824,67.15866],[13.72635,67.15843]],[[13.71907,67.15836],[13.71673,67.15825],[13.71598,67.15945],[13.71735,67.15986],[13.72171,67.15988],[13.71907,67.15836]],[[13.71916,67.16445],[13.70992,67.16433],[13.70735,67.16381],[13.70474,67.16376],[13.70827,67.16483],[13.72089,67.16526],[13.72061,67.16476],[13.71916,67.16445]],[[13.96101,67.16145],[13.96911,67.16275],[13.97225,67.1628],[13.97028,67.16098],[13.96759,67.15994],[13.96672,67.15864],[13.96404,67.15789],[13.96115,67.15833]],[[13.74321,67.161],[13.73736,67.16097],[13.73656,67.16149],[13.738,67.16186],[13.74346,67.16207],[13.74443,67.16153],[13.74321,67.161]],[[13.71079,67.16183],[13.70869,67.16182]],[[13.78437,67.16241],[13.7757,67.15865],[13.77324,67.15874],[13.77034,67.15799],[13.7688,67.15677],[13.76444,67.15654],[13.76636,67.15801],[13.7761,67.16069],[13.76134,67.15818],[13.76028,67.15864],[13.75989,67.15982],[13.76414,67.16132],[13.7734,67.16233]],[[13.79621,67.1625],[13.79253,67.1619],[13.79412,67.16248]],[[13.73388,67.16368],[13.73037,67.16331],[13.73031,67.16371],[13.73362,67.16529],[13.73805,67.16601],[13.73475,67.16458],[13.73388,67.16368]],[[13.79504,67.16383],[13.79188,67.16313],[13.79121,67.16354],[13.78941,67.16344],[13.79189,67.16496],[13.79756,67.16659],[13.79971,67.16651],[13.80008,67.16561],[13.79732,67.16523],[13.79504,67.16383]],[[13.98058,67.16378],[13.98377,67.16554],[13.98769,67.16601],[13.99159,67.1674],[14.00347,67.16764]],[[13.7179,67.16592],[13.71525,67.16589],[13.7179,67.16653],[13.7179,67.16592]],[[14.0022,67.15365],[13.99987,67.1521],[13.9988,67.15306],[13.99633,67.15285],[13.99405,67.15187],[13.99459,67.15062],[13.994,67.15033],[13.98094,67.15195],[13.96934,67.15632],[13.97205,67.15802],[13.97631,67.15773],[13.9739,67.15857],[13.9747,67.16058],[13.97697,67.16181],[13.98165,67.16308],[13.98049,67.16339],[13.98058,67.16378]],[[13.70869,67.16182],[13.70862,67.16212],[13.71079,67.16261],[13.71639,67.16299],[13.71079,67.16183]],[[13.79412,67.16248],[13.79878,67.1642],[13.8026,67.16386],[13.79621,67.1625]],[[13.75826,67.16721],[13.75695,67.16624],[13.75358,67.16512],[13.7527,67.16318],[13.75026,67.16248],[13.74274,67.16259],[13.74316,67.16329],[13.74524,67.16372],[13.74185,67.16404],[13.74155,67.16481],[13.7426,67.16557],[13.75507,67.16684],[13.75485,67.16717],[13.75235,67.16708],[13.75208,67.16785],[13.75818,67.16984],[13.76373,67.1706],[13.761,67.16817],[13.75826,67.16721]],[[13.80931,67.17038],[13.80514,67.16894],[13.80165,67.16843],[13.80224,67.16939],[13.80439,67.17029],[13.80743,67.17047],[13.8088,67.17104],[13.8098,67.17082],[13.80931,67.17038]],[[13.73668,67.16703],[13.73396,67.16696],[13.73362,67.16758],[13.74076,67.17057],[13.7406,67.16891],[13.73668,67.16703]],[[13.78798,67.16871],[13.78206,67.16821],[13.78148,67.16842],[13.7842,67.16968],[13.78966,67.17115],[13.7948,67.1715],[13.79219,67.17005],[13.78798,67.16871]],[[13.77255,67.1684],[13.7709,67.16811],[13.76993,67.16843],[13.77556,67.17117],[13.77684,67.17145],[13.7818,67.17131],[13.78112,67.17031],[13.77255,67.1684]],[[13.7297,67.16917],[13.73074,67.16936],[13.73035,67.16864],[13.73185,67.16866],[13.73228,67.16987],[13.72966,67.1701],[13.7313,67.17097],[13.7349,67.1711],[13.73586,67.17078],[13.73769,67.17136],[13.74055,67.17144],[13.7364,67.16983],[13.73485,67.17038],[13.73312,67.17007],[13.7349,67.16935],[13.73209,67.1685],[13.72981,67.1671]],[[13.74407,67.16946],[13.74299,67.16933],[13.74181,67.17031],[13.74397,67.17191],[13.7453,67.17205],[13.74407,67.16946]],[[13.80426,67.17114],[13.80105,67.17068],[13.79995,67.17089],[13.80163,67.17209],[13.80576,67.1727],[13.80426,67.17114]],[[13.81686,67.17299],[13.81971,67.17273],[13.81802,67.17216],[13.81263,67.17158],[13.8109,67.17174],[13.81381,67.17367],[13.81985,67.17435],[13.8196,67.17376],[13.81686,67.17299]],[[13.79386,67.18292],[13.79254,67.18297],[13.79266,67.18359],[13.79691,67.18497],[13.79971,67.1853],[13.79844,67.18394],[13.79386,67.18292]],[[13.76313,67.17344],[13.76149,67.17277],[13.76019,67.17287],[13.76031,67.17234],[13.75518,67.17078],[13.74793,67.17023],[13.74653,67.17067],[13.74748,67.17225],[13.74899,67.1724],[13.74967,67.17322],[13.75646,67.1733],[13.75846,67.17404],[13.76312,67.17438],[13.76371,67.1741],[13.76313,67.17344]],[[13.74396,67.17323],[13.73983,67.17295],[13.73826,67.17326],[13.74003,67.17407],[13.7462,67.17475],[13.74591,67.17362],[13.74396,67.17323]],[[13.78966,67.17408],[13.78342,67.17327],[13.78123,67.17345],[13.78115,67.17389],[13.78651,67.17559],[13.7863,67.17596],[13.79251,67.17697],[13.79339,67.17656],[13.79195,67.17484],[13.78966,67.17408]],[[13.77159,67.17904],[13.76914,67.17733],[13.76752,67.17771],[13.76444,67.17683],[13.76452,67.17548],[13.75612,67.1746],[13.7578,67.17573],[13.76131,67.17663],[13.76139,67.17728],[13.76771,67.17987],[13.7683,67.17967],[13.7674,67.17897],[13.76787,67.17842],[13.76865,67.17845],[13.77056,67.17947],[13.77025,67.1805],[13.77152,67.18091],[13.77389,67.18006],[13.77159,67.17904]],[[13.78143,67.18006],[13.77974,67.18],[13.77713,67.1792],[13.77575,67.18079],[13.78418,67.18161],[13.78091,67.18068],[13.78185,67.18037],[13.78143,67.18006]],[[13.80065,67.18193],[13.79847,67.18116],[13.79977,67.18023],[13.79743,67.17888],[13.79527,67.17931],[13.78432,67.17733],[13.78251,67.17731],[13.78338,67.17884],[13.78601,67.18013],[13.78773,67.18031],[13.79017,67.18169],[13.79575,67.18176],[13.79918,67.18264],[13.80065,67.18193]],[[13.72927,67.17724],[13.73513,67.17988],[13.73472,67.1807],[13.74275,67.18279],[13.74447,67.18273],[13.74073,67.18163],[13.74087,67.18133],[13.74664,67.18164],[13.75536,67.18141],[13.75222,67.18006],[13.74651,67.17922],[13.7442,67.1796],[13.73885,67.17929],[13.73927,67.18051],[13.73763,67.18048],[13.73653,67.17992],[13.73752,67.17765],[13.73655,67.17703],[13.73131,67.17652],[13.72929,67.17685]],[[13.77291,67.18433],[13.77007,67.18259],[13.76566,67.18267],[13.76485,67.18311],[13.76328,67.18263],[13.75972,67.18242],[13.75875,67.18312],[13.76266,67.18431],[13.76559,67.18401],[13.77061,67.18476],[13.77291,67.18433]],[[13.72889,67.1845],[13.73004,67.1842],[13.73017,67.18354],[13.72898,67.18277]],[[13.72898,67.18277],[13.72776,67.18213],[13.7259,67.18193],[13.72368,67.18251],[13.72269,67.18168],[13.72154,67.18249],[13.72065,67.1813],[13.71805,67.18073],[13.71168,67.18004],[13.71038,67.18023],[13.71208,67.18117],[13.71156,67.18159],[13.71239,67.18204],[13.71569,67.18281],[13.71817,67.1841],[13.72889,67.1845]],[[13.68936,67.1823],[13.68508,67.18179],[13.68521,67.18222],[13.68315,67.18228],[13.68303,67.18308],[13.68388,67.18411],[13.68917,67.18622],[13.69072,67.18585],[13.69022,67.18504],[13.68892,67.18465],[13.68936,67.1823]],[[13.76828,67.18498],[13.76706,67.18497],[13.76687,67.18545],[13.77046,67.18691],[13.77165,67.18638],[13.76828,67.18498]],[[13.81014,67.18768],[13.81176,67.18662],[13.81476,67.18648],[13.81518,67.18602],[13.8138,67.18501],[13.80733,67.18392],[13.80545,67.18445],[13.80379,67.18392],[13.80177,67.18402],[13.80198,67.18569],[13.805,67.18726],[13.80878,67.18786],[13.81014,67.18768]],[[13.758,67.1875],[13.76416,67.18789],[13.76464,67.18766],[13.76413,67.18732],[13.75944,67.18707],[13.7576,67.18663],[13.75819,67.18617],[13.76144,67.18628],[13.75774,67.18458],[13.75093,67.18443],[13.74423,67.18474],[13.74508,67.18585],[13.74928,67.18757],[13.75496,67.1881],[13.75565,67.18766],[13.758,67.1875]],[[13.79239,67.18803],[13.79163,67.18817],[13.79209,67.18982],[13.79339,67.19051],[13.79443,67.18972],[13.79239,67.18803]],[[13.80011,67.18854],[13.80344,67.18852],[13.80173,67.18777],[13.7974,67.18724],[13.80109,67.19039],[13.80071,67.19091],[13.80321,67.19095],[13.80332,67.18973],[13.80011,67.18854]],[[13.79759,67.19056],[13.7972,67.18901],[13.79032,67.18436],[13.78785,67.184],[13.7865,67.18427],[13.78761,67.1863],[13.79014,67.18688],[13.79009,67.18733],[13.78777,67.18688],[13.78145,67.18448],[13.77896,67.1842],[13.78366,67.18673],[13.78218,67.18745],[13.77952,67.18646],[13.77775,67.18704],[13.77809,67.18769],[13.78102,67.18875],[13.78244,67.18895],[13.78243,67.18809],[13.7832,67.188],[13.78472,67.18855],[13.78385,67.18946],[13.79072,67.19138],[13.79281,67.19145],[13.79759,67.19056]],[[13.76183,67.1933],[13.76172,67.19289],[13.75817,67.19315],[13.75488,67.19159],[13.75841,67.19094],[13.76038,67.19105],[13.76075,67.19156],[13.75946,67.19211],[13.76395,67.19286],[13.76906,67.19284],[13.76793,67.19231],[13.76369,67.19218],[13.76472,67.19126],[13.76161,67.19032],[13.76202,67.1901],[13.76655,67.19056],[13.76688,67.19025],[13.76508,67.18921],[13.76109,67.1884],[13.75669,67.18815],[13.75655,67.18846],[13.75995,67.18909],[13.7612,67.18984],[13.75664,67.19031],[13.75251,67.18928],[13.75334,67.18855],[13.75199,67.18823],[13.74655,67.18862],[13.74571,67.18902],[13.74719,67.18975],[13.74984,67.19004],[13.74912,67.1912],[13.75196,67.19249],[13.75495,67.19276],[13.75827,67.19392],[13.76183,67.1933]],[[13.9372,67.219],[13.93952,67.21888],[13.93866,67.21831],[13.93902,67.21772],[13.93155,67.21784],[13.93483,67.21972],[13.93684,67.21954],[13.9372,67.219]],[[13.97876,67.22257],[13.97399,67.22141],[13.97326,67.22162],[13.97346,67.22232],[13.97174,67.22258],[13.97269,67.22364],[13.97673,67.22392],[13.98006,67.22325],[13.97876,67.22257]],[[13.94569,67.22715],[13.94287,67.2259],[13.94019,67.2255],[13.93532,67.22534],[13.93321,67.22566],[13.93411,67.22653],[13.93736,67.22707],[13.93943,67.22661],[13.94555,67.22787],[13.94569,67.22715]],[[13.96111,67.22575],[13.9598,67.22559],[13.95913,67.22596],[13.96079,67.22756],[13.96459,67.22807],[13.96111,67.22575]],[[13.9545,67.22622],[13.9513,67.22616],[13.953,67.22767],[13.95533,67.22832],[13.95638,67.22751],[13.9545,67.22622]],[[13.9544,67.2317],[13.95404,67.23088],[13.95158,67.23045],[13.94905,67.23092],[13.94116,67.22931],[13.93349,67.22899],[13.93583,67.23059],[13.93998,67.23165],[13.94362,67.23191],[13.94874,67.23323],[13.9544,67.2317]],[[13.9579,67.23364],[13.9561,67.2335],[13.95591,67.23291],[13.95344,67.2339],[13.95458,67.23499],[13.95781,67.23574]],[[13.95781,67.23574],[13.96468,67.23645],[13.96213,67.2344],[13.9579,67.23364]],[[13.95748,67.24339],[13.96084,67.24349],[13.96167,67.24319],[13.95971,67.2419],[13.95755,67.2417]],[[13.9687,67.24078],[13.96816,67.23924],[13.96242,67.23839],[13.9612,67.23931],[13.95841,67.23982],[13.96031,67.24057],[13.96354,67.24046],[13.96798,67.24102],[13.9687,67.24078]],[[13.95224,67.24162],[13.94723,67.2403],[13.94834,67.24143],[13.95147,67.24198],[13.95224,67.24162]],[[13.95755,67.2417],[13.95584,67.24209],[13.95748,67.24339]],[[13.94848,67.2464],[13.94217,67.24523],[13.94073,67.2454],[13.94133,67.24615],[13.93626,67.24628],[13.93827,67.24773],[13.94463,67.24932],[13.95077,67.24822],[13.95119,67.2476],[13.94848,67.2464]],[[13.96079,67.24868],[13.95915,67.24886],[13.9626,67.24989],[13.96606,67.24989],[13.96079,67.24868]],[[13.98275,67.25917],[13.98544,67.25917],[13.98591,67.25882],[13.98324,67.25855],[13.98638,67.25748],[13.98393,67.25627],[13.98143,67.25595],[13.97496,67.25708],[13.97527,67.25736],[13.97395,67.25725],[13.97778,67.25864],[13.98275,67.25917]],[[13.95675,67.26002],[13.95562,67.2601],[13.95671,67.26114]],[[13.95668,67.26164],[13.95709,67.26183],[13.95671,67.26114]],[[13.95668,67.26164],[13.94729,67.25892],[13.94582,67.25721],[13.94253,67.25736],[13.94245,67.25782],[13.94344,67.25762],[13.9428,67.25876],[13.94694,67.25993],[13.94688,67.26193],[13.95661,67.26334]],[[13.95661,67.26334],[13.96002,67.2638],[13.96051,67.26353],[13.9587,67.26309],[13.95907,67.26282],[13.96242,67.26324],[13.96853,67.26494],[13.96961,67.26416],[13.96792,67.26292],[13.95675,67.26002]],[[13.99351,67.26731],[13.98912,67.26571],[13.98953,67.26491],[13.98797,67.26404],[13.98548,67.26358],[13.98346,67.26389],[13.98518,67.26263],[13.97975,67.26129],[13.97856,67.26147],[13.97815,67.26385],[13.98075,67.26464],[13.98234,67.26595],[13.98522,67.26646],[13.98856,67.26649],[13.99079,67.26769],[13.99475,67.2679],[13.99351,67.26731]],[[13.95651,67.26571],[13.94647,67.26371],[13.94429,67.26366],[13.94162,67.26413],[13.93612,67.26179],[13.9279,67.25967],[13.92657,67.25979],[13.9272,67.26022],[13.92569,67.25971],[13.91803,67.26035],[13.91853,67.2621],[13.91705,67.26091],[13.91455,67.26075],[13.91359,67.261],[13.91496,67.26226],[13.91564,67.26432],[13.91919,67.26621],[13.91797,67.26663],[13.91867,67.26837],[13.92402,67.26903],[13.92753,67.2687],[13.92793,67.26901],[13.92916,67.26847],[13.92774,67.26789],[13.93263,67.26884],[13.93504,67.26893],[13.9372,67.26838],[13.94085,67.26915],[13.94204,67.26886],[13.94221,67.26752],[13.9435,67.26704],[13.94443,67.26782],[13.9462,67.26826],[13.94774,67.26773],[13.95063,67.26848],[13.95094,67.26754],[13.95358,67.26815],[13.95496,67.26903],[13.95638,67.26871]],[[13.95633,67.26983],[13.95845,67.26893],[13.96141,67.27011],[13.95901,67.26896],[13.95638,67.26871]],[[13.95633,67.26983],[13.95524,67.26989],[13.955,67.2707],[13.95625,67.27159]],[[13.95619,67.27296],[13.94964,67.2718],[13.94709,67.27184],[13.9519,67.27367],[13.95454,67.27404],[13.94962,67.27403],[13.95605,67.27618]],[[13.95619,67.27296],[13.95805,67.27339],[13.95879,67.27303],[13.96423,67.27364],[13.96624,67.27419],[13.96574,67.27377],[13.96678,67.27303],[13.96806,67.27312],[13.96754,67.27264],[13.95758,67.27207],[13.95625,67.27159]],[[13.95596,67.27832],[13.95736,67.27715],[13.95604,67.2764]],[[13.95591,67.27943],[13.95809,67.27919],[13.95774,67.27867],[13.95891,67.278],[13.96111,67.27887],[13.96174,67.27744],[13.96343,67.27764],[13.9627,67.2771],[13.96469,67.27658],[13.9599,67.27662],[13.95834,67.27625],[13.95902,67.27582],[13.96457,67.27591],[13.96497,67.27562],[13.96888,67.27689],[13.96981,67.2777],[13.97307,67.27826],[13.97212,67.27799],[13.9754,67.27777],[13.97313,67.27689],[13.97383,67.27668],[13.97289,67.27673],[13.97281,67.27631],[13.97358,67.27634],[13.97269,67.27526],[13.96872,67.27474],[13.96749,67.27543],[13.96306,67.27517],[13.96073,67.27445],[13.96126,67.27384],[13.95888,67.27431],[13.95605,67.27618]],[[13.95561,67.28626],[13.95737,67.28609],[13.95977,67.28673],[13.96127,67.2863],[13.95913,67.28527],[13.96052,67.28496],[13.95995,67.28352],[13.95581,67.28174]],[[13.95604,67.2764],[13.94858,67.27452],[13.9473,67.27341],[13.94528,67.27315],[13.94426,67.27358],[13.94312,67.27307],[13.9412,67.27341],[13.93298,67.27115],[13.92483,67.27149],[13.92145,67.27279],[13.92325,67.27373],[13.92456,67.27393],[13.92607,67.27364],[13.9278,67.27434],[13.92807,67.27478],[13.92746,67.27478],[13.93228,67.27683],[13.93409,67.27689],[13.93753,67.27823],[13.93577,67.27891],[13.93369,67.27774],[13.9327,67.27802],[13.93378,67.27883],[13.93822,67.27964],[13.93606,67.27997],[13.93741,67.28102],[13.93972,67.28042],[13.94114,67.28102],[13.94207,67.28086],[13.94192,67.28018],[13.93862,67.27965],[13.93856,67.27874],[13.93966,67.27829],[13.9452,67.27892],[13.94941,67.27826],[13.95127,67.27898],[13.94927,67.28021],[13.95108,67.28047],[13.95214,67.28133],[13.95462,67.28158],[13.95541,67.28113],[13.95294,67.2783],[13.95471,67.27883],[13.95596,67.27832]],[[13.95581,67.28174],[13.95069,67.28195],[13.95307,67.28301],[13.95226,67.28411],[13.95481,67.28504],[13.95561,67.28626]],[[13.95591,67.27951],[13.95784,67.28108],[13.95901,67.28116],[13.96093,67.28042],[13.96225,67.28152],[13.9641,67.28137],[13.96499,67.28172],[13.9658,67.28133],[13.96683,67.28191],[13.96892,67.282],[13.96955,67.28261],[13.96889,67.28277],[13.96502,67.28263],[13.96412,67.28192],[13.96282,67.282],[13.96197,67.2828],[13.96397,67.28547],[13.96131,67.2866],[13.96208,67.28684],[13.96665,67.28625],[13.96864,67.28818],[13.9742,67.28916],[13.98039,67.28902],[13.98024,67.28842],[13.98175,67.28822],[13.98093,67.28733],[13.98233,67.28642],[13.98374,67.28744],[13.98474,67.28753],[13.98442,67.28797],[13.98871,67.2884],[13.99187,67.28786],[13.99123,67.28761],[13.99631,67.28764],[13.99737,67.28722],[13.99975,67.28727],[14.00422,67.28658]],[[14,67.2879],[13.99994,67.28831],[13.99807,67.28857],[13.99946,67.2898],[14.0011,67.28972]],[[14.0011,67.28972],[13.99969,67.28946],[14.00075,67.2893]],[[14.00122,67.27326],[13.99683,67.2722],[13.99181,67.27232],[13.99199,67.27336],[13.99596,67.27436],[13.99556,67.27491],[13.99707,67.27589],[14.00008,67.27696]],[[14.00008,67.27696],[13.9919,67.27584],[13.98931,67.27617],[13.98657,67.27574],[13.98454,67.27617],[13.98454,67.27663],[13.9788,67.27616],[13.97767,67.27519],[13.97869,67.2746],[13.98378,67.27502],[13.98538,67.27575],[13.98647,67.27541],[13.98578,67.27496],[13.9872,67.27471],[13.99057,67.27515],[13.99066,67.27459],[13.99228,67.27394],[13.98985,67.27275],[13.98315,67.27197],[13.98292,67.27141],[13.98505,67.27129],[13.98504,67.27075],[13.98158,67.26981],[13.98057,67.26855],[13.97696,67.26699],[13.97597,67.2673],[13.97629,67.26828],[13.97283,67.26623],[13.96503,67.2657],[13.96357,67.26506],[13.96124,67.26524],[13.9606,67.26555],[13.96158,67.26606],[13.96381,67.26662],[13.96506,67.26649],[13.9672,67.26769],[13.96771,67.26868],[13.96618,67.26888],[13.96549,67.26878],[13.96625,67.26818],[13.96505,67.26733],[13.95651,67.26571]],[[13.73355,67.30783],[13.7346,67.30777],[13.73498,67.30713],[13.73199,67.30661],[13.72922,67.30517],[13.73037,67.30474],[13.73019,67.3036],[13.72596,67.30272],[13.72599,67.30389],[13.72499,67.30392],[13.72447,67.30557],[13.72659,67.30642],[13.73355,67.30783]],[[13.87154,67.38733],[13.86794,67.38674],[13.8675,67.3873]],[[13.88364,67.38742],[13.88063,67.38665],[13.87921,67.3868],[13.88018,67.38653],[13.87822,67.3858],[13.87563,67.38536],[13.87388,67.38548],[13.87672,67.38737]],[[13.87672,67.38737],[13.89074,67.39192],[13.88891,67.39207],[13.88937,67.39256],[13.89283,67.39327],[13.89551,67.39337],[13.89401,67.39279],[13.89367,67.39313],[13.89162,67.39194],[13.89224,67.39183],[13.89111,67.39075],[13.88364,67.38742]],[[13.9509,67.39411],[13.95202,67.39398],[13.95168,67.39374],[13.95243,67.39402],[13.95421,67.39361],[13.95258,67.39335],[13.95228,67.39297],[13.95403,67.39255],[13.95239,67.39145],[13.95103,67.39119]],[[13.95103,67.39119],[13.94688,67.39077],[13.94835,67.39033],[13.94706,67.38986],[13.9397,67.38937],[13.94205,67.39215],[13.94532,67.39352],[13.94685,67.3937],[13.94683,67.39432],[13.94448,67.39407],[13.94528,67.39475],[13.94843,67.39539],[13.94946,67.39507],[13.94852,67.39514],[13.94911,67.39492],[13.94777,67.39423],[13.9509,67.39411]],[[13.8342,67.3965],[13.8352,67.39652],[13.83792,67.39553],[13.83429,67.39472]],[[13.83429,67.39472],[13.83333,67.39475],[13.83423,67.39431],[13.83075,67.39326],[13.82687,67.39328],[13.82572,67.39372],[13.82604,67.3944],[13.82895,67.39587],[13.8306,67.39544],[13.82958,67.39605],[13.83002,67.39646],[13.83239,67.39658],[13.83288,67.3959],[13.8342,67.3965]],[[13.8675,67.3873],[13.86905,67.38865],[13.8703,67.38891],[13.8691,67.38876],[13.87027,67.39019],[13.8699,67.39179],[13.87171,67.3926],[13.8793,67.39391],[13.88316,67.39516],[13.88896,67.39598],[13.89842,67.39822],[13.8975,67.39751],[13.89822,67.39752],[13.89854,67.39659],[13.89746,67.39604],[13.894,67.39518],[13.89276,67.39561],[13.89056,67.39532],[13.88976,67.39483],[13.89266,67.39518],[13.89391,67.3948],[13.89047,67.39459],[13.88736,67.39368],[13.88264,67.39106],[13.87831,67.38968],[13.87498,67.38909],[13.87287,67.38924],[13.87327,67.38896],[13.87192,67.38833],[13.87075,67.38839],[13.87212,67.3877],[13.87154,67.38733]],[[13.88766,67.40397],[13.88649,67.40372],[13.88486,67.40192],[13.88408,67.40221],[13.88233,67.40151],[13.88195,67.40075],[13.87752,67.3985],[13.87606,67.39715],[13.87436,67.39679],[13.87427,67.39745],[13.87603,67.39879],[13.87855,67.39972],[13.88043,67.40121],[13.87906,67.4011],[13.87736,67.39984],[13.87587,67.40018],[13.87518,67.40105],[13.87781,67.40261],[13.88137,67.40393],[13.88229,67.40392],[13.88259,67.40346],[13.88475,67.40417],[13.88761,67.40451],[13.88766,67.40397]],[[13.92662,67.4086],[13.92284,67.40657],[13.92113,67.40644],[13.92252,67.40791],[13.92114,67.4076],[13.91622,67.40351],[13.91166,67.40183],[13.8945,67.39791],[13.89188,67.39698],[13.88604,67.39592],[13.88557,67.39623],[13.88869,67.39782],[13.88541,67.39675],[13.88256,67.39642],[13.88211,67.39684],[13.88085,67.39663],[13.88115,67.39743],[13.88592,67.39982],[13.89069,67.40094],[13.88941,67.4016],[13.89067,67.40324],[13.89514,67.40537],[13.89995,67.40613],[13.90108,67.40564],[13.90349,67.40666],[13.90674,67.40641],[13.90693,67.40518],[13.90775,67.40582],[13.91022,67.40641],[13.90999,67.40753],[13.91311,67.40821],[13.91433,67.40745],[13.91627,67.4089],[13.9193,67.40894],[13.91726,67.40764],[13.92682,67.40955],[13.92662,67.4086]],[[13.92598,67.41226],[13.92721,67.41194],[13.93004,67.41288],[13.93059,67.41272],[13.93058,67.4121],[13.92813,67.41125],[13.92001,67.40973],[13.91726,67.4098],[13.91571,67.41032],[13.91583,67.41091],[13.92525,67.41329],[13.9263,67.41299],[13.92598,67.41226]],[[13.98014,67.40859],[13.97922,67.40844],[13.97977,67.40819],[13.97794,67.40711],[13.97438,67.4068],[13.97308,67.40554],[13.97192,67.40537],[13.97206,67.40473],[13.9696,67.40374],[13.96594,67.403],[13.9633,67.40189],[13.96195,67.40201],[13.96232,67.40276],[13.96662,67.40495],[13.96758,67.40503],[13.96621,67.40564],[13.96776,67.40685],[13.97059,67.40656],[13.96985,67.40688],[13.97395,67.40772],[13.97404,67.40844],[13.9798,67.40996],[13.98193,67.41119],[13.98247,67.41032],[13.98014,67.40859]],[[13.89304,67.41094],[13.88985,67.40982],[13.88492,67.40701],[13.88147,67.40618],[13.87979,67.4063],[13.87947,67.40592],[13.87686,67.40543],[13.87582,67.40557],[13.87441,67.40417],[13.87243,67.40365],[13.87126,67.40392],[13.87012,67.40373],[13.86917,67.40235],[13.86826,67.40231],[13.86772,67.40278],[13.86202,67.40076],[13.86025,67.40096],[13.85963,67.40217],[13.85906,67.39895],[13.85822,67.39873],[13.85767,67.3996],[13.85766,67.3986],[13.85547,67.39792],[13.85447,67.39806],[13.85508,67.39776],[13.8536,67.39671],[13.85203,67.39666],[13.85184,67.39708],[13.85446,67.39831],[13.8524,67.3979],[13.85222,67.40195],[13.85348,67.40189],[13.85334,67.40239],[13.85528,67.40236],[13.85593,67.4037],[13.85785,67.40385],[13.85668,67.40251],[13.85753,67.40218],[13.85807,67.40321],[13.86009,67.40369],[13.85977,67.4025],[13.86069,67.40293],[13.86064,67.40134],[13.86187,67.40159],[13.86449,67.40471],[13.86699,67.40486],[13.86695,67.40457],[13.86884,67.40503],[13.86914,67.40467],[13.86932,67.40514],[13.87103,67.40564],[13.87147,67.40623],[13.87035,67.40738],[13.87261,67.40764],[13.87721,67.40911],[13.87933,67.40885],[13.87922,67.40789],[13.88226,67.40854],[13.88219,67.40749],[13.88424,67.40791],[13.88321,67.40851],[13.88511,67.40931],[13.88402,67.40916],[13.88308,67.4099],[13.88216,67.40911],[13.88082,67.40893],[13.87984,67.40939],[13.88054,67.41019],[13.88263,67.41059],[13.88671,67.41056],[13.8924,67.41202],[13.89352,67.41151],[13.89304,67.41094]],[[13.95004,67.41357],[13.94992,67.41293],[13.94754,67.41188],[13.94113,67.40948],[13.93783,67.40892],[13.93828,67.4096],[13.94109,67.41053],[13.94568,67.4133],[13.95002,67.41398]],[[13.90645,67.42062],[13.90647,67.41796],[13.9,67.41418],[13.89464,67.41249],[13.88623,67.41119],[13.88069,67.41107],[13.88159,67.4128],[13.88589,67.41444],[13.88631,67.41508],[13.88425,67.41507],[13.88475,67.41592],[13.8874,67.41597],[13.88687,67.415],[13.88791,67.41564],[13.89124,67.41616],[13.89513,67.41739],[13.89753,67.41881],[13.90193,67.41971],[13.90189,67.42031],[13.90645,67.42062]],[[13.97122,67.41269],[13.97406,67.4111],[13.97611,67.412],[13.97658,67.41151],[13.97821,67.41171],[13.97754,67.41052],[13.97207,67.40945],[13.97132,67.40978],[13.96783,67.40982],[13.96735,67.40949],[13.96806,67.40956],[13.96764,67.40927],[13.96852,67.40889],[13.96598,67.40815],[13.96401,67.40811],[13.96357,67.40856],[13.96561,67.40933],[13.96312,67.40916],[13.96224,67.40871],[13.96305,67.40853],[13.96261,67.40821],[13.95976,67.40785],[13.95468,67.40629],[13.95423,67.40711],[13.95551,67.40848],[13.95696,67.40859],[13.9567,67.4077],[13.95922,67.408],[13.95957,67.4087],[13.96147,67.40948],[13.96247,67.40946],[13.96828,67.41206],[13.96483,67.41133],[13.965,67.41214],[13.96938,67.41256],[13.97007,67.41347],[13.97292,67.41419],[13.97372,67.4139],[13.97122,67.41269]],[[13.95001,67.41425],[13.95002,67.41398]],[[13.95001,67.41425],[13.95,67.4145]],[[13.95,67.4145],[13.95202,67.41506],[13.95329,67.41444],[13.95183,67.41339],[13.95004,67.41357]],[[13.9497,67.42134],[13.94585,67.42071],[13.94527,67.42092],[13.94692,67.42199],[13.94965,67.42254]],[[13.98052,67.42609],[13.98288,67.42613],[13.98031,67.42495],[13.981,67.42447],[13.98279,67.42522],[13.98794,67.42515],[13.9879,67.42397],[13.98652,67.4231],[13.98777,67.42324],[13.98794,67.42266],[13.98598,67.42194],[13.98469,67.42215],[13.98473,67.42161],[13.9853,67.42173],[13.98209,67.42029],[13.98203,67.42006],[13.98298,67.42037],[13.98268,67.41971],[13.9803,67.41838],[13.97487,67.41766],[13.96971,67.41564],[13.95984,67.41411],[13.959,67.41448],[13.95929,67.41503],[13.96593,67.41775],[13.96705,67.41777],[13.96664,67.41845],[13.96989,67.42056],[13.97382,67.42177],[13.97646,67.42319],[13.97188,67.42275],[13.96886,67.4205],[13.96249,67.41752],[13.9614,67.4175],[13.96121,67.41788],[13.96436,67.41962],[13.95599,67.41721],[13.95165,67.41697],[13.95193,67.41814],[13.95822,67.42074],[13.96555,67.42255],[13.96744,67.42372],[13.97444,67.42452],[13.97818,67.42595],[13.97999,67.42641],[13.98052,67.42609]],[[13.93612,67.42498],[13.93745,67.42506],[13.93603,67.42391],[13.9314,67.4224],[13.92299,67.42117],[13.92034,67.42027],[13.91649,67.41996],[13.91709,67.42047],[13.91859,67.42073],[13.91918,67.42049],[13.91954,67.42111],[13.92063,67.42115],[13.92028,67.422],[13.92957,67.42299],[13.92097,67.42251],[13.92118,67.42305],[13.9248,67.42345],[13.92654,67.42429],[13.9337,67.42611],[13.93578,67.42627],[13.93678,67.42551],[13.93612,67.42498]],[[13.87971,67.42405],[13.88025,67.42387],[13.87915,67.4231],[13.87456,67.42239],[13.87016,67.42014],[13.86806,67.41966],[13.86669,67.41977],[13.86652,67.42048],[13.86923,67.42087],[13.87117,67.4222],[13.8718,67.42228],[13.87195,67.42188],[13.87223,67.42238],[13.87323,67.42225],[13.87247,67.42265],[13.87403,67.42377],[13.87686,67.42432],[13.87691,67.42479],[13.881,67.42601],[13.87971,67.42405]],[[13.91348,67.42337],[13.90775,67.42117],[13.90588,67.42122],[13.89898,67.4202],[13.89377,67.41781],[13.88804,67.41775],[13.88883,67.41845],[13.89371,67.41991],[13.89756,67.42027],[13.90397,67.42321],[13.9062,67.42344],[13.907,67.423],[13.90683,67.42405],[13.90766,67.4245],[13.91174,67.42571],[13.91464,67.42604],[13.91455,67.42639],[13.91642,67.42677],[13.91671,67.42574],[13.91565,67.42501],[13.9162,67.42464],[13.91348,67.42337]],[[13.93559,67.42874],[13.9359,67.42758],[13.93236,67.42653],[13.9223,67.42434],[13.91941,67.42397],[13.91737,67.42417],[13.9175,67.4248],[13.92271,67.4258],[13.92178,67.42578],[13.92352,67.42649],[13.92247,67.42649],[13.92382,67.42738],[13.92584,67.42658],[13.92546,67.42608],[13.92401,67.42582],[13.9251,67.42567],[13.92683,67.42605],[13.93114,67.42838],[13.93164,67.42814],[13.93263,67.42842],[13.93124,67.42847],[13.93269,67.42905],[13.93432,67.42928],[13.93559,67.42874]],[[13.9473,67.4327],[13.94226,67.43194],[13.94341,67.43267]],[[13.94819,67.43271],[13.94658,67.43175],[13.94925,67.43154]],[[13.95713,67.43276],[13.94925,67.43154]],[[13.96434,67.43281],[13.96237,67.43114],[13.95926,67.43075],[13.95871,67.43034],[13.9622,67.43044],[13.95653,67.4289],[13.95462,67.42933],[13.95061,67.42801],[13.95066,67.42734],[13.95527,67.42802],[13.95601,67.42769],[13.96191,67.42875],[13.96867,67.42944],[13.9649,67.42836],[13.95977,67.42765],[13.95428,67.42599],[13.95529,67.4256],[13.95883,67.42651],[13.95806,67.42525],[13.95272,67.42484],[13.94965,67.42254]],[[13.98603,67.43295],[13.98296,67.43226],[13.98436,67.43173],[13.98343,67.43034],[13.9796,67.42899],[13.97973,67.42842],[13.97829,67.4276],[13.97631,67.42721],[13.97604,67.42625],[13.97467,67.42561],[13.96954,67.42527],[13.96269,67.42319],[13.95684,67.42297],[13.9497,67.42134]],[[13.94341,67.43267],[13.94563,67.4339],[13.94705,67.43371],[13.94678,67.43399],[13.94808,67.43412],[13.94666,67.4342],[13.94653,67.43455],[13.9491,67.43504]],[[13.9491,67.43504],[13.9536,67.43538],[13.95243,67.43476],[13.95525,67.4341],[13.95424,67.43302],[13.95617,67.43351],[13.95739,67.43327],[13.95713,67.43276]],[[13.96434,67.43281],[13.96614,67.43399],[13.97012,67.43541],[13.9666,67.43451],[13.9655,67.43457],[13.9658,67.43497],[13.97122,67.43654],[13.97162,67.43583],[13.97274,67.43631],[13.97129,67.43647],[13.97238,67.43736],[13.97446,67.43773],[13.9753,67.43684],[13.97682,67.43721],[13.97868,67.4368],[13.97834,67.43638],[13.97953,67.43556],[13.98021,67.43573],[13.97977,67.43676],[13.98372,67.43661],[13.98537,67.43544],[13.98974,67.43542],[13.98958,67.43423],[13.98603,67.43295]],[[13.02543,67.96246],[13.02703,67.95928],[13.02568,67.95761],[13.0239,67.95725],[13.02048,67.95831],[13.01357,67.95964],[13.00971,67.96175],[13.00662,67.96188],[13.00673,67.96224]],[[13.16862,67.96412],[13.16673,67.96291],[13.16564,67.96294],[13.16429,67.96371]],[[13.02839,67.8891],[13.03514,67.89031],[13.03545,67.88921],[13.03929,67.88953],[13.0401,67.88834],[13.04164,67.88808],[13.04096,67.88748],[13.03942,67.88764],[13.03937,67.88651],[13.0375,67.88527],[13.03434,67.88445],[13.03208,67.88221],[13.02936,67.88275],[13.02727,67.88189],[13.02547,67.8823],[13.02536,67.88327],[13.02407,67.88353],[13.02139,67.88322],[13.0208,67.88399],[13.0156,67.8833],[13.01474,67.88399],[13.01279,67.88425],[13.01395,67.88503],[13.01695,67.88565],[13.01685,67.88627],[13.01472,67.88629],[13.01583,67.88702],[13.01525,67.88753],[13.01415,67.88769],[13.01074,67.88722],[13.00715,67.88863],[13.00609,67.88862],[13.00329,67.88796],[13.00377,67.88706],[13.00255,67.88634],[12.9993,67.88619]],[[12.9993,67.88619],[13.0013,67.88398],[12.99955,67.8833]],[[12.99783,67.96213],[13.00209,67.96117],[13.00717,67.95896],[13.00626,67.95838],[12.99853,67.95638]],[[12.99815,67.94701],[13.00055,67.9477],[12.99922,67.94851]],[[12.9999,67.94887],[13.00337,67.9489],[13.00483,67.94826],[13.00831,67.94929],[13.01267,67.94936],[13.01525,67.94869],[13.01534,67.94794],[13.01758,67.94697],[13.03194,67.94622],[13.03935,67.94785],[13.0413,67.94721],[13.03862,67.94643],[13.03793,67.94563],[13.04318,67.94325],[13.04838,67.942],[13.05208,67.9416],[13.05573,67.94049],[13.06215,67.93986],[13.0699,67.93957],[13.07291,67.94023],[13.07637,67.94011],[13.07634,67.93949],[13.07266,67.93721],[13.07479,67.9358],[13.07629,67.9362],[13.07736,67.93559],[13.07677,67.93483],[13.07509,67.93517],[13.07416,67.9345],[13.07699,67.93377],[13.07568,67.93215],[13.08175,67.93042],[13.08378,67.92889],[13.08672,67.92904]],[[13.04523,67.9627],[13.05188,67.95833],[13.06093,67.95507],[13.06172,67.95372],[13.06396,67.95311],[13.06709,67.95101],[13.07111,67.95053],[13.08536,67.95211],[13.08997,67.95296]],[[13.09248,67.96326],[13.0932,67.95621],[13.09417,67.95468],[13.0937,67.95376],[13.08997,67.95296]],[[13.16093,67.96318],[13.16168,67.96156],[13.15954,67.9609],[13.15968,67.95948],[13.15467,67.95884],[13.15265,67.95963],[13.15126,67.95945],[13.15033,67.9588],[13.14853,67.9589],[13.14755,67.95947],[13.14535,67.95902],[13.1441,67.95772],[13.14368,67.95486],[13.14199,67.95452],[13.13746,67.95115],[13.13878,67.94997],[13.13688,67.9481],[13.1348,67.9487],[13.13458,67.95011],[13.12922,67.95205],[13.1253,67.95273],[13.11994,67.95244],[13.11751,67.95306],[13.11798,67.95455],[13.1133,67.95909],[13.11355,67.9635]],[[13.23856,68.00005],[13.235,67.99605],[13.23642,67.99477],[13.23572,67.99359],[13.23356,67.99226],[13.23234,67.99228],[13.23324,67.99307],[13.23234,67.99321],[13.22928,67.99072],[13.22579,67.9899],[13.22379,67.98983],[13.22203,67.99209],[13.22304,67.99407],[13.22516,67.99561],[13.224,67.99825],[13.22707,68.00095]],[[13.21223,68.00129],[13.21236,67.99928],[13.20938,67.99834],[13.207,68.00122]],[[13.26513,68.00062],[13.26512,67.99948],[13.26415,67.99915],[13.26278,67.99996],[13.2613,67.99955],[13.25938,68.00021]],[[13.17605,68.00051],[13.17602,67.99913],[13.17242,67.99729],[13.16779,67.99286],[13.16734,67.99162],[13.16997,67.98787],[13.17614,67.98521],[13.17831,67.98526],[13.1793,67.98366],[13.1819,67.98218],[13.18479,67.97865],[13.18443,67.9779],[13.18565,67.97716],[13.18718,67.97722],[13.18743,67.9769],[13.18661,67.97554],[13.183,67.97418],[13.17955,67.97208],[13.17621,67.97116],[13.1751,67.96882],[13.16862,67.96412]]]}}]}