{"type":"FeatureCollection","features":[{"type":"Feature","properties":{},"geometry":{"type":"MultiLineString","coordinates":[[[11.84069,67.41079],[11.83922,67.41096],[11.84024,67.41177],[11.84225,67.41194],[11.84322,67.41134],[11.84069,67.41079]],[[11.93416,67.40701],[11.9316,67.40648],[11.92812,67.40689]],[[11.92812,67.40689],[11.92842,67.4077],[11.93136,67.40793],[11.93222,67.40782],[11.9321,67.40733],[11.93416,67.40701]],[[11.87962,67.40952],[11.87604,67.40876],[11.875,67.40918],[11.87345,67.40893],[11.8716,67.40922],[11.87102,67.40868],[11.86856,67.40852],[11.86752,67.4094],[11.8685,67.41034],[11.87089,67.41101],[11.87564,67.41125],[11.87865,67.41112],[11.88019,67.41031],[11.87962,67.40952]],[[11.90565,67.41847],[11.90292,67.4179],[11.90396,67.4202],[11.90843,67.4201],[11.90867,67.41967],[11.90565,67.41847]],[[11.90283,67.41883],[11.90105,67.41879],[11.90024,67.41997],[11.90237,67.42076],[11.90283,67.41883]],[[11.89615,67.41876],[11.89321,67.41917],[11.89503,67.42157],[11.89655,67.42123],[11.89767,67.42031],[11.89734,67.4192],[11.89615,67.41876]],[[11.88062,67.42491],[11.87815,67.42509],[11.87412,67.4272],[11.87892,67.42876],[11.88347,67.42871],[11.88516,67.42591],[11.8843,67.42542],[11.88062,67.42491]],[[11.86301,67.43099],[11.86127,67.43043],[11.85957,67.43096],[11.86241,67.43198],[11.86357,67.43175],[11.86301,67.43099]],[[11.90197,67.4377],[11.90049,67.43535],[11.89958,67.43507],[11.8969,67.43561],[11.89415,67.43452],[11.88918,67.43483],[11.88528,67.4345],[11.88315,67.43569],[11.88305,67.43625],[11.88469,67.43695],[11.89074,67.43813],[11.8929,67.43821],[11.89607,67.43756],[11.8997,67.43842],[11.90178,67.43811],[11.90197,67.4377]],[[11.91343,67.44589],[11.91059,67.44566],[11.90805,67.44636],[11.90797,67.44703],[11.9131,67.44873],[11.9159,67.44894],[11.91623,67.44809],[11.91343,67.44589]],[[11.91486,67.45154],[11.91652,67.45033],[11.91541,67.44989],[11.9108,67.44929],[11.90524,67.45009],[11.90563,67.45052],[11.91211,67.45148]],[[11.91211,67.45148],[11.91364,67.45183],[11.91486,67.45154]],[[11.89151,67.46006],[11.88859,67.45939],[11.88664,67.46004],[11.88624,67.46093],[11.89422,67.46262],[11.89382,67.46124],[11.89151,67.46006]],[[11.89559,67.46487],[11.89753,67.46479],[11.89701,67.46417],[11.88941,67.46313],[11.88954,67.46365],[11.89144,67.46438],[11.89462,67.46521],[11.89559,67.46487]],[[11.95436,67.46865],[11.95087,67.46698],[11.95263,67.46476],[11.95125,67.46436],[11.9494,67.46442],[11.94818,67.46388],[11.94323,67.45722],[11.93328,67.45574],[11.93434,67.45699],[11.92808,67.4577],[11.927,67.45883],[11.92447,67.45953],[11.92485,67.4605],[11.92363,67.46116],[11.92419,67.4616],[11.92876,67.46335],[11.9309,67.46533],[11.93913,67.4671],[11.94504,67.46914],[11.94983,67.46913],[11.95121,67.46849],[11.95466,67.46969],[11.95436,67.46865]],[[11.95707,67.48284],[11.95704,67.48305]],[[11.95704,67.48305],[11.95919,67.48407],[11.95811,67.48447],[11.95845,67.48482],[11.96301,67.48569],[11.96051,67.48369],[11.95866,67.48289],[11.95707,67.48284]],[[12.00124,67.51872],[11.9979,67.51823],[12.00149,67.52104]]]}}]}