{"type":"FeatureCollection","features":[{"type":"Feature","properties":{},"geometry":{"type":"MultiLineString","coordinates":[[[13.85715,68.31883],[13.85456,68.31912],[13.85498,68.31991],[13.85723,68.32003],[13.858,68.31948],[13.85715,68.31883]],[[13.76132,68.32848],[13.76232,68.32921],[13.76407,68.32938],[13.765,68.32917],[13.765,68.3285]],[[13.9079,68.33104],[13.91012,68.32951]],[[13.941,68.25623],[13.94094,68.25579]],[[13.90632,68.29296],[13.90971,68.29324]],[[13.18295,67.99899],[13.18575,68.00017],[13.18579,67.99913]],[[13.20188,67.99852],[13.20447,68.00029],[13.20571,68.00035]],[[13.20571,68.00035],[13.20751,67.99897]],[[13.2028,68.00173],[13.20136,68.00152],[13.19901,68.00321],[13.20211,68.00255],[13.2028,68.00173]],[[13.2009,68.00429],[13.19676,68.00523],[13.19916,68.00573],[13.20141,68.00469],[13.2009,68.00429]],[[13.17311,68.00903],[13.17152,68.00838],[13.17095,68.00901]],[[13.17311,68.00903],[13.17368,68.00904]],[[13.93687,68.19065],[13.93777,68.19072]],[[13.31267,68.01052],[13.31547,68.01073],[13.31683,68.01159],[13.31479,68.01278],[13.31456,68.01423],[13.32187,68.01641],[13.32135,68.0174],[13.32401,68.01888]],[[13.05627,68.02996],[13.0568,68.02957],[13.06335,68.02843],[13.06484,68.02766]],[[13.3548,68.04701],[13.35388,68.04698],[13.353,68.04827],[13.35437,68.04935],[13.35549,68.04856],[13.3548,68.04701]],[[13.67976,68.07931],[13.67984,68.07794]],[[13.34292,68.07611],[13.34286,68.07713],[13.3404,68.07755]],[[13.81006,68.09675],[13.80741,68.09699],[13.81336,68.09771],[13.81283,68.09724],[13.81006,68.09675]],[[13.21791,68.09498],[13.21783,68.09528],[13.21791,68.09498]],[[13.18767,68.09515],[13.18759,68.0949]],[[13.75125,68.10016],[13.75037,68.10012],[13.74931,68.10161],[13.75185,68.1026],[13.75316,68.10215],[13.75125,68.10016]],[[13.15608,68.09506],[13.15868,68.09758]],[[13.15715,68.09858],[13.15868,68.09758]],[[13.34128,68.10053],[13.34183,68.10088]],[[13.73522,68.10401],[13.73593,68.10402]],[[13.34183,68.10088],[13.34404,68.10275],[13.34326,68.10415]],[[13.17425,68.10457],[13.17245,68.10479],[13.17213,68.10594],[13.17335,68.1064],[13.17456,68.10575],[13.17425,68.10457]],[[13.18004,68.10625],[13.17841,68.10612],[13.17822,68.10756],[13.18032,68.10891],[13.18145,68.10898],[13.18209,68.10748],[13.18004,68.10625]],[[13.81794,68.11577],[13.82015,68.11546],[13.82007,68.11433],[13.81672,68.11477],[13.81641,68.11557],[13.81794,68.11577]],[[13.86115,68.11526],[13.86003,68.11524],[13.8599,68.11566],[13.86169,68.11722],[13.86275,68.11736],[13.86366,68.1168],[13.86154,68.11606],[13.86203,68.11582],[13.86115,68.11526]],[[13.57417,68.13295],[13.57487,68.13311]],[[13.49501,68.13151],[13.49985,68.13295],[13.49948,68.13392]],[[13.74799,68.14896],[13.74621,68.14766],[13.74701,68.14507]],[[13.87595,68.14988],[13.87717,68.15065],[13.88053,68.14991]],[[13.31402,68.14512],[13.31359,68.14633],[13.31461,68.14793]],[[13.81922,68.1588],[13.81784,68.15879],[13.81784,68.15949],[13.81951,68.15942],[13.81922,68.1588]],[[13.55468,68.15974],[13.55475,68.15973]],[[13.31392,68.15735],[13.31139,68.15755],[13.31092,68.15793],[13.31383,68.15856]],[[13.90713,68.16801],[13.90569,68.16812],[13.90512,68.16955],[13.90636,68.17053],[13.90713,68.16801]],[[13.36138,68.16561],[13.36791,68.16439]],[[13.95108,68.17295],[13.94922,68.17307],[13.94842,68.17432],[13.94955,68.17461],[13.95214,68.17458],[13.95267,68.17425],[13.95108,68.17295]],[[13.9733,68.19176],[13.9723,68.1916],[13.97079,68.19266],[13.97169,68.19345],[13.97304,68.1934],[13.9733,68.19176]],[[13.55386,68.17274],[13.55324,68.17302],[13.55381,68.17347]],[[13.55379,68.17391],[13.55381,68.17347]],[[13.55379,68.17391],[13.55376,68.17427]],[[13.55376,68.17427],[13.55672,68.17573],[13.55807,68.17572],[13.55866,68.17454],[13.55729,68.17253],[13.55594,68.17199],[13.55386,68.17274]],[[13.95307,68.18166],[13.95123,68.18111],[13.95031,68.18145],[13.95175,68.18268],[13.95363,68.18262],[13.95416,68.18189],[13.95307,68.18166]],[[13.5954,68.17889],[13.59596,68.17742],[13.59234,68.17674],[13.58937,68.17501],[13.58339,68.17448],[13.58264,68.17489],[13.58316,68.17592]],[[13.96721,68.18082],[13.96845,68.17907],[13.96682,68.17781],[13.96379,68.17764],[13.96352,68.17843],[13.96107,68.179],[13.96505,68.18065],[13.96298,68.18043],[13.96252,68.18068],[13.96622,68.18176],[13.96716,68.18152],[13.96721,68.18082]],[[13.95644,68.18021],[13.95488,68.18037],[13.95547,68.18309],[13.95698,68.1837],[13.95832,68.1829],[13.95644,68.18021]],[[13.58432,68.23736],[13.58386,68.23836],[13.58811,68.23892],[13.59324,68.23865],[13.59443,68.23817],[13.5932,68.23743]],[[13.53869,68.19211],[13.53767,68.18995]],[[13.99975,68.19553],[13.99976,68.19553]],[[13.95369,68.19524],[13.95453,68.19525]],[[13.53869,68.19211],[13.53821,68.19378]],[[13.53821,68.19378],[13.53029,68.19645],[13.52674,68.19855],[13.52426,68.19931],[13.52256,68.19943],[13.51535,68.19866],[13.4882,68.19832],[13.48581,68.19877],[13.48047,68.20189],[13.47813,68.20368],[13.47843,68.20454],[13.4866,68.2085],[13.49198,68.20973],[13.49843,68.20975],[13.50162,68.21022],[13.5058,68.21188],[13.50733,68.21348]],[[13.50733,68.21348],[13.51048,68.21596],[13.51603,68.21709],[13.51885,68.2186]],[[13.5932,68.23743],[13.59006,68.23641],[13.58432,68.23736]],[[13.66336,68.23801],[13.66376,68.23825]],[[13.66376,68.23825],[13.66545,68.23803]],[[13.80453,68.23909],[13.80996,68.24],[13.81585,68.24004]],[[13.78479,68.24045],[13.78626,68.24046]],[[13.65596,68.23903],[13.6574,68.23975]],[[13.78626,68.24046],[13.79133,68.24076]],[[13.78164,68.24788],[13.78174,68.24691]],[[13.78976,68.25339],[13.79068,68.2531]],[[13.78164,68.24788],[13.78179,68.24919],[13.78682,68.25106],[13.78832,68.25345]],[[13.78832,68.25345],[13.78976,68.25339]],[[13.79068,68.2531],[13.795,68.25325],[13.79563,68.25385],[13.79472,68.25584],[13.79712,68.25653],[13.80004,68.25573],[13.80644,68.25506],[13.8131,68.25372],[13.81578,68.25374],[13.81719,68.25548]],[[13.81882,68.25671],[13.82028,68.25835],[13.8223,68.25735],[13.82562,68.25744],[13.82995,68.25685],[13.83078,68.25641]],[[13.99217,68.26576],[13.99403,68.26474],[13.99195,68.26377],[13.99207,68.263],[13.99507,68.26217],[13.99852,68.26221],[14.00027,68.26164]],[[13.56938,68.26613],[13.55389,68.26465],[13.54805,68.26458]],[[13.98092,68.26573],[13.98037,68.26695],[13.98434,68.26929],[13.98714,68.26865],[13.9879,68.26763],[13.98988,68.26761],[13.99154,68.26696],[13.99217,68.26576]],[[13.78972,68.27119],[13.79681,68.26986],[13.79909,68.26856]],[[13.97797,68.27507],[13.97575,68.27443],[13.97405,68.27251],[13.97641,68.27199],[13.97206,68.27012],[13.96987,68.27026],[13.96853,68.26947],[13.96651,68.26949],[13.96538,68.27031],[13.9657,68.27143],[13.96357,68.27282],[13.96019,68.27137]],[[13.90971,68.29324],[13.91201,68.29371],[13.91661,68.29383],[13.92026,68.29472],[13.92605,68.29013],[13.9326,68.28901],[13.93375,68.28772],[13.93912,68.28592],[13.94054,68.28486]],[[13.92164,68.27907],[13.92364,68.27875],[13.92794,68.27695]],[[13.77418,68.28176],[13.77272,68.2807],[13.77036,68.28008],[13.77194,68.27834],[13.77167,68.27742],[13.76962,68.27672],[13.76812,68.27696],[13.76893,68.27857],[13.76672,68.27819],[13.76541,68.27728],[13.76401,68.27763],[13.7658,68.27931],[13.76799,68.27957],[13.76574,68.28045],[13.7641,68.27906],[13.76234,68.27866],[13.75981,68.27727],[13.76022,68.27636],[13.75526,68.27626],[13.75779,68.27942],[13.75905,68.27979]],[[13.74066,68.28347],[13.73876,68.28345]],[[13.74707,68.28352],[13.74743,68.28346]],[[13.73054,68.28339],[13.73254,68.28341]],[[13.73758,68.28345],[13.73876,68.28345]],[[13.9101,68.28502],[13.91091,68.28467]],[[13.80116,68.28392],[13.80298,68.28393]],[[13.74066,68.28347],[13.74344,68.28475],[13.74707,68.28352]],[[13.7502,68.28625],[13.75075,68.28636]],[[13.72934,68.28338],[13.72716,68.28407],[13.72551,68.28356],[13.72399,68.28374],[13.72692,68.28535],[13.72752,68.28661],[13.73052,68.28716],[13.73259,68.28835],[13.73456,68.28835],[13.73616,68.28665],[13.73823,68.28784],[13.74045,68.28819],[13.74287,68.28707],[13.74657,68.28664],[13.74641,68.28583],[13.7502,68.28625]],[[13.76186,68.29659],[13.75999,68.29565],[13.75476,68.29506],[13.75207,68.29537],[13.75273,68.29645],[13.75338,68.29616],[13.75608,68.29652],[13.75888,68.29628],[13.76133,68.29685],[13.76186,68.29659]],[[13.85222,68.30323],[13.85247,68.30346]],[[13.71202,68.30099],[13.71489,68.2996],[13.71305,68.29901],[13.71296,68.29739],[13.717,68.29492],[13.71831,68.29221],[13.71979,68.29138],[13.72239,68.2912],[13.72307,68.28947],[13.72545,68.28774],[13.72503,68.28679],[13.72152,68.28602],[13.72265,68.28469],[13.72043,68.2845],[13.71901,68.2833]],[[13.82358,68.3112],[13.82164,68.31112],[13.82164,68.31206],[13.82247,68.3123],[13.82658,68.31208],[13.82358,68.3112]],[[13.66642,68.30996],[13.67599,68.30887],[13.67945,68.30921],[13.67994,68.30979],[13.68655,68.31043],[13.69097,68.30799],[13.69747,68.30619],[13.69726,68.3046],[13.69849,68.30415]],[[13.80435,68.31263],[13.8012,68.31266],[13.80087,68.31292],[13.80467,68.31384],[13.80435,68.31263]],[[13.83001,68.31379],[13.82938,68.31335],[13.82747,68.31369],[13.82606,68.31302],[13.82432,68.31379],[13.82462,68.31421],[13.82715,68.31462],[13.83001,68.31379]],[[13.79098,68.32276],[13.78705,68.32147]],[[13.79107,68.32277],[13.79098,68.32276]],[[13.79308,68.31791],[13.79151,68.3177],[13.79014,68.31856],[13.79416,68.31956],[13.79308,68.31791]],[[13.90797,68.32953],[13.90801,68.3295]],[[13.87774,68.32686],[13.87869,68.32726]],[[13.77703,68.32605],[13.77497,68.326],[13.77335,68.3264],[13.77651,68.32695],[13.77911,68.32691],[13.77703,68.32605]],[[13.76783,68.32614],[13.76634,68.32628],[13.7658,68.327],[13.76689,68.32769],[13.76808,68.3276],[13.76902,68.32692],[13.76783,68.32614]],[[13.78672,68.32773],[13.79041,68.32812],[13.79209,68.32777],[13.78868,68.32645],[13.78679,68.32636]],[[13.78571,68.32866],[13.78665,68.32905]],[[13.87806,68.3293],[13.88093,68.32932]],[[13.80205,68.32877],[13.80345,68.32963],[13.80385,68.32879]],[[13.81482,68.32886],[13.81657,68.32956],[13.81718,68.32888]],[[13.77067,68.32855],[13.77074,68.32904],[13.77274,68.32961],[13.77385,68.32922],[13.77383,68.32857]],[[13.7865,68.33191],[13.78647,68.33248]],[[13.78647,68.33248],[13.78937,68.33267],[13.78819,68.33098],[13.7865,68.33191]],[[13.91755,68.32956],[13.91769,68.33238],[13.9197,68.33403],[13.91714,68.33655]],[[13.90724,68.34475],[13.90997,68.34439],[13.91142,68.34325],[13.91015,68.34121],[13.90852,68.34201],[13.90737,68.34206]],[[13.89377,68.32941],[13.89468,68.32969],[13.89534,68.32942]],[[13.1533,68.05368],[13.15275,68.05306],[13.14126,68.05156],[13.13743,68.05016],[13.1361,68.05015]],[[13.1543,68.05541],[13.1533,68.05368]],[[13.74177,68.08888],[13.73985,68.08847],[13.73945,68.0897],[13.74237,68.09005],[13.74289,68.08964],[13.74177,68.08888]],[[13.64612,68.23787],[13.64355,68.23885],[13.64105,68.23905],[13.64121,68.23978],[13.63959,68.24032]],[[13.79129,68.24152],[13.79007,68.24134],[13.78876,68.24202],[13.79123,68.24259]],[[13.50346,68.05722],[13.50071,68.0572]],[[13.536,68.05838],[13.53326,68.05838],[13.53315,68.05937],[13.53176,68.06008],[13.53262,68.06077],[13.53377,68.06071],[13.53588,68.05975],[13.53572,68.05911],[13.53667,68.05885],[13.536,68.05838]],[[13.23255,68.05454],[13.23252,68.05743],[13.23418,68.05877],[13.2333,68.05985],[13.23829,68.06127],[13.24096,68.06017],[13.24281,68.0576],[13.24891,68.05472]],[[13.08472,68.01652],[13.08856,68.0168],[13.09061,68.01739],[13.09213,68.01899]],[[13.1392,68.0568],[13.1395,68.05802],[13.13832,68.05914],[13.13931,68.06084]],[[13.40056,68.06283],[13.40348,68.06297],[13.40288,68.0615],[13.40052,68.06099],[13.40413,68.06084],[13.40068,68.05981],[13.3989,68.0597],[13.39843,68.06231],[13.40015,68.06396],[13.40096,68.0636],[13.40056,68.06283]],[[13.55277,68.06609],[13.55174,68.06579],[13.54736,68.06606],[13.54909,68.0672],[13.54981,68.06668],[13.55277,68.06609]],[[13.63384,68.08958],[13.63119,68.08891],[13.63072,68.08728],[13.62854,68.08768],[13.62802,68.08835],[13.62945,68.08957],[13.63327,68.08983],[13.63384,68.08958]],[[13.23503,68.00355],[13.23674,68.00349],[13.23867,68.00448],[13.2414,68.00472],[13.23703,68.0006],[13.23856,68.00005],[13.235,67.99605]],[[13.224,67.99825],[13.22707,68.00095],[13.22661,68.0026],[13.22783,68.0062],[13.22892,68.00768],[13.23145,68.00914],[13.23418,68.00966],[13.23524,68.00952],[13.23766,68.00684],[13.23503,68.00355]],[[13.19928,68.08299],[13.19932,68.08253]],[[13.21872,68.00953],[13.21811,68.00757],[13.21966,68.00657],[13.21967,68.0054],[13.21637,68.00218],[13.21392,68.00138],[13.21223,68.00129],[13.21236,67.99928]],[[13.20938,67.99834],[13.207,68.00122],[13.21085,68.0011],[13.21104,68.00279],[13.21246,68.00299],[13.21223,68.00469],[13.21473,68.00765],[13.21412,68.00912],[13.2124,68.00911],[13.21057,68.00799],[13.21174,68.0071],[13.20852,68.00467],[13.20734,68.00433],[13.20665,68.00502],[13.20534,68.0051]],[[13.31267,68.01052],[13.31318,68.00949],[13.3096,68.00846],[13.30159,68.00757],[13.3008,68.00682],[13.29611,68.00669],[13.29525,68.00629],[13.29591,68.0047],[13.28926,68.00337],[13.28665,68.00181],[13.28372,68.00169],[13.28238,68.00216],[13.27727,68.00179],[13.27731,68.00095],[13.27569,68.00028],[13.27348,68.00014],[13.27038,68.00033],[13.26801,68.00127],[13.26513,68.00062],[13.26512,67.99948]],[[13.2613,67.99955],[13.25938,68.00021],[13.26142,68.00792],[13.26083,68.00998]],[[13.19014,68.01475],[13.18938,68.01446],[13.18799,68.01511],[13.18949,68.0159],[13.18945,68.01755],[13.19193,68.0166],[13.19014,68.01475]],[[13.08472,68.01652],[13.08246,68.01614],[13.07822,68.0167],[13.0776,68.01717],[13.0785,68.01899],[13.08273,68.02025],[13.08413,68.02154],[13.08285,68.02277],[13.08318,68.02517],[13.08239,68.0259],[13.08107,68.02646],[13.07103,68.02735],[13.0663,68.02729],[13.06484,68.02766]],[[13.09213,68.01899],[13.09282,68.01946],[13.09217,68.02032],[13.09345,68.02128],[13.10093,68.02325],[13.10876,68.02457],[13.12343,68.0298],[13.12962,68.03275]],[[13.49375,68.03681],[13.49104,68.03675],[13.49226,68.03816],[13.49406,68.03754],[13.49375,68.03681]],[[13.35438,68.03703],[13.35244,68.03698],[13.35187,68.03811],[13.35317,68.03914],[13.35501,68.03752],[13.35438,68.03703]],[[13.05627,68.02996],[13.0576,68.03103],[13.04996,68.03203],[13.04914,68.03269],[13.0522,68.03444],[13.05277,68.03509],[13.05169,68.03569],[13.05306,68.03617],[13.06046,68.0364],[13.06574,68.03538],[13.08333,68.03339]],[[13.11897,68.0384],[13.11735,68.03764],[13.11435,68.03764],[13.11325,68.03862],[13.11396,68.03977],[13.11721,68.04042],[13.12081,68.03955],[13.12141,68.03912],[13.11897,68.0384]],[[13.5304,68.04562],[13.5274,68.04532],[13.52502,68.04558],[13.52721,68.048],[13.52864,68.04834],[13.53081,68.04822],[13.53039,68.04743],[13.5277,68.0463],[13.53026,68.04608],[13.5304,68.04562]],[[13.12962,68.03275],[13.14366,68.03986],[13.15245,68.0433],[13.15949,68.04464],[13.16263,68.0447],[13.16286,68.04289],[13.16576,68.04042],[13.16345,68.03934],[13.1641,68.03596],[13.16581,68.03391],[13.16823,68.0326],[13.16729,68.03129],[13.16817,68.03081],[13.1679,68.02996],[13.17182,68.02928],[13.17185,68.02805],[13.1698,68.02651],[13.16571,68.02509],[13.16416,68.02401],[13.16143,68.02373],[13.15976,68.02249],[13.16431,68.02214],[13.16639,68.02151],[13.17229,68.02212],[13.1741,68.02119],[13.1738,68.01918],[13.17748,68.01882],[13.17833,68.01777],[13.16771,68.01093],[13.16815,68.01042],[13.17135,68.00992],[13.17095,68.00901]],[[13.53782,68.05083],[13.53485,68.04891],[13.53417,68.04905],[13.53443,68.04982],[13.53139,68.04973],[13.53182,68.05049],[13.53428,68.05136],[13.53829,68.0519],[13.53893,68.05137],[13.53782,68.05083]],[[13.54135,68.04709],[13.53959,68.047],[13.53752,68.04766],[13.53798,68.05041],[13.54125,68.05149],[13.54753,68.05197],[13.54866,68.05082],[13.54771,68.04917],[13.54483,68.04771],[13.54135,68.04709]],[[13.1361,68.05015],[13.13129,68.04923],[13.12845,68.04915],[13.12204,68.04713],[13.11853,68.04693],[13.1174,68.04645],[13.11708,68.0453],[13.12076,68.04446],[13.12071,68.04359],[13.11323,68.04108],[13.10934,68.04098],[13.10609,68.04181],[13.10344,68.04322],[13.09792,68.04325],[13.09483,68.04247],[13.09352,68.04193],[13.09313,68.04095],[13.09447,68.04001],[13.09444,68.03911],[13.09241,68.03881],[13.09018,68.0392],[13.08758,68.03893],[13.08589,68.03626],[13.08889,68.03598],[13.09532,68.03616],[13.09496,68.03431],[13.08836,68.03326],[13.08333,68.03339]],[[13.49647,68.05342],[13.49316,68.05335],[13.4935,68.05489],[13.49641,68.05503],[13.49708,68.05465],[13.49647,68.05342]],[[13.23255,68.05454],[13.23402,68.05035],[13.2361,68.04872],[13.23619,68.04569],[13.23868,68.04356],[13.23979,68.03975],[13.23469,68.03214],[13.23144,68.02947],[13.22985,68.02903],[13.22838,68.02934],[13.22666,68.0289],[13.22542,68.02736],[13.22326,68.02657],[13.22321,68.0256],[13.22622,68.02414],[13.22749,68.02231],[13.2249,68.01785],[13.22605,68.01378],[13.22483,68.01188],[13.22009,68.01079],[13.21872,68.00953]],[[13.5459,68.06405],[13.54986,68.06392],[13.55114,68.06327],[13.55019,68.06274],[13.54558,68.06291],[13.54571,68.06215],[13.54928,68.06165],[13.54854,68.06113],[13.54654,68.06084],[13.53817,68.06091],[13.5363,68.06161],[13.53922,68.06248],[13.53647,68.06237],[13.53449,68.06272],[13.53468,68.06402],[13.54164,68.06659],[13.54656,68.06594],[13.54393,68.06484],[13.5459,68.06405]],[[13.02071,68.05214],[13.01977,68.05062],[13.01755,68.05003],[13.01817,68.04805],[13.01674,68.04597],[13.01459,68.04574],[13.01352,68.0448],[13.01057,68.04436],[13.00408,68.04626],[12.99869,68.04481]],[[12.99999,68.04336],[13.00116,68.04183],[12.9955,68.04051]],[[13.18116,68.05399],[13.17529,68.04867],[13.17334,68.0477],[13.16858,68.0464],[13.16552,68.04443],[13.17295,68.03648],[13.17863,68.03242],[13.17911,68.03128],[13.17756,68.03033],[13.1768,68.02861],[13.17809,68.02651],[13.18225,68.02518],[13.1818,68.0236],[13.18401,68.02215],[13.18292,68.02052],[13.18097,68.01999],[13.18144,68.01874],[13.18517,68.01719],[13.1895,68.01798],[13.18693,68.01901],[13.18738,68.01937],[13.19307,68.01791],[13.19597,68.01896],[13.19953,68.01952],[13.20102,68.01901],[13.1991,68.0156],[13.19513,68.01428],[13.19138,68.01236],[13.19355,68.01131],[13.19506,68.01195],[13.19749,68.01133],[13.19889,68.01063],[13.19922,68.00932]],[[13.24891,68.05472],[13.24987,68.05391],[13.2492,68.0525],[13.25097,68.05168],[13.25108,68.0502],[13.24874,68.0476],[13.24935,68.04626],[13.25155,68.04527],[13.25636,68.04434],[13.25786,68.04285],[13.26284,68.04067],[13.26171,68.03858],[13.26034,68.03827],[13.26137,68.03482],[13.26083,68.03407],[13.25858,68.03313],[13.25788,68.03179],[13.25813,68.03109],[13.26176,68.02959],[13.2629,68.02565],[13.26117,68.02318],[13.26056,68.01961],[13.26123,68.01441],[13.25939,68.0122],[13.26083,68.00998]],[[13.40168,68.05627],[13.39749,68.05488],[13.3977,68.05412],[13.39633,68.05318],[13.39603,68.05217],[13.39878,68.0509],[13.3998,68.04847],[13.39892,68.04795],[13.39936,68.04634],[13.39853,68.04558],[13.39459,68.0443],[13.39712,68.04334],[13.39775,68.04253],[13.39652,68.03962],[13.39163,68.03642],[13.39391,68.03519],[13.39178,68.03247],[13.39191,68.03152],[13.38593,68.02967],[13.38493,68.0289],[13.38097,68.02791],[13.37631,68.02803],[13.37543,68.02873],[13.37135,68.02806],[13.36502,68.02898],[13.36475,68.03089],[13.36305,68.03097],[13.35965,68.0335],[13.35563,68.03805],[13.35495,68.03943],[13.35573,68.04239],[13.35454,68.04427],[13.35128,68.0438],[13.34905,68.04414],[13.34943,68.04105],[13.34753,68.03875],[13.34952,68.03735],[13.3481,68.03672],[13.348,68.03611],[13.34881,68.03556],[13.35089,68.03546],[13.35004,68.03447],[13.35105,68.03403],[13.35016,68.03283],[13.34589,68.03258],[13.34483,68.03149],[13.34593,68.03099],[13.34845,68.03078],[13.35044,68.02968],[13.34956,68.02894],[13.35018,68.02868],[13.35164,68.02862],[13.35309,68.02939],[13.35721,68.02927],[13.35771,68.02757],[13.35516,68.02635],[13.34844,68.02563],[13.34674,68.02576],[13.34714,68.02622],[13.34637,68.02646],[13.34408,68.02665],[13.34083,68.02636],[13.34138,68.02752],[13.34053,68.02784],[13.33865,68.02714],[13.33241,68.02653],[13.33663,68.02291],[13.333,68.02127],[13.32978,68.02112],[13.32905,68.02054],[13.32999,68.01999],[13.32852,68.01933],[13.32401,68.01888]],[[13.46821,68.06693],[13.4679,68.06665],[13.46445,68.06694],[13.46542,68.06755],[13.4613,68.06811],[13.46084,68.06867],[13.4646,68.06928],[13.46887,68.06874],[13.46884,68.06788],[13.46702,68.06746],[13.46821,68.06693]],[[13.13931,68.06084],[13.13667,68.06234],[13.13851,68.06257],[13.14048,68.06453],[13.14273,68.06432],[13.14466,68.06363],[13.14713,68.06353],[13.14833,68.06543],[13.15332,68.06744],[13.16222,68.06828],[13.16459,68.06321],[13.16634,68.06233],[13.16658,68.06017],[13.16879,68.05961],[13.169,68.0587],[13.16568,68.05831],[13.16377,68.05903],[13.16064,68.05765],[13.15485,68.05754],[13.15395,68.05695],[13.1543,68.05541]],[[13.19209,68.06939],[13.194,68.06849],[13.19456,68.06723],[13.19326,68.06663],[13.191,68.06633],[13.18835,68.06645],[13.18572,68.06822],[13.18587,68.06891],[13.1901,68.07007],[13.19209,68.06939]],[[13.56007,68.0737],[13.5589,68.07446],[13.55234,68.07176],[13.55056,68.07236],[13.54634,68.07281],[13.54686,68.07194],[13.54883,68.07142],[13.54645,68.07031],[13.53904,68.0706],[13.5379,68.07144],[13.53514,68.07163],[13.5372,68.073],[13.5364,68.07336],[13.53702,68.07381]],[[13.54983,68.07375],[13.55291,68.07391],[13.55325,68.07306],[13.54867,68.07335],[13.54757,68.0742],[13.54879,68.07481],[13.54983,68.07375]],[[13.6681,68.07383],[13.66645,68.07379],[13.66577,68.0747],[13.6692,68.07597],[13.6681,68.07383]],[[13.62491,68.07384],[13.62256,68.07376],[13.62095,68.07292],[13.61963,68.07282],[13.62021,68.07419],[13.61872,68.07475],[13.62107,68.07549],[13.62336,68.07563],[13.62491,68.07384]],[[13.57051,68.07829],[13.5669,68.07833],[13.56632,68.07942],[13.56743,68.07952],[13.57023,68.07887],[13.57051,68.07829]],[[13.55994,68.07572],[13.5634,68.07456],[13.56189,68.07346],[13.56007,68.0737]],[[13.61451,68.07493],[13.61294,68.07487],[13.61277,68.0756],[13.61714,68.07667],[13.61927,68.07675],[13.6181,68.07566],[13.61451,68.07493]],[[13.7008,68.07685],[13.69745,68.07667],[13.69646,68.07702],[13.69922,68.07796],[13.70138,68.07739],[13.7008,68.07685]],[[13.53702,68.07381],[13.53912,68.07458],[13.53971,68.07545],[13.54098,68.07554],[13.54435,68.07699]],[[13.55994,68.07572],[13.55817,68.07587],[13.55784,68.07516],[13.55608,68.0754],[13.55574,68.07583],[13.55712,68.07626],[13.5546,68.07722],[13.55881,68.07641],[13.55988,68.07667]],[[13.64622,68.0768],[13.64452,68.07613],[13.64275,68.07627],[13.64234,68.07498],[13.64112,68.07457],[13.64009,68.07476],[13.64009,68.07586],[13.64507,68.07819],[13.64651,68.07805],[13.64622,68.0768]],[[13.32346,68.10035],[13.31844,68.09562]],[[13.63308,68.07398],[13.63029,68.07367],[13.62973,68.07403],[13.63029,68.0769],[13.63373,68.07826],[13.63503,68.07807],[13.63636,68.07666],[13.63275,68.07531],[13.63308,68.07398]],[[13.21196,68.07583],[13.20991,68.07609],[13.20646,68.07504],[13.20038,68.0751],[13.19993,68.07469]],[[13.18116,68.05399],[13.18427,68.05752],[13.18956,68.06049],[13.19101,68.06308],[13.19455,68.06496],[13.19481,68.06658],[13.19809,68.06789],[13.19818,68.06857],[13.19483,68.06966],[13.19792,68.06993],[13.19845,68.07136],[13.19673,68.07367],[13.19762,68.07435],[13.19993,68.07469]],[[13.66132,68.0766],[13.65917,68.07644],[13.65683,68.07442],[13.65818,68.07366],[13.65715,68.07233],[13.65521,68.07265],[13.65494,68.07368],[13.65359,68.07373],[13.65297,68.07158],[13.65171,68.07104],[13.6493,68.07154],[13.65003,68.07293],[13.64877,68.07272],[13.64816,68.07195],[13.64707,68.07198],[13.64833,68.07363],[13.64681,68.07527],[13.64791,68.07748],[13.65396,68.07919],[13.65984,68.07912],[13.66149,68.07822],[13.66132,68.0766]],[[13.67984,68.07794],[13.67884,68.07626],[13.67661,68.07527],[13.67249,68.07492],[13.67598,68.07892],[13.67875,68.07991],[13.67976,68.07931]],[[13.34292,68.07611],[13.3436,68.07487],[13.34594,68.07395],[13.34063,68.07226],[13.33407,68.07371],[13.33446,68.07561],[13.33157,68.07668],[13.32644,68.07681],[13.32463,68.07578],[13.3223,68.07526],[13.31989,68.07573]],[[13.67072,68.07762],[13.66984,68.07765],[13.66982,68.07836],[13.67132,68.07976],[13.67288,68.08017],[13.67072,68.07762]],[[13.31989,68.07573],[13.31641,68.07658],[13.31695,68.07699],[13.31978,68.07715]],[[13.63979,68.07714],[13.6386,68.07739],[13.63729,68.07852],[13.63756,68.0792],[13.64095,68.08065],[13.64439,68.08101],[13.64512,68.08055],[13.64259,68.08001],[13.63979,68.07714]],[[13.54435,68.07699],[13.54486,68.07793],[13.54295,68.07806],[13.54326,68.07846],[13.54603,68.07862],[13.55263,68.08006],[13.55965,68.08043]],[[13.19168,68.07409],[13.1891,68.0744],[13.18781,68.07497],[13.18755,68.07626],[13.1889,68.07682],[13.19074,68.07653],[13.19168,68.07409]],[[13.55965,68.08043],[13.56095,68.08051],[13.56068,68.07967],[13.56212,68.07959],[13.56528,68.07817],[13.56413,68.07786],[13.56484,68.07683],[13.56236,68.07725],[13.55988,68.07667]],[[13.7436,68.08756],[13.74056,68.08688],[13.73964,68.087],[13.74246,68.08856],[13.74627,68.08911],[13.74597,68.08833],[13.7436,68.08756]],[[13.02071,68.05214],[13.01859,68.05298],[13.01667,68.05547],[13.01482,68.05653],[13.01561,68.05765],[13.02218,68.05989],[13.03443,68.06152],[13.03728,68.06384],[13.04126,68.06485],[13.04381,68.06685],[13.04409,68.06869],[13.04682,68.07207],[13.04561,68.07302],[13.04705,68.07358],[13.04621,68.07462],[13.047,68.07512],[13.05347,68.07555],[13.05872,68.07517],[13.0615,68.07542],[13.06976,68.07452],[13.07839,68.07204],[13.08009,68.07234]],[[13.31968,68.07856],[13.32212,68.07848],[13.31978,68.07715]],[[13.19849,68.07525],[13.19708,68.07503],[13.19528,68.07567],[13.19597,68.07651],[13.19494,68.07769],[13.19804,68.07661],[13.19905,68.07575],[13.19849,68.07525]],[[13.21196,68.07583],[13.21399,68.07586],[13.21737,68.07739],[13.22169,68.07758],[13.22421,68.0771],[13.22508,68.07731],[13.22485,68.07781],[13.22691,68.0781],[13.22871,68.07739],[13.22914,68.07633],[13.23336,68.0751],[13.23402,68.07437],[13.23636,68.0742],[13.23784,68.07343],[13.23889,68.07428]],[[13.50346,68.05722],[13.50476,68.05766],[13.50459,68.05827],[13.5062,68.05937],[13.5087,68.05936],[13.51107,68.06023],[13.5096,68.06095],[13.51185,68.06239],[13.51606,68.0633],[13.52304,68.06322],[13.52685,68.06383],[13.53101,68.06376],[13.53569,68.06574],[13.53434,68.06761],[13.53945,68.06796],[13.5409,68.06862],[13.54135,68.06917],[13.53838,68.0698],[13.53307,68.06979],[13.52832,68.07454],[13.53156,68.07682],[13.53126,68.07755],[13.53336,68.07793],[13.53399,68.07855],[13.5397,68.07852],[13.54262,68.07905],[13.54282,68.07973],[13.54794,68.08022],[13.54821,68.08064],[13.54694,68.0812],[13.54313,68.08166],[13.54071,68.08135],[13.53827,68.08019],[13.53713,68.08017],[13.53913,68.08219],[13.54152,68.0825],[13.54288,68.08353],[13.54578,68.08386],[13.5456,68.08259],[13.54632,68.08233],[13.5499,68.0841],[13.55114,68.0841],[13.55161,68.08324],[13.55653,68.0826],[13.55834,68.08294],[13.5577,68.08396],[13.55944,68.08377]],[[13.58474,68.08395],[13.58286,68.0839],[13.58068,68.08304],[13.58139,68.08181],[13.58264,68.08198],[13.58542,68.08157],[13.58531,68.08096],[13.58293,68.08049],[13.5809,68.08091],[13.57998,68.07995],[13.57872,68.07976],[13.57247,68.08067],[13.57231,68.08153],[13.57116,68.0819],[13.5735,68.08333],[13.58331,68.08503],[13.58474,68.08395]],[[13.73875,68.08453],[13.73807,68.0835],[13.73533,68.08332],[13.73355,68.08398],[13.73023,68.08245],[13.72842,68.08273],[13.73059,68.08474],[13.73546,68.08653],[13.7381,68.08632],[13.73875,68.08453]],[[13.74374,68.08356],[13.74277,68.08358],[13.74313,68.08457],[13.74624,68.08684],[13.74805,68.08728],[13.74683,68.08495],[13.74374,68.08356]],[[13.19947,68.08064],[13.19812,68.08118],[13.19932,68.08253]],[[13.62799,68.08501],[13.62576,68.08508],[13.62564,68.08615],[13.62764,68.08668],[13.62799,68.08501]],[[13.16684,68.08706],[13.16746,68.08578],[13.17131,68.08559],[13.17195,68.08453],[13.17047,68.08338],[13.16797,68.08274],[13.16854,68.08177],[13.16409,68.08156],[13.16238,68.08051],[13.15942,68.07617],[13.15764,68.07533],[13.15542,68.07596],[13.14874,68.07548],[13.14695,68.0747],[13.14595,68.07325],[13.13805,68.07412],[13.13609,68.07397],[13.13505,68.07227],[13.1357,68.0699],[13.12995,68.06871],[13.12739,68.06539],[13.12498,68.06391],[13.12386,68.06185],[13.12117,68.05944],[13.12487,68.05789],[13.12594,68.0548],[13.12699,68.05448],[13.13078,68.05448],[13.13188,68.05508],[13.13364,68.05529],[13.13708,68.05483],[13.13883,68.05541],[13.1392,68.0568]],[[13.16832,68.08752],[13.16684,68.08706]],[[13.19883,68.08875],[13.2006,68.08812],[13.20116,68.08641],[13.20538,68.08212],[13.20276,68.08134],[13.20176,68.08053],[13.19947,68.08064]],[[13.80886,68.09341],[13.80711,68.09321],[13.80586,68.09417],[13.80836,68.09445],[13.80886,68.09341]],[[13.19928,68.08299],[13.19498,68.08536],[13.19414,68.08351],[13.19182,68.0843],[13.19075,68.08405],[13.19137,68.08254],[13.18958,68.08228],[13.18745,68.08297],[13.1885,68.08454],[13.19256,68.08587],[13.19126,68.08757],[13.19146,68.08874],[13.19655,68.08925],[13.19883,68.08875]],[[13.79284,68.09586],[13.79163,68.09558],[13.7891,68.09589],[13.78926,68.09659],[13.79106,68.09725],[13.79362,68.09683],[13.79284,68.09586]],[[13.73266,68.09663],[13.73198,68.09644],[13.73053,68.09681],[13.73266,68.09874],[13.73266,68.09663]],[[13.31968,68.07856],[13.31268,68.07758],[13.30867,68.07864],[13.30377,68.078],[13.29824,68.07856],[13.29614,68.07909],[13.29753,68.07948],[13.29707,68.07993],[13.29417,68.07975],[13.2948,68.0824],[13.29235,68.08321],[13.29543,68.08487],[13.29965,68.0842],[13.30186,68.08423],[13.30569,68.08329],[13.30889,68.08435],[13.30922,68.08796],[13.31844,68.09562]],[[13.21784,68.09351],[13.21927,68.09401],[13.22147,68.09304],[13.21583,68.09059],[13.21313,68.0931],[13.2169,68.09486],[13.21784,68.09351]],[[13.79347,68.09788],[13.79269,68.09764],[13.78795,68.09825],[13.78965,68.10024],[13.79291,68.09884],[13.79347,68.09788]],[[13.29134,68.1051],[13.2984,68.10886],[13.29879,68.11066],[13.29959,68.11072],[13.30015,68.11009],[13.30323,68.10929],[13.3092,68.10938],[13.309,68.10749]],[[13.18759,68.0949],[13.18842,68.09483],[13.18929,68.09536],[13.19188,68.09539],[13.19295,68.09494],[13.19104,68.09422],[13.19168,68.0935],[13.18942,68.09259],[13.19078,68.09062],[13.19015,68.08979],[13.18834,68.08914],[13.18738,68.08716],[13.18534,68.08625],[13.18577,68.0851],[13.18478,68.08452],[13.18308,68.08442],[13.17932,68.08621],[13.17778,68.08557],[13.17551,68.08602],[13.17582,68.085],[13.17505,68.08458],[13.17268,68.08542],[13.17142,68.08722],[13.16832,68.08752]],[[13.41149,68.09758],[13.41344,68.09753],[13.40794,68.09507],[13.40344,68.09414],[13.40311,68.09496],[13.40612,68.09721],[13.4087,68.09774],[13.41149,68.09758]],[[13.78724,68.09901],[13.78564,68.09885],[13.78546,68.0999],[13.78872,68.1011],[13.78917,68.10058],[13.78724,68.09901]],[[13.7381,68.09771],[13.73502,68.09803],[13.73496,68.09913],[13.73299,68.09983],[13.73354,68.10092],[13.73847,68.10213],[13.7425,68.1024],[13.74363,68.10217],[13.74336,68.10122],[13.7381,68.09771]],[[13.78184,68.10029],[13.78079,68.10017],[13.78012,68.10074],[13.78098,68.10278],[13.78244,68.1033],[13.78197,68.10211],[13.78277,68.10153],[13.78184,68.10029]],[[13.79792,68.10245],[13.79628,68.10253],[13.79535,68.10303],[13.79796,68.10398],[13.79792,68.10245]],[[13.13711,68.09794],[13.14441,68.09694],[13.15608,68.09726],[13.15605,68.09697],[13.15137,68.09592],[13.1397,68.09575],[13.14028,68.09509],[13.14201,68.09479],[13.15452,68.09477]],[[13.76273,68.09764],[13.76143,68.09716],[13.76085,68.09731],[13.75897,68.10036],[13.75891,68.10273],[13.75784,68.10334],[13.76138,68.10384],[13.7622,68.10345],[13.76138,68.10302],[13.7616,68.10208],[13.76322,68.10134],[13.76273,68.09764]],[[13.81009,68.10272],[13.80877,68.10243],[13.80844,68.10184],[13.80653,68.10188],[13.80548,68.10129],[13.80669,68.10099],[13.80808,68.10129],[13.80964,68.1008],[13.80861,68.09963],[13.80941,68.09882],[13.805,68.09803],[13.80283,68.09921],[13.80443,68.09997],[13.8016,68.10057],[13.80152,68.10378],[13.80361,68.10418],[13.80926,68.10357],[13.81009,68.10272]],[[13.07955,68.0977],[13.08346,68.09606],[13.08564,68.09431],[13.08365,68.09225],[13.08432,68.09117],[13.08646,68.09038],[13.08443,68.08811],[13.08473,68.08615],[13.09026,68.08471],[13.09347,68.08307],[13.09509,68.08014],[13.09709,68.07847],[13.09139,68.07554],[13.08865,68.07511],[13.0854,68.0737],[13.08009,68.07234]],[[13.13625,68.09835],[13.13711,68.09794]],[[13.18277,68.09887],[13.18183,68.09791],[13.18061,68.09783],[13.17879,68.09811],[13.17802,68.09881]],[[13.19013,68.09895],[13.19006,68.0986],[13.18645,68.0979],[13.18767,68.09515]],[[13.22953,68.10753],[13.23218,68.10768],[13.23226,68.10547],[13.22603,68.10801],[13.22652,68.10978],[13.22749,68.11013],[13.23002,68.10947],[13.22953,68.10753]],[[13.24232,68.09951],[13.24286,68.09769],[13.23881,68.09398],[13.2351,68.09341],[13.23084,68.09362],[13.22924,68.09454],[13.22939,68.09544],[13.22731,68.09546],[13.22706,68.09497],[13.22342,68.09417],[13.2222,68.09352],[13.22629,68.09256],[13.22664,68.0918],[13.22564,68.09075],[13.21959,68.08955],[13.21906,68.0891],[13.22202,68.08933],[13.22829,68.0887],[13.22606,68.08811],[13.23177,68.08364],[13.23009,68.08237],[13.22819,68.08318],[13.22637,68.08252],[13.22618,68.08185],[13.23066,68.08135],[13.23634,68.07914],[13.23732,68.07851],[13.23653,68.07797],[13.23889,68.07428]],[[13.34128,68.10053],[13.33749,68.09787],[13.33663,68.09326],[13.33857,68.08579],[13.34133,68.08323],[13.34017,68.08103],[13.33786,68.07986],[13.33836,68.07827],[13.3404,68.07755]],[[13.41816,68.10128],[13.41721,68.1009],[13.41709,68.09933],[13.41574,68.09835],[13.41913,68.09759],[13.42078,68.09664],[13.42036,68.09548],[13.42141,68.09395],[13.41995,68.09151],[13.42227,68.08872],[13.41976,68.08607],[13.41983,68.08363],[13.41835,68.08328],[13.41683,68.0805],[13.41716,68.07644],[13.40985,68.07429],[13.40955,68.07355],[13.40746,68.07266],[13.40748,68.07105],[13.41021,68.06957],[13.40929,68.06871],[13.40516,68.06793],[13.40277,68.06812],[13.40156,68.06778],[13.4049,68.067],[13.40618,68.06625],[13.40579,68.0657],[13.40295,68.06559],[13.39959,68.06456],[13.3941,68.06428],[13.39225,68.0649],[13.39163,68.06412],[13.39235,68.06366],[13.39104,68.06325],[13.394,68.06147],[13.39562,68.05955],[13.39755,68.05876],[13.39752,68.05722],[13.40012,68.05695],[13.40168,68.05627]],[[13.47543,68.10182],[13.47455,68.09998],[13.46908,68.09846],[13.46541,68.09599],[13.46623,68.09482],[13.46414,68.09441],[13.46429,68.09222],[13.46751,68.09091],[13.4643,68.09018],[13.46092,68.0876],[13.46023,68.08522],[13.46337,68.08518],[13.46399,68.08487],[13.46108,68.08282],[13.46516,68.08079],[13.46864,68.08035],[13.4703,68.07971],[13.47812,68.07552],[13.48271,68.07103],[13.48751,68.06915],[13.48908,68.06798],[13.48875,68.06688],[13.49217,68.06661],[13.49433,68.06597],[13.49331,68.06358],[13.49074,68.06244],[13.48836,68.06216],[13.48833,68.06093],[13.49137,68.06026],[13.4931,68.05801],[13.50071,68.0572]],[[13.24232,68.09951],[13.23464,68.10166],[13.23389,68.10468],[13.23686,68.106],[13.23823,68.10592],[13.24017,68.10392],[13.24157,68.1034],[13.24476,68.1035],[13.24731,68.10403],[13.24946,68.10522],[13.25178,68.1044],[13.26212,68.10567],[13.26622,68.10472],[13.27012,68.10432],[13.27778,68.10486],[13.28555,68.10362],[13.29134,68.1051]],[[13.76064,68.10851],[13.75891,68.10867],[13.75836,68.10934],[13.75838,68.11085],[13.75936,68.11109],[13.76086,68.11038],[13.76064,68.10851]],[[13.58565,68.1028],[13.58316,68.10143],[13.57945,68.10076],[13.57587,68.09956],[13.57514,68.09826],[13.57585,68.09811],[13.57756,68.09881],[13.57865,68.09874],[13.57943,68.09826],[13.58297,68.09762],[13.58486,68.0968],[13.58568,68.09561],[13.58764,68.09515],[13.5876,68.09458],[13.5863,68.09417],[13.58072,68.09412],[13.58331,68.09294],[13.5855,68.09289],[13.58634,68.0924],[13.58433,68.09107],[13.58286,68.09111],[13.58137,68.09178],[13.5795,68.09331],[13.57823,68.09334],[13.57751,68.09285],[13.58003,68.09185],[13.57703,68.09195],[13.57825,68.09071],[13.58086,68.08979],[13.58179,68.08849],[13.58303,68.08844],[13.58419,68.08776],[13.5803,68.08724],[13.57525,68.08497],[13.56953,68.08383],[13.56608,68.08361],[13.56446,68.08422],[13.55944,68.08377]],[[13.6265,68.10315],[13.62353,68.10223],[13.62239,68.10274],[13.62332,68.10312]],[[13.63064,68.10318],[13.63017,68.10082],[13.63298,68.10089],[13.6347,68.10039],[13.63893,68.10006],[13.63497,68.09937],[13.62953,68.099],[13.626,68.0971],[13.62515,68.09451],[13.62698,68.09435],[13.63272,68.09489],[13.64096,68.09855],[13.64185,68.0982],[13.64045,68.09732],[13.64366,68.09736],[13.64673,68.09848],[13.6492,68.09885],[13.65184,68.10036],[13.65443,68.09996],[13.65736,68.09814],[13.65652,68.09689],[13.65402,68.09602],[13.65206,68.09307],[13.64556,68.09147],[13.64379,68.0895],[13.63659,68.08771],[13.63743,68.08708],[13.63665,68.08666],[13.63476,68.08774],[13.63517,68.089],[13.63382,68.08903],[13.63291,68.08733],[13.63345,68.0866],[13.6348,68.08627],[13.63287,68.08563],[13.63602,68.08429],[13.6335,68.08332],[13.6337,68.08204],[13.63883,68.08154],[13.64001,68.08207],[13.63722,68.08258],[13.64301,68.08429],[13.64742,68.08302],[13.649,68.08302],[13.64979,68.08503],[13.65343,68.08504],[13.65764,68.0859],[13.66362,68.08629],[13.66794,68.08846],[13.67551,68.08915],[13.67921,68.08892]],[[13.55805,68.10602],[13.56373,68.10615],[13.57003,68.10531]],[[13.309,68.10749],[13.31414,68.10498],[13.31778,68.10467]],[[13.56346,68.11002],[13.56158,68.10821],[13.55792,68.10813]],[[13.80499,68.11116],[13.80225,68.11129],[13.8028,68.11253],[13.80501,68.11207],[13.80499,68.11116]],[[13.71327,68.11184],[13.71214,68.11174],[13.71071,68.11079],[13.71105,68.10953]],[[13.15562,68.10658],[13.16056,68.10672],[13.16237,68.10588],[13.16202,68.10525],[13.16048,68.10458],[13.15685,68.10412],[13.15442,68.10491],[13.15216,68.10491],[13.1526,68.10656],[13.15504,68.10709],[13.15562,68.10658]],[[13.12072,68.11687],[13.11934,68.11647],[13.11606,68.11652],[13.11501,68.11684],[13.1151,68.11752],[13.11672,68.11783],[13.12059,68.11734],[13.12072,68.11687]],[[13.73246,68.10399],[13.73084,68.10274],[13.72871,68.1028],[13.72784,68.10167],[13.72949,68.09979],[13.72585,68.09762],[13.72516,68.09617],[13.72591,68.09581],[13.7277,68.09601],[13.72953,68.09439],[13.72733,68.09304],[13.72773,68.09174],[13.72541,68.09117],[13.73247,68.08832],[13.73416,68.08693],[13.73294,68.08642],[13.73245,68.08738],[13.72822,68.08789],[13.72345,68.08529],[13.72018,68.08452],[13.71838,68.08243],[13.71575,68.08289],[13.71301,68.08279],[13.71268,68.08013],[13.71159,68.07933],[13.71026,68.08015],[13.7033,68.0788],[13.70293,68.07909],[13.70515,68.07965],[13.705,68.07993],[13.70205,68.07987],[13.70056,68.07924],[13.69898,68.07992],[13.6969,68.07946],[13.69766,68.08167],[13.70062,68.08237],[13.69886,68.08607],[13.70088,68.08858],[13.69639,68.09099],[13.69396,68.09125],[13.68902,68.09073],[13.68531,68.08974],[13.68447,68.08872],[13.68328,68.08941],[13.67921,68.08892]],[[13.73593,68.10402],[13.73648,68.10226],[13.73311,68.1016],[13.73303,68.10282],[13.73522,68.10401]],[[13.6265,68.10315],[13.6269,68.10359],[13.6288,68.10379],[13.63064,68.10318]],[[13.0779,68.09861],[13.07955,68.0977]],[[13.15715,68.09858],[13.15575,68.09941],[13.15839,68.10075],[13.16749,68.09884],[13.17423,68.1003],[13.17527,68.09957],[13.17692,68.09952],[13.17802,68.09881]],[[13.58331,68.10544],[13.58522,68.10503],[13.58656,68.10404],[13.58565,68.1028]],[[13.57003,68.10531],[13.57859,68.10572],[13.58331,68.10544]],[[13.18277,68.09887],[13.18395,68.10127],[13.18713,68.10096],[13.18715,68.10167],[13.18876,68.10197],[13.19155,68.10184],[13.19217,68.10118],[13.1913,68.10003],[13.18773,68.10009],[13.1878,68.09934],[13.18966,68.09948],[13.19013,68.09895]],[[13.18309,68.10054],[13.1806,68.10048],[13.17918,68.0994],[13.17728,68.10031],[13.17688,68.1015],[13.18,68.10253],[13.18309,68.10054]],[[13.31778,68.10467],[13.32554,68.10314],[13.32471,68.10107],[13.32346,68.10035]],[[13.55805,68.10602],[13.55181,68.10572],[13.55037,68.10595],[13.55062,68.1063],[13.55436,68.10689],[13.55507,68.10772],[13.55792,68.10813]],[[13.71105,68.10953],[13.71712,68.10822],[13.72212,68.10843],[13.72963,68.10773],[13.73372,68.10815],[13.73356,68.10719],[13.73185,68.10715],[13.73142,68.10681],[13.73165,68.10631],[13.73412,68.10592],[13.73246,68.10399]],[[13.79613,68.11119],[13.79206,68.11164],[13.79379,68.11287],[13.7931,68.11361],[13.79506,68.11416],[13.79768,68.11267],[13.79613,68.11119]],[[13.62332,68.10312],[13.62624,68.10426],[13.62683,68.10495],[13.62401,68.10498],[13.62201,68.10575],[13.61843,68.10556],[13.61751,68.10592],[13.625,68.10783],[13.62685,68.10893],[13.63975,68.11147],[13.64971,68.11231],[13.65302,68.11222],[13.65497,68.11338],[13.65487,68.11411],[13.65269,68.11472],[13.6487,68.11485]],[[13.77703,68.11567],[13.77603,68.11643],[13.77852,68.11739],[13.77847,68.11623],[13.77703,68.11567]],[[13.551,68.126],[13.54981,68.1259],[13.54942,68.12651],[13.55358,68.12724],[13.55318,68.12628],[13.551,68.126]],[[13.56721,68.1149],[13.56535,68.11584],[13.5621,68.11527],[13.56261,68.11483],[13.56395,68.11499],[13.56461,68.1147],[13.5646,68.11346],[13.56298,68.1118],[13.56357,68.1115],[13.56614,68.1115],[13.56572,68.1106],[13.56346,68.11002]],[[13.84501,68.11832],[13.84478,68.11671],[13.84335,68.1171],[13.84276,68.11667],[13.84298,68.11535],[13.84015,68.11543],[13.83988,68.11654],[13.84157,68.1176],[13.84149,68.11835],[13.843,68.11828],[13.84513,68.11895],[13.84501,68.11832]],[[13.0779,68.09861],[13.07529,68.10009],[13.07463,68.10242],[13.07262,68.10308],[13.07267,68.10368],[13.07594,68.10543],[13.07596,68.1064],[13.07406,68.10781],[13.07401,68.10889],[13.07099,68.11033],[13.07306,68.11198],[13.07484,68.11221],[13.07679,68.11198]],[[13.77857,68.11819],[13.77614,68.11818],[13.7764,68.1192],[13.77845,68.11928],[13.77857,68.11819]],[[13.07679,68.11198],[13.08411,68.11303],[13.08898,68.11179],[13.09501,68.10897],[13.10581,68.10736],[13.10891,68.1081],[13.11217,68.11128],[13.11677,68.1127],[13.12321,68.11281],[13.12932,68.11248],[13.13215,68.11457],[13.13482,68.11317],[13.1386,68.1141],[13.13948,68.11295],[13.14218,68.11204],[13.14339,68.1121],[13.1438,68.11148],[13.14101,68.10997],[13.14066,68.10673],[13.13565,68.09922],[13.13625,68.09835]],[[13.56599,68.11892],[13.56668,68.11869],[13.5677,68.11915],[13.56957,68.11901],[13.57202,68.11802],[13.57421,68.11914],[13.57661,68.11904],[13.58079,68.11866],[13.5815,68.11801],[13.57709,68.11791],[13.57737,68.11723],[13.57895,68.11685],[13.5764,68.11612],[13.57645,68.11532],[13.57865,68.11477],[13.57797,68.11404],[13.57524,68.11407],[13.57157,68.11556],[13.57015,68.11547],[13.56893,68.11469],[13.56721,68.1149]],[[13.41816,68.10128],[13.41702,68.10257],[13.42316,68.10694],[13.42396,68.10907],[13.42835,68.11292],[13.43061,68.11605],[13.43194,68.11708],[13.43699,68.11892]],[[13.43622,68.13024],[13.43396,68.13088],[13.43085,68.13114],[13.41966,68.13041],[13.41789,68.13079],[13.43125,68.13199],[13.43603,68.13311]],[[13.86646,68.12189],[13.86473,68.12163],[13.8644,68.11978],[13.85688,68.1184],[13.86154,68.12162],[13.86581,68.12263],[13.86646,68.12189]],[[13.55717,68.1201],[13.56411,68.12015],[13.56599,68.11892]],[[13.62274,68.11959],[13.62267,68.11876],[13.62106,68.1184],[13.62012,68.11861],[13.62051,68.11949],[13.61668,68.11972],[13.62064,68.12131],[13.62392,68.12184],[13.62535,68.12111],[13.62274,68.11959]],[[13.85111,68.1182],[13.84973,68.11809],[13.8493,68.11875],[13.85046,68.11929],[13.85039,68.12018],[13.85205,68.12165],[13.85262,68.12407],[13.85475,68.12472],[13.85581,68.12392],[13.85446,68.12031],[13.85184,68.11917],[13.85111,68.1182]],[[13.61251,68.12061],[13.61143,68.12045],[13.61026,68.1209],[13.61037,68.12219],[13.61218,68.1232],[13.61356,68.12274],[13.61251,68.12061]],[[13.76941,68.12431],[13.76744,68.1233],[13.76373,68.12413],[13.76472,68.12453],[13.7662,68.1243],[13.76738,68.12539],[13.76941,68.12431]],[[13.75058,68.12294],[13.74991,68.1227],[13.74877,68.123],[13.74927,68.12541],[13.75123,68.12411],[13.75058,68.12294]],[[13.12508,68.11843],[13.1239,68.11828],[13.12148,68.11934],[13.12101,68.12044],[13.12177,68.12062],[13.12543,68.11969],[13.12508,68.11843]],[[13.61502,68.12483],[13.61258,68.12478],[13.60685,68.12293],[13.60486,68.1236],[13.60961,68.12641],[13.61542,68.12762],[13.61656,68.12697],[13.61502,68.12483]],[[13.54454,68.12748],[13.5431,68.12728],[13.54319,68.1267],[13.54659,68.12644],[13.54925,68.12524],[13.54973,68.12449],[13.55206,68.12426],[13.55137,68.12345],[13.5467,68.12234],[13.54679,68.12168],[13.54367,68.12077],[13.54517,68.12045],[13.55,68.12055],[13.55362,68.12001],[13.55717,68.1201]],[[13.31626,68.12539],[13.33141,68.12177],[13.3342,68.12044],[13.33768,68.11976],[13.33978,68.11861],[13.3409,68.11729],[13.33977,68.11619],[13.34217,68.1148],[13.34049,68.10925],[13.34151,68.10613],[13.34326,68.10415]],[[13.54454,68.12748],[13.54615,68.12769],[13.54761,68.12886],[13.54966,68.12924],[13.55353,68.12888],[13.55513,68.13002],[13.553,68.12994],[13.55226,68.13034],[13.55528,68.13141],[13.55464,68.13417],[13.55628,68.13419]],[[13.57487,68.13311],[13.57826,68.13455],[13.58094,68.13405],[13.57967,68.13218],[13.58256,68.13192],[13.58356,68.1314],[13.58207,68.12956],[13.57452,68.12887],[13.57218,68.12772],[13.57046,68.12805],[13.56857,68.12784],[13.5653,68.12897],[13.56531,68.12798],[13.56193,68.12727],[13.56138,68.12933],[13.56318,68.1307]],[[13.79123,68.24259],[13.79468,68.24266],[13.79631,68.24208],[13.79376,68.24152],[13.79129,68.24152]],[[13.85277,68.12999],[13.85728,68.12881],[13.85805,68.12828],[13.85679,68.12761],[13.85823,68.12714],[13.85909,68.12723],[13.86053,68.12861],[13.86375,68.12837],[13.86104,68.12542],[13.85998,68.12515],[13.86241,68.12399],[13.85919,68.12111],[13.85675,68.12104],[13.85812,68.12581],[13.85471,68.12583],[13.85042,68.12525],[13.84989,68.12423],[13.84416,68.12069],[13.8414,68.12012],[13.83978,68.12038],[13.84376,68.12333],[13.84103,68.12417],[13.83822,68.12441],[13.83302,68.12207],[13.82815,68.12121],[13.82356,68.12197],[13.81937,68.12157],[13.81148,68.11856],[13.80667,68.11736],[13.80504,68.11661],[13.80549,68.11569],[13.80321,68.11453],[13.80123,68.11481],[13.80219,68.11631],[13.79783,68.1169]],[[13.85144,68.13252],[13.85569,68.13285],[13.85783,68.13193],[13.86116,68.1319],[13.86189,68.13158],[13.86036,68.12971],[13.85749,68.13087],[13.85277,68.12999]],[[13.59048,68.14137],[13.59141,68.14219],[13.60274,68.14244]],[[13.6487,68.11485],[13.64614,68.11509],[13.63798,68.11915],[13.63639,68.12153],[13.63268,68.12088],[13.63712,68.12396],[13.63414,68.1236],[13.63248,68.12491],[13.62969,68.12449],[13.62813,68.12471],[13.62966,68.12576],[13.63286,68.12618],[13.63285,68.12672],[13.63513,68.12759],[13.63359,68.12756],[13.63428,68.12808],[13.64288,68.13039],[13.64602,68.13175],[13.64188,68.13125]],[[13.43622,68.13024],[13.43892,68.12922],[13.43983,68.12755],[13.44229,68.12584],[13.44307,68.12348],[13.44159,68.12131],[13.43699,68.11892]],[[13.47543,68.10182],[13.47732,68.10359],[13.4767,68.10598],[13.47959,68.10775],[13.4798,68.10975],[13.48245,68.11101],[13.48075,68.11493],[13.47855,68.11616],[13.47894,68.1176],[13.48231,68.11943],[13.48314,68.12047],[13.48076,68.12187],[13.48044,68.12442],[13.48964,68.12971],[13.49255,68.13103],[13.49501,68.13151]],[[13.56318,68.1307],[13.56119,68.13241],[13.55821,68.13292]],[[13.87274,68.13389],[13.87183,68.13395],[13.87168,68.13581],[13.87361,68.13628],[13.87453,68.13576],[13.87354,68.13549],[13.87388,68.13487],[13.87274,68.13389]],[[13.55821,68.13292],[13.55788,68.13383],[13.55628,68.13419]],[[13.84662,68.13779],[13.85252,68.13733],[13.85588,68.13661],[13.85227,68.13528],[13.85575,68.13505],[13.85635,68.13443],[13.85494,68.13421],[13.85377,68.13456],[13.85258,68.13428],[13.85144,68.13252]],[[13.59647,68.13583],[13.5949,68.13593]],[[13.49948,68.13392],[13.49802,68.13463],[13.50281,68.13567],[13.51228,68.13577]],[[13.86487,68.1377],[13.86982,68.13772],[13.86959,68.13616],[13.86626,68.13574],[13.864,68.13655],[13.85987,68.13653],[13.85975,68.13799],[13.85754,68.13858],[13.85899,68.13899],[13.8628,68.13897],[13.86487,68.1377]],[[13.62616,68.13872],[13.62505,68.13819],[13.62488,68.13683],[13.62331,68.1367],[13.62177,68.13428],[13.61982,68.13493],[13.61157,68.1332],[13.61003,68.13211],[13.60859,68.13185],[13.60689,68.1306],[13.6081,68.12962],[13.60548,68.12798],[13.60734,68.12765],[13.6102,68.12899],[13.61503,68.12803],[13.61817,68.12956],[13.61883,68.13055],[13.62515,68.13146],[13.62669,68.13304],[13.62914,68.13271],[13.62849,68.13128],[13.62707,68.13067],[13.62765,68.13044],[13.63359,68.13012],[13.63751,68.13111],[13.6394,68.1309],[13.64188,68.13125]],[[13.61335,68.13905],[13.61171,68.13627],[13.61237,68.13517],[13.60892,68.13386],[13.60688,68.1338],[13.60513,68.13441],[13.60318,68.13379],[13.60019,68.13349],[13.59664,68.1352],[13.59647,68.13583]],[[13.61886,68.13876],[13.6186,68.13931],[13.61671,68.13954],[13.61367,68.13945],[13.61335,68.13905]],[[13.59048,68.14137],[13.59263,68.13988],[13.58941,68.14009],[13.58854,68.13938],[13.58964,68.13882],[13.58695,68.1386],[13.58397,68.13741],[13.5784,68.13645],[13.5759,68.13478],[13.57353,68.13403],[13.57417,68.13295]],[[13.51228,68.13577],[13.51411,68.13574],[13.51586,68.13633],[13.51574,68.1369],[13.51414,68.13735],[13.51434,68.13851],[13.51723,68.13837],[13.5187,68.13893],[13.52334,68.1394],[13.52597,68.14042],[13.52793,68.14068],[13.53116,68.14023],[13.53524,68.14059],[13.53524,68.14162],[13.53824,68.14169],[13.5411,68.14108],[13.54165,68.14131]],[[13.63093,68.14263],[13.62859,68.14107],[13.62546,68.14179],[13.6235,68.14137],[13.62174,68.14007],[13.62238,68.13944],[13.62163,68.13817],[13.61987,68.13703],[13.61843,68.13681],[13.61886,68.13876]],[[13.87204,68.1544],[13.86824,68.15498],[13.86846,68.15555],[13.87079,68.15549],[13.87204,68.1544]],[[13.5949,68.13593],[13.5947,68.13464],[13.5927,68.134],[13.59141,68.13425],[13.59417,68.13684],[13.59362,68.13714],[13.5909,68.13552],[13.58912,68.13569],[13.58927,68.13475],[13.58819,68.13407],[13.58515,68.13427],[13.5879,68.13569],[13.58628,68.13601],[13.58653,68.13656],[13.60214,68.14165],[13.60274,68.14244]],[[13.76352,68.14254],[13.76226,68.14226],[13.7579,68.14289],[13.76074,68.14435],[13.76328,68.14404],[13.76352,68.14254]],[[13.84075,68.14502],[13.84254,68.14397],[13.83842,68.1428],[13.84031,68.14247],[13.84109,68.14147],[13.83931,68.13952],[13.84662,68.13779]],[[13.74701,68.14507],[13.7497,68.14483],[13.7517,68.14349],[13.74959,68.14206],[13.75018,68.14109],[13.75535,68.14088],[13.7565,68.13973],[13.75558,68.13887],[13.75234,68.13889],[13.75095,68.13837],[13.74773,68.13923],[13.74457,68.13932],[13.74343,68.1388],[13.74433,68.13849],[13.74414,68.13788],[13.74146,68.13673],[13.74063,68.13564],[13.74264,68.13022],[13.74464,68.12938],[13.74654,68.12916],[13.74563,68.12791],[13.7478,68.12796],[13.74885,68.12748],[13.74413,68.12544],[13.74177,68.12523],[13.74347,68.12316],[13.7409,68.12157],[13.74384,68.1215],[13.74465,68.121],[13.74278,68.12065],[13.74269,68.11974],[13.74156,68.11927],[13.73959,68.11929],[13.73831,68.12055],[13.7363,68.11988],[13.73369,68.11963],[13.72201,68.11953],[13.71969,68.11905],[13.71326,68.11674],[13.71332,68.11417],[13.71501,68.1131],[13.7173,68.11261],[13.71606,68.11191],[13.71327,68.11184]],[[13.84042,68.14709],[13.84063,68.14578],[13.83982,68.14542],[13.84075,68.14502]],[[13.64067,68.1456],[13.64056,68.1451],[13.63812,68.14419],[13.63852,68.14389],[13.64231,68.14468],[13.64706,68.14397],[13.64424,68.14239],[13.63945,68.14051],[13.63272,68.14116],[13.63216,68.13931],[13.6335,68.13854],[13.63189,68.13779],[13.62971,68.13796],[13.62905,68.13909],[13.62616,68.13872]],[[13.63093,68.14263],[13.63326,68.14459],[13.63592,68.14564],[13.6376,68.14588],[13.64067,68.1456]],[[13.89702,68.14611],[13.89309,68.14694],[13.89322,68.14791],[13.89544,68.14797],[13.89763,68.14748],[13.89702,68.14611]],[[13.54179,68.14596],[13.54435,68.14506],[13.54062,68.14445],[13.53975,68.143],[13.54165,68.14131]],[[13.31402,68.14512],[13.31239,68.1394],[13.31057,68.13859],[13.30757,68.13582],[13.30266,68.13347],[13.29656,68.13173],[13.29599,68.13085],[13.29692,68.12975],[13.30323,68.1278],[13.31626,68.12539]],[[13.49341,68.14684],[13.49146,68.1464],[13.48623,68.14627],[13.48405,68.14676]],[[13.52813,68.14716],[13.52944,68.14622],[13.53119,68.14622],[13.53228,68.14683],[13.53424,68.147],[13.53646,68.14639],[13.54179,68.14596]],[[13.75935,68.14905],[13.75937,68.14707],[13.76049,68.14592],[13.7629,68.14541],[13.7637,68.14468],[13.76629,68.14435],[13.76852,68.14194],[13.76757,68.14079],[13.76493,68.13995],[13.7585,68.13878],[13.76079,68.13661],[13.76038,68.13596],[13.76314,68.13383],[13.76513,68.13383],[13.76856,68.13315],[13.7729,68.13321],[13.77537,68.13526],[13.77771,68.13495],[13.78044,68.13393],[13.77991,68.13316],[13.77761,68.13322],[13.77829,68.13251],[13.77763,68.13189],[13.77469,68.1316],[13.77378,68.12994],[13.77136,68.12945],[13.77011,68.1304],[13.76882,68.1299],[13.7674,68.13004],[13.76873,68.12838],[13.76511,68.12803],[13.76348,68.12682],[13.76535,68.12635],[13.76928,68.1267],[13.76924,68.12776],[13.77054,68.12791],[13.77124,68.12861],[13.77431,68.12766],[13.77214,68.12623],[13.77257,68.12456],[13.77414,68.12346],[13.77282,68.12217],[13.7733,68.12186],[13.77455,68.12183],[13.77992,68.12302],[13.77905,68.12368],[13.77687,68.12336],[13.77581,68.12386],[13.77895,68.12547],[13.78212,68.12505],[13.78355,68.1228],[13.78145,68.121],[13.78181,68.11863],[13.7827,68.11799],[13.77955,68.11733],[13.78242,68.11664],[13.78532,68.1166],[13.78349,68.11577],[13.78397,68.11513],[13.78772,68.11551],[13.78887,68.11518],[13.79109,68.11578],[13.79135,68.11625],[13.78994,68.11689],[13.78783,68.11716],[13.7884,68.11821],[13.7925,68.11827],[13.79783,68.1169]],[[13.84903,68.1497],[13.84759,68.14943],[13.84795,68.14907],[13.85499,68.14779],[13.85466,68.14679],[13.85271,68.14565],[13.84993,68.14567],[13.84733,68.1467],[13.84419,68.14711],[13.84042,68.14709]],[[13.8681,68.14983],[13.87047,68.14773],[13.86991,68.14715],[13.86827,68.14694],[13.86304,68.14835],[13.86009,68.14977]],[[13.88053,68.14991],[13.88103,68.14879],[13.87722,68.14847],[13.87585,68.14915],[13.87595,68.14988]],[[13.53517,68.14986],[13.53366,68.15034],[13.53536,68.15096],[13.53382,68.15116],[13.53372,68.15162],[13.5367,68.15312],[13.53891,68.15299]],[[13.52813,68.14716],[13.52788,68.14869],[13.52953,68.14956],[13.53517,68.14986]],[[13.86009,68.14977],[13.85748,68.15068],[13.85387,68.15087],[13.85121,68.15198],[13.84824,68.15243],[13.84846,68.1528],[13.85103,68.15256],[13.85329,68.15347],[13.8576,68.15318],[13.85769,68.1524],[13.8681,68.14983]],[[13.43487,68.15008],[13.44261,68.14821],[13.44476,68.14733],[13.44628,68.14829],[13.44787,68.1485],[13.44859,68.14822],[13.44813,68.14754],[13.45239,68.14766],[13.45225,68.14647]],[[13.86361,68.15274],[13.86144,68.15295],[13.86072,68.15424],[13.86189,68.15448],[13.86303,68.15436],[13.86361,68.15274]],[[13.74799,68.14896],[13.74992,68.15065],[13.7535,68.15161],[13.7515,68.15299],[13.74626,68.15259],[13.74725,68.15401],[13.75079,68.15447],[13.75511,68.15417]],[[13.88799,68.15367],[13.88623,68.15328],[13.88534,68.15348],[13.88454,68.15557],[13.88647,68.15544],[13.88851,68.15421],[13.88799,68.15367]],[[13.75511,68.15417],[13.75623,68.15432],[13.75779,68.15566],[13.75935,68.15528],[13.76071,68.15417],[13.76076,68.15315],[13.75841,68.15135],[13.75935,68.14905]],[[13.86324,68.15518],[13.85815,68.15382],[13.85336,68.15356],[13.85314,68.15504],[13.85586,68.15544],[13.85722,68.15514],[13.86272,68.15672],[13.86387,68.15559],[13.86324,68.15518]],[[13.79577,68.15633],[13.80638,68.15613],[13.81372,68.15643],[13.81482,68.15608],[13.81667,68.15632],[13.81985,68.15531],[13.81966,68.15648],[13.83151,68.15708],[13.83482,68.15675],[13.85126,68.15694],[13.8528,68.15579],[13.85239,68.15549],[13.84714,68.15608],[13.84719,68.15562],[13.85016,68.15492],[13.84578,68.15455],[13.84425,68.1537],[13.84462,68.15346],[13.84863,68.15361],[13.84901,68.15333],[13.84635,68.1527],[13.84346,68.15256],[13.84284,68.15192],[13.84467,68.1514],[13.84941,68.15114],[13.8524,68.15057],[13.85184,68.1502],[13.84934,68.15025],[13.84903,68.1497]],[[13.91952,68.15775],[13.91669,68.15772],[13.91815,68.15942],[13.92163,68.15956],[13.92234,68.15918],[13.91952,68.15775]],[[13.53891,68.15299],[13.54192,68.15328],[13.545,68.15469],[13.54687,68.15656],[13.55476,68.1585]],[[13.56717,68.15868],[13.56633,68.15811],[13.56461,68.15789],[13.56749,68.15673],[13.56862,68.1568],[13.56968,68.15769],[13.57098,68.15738],[13.57218,68.15785],[13.57463,68.15748]],[[13.57463,68.15748],[13.57723,68.15812],[13.57615,68.15861],[13.57698,68.15904]],[[13.79036,68.16116],[13.7933,68.1606],[13.79554,68.16082]],[[13.78798,68.16133],[13.79036,68.16116]],[[13.79577,68.15633],[13.78776,68.15644],[13.78543,68.15753],[13.78842,68.15817],[13.78486,68.15908],[13.78503,68.16017],[13.78353,68.16126],[13.78798,68.16133]],[[13.31392,68.15735],[13.3154,68.15649],[13.31461,68.14793]],[[13.55475,68.15973],[13.55594,68.15912],[13.55476,68.1585]],[[13.8093,68.16131],[13.80772,68.16128],[13.8074,68.16172],[13.80881,68.16219],[13.81409,68.16262],[13.8093,68.16131]],[[13.55468,68.15974],[13.55105,68.15959],[13.54838,68.16088],[13.55219,68.16167],[13.55456,68.16169]],[[13.55456,68.16169],[13.56571,68.16046],[13.56871,68.16062],[13.56717,68.15868]],[[13.44291,68.16118],[13.43925,68.16107],[13.43881,68.16155],[13.44198,68.16243],[13.44443,68.1623],[13.44291,68.16118]],[[13.48405,68.14676],[13.48313,68.14787],[13.48064,68.14758],[13.47849,68.14787],[13.47787,68.14882],[13.47458,68.14928],[13.47177,68.15084],[13.47227,68.15184],[13.47666,68.15285],[13.47962,68.15238],[13.48455,68.15269],[13.48613,68.15294],[13.48568,68.15352],[13.48682,68.15387],[13.49047,68.15389],[13.49164,68.15429],[13.49182,68.15497],[13.4897,68.15462],[13.48822,68.15478],[13.48811,68.15619],[13.49139,68.15739],[13.49016,68.16186],[13.49349,68.16304]],[[13.89737,68.17622],[13.89973,68.17536],[13.89267,68.17464],[13.89449,68.17372],[13.89365,68.17178],[13.88896,68.17208],[13.8847,68.17423],[13.88487,68.17519],[13.88379,68.17622],[13.88528,68.17641],[13.8889,68.17597],[13.88888,68.17837],[13.89168,68.17876],[13.89737,68.17622]],[[13.87802,68.16552],[13.87703,68.16552],[13.87726,68.16689],[13.88004,68.16731],[13.88102,68.16666],[13.87775,68.16581],[13.87802,68.16552]],[[13.56855,68.16224],[13.56771,68.16226],[13.56749,68.16289],[13.5704,68.16568],[13.5723,68.16615],[13.574,68.16603],[13.57197,68.16398],[13.56855,68.16224]],[[13.49349,68.16304],[13.49617,68.16455],[13.49926,68.16554],[13.50224,68.16566],[13.51253,68.16486],[13.51587,68.16619]],[[13.36791,68.16439],[13.37083,68.16429],[13.37586,68.16495],[13.37841,68.16569],[13.39204,68.16354],[13.40404,68.15912],[13.40971,68.15603],[13.41484,68.15544],[13.41743,68.15568],[13.41994,68.15657],[13.42391,68.1567],[13.42453,68.15607],[13.42247,68.15521],[13.42271,68.1548],[13.42554,68.15424],[13.43024,68.15246],[13.43487,68.15008]],[[13.5542,68.16728],[13.55547,68.16713],[13.5568,68.16746]],[[13.49341,68.14684],[13.50808,68.14927],[13.51181,68.15056],[13.51244,68.15273],[13.51351,68.15344],[13.51889,68.15369],[13.5233,68.15464],[13.52587,68.15455],[13.52965,68.15541],[13.53104,68.15538],[13.53095,68.15594],[13.53951,68.15881],[13.5412,68.16019],[13.54841,68.16346],[13.55206,68.16724],[13.5542,68.16728]],[[13.6175,68.16815],[13.61592,68.16702],[13.61508,68.16775],[13.61353,68.16802]],[[13.57698,68.15904],[13.57929,68.15945],[13.58066,68.16024],[13.57963,68.16182],[13.58216,68.16426],[13.58227,68.16526],[13.57924,68.16687],[13.58006,68.16789],[13.58611,68.16703],[13.58684,68.16722]],[[13.52512,68.16766],[13.52535,68.16712],[13.52821,68.1665],[13.53316,68.166]],[[13.59904,68.16857],[13.60832,68.16848],[13.61353,68.16802]],[[13.51587,68.16619],[13.51613,68.167],[13.51336,68.16809],[13.51227,68.16971],[13.52366,68.16908],[13.52523,68.16845],[13.52512,68.16766]],[[13.58684,68.16722],[13.58811,68.16877],[13.58766,68.17078],[13.5905,68.17052],[13.59442,68.17106],[13.59567,68.17092],[13.59904,68.16857]],[[13.87234,68.17296],[13.86953,68.17261],[13.87334,68.17237],[13.87464,68.17165],[13.86955,68.17064],[13.86644,68.17079],[13.86579,68.17049],[13.86701,68.1693],[13.86455,68.16872],[13.86377,68.16972],[13.86522,68.17263],[13.87068,68.17339],[13.87234,68.17296]],[[13.60876,68.18472],[13.60792,68.18252],[13.60903,68.18228],[13.6045,68.17905],[13.60708,68.17752],[13.60315,68.17734],[13.60066,68.17601]],[[13.8839,68.17024],[13.88083,68.17015],[13.88073,68.17161],[13.87648,68.17284],[13.87646,68.17359],[13.87856,68.17421],[13.88127,68.17428],[13.88527,68.17199],[13.88573,68.17134],[13.8839,68.17024]],[[13.31383,68.15856],[13.31659,68.15941],[13.31873,68.16231],[13.31779,68.16424],[13.32136,68.16617],[13.32129,68.16979],[13.32372,68.17019],[13.32737,68.16944],[13.33644,68.16872],[13.34848,68.16638],[13.35565,68.16564],[13.36138,68.16561]],[[13.57311,68.17336],[13.57263,68.17275],[13.57363,68.17203],[13.57269,68.17094],[13.56704,68.16844],[13.56395,68.16735],[13.56192,68.16712],[13.5568,68.16746]],[[13.48995,68.17156],[13.48739,68.17177],[13.48755,68.17229],[13.4923,68.17445],[13.49141,68.17238],[13.48995,68.17156]],[[13.6175,68.16815],[13.6196,68.17046],[13.61255,68.17187],[13.60694,68.17189],[13.60429,68.17153],[13.59641,68.17463],[13.59491,68.17472],[13.59587,68.17528],[13.59449,68.17589],[13.59506,68.17655],[13.59892,68.17562],[13.60066,68.17601]],[[13.87294,68.17642],[13.87453,68.17624],[13.87534,68.17492],[13.87185,68.17382],[13.86846,68.17417],[13.86826,68.17487],[13.86456,68.17592],[13.86906,68.17866],[13.87238,68.17861],[13.87345,68.17733],[13.872,68.17673],[13.87294,68.17642]],[[13.57311,68.17336],[13.57439,68.17386],[13.57175,68.17477],[13.5711,68.17645],[13.57348,68.17793],[13.57863,68.1782],[13.58321,68.17647],[13.58316,68.17592]],[[13.99279,68.18011],[13.9915,68.17962],[13.99045,68.17982],[13.98964,68.18086],[13.99042,68.18175],[13.99248,68.18236],[13.99279,68.18011]],[[13.49039,68.18438],[13.48828,68.18446],[13.48801,68.18571],[13.491,68.18527],[13.49127,68.18456],[13.49039,68.18438]],[[13.9826,68.18043],[13.98097,68.18053],[13.98154,68.18138],[13.9846,68.18328],[13.98788,68.18444],[13.9826,68.18043]],[[13.96478,68.18266],[13.96256,68.18243],[13.9621,68.18308],[13.96493,68.18484],[13.9656,68.18305],[13.96478,68.18266]],[[13.96927,68.18414],[13.96699,68.18412],[13.96691,68.1853],[13.96951,68.18607],[13.97182,68.18584],[13.96927,68.18414]],[[14.00022,68.18381],[13.99751,68.18385],[13.99699,68.18464],[14.00054,68.1871]],[[13.93687,68.19065],[13.93633,68.18987],[13.93328,68.19016],[13.93221,68.18826],[13.92762,68.18391],[13.92188,68.18326],[13.91861,68.18179],[13.91703,68.18159],[13.915,68.18184]],[[13.98847,68.1772],[13.98704,68.17699],[13.98418,68.17992],[13.98601,68.18085],[13.98548,68.18141],[13.98729,68.18215],[13.99104,68.18576],[13.99015,68.18646],[13.99111,68.18752],[13.99246,68.1877],[13.99299,68.18567],[13.99136,68.18326],[13.98809,68.18184],[13.98771,68.18111],[13.98922,68.17807],[13.98847,68.1772]],[[13.98427,68.18386],[13.98309,68.18387],[13.98311,68.18437],[13.98516,68.18678],[13.98938,68.18786],[13.99018,68.18734],[13.98857,68.18568],[13.98427,68.18386]],[[13.5954,68.17889],[13.59539,68.18111],[13.5968,68.18286],[13.59517,68.18362],[13.59215,68.18373],[13.59239,68.18409],[13.59692,68.18461],[13.59995,68.18433],[13.60518,68.18571],[13.60871,68.1857],[13.60876,68.18472]],[[13.86429,68.18873],[13.86875,68.18613],[13.87446,68.1852],[13.87471,68.18454],[13.8727,68.18236],[13.86977,68.181],[13.86563,68.18101],[13.86488,68.18152],[13.86144,68.18193],[13.85548,68.18154],[13.85643,68.18019],[13.85491,68.17732],[13.8496,68.17473],[13.84783,68.17124],[13.84905,68.17087],[13.84955,68.16997],[13.84696,68.16971],[13.84596,68.16922],[13.84628,68.1671],[13.84176,68.1666],[13.83246,68.16703],[13.82477,68.16675],[13.8214,68.16729],[13.81672,68.16735],[13.80323,68.16644],[13.8002,68.16552],[13.80524,68.16481],[13.80782,68.16313],[13.80531,68.16208],[13.80267,68.16188],[13.80235,68.16145],[13.79554,68.16082]],[[13.94841,68.18667],[13.94831,68.18604],[13.94647,68.18509],[13.94605,68.18594],[13.9445,68.1861],[13.94435,68.18841],[13.94474,68.18904],[13.94828,68.18981],[13.95012,68.18773],[13.94841,68.18667]],[[13.95302,68.19018],[13.95408,68.19016],[13.95278,68.18898],[13.95052,68.18855],[13.94999,68.19036],[13.95117,68.19062],[13.95302,68.19018]],[[13.94786,68.19188],[13.94674,68.19077],[13.94505,68.19169],[13.94351,68.191],[13.94064,68.19147],[13.93951,68.19138],[13.93871,68.19051],[13.93777,68.19072]],[[13.53316,68.166],[13.53554,68.16582],[13.54199,68.16742],[13.54231,68.16786],[13.54062,68.16831],[13.54046,68.16903],[13.545,68.17041],[13.54563,68.17278],[13.55257,68.17408],[13.55261,68.1744],[13.55045,68.17456],[13.54714,68.17379],[13.54314,68.17397],[13.53918,68.17281],[13.52937,68.17313],[13.51739,68.17127],[13.51078,68.17102],[13.50958,68.17149],[13.50946,68.17267],[13.50479,68.17249],[13.50477,68.17292],[13.50704,68.17337],[13.50697,68.17421],[13.50507,68.17481],[13.50338,68.17484],[13.50141,68.17352],[13.49927,68.17296],[13.49818,68.17329],[13.49932,68.17458],[13.49774,68.17532],[13.4952,68.17547],[13.49206,68.17479],[13.48625,68.17471],[13.48417,68.17533],[13.47573,68.17484],[13.4651,68.176],[13.46358,68.1776],[13.46486,68.17793],[13.46624,68.17762],[13.47878,68.17786],[13.48145,68.17826],[13.48818,68.18159],[13.48845,68.18217],[13.48645,68.1831],[13.49027,68.1841],[13.4929,68.18375],[13.50007,68.18409],[13.50587,68.18239],[13.50813,68.18216],[13.51108,68.18272],[13.51131,68.18357],[13.51283,68.1837],[13.51295,68.1824],[13.50957,68.18088],[13.5099,68.18052],[13.51896,68.18215],[13.52223,68.18209],[13.52769,68.18364],[13.52824,68.18478],[13.52506,68.18597],[13.52501,68.18673],[13.53192,68.18969],[13.53609,68.18951],[13.53767,68.18995]],[[13.99976,68.19553],[14.00455,68.19253]],[[13.84065,68.19449],[13.8514,68.19296],[13.85599,68.1915],[13.85925,68.19122],[13.8584,68.19042],[13.8589,68.18998],[13.85474,68.18985],[13.84721,68.18841],[13.84363,68.18914],[13.84228,68.18999],[13.83713,68.18972],[13.83447,68.19153],[13.8328,68.19185],[13.82985,68.19169],[13.82465,68.1934],[13.82674,68.19439]],[[13.87572,68.19473],[13.87567,68.19314],[13.86316,68.19155],[13.86326,68.19051],[13.86159,68.18999],[13.86178,68.18965]],[[13.89551,68.19487],[13.89092,68.18948],[13.8916,68.18271],[13.89385,68.18169],[13.89425,68.18219],[13.89225,68.18342],[13.89646,68.1836],[13.89783,68.18325],[13.89892,68.18135],[13.9002,68.18096],[13.90211,68.18116],[13.90323,68.18226],[13.90441,68.18246],[13.915,68.18184]],[[13.95369,68.19524],[13.95175,68.19381]],[[13.95564,68.19525],[13.95529,68.19499],[13.95453,68.19525]],[[13.97183,68.19536],[13.97203,68.19452],[13.97011,68.19311],[13.97003,68.19141],[13.96848,68.19137],[13.96683,68.19185],[13.96546,68.19116],[13.96631,68.18958],[13.96567,68.18694],[13.96385,68.18659],[13.96239,68.18785],[13.9611,68.18758],[13.95983,68.18624],[13.95814,68.18796],[13.96073,68.19322],[13.96237,68.19422],[13.95963,68.19528]],[[13.82674,68.19439],[13.83213,68.19524],[13.83702,68.19506],[13.84065,68.19449]],[[13.95564,68.19525],[13.9555,68.19624],[13.95682,68.1966],[13.95909,68.19619],[13.95963,68.19528]],[[13.97183,68.19536],[13.97308,68.19667],[13.97221,68.19731],[13.97316,68.1988],[13.97573,68.19937],[13.97547,68.20035],[13.9808,68.20125],[13.98726,68.2009],[13.99027,68.19979],[13.99241,68.20074],[13.99512,68.2006],[13.9952,68.19934],[13.9937,68.19858],[13.99398,68.19819],[13.99533,68.19794],[13.99813,68.19573],[13.99975,68.19553]],[[13.48092,68.19561],[13.47947,68.19547],[13.47579,68.19625],[13.47512,68.19809],[13.47727,68.19914],[13.47943,68.19919],[13.48202,68.19875],[13.48434,68.1976],[13.48267,68.19609],[13.48092,68.19561]],[[13.87572,68.19473],[13.87716,68.19561],[13.88218,68.19608],[13.88614,68.19762],[13.88757,68.20004],[13.88301,68.20098],[13.88087,68.20321],[13.88169,68.20396],[13.88313,68.2032],[13.88581,68.20282],[13.88791,68.20338],[13.88773,68.2044],[13.88548,68.20513],[13.88759,68.20561],[13.89373,68.20481],[13.89842,68.20159],[13.89624,68.19914],[13.89203,68.19836],[13.89119,68.19749],[13.89127,68.19561],[13.89341,68.19736],[13.8947,68.19742],[13.89425,68.19613],[13.89609,68.19561],[13.89551,68.19487]],[[13.6574,68.23975],[13.65816,68.23959],[13.65772,68.2384],[13.65899,68.23798]],[[13.51885,68.2186],[13.52115,68.22071],[13.52403,68.22165],[13.53873,68.22485],[13.55045,68.22682]],[[13.43966,68.2253],[13.44347,68.2251],[13.44247,68.22331],[13.43993,68.22341],[13.43891,68.22398],[13.43739,68.22294],[13.4355,68.22254],[13.43435,68.22326],[13.4362,68.22428],[13.43548,68.22554],[13.43838,68.22585],[13.43966,68.2253]],[[13.63959,68.24032],[13.63696,68.23958]],[[13.45469,68.22201],[13.45154,68.22163],[13.45141,68.22231],[13.45468,68.22389],[13.45595,68.22353],[13.45619,68.22275],[13.45469,68.22201]],[[13.64968,68.2379],[13.6518,68.23744],[13.64894,68.23542],[13.64818,68.23569],[13.64816,68.23688],[13.64612,68.23787]],[[13.65899,68.23798],[13.66102,68.2376],[13.66314,68.23767],[13.66336,68.23801]],[[13.66545,68.23803],[13.66545,68.23711],[13.65697,68.23617],[13.65484,68.23637],[13.65395,68.23499],[13.64936,68.23321],[13.64612,68.23306],[13.63827,68.2336],[13.63214,68.23273],[13.63182,68.23347],[13.62928,68.23456],[13.62714,68.23465],[13.62509,68.23435],[13.62672,68.23395],[13.62551,68.23293],[13.61827,68.23242],[13.61352,68.23122],[13.60964,68.23121],[13.60005,68.2322],[13.58395,68.23187],[13.575,68.23067],[13.57139,68.22945],[13.56632,68.23022],[13.56488,68.22969],[13.56001,68.22948],[13.55681,68.22823],[13.55322,68.22821],[13.55045,68.22682]],[[13.80453,68.23909],[13.80398,68.23835],[13.80169,68.23801],[13.79884,68.23823],[13.7956,68.23902]],[[13.79133,68.24076],[13.79383,68.23932],[13.7956,68.23902]],[[13.64968,68.2379],[13.6491,68.23869],[13.65006,68.23938],[13.65162,68.23954],[13.65479,68.23852],[13.65596,68.23903]],[[13.61294,68.24021],[13.6092,68.24053],[13.61372,68.24183],[13.61594,68.24087],[13.61294,68.24021]],[[13.78174,68.24691],[13.78269,68.24596],[13.78713,68.24479],[13.78297,68.24373],[13.78026,68.24172],[13.78097,68.24122],[13.78479,68.24045]],[[13.62034,68.24668],[13.62144,68.24587],[13.62582,68.24554]],[[13.62034,68.24668],[13.61949,68.24687],[13.61448,68.24622],[13.61034,68.24472],[13.60746,68.24448],[13.60396,68.24358],[13.60319,68.24293],[13.60507,68.242],[13.60439,68.24129],[13.60755,68.24137],[13.60792,68.24187],[13.60984,68.24227],[13.61775,68.24271],[13.61889,68.24239],[13.61947,68.24132],[13.61571,68.24008],[13.61833,68.23932],[13.62376,68.23862],[13.63696,68.23958]],[[13.81585,68.24004],[13.82028,68.23991],[13.82437,68.24032],[13.82707,68.24104],[13.8294,68.24093],[13.83265,68.2419],[13.83395,68.24383],[13.83556,68.24424],[13.83731,68.2435],[13.84336,68.24253],[13.85337,68.24403],[13.8519,68.24494],[13.85466,68.2456],[13.84831,68.24695],[13.84994,68.24805],[13.85387,68.2482],[13.85308,68.249],[13.8549,68.24984],[13.85481,68.25065]],[[13.54921,68.24638],[13.55608,68.24629],[13.56345,68.24546],[13.56547,68.24431],[13.56318,68.24345],[13.56439,68.24161],[13.56766,68.24172],[13.57149,68.24258],[13.57255,68.24358],[13.57247,68.24528],[13.57894,68.24631],[13.58732,68.24632],[13.58852,68.24389],[13.59323,68.24244],[13.59468,68.24339],[13.5923,68.24442],[13.59226,68.24493],[13.59371,68.24461],[13.60279,68.24536],[13.60596,68.24729],[13.60743,68.24732],[13.60773,68.24787],[13.61504,68.24961],[13.61852,68.2497],[13.62244,68.24882],[13.62938,68.24925],[13.64374,68.25194],[13.64252,68.25081],[13.64505,68.25104],[13.6463,68.25002],[13.64112,68.24775],[13.63592,68.24728],[13.63405,68.24853],[13.63265,68.24848],[13.62875,68.2469],[13.62827,68.24648],[13.62913,68.24586],[13.62582,68.24554]],[[13.81882,68.25671],[13.81719,68.25548]],[[13.82847,68.25435],[13.82518,68.25249],[13.82132,68.25228],[13.81897,68.25291],[13.82017,68.25344],[13.82443,68.25321],[13.82614,68.2546],[13.83007,68.25577],[13.8307,68.25512],[13.82847,68.25435]],[[13.85481,68.25065],[13.85316,68.25168],[13.84765,68.25202],[13.84981,68.25271],[13.84938,68.25342],[13.84498,68.25393],[13.84393,68.25564],[13.84153,68.25641],[13.83593,68.25598],[13.83451,68.25634],[13.8313,68.25616],[13.83078,68.25641]],[[13.97862,68.26608],[13.97949,68.26508],[13.98092,68.26573]],[[13.93689,68.26292],[13.93404,68.26055],[13.93585,68.25901],[13.93901,68.25912],[13.94115,68.25852],[13.94187,68.25744],[13.94427,68.25744],[13.94404,68.25668],[13.941,68.25623]],[[13.81291,68.262],[13.81492,68.26215],[13.81706,68.26145],[13.81907,68.26019],[13.81965,68.2586],[13.81671,68.25894],[13.81098,68.25763],[13.8028,68.25816],[13.80013,68.25756],[13.79672,68.25943],[13.79416,68.25962],[13.79028,68.26065]],[[13.94094,68.25579],[13.94532,68.25598],[13.9454,68.25712],[13.94806,68.25825],[13.95075,68.26216],[13.95353,68.26385]],[[13.93989,68.26601],[13.93983,68.26487],[13.93689,68.26292]],[[13.54921,68.24638],[13.5388,68.2461],[13.5337,68.24652],[13.52024,68.24679],[13.51132,68.24643],[13.50912,68.24693],[13.50945,68.2477],[13.51171,68.24784],[13.51517,68.2494],[13.51917,68.25245],[13.52005,68.25387],[13.5245,68.25408],[13.53457,68.25739],[13.53457,68.25803],[13.53794,68.26002],[13.53793,68.26092],[13.53927,68.26139],[13.53718,68.26235],[13.53756,68.26315],[13.54805,68.26458]],[[13.81291,68.262],[13.80959,68.26278],[13.8016,68.26307],[13.80131,68.26434],[13.79809,68.26518],[13.79956,68.26716],[13.79909,68.26856]],[[13.95353,68.26385],[13.95812,68.26528],[13.9624,68.26753],[13.96575,68.26776],[13.96698,68.2686],[13.97242,68.26968],[13.97389,68.26964],[13.97862,68.26608]],[[13.96019,68.27137],[13.96095,68.27017],[13.95954,68.26937],[13.95466,68.26987]],[[13.56938,68.26613],[13.57947,68.26797],[13.58289,68.27029],[13.58173,68.2717]],[[13.92794,68.27695],[13.93089,68.27494],[13.93164,68.27354],[13.93839,68.27229],[13.9383,68.27078],[13.94044,68.26955],[13.94154,68.26791],[13.93989,68.26601]],[[13.80116,68.28392],[13.80066,68.28365],[13.79996,68.28391]],[[13.97797,68.27507],[13.98533,68.27378],[13.98747,68.27386],[13.99334,68.2764],[13.99139,68.27818],[13.98921,68.27893],[13.99185,68.27932]],[[13.71739,68.2753],[13.71425,68.2752],[13.71345,68.27562],[13.71479,68.27698],[13.72132,68.27754],[13.72202,68.27637],[13.72006,68.27532],[13.71739,68.2753]],[[14.0037,68.27851],[13.99704,68.27935],[13.99185,68.27932]],[[13.79209,68.2864],[13.79341,68.28509],[13.7982,68.28389]],[[13.75758,68.28044],[13.76034,68.28013],[13.76007,68.27978],[13.75905,68.27979]],[[13.77617,68.28185],[13.77784,68.2778],[13.77954,68.27764],[13.78034,68.27855],[13.78222,68.27803],[13.78504,68.27289],[13.78972,68.27119]],[[13.77418,68.28176],[13.77617,68.28185]],[[13.80983,68.28307],[13.80828,68.28163],[13.80246,68.27899],[13.80283,68.2799],[13.80702,68.28241],[13.80691,68.28298],[13.80983,68.28307]],[[13.75758,68.28044],[13.75439,68.27991],[13.75535,68.27837],[13.7525,68.2781],[13.75164,68.27701],[13.74882,68.276],[13.74366,68.2756],[13.73701,68.27593],[13.73546,68.28014],[13.74122,68.28193],[13.74657,68.28228],[13.748,68.28317]],[[13.74743,68.28346],[13.748,68.28317]],[[13.56314,68.28203],[13.56337,68.28152],[13.56702,68.28063],[13.57119,68.2788],[13.58173,68.2717]],[[13.71901,68.2833],[13.7211,68.28197],[13.72544,68.28176],[13.72672,68.28191],[13.72757,68.28262],[13.72971,68.28245],[13.72862,68.28101],[13.72909,68.27948],[13.72246,68.27748],[13.7258,68.27624],[13.72747,68.27606],[13.7302,68.2765],[13.73372,68.2756],[13.73623,68.2756],[13.73974,68.2748],[13.74034,68.27431],[13.73828,68.27352],[13.74222,68.27264],[13.73777,68.27258],[13.73811,68.27212],[13.73992,68.27207],[13.73922,68.27049],[13.74132,68.26991],[13.74266,68.27051],[13.74411,68.2702],[13.74325,68.2687],[13.75028,68.26579],[13.75454,68.2663],[13.76029,68.26774],[13.76344,68.26679],[13.77277,68.26577],[13.77393,68.26426],[13.7787,68.26486],[13.78091,68.26269],[13.78398,68.26228],[13.78599,68.26136],[13.7857,68.25976],[13.78439,68.25952],[13.78128,68.2598],[13.77955,68.25939],[13.77868,68.25775],[13.77966,68.25685],[13.78278,68.25675],[13.78721,68.25808],[13.78811,68.25868],[13.78783,68.26026],[13.79028,68.26065]],[[13.73054,68.28339],[13.72934,68.28338]],[[13.73758,68.28345],[13.73551,68.28304],[13.73254,68.28341]],[[13.80298,68.28393],[13.8033,68.28328],[13.80074,68.28304],[13.7982,68.28389]],[[13.81377,68.28401],[13.81389,68.28355],[13.81251,68.28317],[13.8105,68.28361],[13.81058,68.28398]],[[13.91091,68.28467],[13.9138,68.2837],[13.92164,68.27907]],[[13.95466,68.26987],[13.95185,68.26952],[13.94912,68.26982],[13.94684,68.2707],[13.94152,68.27099],[13.93944,68.27171],[13.94583,68.27276],[13.94933,68.27397],[13.94944,68.27566],[13.9525,68.27786],[13.95102,68.27882],[13.94741,68.27998],[13.94054,68.28486]],[[13.89525,68.2858],[13.90012,68.28599],[13.90303,68.28545],[13.90366,68.28495],[13.90803,68.28545],[13.9101,68.28502]],[[13.79996,68.28391],[13.80004,68.28438],[13.80634,68.28517],[13.8063,68.28587],[13.80351,68.28565],[13.80411,68.28733],[13.80979,68.28514],[13.81058,68.28398]],[[13.79174,68.28744],[13.79209,68.2864]],[[13.78876,68.2894],[13.79177,68.29053],[13.79199,68.28932],[13.79319,68.28884],[13.79174,68.28744]],[[13.89525,68.2858],[13.89316,68.28534],[13.88944,68.28567],[13.88731,68.28666],[13.88781,68.28858],[13.89537,68.29037],[13.89436,68.29173],[13.89884,68.29277]],[[13.89884,68.29277],[13.90632,68.29296]],[[13.82357,68.29046],[13.8208,68.28905],[13.82024,68.28811],[13.81862,68.288],[13.81837,68.28847],[13.82041,68.28922],[13.81828,68.29016],[13.81682,68.28983],[13.81379,68.29013],[13.81404,68.29342],[13.817,68.29374],[13.82369,68.29256],[13.82447,68.2915],[13.82357,68.29046]],[[13.77347,68.30261],[13.77056,68.30221],[13.76645,68.30232],[13.76583,68.30269],[13.76751,68.30312],[13.76919,68.30257],[13.77266,68.30318],[13.77347,68.30261]],[[13.7803,68.32862],[13.78057,68.32918],[13.78325,68.32986],[13.78448,68.32946],[13.78417,68.32864]],[[13.7803,68.32862],[13.78222,68.32814],[13.78233,68.32711],[13.78672,68.32773]],[[13.78571,68.32866],[13.78417,68.32864]],[[13.75075,68.28636],[13.7511,68.28774],[13.74808,68.28853],[13.74768,68.28996],[13.75001,68.29075],[13.75307,68.29087],[13.75544,68.29373],[13.76045,68.29459],[13.76242,68.29443],[13.76489,68.29582],[13.7671,68.29571],[13.76682,68.29467],[13.76049,68.29228],[13.75746,68.29044],[13.76019,68.29062],[13.7603,68.29134],[13.76228,68.29224],[13.76634,68.2922],[13.77018,68.29347],[13.77249,68.29231],[13.77559,68.29241],[13.77623,68.29277],[13.7746,68.29342],[13.77582,68.29386],[13.77842,68.29264],[13.77972,68.29026],[13.78137,68.29124],[13.7833,68.291],[13.78369,68.29264],[13.7859,68.29291],[13.78638,68.29099],[13.78565,68.28975],[13.78876,68.2894]],[[13.81167,68.30151],[13.81352,68.30109],[13.81059,68.30041],[13.80715,68.30091],[13.80864,68.30143],[13.81167,68.30151]],[[13.76588,68.301],[13.76465,68.30017],[13.76553,68.29998],[13.7718,68.30015],[13.77373,68.30096],[13.77572,68.30024],[13.77743,68.30045],[13.77747,68.30133],[13.78091,68.3027],[13.78234,68.30242],[13.78148,68.29919],[13.78021,68.29871],[13.77889,68.29882],[13.7772,68.29842],[13.77661,68.29754],[13.77384,68.2977],[13.7716,68.29899],[13.76778,68.29799],[13.76332,68.29942],[13.76347,68.30015],[13.76249,68.30063],[13.76028,68.30005],[13.75892,68.30044],[13.7618,68.30164],[13.75968,68.30224],[13.76315,68.30339],[13.76512,68.30314],[13.76339,68.30252],[13.76649,68.30183],[13.76453,68.3012],[13.76588,68.301]],[[13.80763,68.31779],[13.81069,68.31988],[13.81172,68.31994],[13.81013,68.31763],[13.80428,68.31454],[13.80045,68.31389],[13.7999,68.3134],[13.79787,68.31322],[13.79679,68.31355],[13.79762,68.314],[13.79666,68.31479],[13.79989,68.3157],[13.80081,68.317],[13.80328,68.3175],[13.80513,68.31729],[13.80328,68.3186],[13.80463,68.31912],[13.80385,68.3195],[13.80462,68.32039],[13.80751,68.32039],[13.80683,68.31957],[13.80823,68.31899],[13.80763,68.31779]],[[13.80169,68.31873],[13.79832,68.31882],[13.8007,68.32007],[13.80267,68.32049],[13.80306,68.31998],[13.80169,68.31934],[13.80169,68.31873]],[[13.85222,68.30323],[13.85035,68.30332],[13.85029,68.3043],[13.84547,68.30488],[13.84305,68.30443],[13.84371,68.30354],[13.84137,68.30312],[13.83826,68.3033],[13.83435,68.30484],[13.82678,68.30319],[13.826,68.30244],[13.82627,68.30092],[13.82765,68.30038],[13.8295,68.30032],[13.82935,68.29957],[13.83193,68.29826],[13.83767,68.29662],[13.8377,68.29557],[13.83945,68.29419],[13.8375,68.29363],[13.83267,68.29311],[13.83241,68.29105],[13.8337,68.29013],[13.83194,68.28953],[13.8298,68.28973],[13.82901,68.28923],[13.82932,68.28882],[13.83103,68.28869],[13.83009,68.28668],[13.82844,68.28685],[13.82875,68.28829],[13.82673,68.28909],[13.82462,68.28854],[13.82186,68.28559],[13.81934,68.28717],[13.8172,68.28724],[13.81537,68.28673],[13.8144,68.28828],[13.81031,68.28878],[13.81284,68.28948],[13.81224,68.29],[13.80632,68.29012],[13.8058,68.28947],[13.80813,68.28903],[13.80612,68.28781],[13.81091,68.28707],[13.81109,68.28501],[13.81377,68.28401]],[[13.69849,68.30415],[13.70705,68.30306],[13.7099,68.30149],[13.71202,68.30099]],[[13.75792,68.30425],[13.75712,68.30389],[13.75902,68.30397],[13.75913,68.30367],[13.7556,68.30249],[13.75312,68.30248],[13.75362,68.30178],[13.75095,68.30095],[13.74767,68.30094],[13.74706,68.30175],[13.74954,68.30189],[13.74871,68.30243],[13.75027,68.3032],[13.74594,68.3031],[13.74591,68.30348],[13.75171,68.30422],[13.75294,68.30511],[13.75644,68.30514],[13.75792,68.30425]],[[13.83019,68.30525],[13.82632,68.30491],[13.82506,68.30615],[13.8279,68.30622],[13.8301,68.30568],[13.83019,68.30525]],[[13.8523,68.30579],[13.85108,68.30485],[13.84856,68.30459],[13.84784,68.30504],[13.85012,68.30563],[13.8463,68.30574],[13.84667,68.30613],[13.85078,68.30668],[13.8523,68.30579]],[[13.82033,68.30875],[13.81599,68.30929],[13.8199,68.31122],[13.82096,68.31074],[13.81931,68.31055],[13.8211,68.30915],[13.82033,68.30875]],[[13.56314,68.28203],[13.56633,68.28301],[13.56767,68.28528],[13.57154,68.28723],[13.57574,68.2877],[13.5833,68.28767],[13.59275,68.28817],[13.59833,68.28938],[13.60521,68.29241],[13.61214,68.29383],[13.6219,68.29743],[13.62842,68.29843],[13.63059,68.29981],[13.63143,68.30137],[13.64289,68.30336],[13.64671,68.30505],[13.64998,68.30759],[13.65546,68.30994],[13.65901,68.31038],[13.66642,68.30996]],[[13.67188,68.32131],[13.66926,68.32068],[13.66598,68.32093],[13.66786,68.32183],[13.67356,68.32259],[13.67394,68.32222],[13.67188,68.32131]],[[13.84319,68.32122],[13.84051,68.32218],[13.84231,68.32361],[13.84415,68.32415],[13.84468,68.32303],[13.84319,68.32122]],[[13.78705,68.32147],[13.78304,68.32139],[13.78122,68.32199],[13.7774,68.32206],[13.77654,68.32303],[13.77867,68.32307],[13.78012,68.32397],[13.77801,68.32338],[13.77573,68.3246],[13.77612,68.3249],[13.77843,68.32501],[13.78093,68.32443],[13.78398,68.32472],[13.78369,68.32538],[13.78679,68.32636]],[[13.765,68.3285],[13.76323,68.327],[13.7614,68.32667],[13.75991,68.32703],[13.76132,68.32848]],[[13.77704,68.32859],[13.77596,68.32801],[13.77442,68.32801],[13.77383,68.32857]],[[13.87774,68.32686],[13.87375,68.32638],[13.87295,68.32561],[13.87412,68.32515],[13.87645,68.32506],[13.87948,68.32199],[13.87847,68.32138],[13.87627,68.32128],[13.87608,68.32261],[13.87441,68.32161],[13.8733,68.32139],[13.87206,68.32162],[13.87107,68.321],[13.87075,68.31827],[13.87281,68.31729],[13.87259,68.31653],[13.86942,68.3157],[13.86693,68.31617],[13.8638,68.31539],[13.86042,68.31532],[13.85751,68.3135],[13.85937,68.31288],[13.85966,68.31162],[13.85468,68.31118],[13.85962,68.31028],[13.86213,68.30941],[13.86508,68.30922],[13.86727,68.30834],[13.86698,68.30788],[13.86552,68.30732],[13.86149,68.30805],[13.85165,68.30813],[13.85398,68.30651],[13.85249,68.30516],[13.85247,68.30346]],[[13.77813,68.3286],[13.77888,68.32806],[13.78012,68.32802],[13.77885,68.32743],[13.77703,68.32759],[13.77352,68.327],[13.77067,68.32855]],[[13.80205,68.32877],[13.79821,68.32615],[13.7974,68.32748],[13.79394,68.32793],[13.79503,68.32872]],[[13.81482,68.32886],[13.81211,68.32856],[13.81079,68.32739],[13.80718,68.3272],[13.80643,68.328],[13.80483,68.32783],[13.80402,68.32713],[13.80209,68.32673],[13.80117,68.3273],[13.80157,68.32787],[13.80385,68.32879]],[[13.81718,68.32888],[13.81282,68.32609],[13.80713,68.32414],[13.79802,68.32322],[13.79642,68.32265],[13.79876,68.32259],[13.79734,68.32211],[13.79322,68.32218],[13.79107,68.32277]],[[13.87806,68.3293],[13.87617,68.32824],[13.87805,68.32819],[13.87869,68.32726]],[[13.89377,68.32941],[13.89173,68.32935],[13.89084,68.3286],[13.88752,68.32802],[13.88463,68.32829],[13.88271,68.32917],[13.88093,68.32932]],[[13.89534,68.32942],[13.89122,68.32662],[13.90159,68.32662],[13.90816,68.32564]],[[13.91012,68.32951],[13.90915,68.32911],[13.90801,68.3295]],[[13.91755,68.32956],[13.91861,68.329],[13.91843,68.32699],[13.91296,68.32614],[13.91093,68.32434],[13.90895,68.32459],[13.90895,68.32545],[13.90816,68.32564]],[[13.9975,68.33006],[13.99986,68.32806],[14.0072,68.32431]],[[13.77704,68.32859],[13.77813,68.3286]],[[13.78665,68.32905],[13.78908,68.33088],[13.79176,68.32967],[13.79334,68.32992],[13.79264,68.33108],[13.79615,68.33204],[13.79668,68.33078],[13.80142,68.3307],[13.80015,68.32997],[13.79503,68.32872]],[[13.8976,68.33242],[13.89385,68.33092],[13.893,68.33108],[13.89371,68.33153],[13.89194,68.33137],[13.89118,68.33217],[13.89368,68.33294],[13.89463,68.33211],[13.89565,68.33299],[13.8971,68.33295],[13.8976,68.33242]],[[13.99265,68.33571],[13.99347,68.33269],[13.9975,68.33006]],[[13.85359,68.33613],[13.85177,68.33604],[13.85039,68.33704],[13.85173,68.33757],[13.85481,68.33738],[13.85359,68.33613]],[[13.91714,68.33655],[13.91632,68.33682],[13.9175,68.33758],[13.91172,68.33861]],[[13.90297,68.33802],[13.90166,68.33806],[13.90046,68.34009],[13.90138,68.34082],[13.90313,68.33968],[13.90297,68.33802]],[[13.90797,68.32953],[13.90563,68.3307],[13.90223,68.33063],[13.90103,68.33102],[13.90081,68.33308],[13.89932,68.33356],[13.89976,68.33389],[13.89549,68.33346],[13.89202,68.33395],[13.89,68.33286],[13.88687,68.33366],[13.8838,68.33272],[13.88364,68.33067],[13.88283,68.3302],[13.87905,68.33019],[13.87564,68.33117],[13.86841,68.33024],[13.86138,68.33175],[13.86363,68.33271],[13.86261,68.33356],[13.86404,68.33538],[13.86559,68.33583],[13.86366,68.33668],[13.8661,68.33752],[13.86848,68.33737],[13.8732,68.33583],[13.87548,68.33658],[13.87427,68.33751],[13.87515,68.33785],[13.87655,68.33736],[13.8807,68.33692],[13.88798,68.33816],[13.88893,68.33856],[13.88886,68.33947],[13.88858,68.34006],[13.88673,68.3405],[13.88643,68.34262],[13.88738,68.34372],[13.89008,68.34404],[13.89013,68.3412],[13.89118,68.34063],[13.89547,68.34101],[13.89593,68.34165],[13.89849,68.34108],[13.90099,68.3384],[13.90078,68.3372],[13.90201,68.33652],[13.90058,68.33512],[13.90347,68.33376],[13.90312,68.33326],[13.9079,68.33104]],[[13.90737,68.34206],[13.90473,68.34228],[13.90124,68.34341],[13.90406,68.34393],[13.90542,68.34489],[13.90724,68.34475]],[[13.98417,68.34557],[13.98949,68.3437],[13.99181,68.34231],[13.98956,68.34064],[13.9904,68.33978],[13.99325,68.33888],[13.99419,68.33788],[13.99496,68.33625],[13.99265,68.33571]],[[13.91172,68.33861],[13.91047,68.33888],[13.91074,68.33996],[13.91706,68.34099],[13.92626,68.34394],[13.94452,68.34582],[13.94824,68.34701],[13.952,68.34713],[13.95475,68.3461],[13.95687,68.34437],[13.95874,68.34414],[13.96191,68.34415],[13.96362,68.34587],[13.97091,68.34502],[13.97011,68.34587],[13.97083,68.34688],[13.97406,68.34524],[13.97852,68.34477],[13.98287,68.34658],[13.98376,68.34647],[13.98417,68.34557]],[[13.17368,68.00904],[13.17394,68.00778],[13.17278,68.00739],[13.17027,68.00732],[13.16442,68.00504],[13.16514,68.00492],[13.17084,68.00625],[13.17498,68.00654],[13.17805,68.00486],[13.17643,68.00253],[13.17937,68.00089],[13.17836,68.00004],[13.17605,68.00051],[13.17602,67.99913]],[[13.45225,68.14647],[13.45372,68.14451],[13.45562,68.14448],[13.45776,68.14364],[13.45648,68.14137],[13.45847,68.1407],[13.45784,68.13942],[13.46045,68.13951],[13.46064,68.13909],[13.45751,68.13786],[13.45443,68.13793],[13.45336,68.13683],[13.44797,68.13484],[13.44156,68.13376],[13.44154,68.13337],[13.44333,68.13286],[13.44323,68.13232],[13.43859,68.13135],[13.43758,68.13164],[13.43922,68.13311],[13.43603,68.13311]],[[13.19922,68.00932],[13.19976,68.0079],[13.20158,68.00684],[13.20189,68.00551],[13.20534,68.0051]]]}}]}