{"type":"FeatureCollection","features":[{"type":"Feature","properties":{},"geometry":{"type":"MultiLineString","coordinates":[[[12.95307,68.00645],[12.95117,68.00737],[12.9511,68.00844],[12.95224,68.0087],[12.95433,68.00843],[12.95751,68.00893],[12.95961,68.01291],[12.96127,68.01341],[12.96524,68.01363]],[[12.94931,68.00661],[12.94796,68.0066],[12.94612,68.00762],[12.94669,68.00847],[12.94904,68.00767],[12.94931,68.00661]],[[12.95307,68.00645],[12.9562,68.00506],[12.95819,68.00484],[12.96258,68.00326],[12.96364,68.00235],[12.9636,68.00059],[12.96064,67.99881]],[[12.96435,68.02365],[12.9652,68.02297],[12.96553,68.02024],[12.96795,68.02012],[12.96922,68.01956],[12.97114,68.01772],[12.96983,68.01532],[12.96524,68.01363]],[[12.96435,68.02365],[12.96009,68.02598],[12.95801,68.02855],[12.95859,68.03004],[12.96379,68.0301]],[[13.00408,68.04626],[12.99869,68.04481],[12.99843,68.04411],[12.99999,68.04336],[13.00116,68.04183]],[[13.00116,68.04183],[12.9955,68.04051],[12.98945,68.03741],[12.98638,68.03646],[12.98617,68.03537],[12.9845,68.03432],[12.98756,68.03307],[12.98735,68.03103],[12.98965,68.02975],[12.98615,68.02858],[12.98675,68.02755],[12.99037,68.02741],[12.99089,68.02651],[12.98975,68.02554],[12.98504,68.02359],[12.98333,68.02349],[12.98064,68.02476],[12.9752,68.02586],[12.97372,68.02727],[12.97001,68.02838],[12.96693,68.02999],[12.96379,68.0301]]]}}]}