{"type":"FeatureCollection","features":[{"type":"Feature","properties":{},"geometry":{"type":"MultiLineString","coordinates":[[[17.51472,68.49361],[17.511,68.4926],[17.50871,68.49252],[17.51146,68.49366]],[[17.35259,68.23685],[17.35362,68.23739]],[[17.38212,68.25149],[17.38866,68.24909]],[[17.28316,68.31744],[17.28252,68.31674],[17.28718,68.31579]],[[17.28382,68.31829],[17.28429,68.31804],[17.28316,68.31744]],[[17.28627,68.32735],[17.28576,68.32773]],[[17.30642,68.40687],[17.30594,68.40565]],[[17.42407,68.40339],[17.43477,68.4008]],[[17.43573,68.40978],[17.43448,68.41025]],[[17.30642,68.40687],[17.30874,68.41157],[17.30795,68.41447]],[[17.42878,68.41627],[17.42886,68.41629]],[[17.90337,68.4148],[17.90443,68.41474]],[[17.76782,68.4309],[17.77654,68.4258]],[[17.59469,68.44752],[17.58913,68.44708],[17.58406,68.44768]],[[17.01596,68.45548],[17.0175,68.45547]],[[17.11088,68.45431],[17.14493,68.45732],[17.16117,68.4575],[17.1969,68.45963]],[[17.00312,68.49346],[17.00175,68.49369],[17.001,68.49536],[17.00393,68.49455],[17.00312,68.49346]],[[17.07284,68.49966],[17.07347,68.50016]],[[17.45114,68.52584],[17.44825,68.52567]],[[17.57268,68.53761],[17.57205,68.53734]],[[17.5217,68.54506],[17.51636,68.54307]],[[17.5462,68.55053],[17.55653,68.54909],[17.56194,68.54655]],[[17.31407,68.19324],[17.31841,68.1924],[17.31782,68.19135]],[[17.3369,68.22695],[17.33652,68.22853],[17.33814,68.23145],[17.34315,68.23414],[17.34672,68.23704],[17.34849,68.23707],[17.34998,68.23644],[17.35259,68.23685]],[[17.31407,68.19324],[17.31304,68.19442],[17.31337,68.19566],[17.31521,68.19697],[17.31812,68.1972],[17.31861,68.19876],[17.32529,68.2003],[17.327,68.20155],[17.32698,68.20266],[17.33053,68.20437],[17.33931,68.20562],[17.34036,68.20627],[17.33974,68.20698],[17.33659,68.20789],[17.33744,68.20949],[17.3365,68.21114],[17.33166,68.21391],[17.32646,68.21578],[17.32481,68.21764],[17.31797,68.21941],[17.31631,68.22038],[17.3159,68.22178],[17.31139,68.22299],[17.31211,68.2273]],[[17.3369,68.22695],[17.33685,68.22512],[17.33547,68.22413],[17.33692,68.22329],[17.35431,68.21739],[17.36388,68.21242],[17.36689,68.20898],[17.36511,68.20802],[17.36548,68.20643],[17.3637,68.20519],[17.35976,68.20423],[17.35745,68.20288],[17.3513,68.20183],[17.3496,68.20096],[17.34875,68.19969],[17.33478,68.19364],[17.33206,68.19288],[17.32528,68.19226],[17.32142,68.19124],[17.3191,68.191],[17.31782,68.19135]],[[17.35362,68.23739],[17.35653,68.23963],[17.35782,68.24205],[17.35735,68.24851],[17.35548,68.25263],[17.35604,68.2533],[17.35865,68.25402],[17.35835,68.25717]],[[17.35835,68.25717],[17.35704,68.25877],[17.35823,68.25946],[17.36139,68.25947],[17.36926,68.25866],[17.37067,68.25821],[17.37168,68.25693],[17.37696,68.25494],[17.38321,68.25506],[17.38103,68.25331],[17.38011,68.25326],[17.37871,68.25404],[17.37811,68.25388],[17.38212,68.25149]],[[17.39175,68.24981],[17.39195,68.25113],[17.39483,68.25279],[17.39647,68.25469],[17.40024,68.25692],[17.40559,68.25912],[17.40748,68.26066]],[[17.33902,68.2718],[17.33931,68.26909],[17.33724,68.26543],[17.33816,68.2643],[17.33737,68.26343],[17.3383,68.26159],[17.33808,68.2592],[17.33289,68.2545],[17.33183,68.25218],[17.33217,68.24829],[17.3332,68.24652],[17.32973,68.24457],[17.32731,68.24231],[17.31167,68.23698],[17.30922,68.23572],[17.30863,68.23362],[17.31102,68.2331],[17.31367,68.23048],[17.31211,68.2273]],[[17.40089,68.27092],[17.40305,68.26695],[17.40361,68.26254],[17.40748,68.26066]],[[17.30168,68.2893],[17.30281,68.28817],[17.31041,68.28687],[17.31622,68.28496],[17.33562,68.28091],[17.3364,68.28025],[17.33546,68.27879],[17.33678,68.27567],[17.33871,68.27366],[17.33902,68.2718]],[[17.27224,68.30045],[17.27424,68.29924],[17.27395,68.29879],[17.27141,68.29853],[17.27009,68.29766],[17.27133,68.29629],[17.27361,68.29542],[17.28131,68.29412],[17.28718,68.29394],[17.29051,68.29325],[17.2946,68.29199],[17.29634,68.29054],[17.30168,68.2893]],[[17.34469,68.29945],[17.34581,68.29852],[17.35091,68.29771],[17.35572,68.29606],[17.35642,68.29548],[17.35554,68.29326],[17.35643,68.29186],[17.36331,68.28966],[17.37547,68.28319],[17.38056,68.28149],[17.38255,68.28003],[17.38654,68.27929],[17.3902,68.27556],[17.39554,68.27496],[17.39821,68.27424],[17.39949,68.27185],[17.40089,68.27092]],[[17.01596,68.45548],[17.01393,68.45518],[17.01344,68.45551]],[[17.4553,68.44962],[17.44614,68.44776],[17.44253,68.44808]],[[17.30414,68.31372],[17.31299,68.31059],[17.31246,68.30979],[17.3138,68.30923],[17.32498,68.30711],[17.33119,68.30523],[17.33336,68.30439],[17.33333,68.30384],[17.34469,68.29945]],[[17.28718,68.31579],[17.28413,68.31495],[17.29492,68.31298],[17.29869,68.31311],[17.2988,68.31385],[17.30024,68.31442],[17.30283,68.31425],[17.30414,68.31372]],[[17.23615,68.31808],[17.23966,68.31222],[17.24614,68.30861],[17.25989,68.30308],[17.26169,68.30295],[17.26348,68.30341],[17.27224,68.30045]],[[17.27497,68.31756],[17.2757,68.3172],[17.27484,68.31681],[17.27173,68.31666],[17.26825,68.31765]],[[17.27497,68.31756],[17.27502,68.31826],[17.27734,68.31862],[17.28382,68.31829]],[[17.26825,68.31765],[17.26385,68.3189],[17.26158,68.32066],[17.26432,68.32427],[17.26966,68.32441],[17.27626,68.32393],[17.27818,68.32465],[17.27445,68.32512],[17.2741,68.327],[17.28188,68.3272],[17.28505,68.32634],[17.28676,68.32649],[17.28627,68.32735]],[[17.42407,68.40339],[17.42188,68.40441],[17.42297,68.40522]],[[17.04002,68.36546],[17.03903,68.36332],[17.03472,68.35862],[17.02837,68.35594],[17.0246,68.35499],[17.01121,68.35633],[17.00924,68.35872],[17.00011,68.35918],[16.98891,68.35693]],[[17.2371,68.36294],[17.23685,68.36013],[17.24274,68.35605],[17.2447,68.35278],[17.24678,68.35159],[17.24609,68.35039],[17.23328,68.34451],[17.22969,68.34114],[17.23029,68.33708],[17.23219,68.33322],[17.23095,68.32836],[17.23615,68.31808]],[[17.26098,68.36262],[17.26227,68.36059],[17.26689,68.35878],[17.27083,68.35615],[17.27157,68.35453],[17.27863,68.35029],[17.27933,68.34788],[17.27651,68.34224],[17.27657,68.34081],[17.27866,68.33844],[17.27339,68.33686],[17.27632,68.33545],[17.27703,68.33353],[17.2815,68.33006],[17.28576,68.32773]],[[17.0301,68.37134],[17.0261,68.37131],[17.02205,68.37174],[17.02439,68.37223],[17.02932,68.37238],[17.03157,68.37211],[17.0301,68.37134]],[[17.55388,68.37696],[17.56502,68.37413],[17.56926,68.37358],[17.57662,68.37336],[17.57924,68.37447],[17.58372,68.37468],[17.58668,68.37399],[17.59427,68.37437]],[[17.04002,68.36546],[17.04128,68.36738],[17.04019,68.36809],[17.03992,68.3697],[17.03837,68.37103],[17.03322,68.37326],[17.03735,68.3739],[17.0387,68.37447],[17.03594,68.37556],[17.03533,68.37651],[17.03306,68.37701],[17.03354,68.37761],[17.03499,68.37799],[17.03774,68.37801],[17.0399,68.37944],[17.04519,68.37922],[17.04794,68.38048],[17.04761,68.38262],[17.04597,68.38311],[17.04277,68.38249],[17.04286,68.38361],[17.05869,68.38393],[17.06577,68.38328],[17.06788,68.38375]],[[17.59392,68.37486],[17.59125,68.37568],[17.591,68.37639],[17.59788,68.37874]],[[17.06788,68.38375],[17.07299,68.38514],[17.07961,68.38472],[17.0843,68.38511],[17.08948,68.38607],[17.09436,68.38605],[17.1028,68.38461],[17.10866,68.38134],[17.11491,68.38193]],[[17.11649,68.38237],[17.11578,68.38329],[17.11929,68.3851],[17.11942,68.38636],[17.12112,68.38632],[17.126,68.38878],[17.12743,68.38856]],[[17.10289,68.38856],[17.09623,68.3888],[17.09389,68.38943],[17.10052,68.39068],[17.10506,68.39074],[17.10616,68.39044],[17.10554,68.38901],[17.10483,68.38861],[17.10289,68.38856]],[[17.06244,68.38977],[17.05902,68.3902],[17.05783,68.39117],[17.06184,68.39174],[17.06244,68.38977]],[[17.19024,68.3908],[17.19328,68.3895],[17.19387,68.38756],[17.19708,68.38531],[17.20058,68.38437],[17.20252,68.38431],[17.20376,68.38231],[17.21248,68.38043],[17.22059,68.37291],[17.2227,68.37212],[17.22877,68.3709],[17.23486,68.371],[17.23438,68.36978],[17.23586,68.36758],[17.23546,68.36476],[17.23587,68.36346],[17.2371,68.36294]],[[17.05786,68.39216],[17.05635,68.39235],[17.05917,68.39324],[17.06181,68.39324],[17.06131,68.39238],[17.05786,68.39216]],[[17.55503,68.38715],[17.56332,68.38589],[17.56926,68.38443],[17.5857,68.38268],[17.59527,68.38042],[17.59788,68.37874]],[[17.12743,68.38856],[17.12764,68.38915],[17.13468,68.39073],[17.13481,68.39125],[17.1337,68.3917],[17.13406,68.39241],[17.14301,68.39314],[17.14998,68.39204]],[[17.07261,68.39242],[17.07116,68.39224],[17.06905,68.39276],[17.06964,68.39343],[17.07451,68.39396],[17.07261,68.39242]],[[17.14998,68.39204],[17.15721,68.39245],[17.16211,68.39316],[17.1712,68.39318],[17.18397,68.39096],[17.18742,68.39088],[17.18884,68.39122],[17.19024,68.3908]],[[17.26098,68.36262],[17.25815,68.36544],[17.24902,68.36917],[17.24755,68.37081],[17.24875,68.37224],[17.25314,68.37433],[17.25323,68.37536],[17.25518,68.37591],[17.25643,68.37699],[17.25267,68.38434],[17.25488,68.38566],[17.25454,68.38644],[17.24821,68.39065],[17.2493,68.3932],[17.24868,68.39468],[17.25507,68.3963]],[[17.25507,68.3963],[17.26558,68.40016],[17.26861,68.40079],[17.28258,68.401],[17.29195,68.40209],[17.29527,68.4021]],[[17.43477,68.4008],[17.44817,68.39753],[17.47018,68.39433],[17.48089,68.39461],[17.48145,68.39357],[17.49225,68.39108],[17.49765,68.39026],[17.50392,68.38862],[17.50915,68.38819],[17.51122,68.38751],[17.51764,68.38651],[17.52313,68.38497],[17.52875,68.3853],[17.53333,68.38306],[17.54352,68.38038],[17.55042,68.37765],[17.55388,68.37696]],[[17.29768,68.40219],[17.30156,68.40243],[17.30394,68.40295],[17.30594,68.40565]],[[17.43944,68.40915],[17.44147,68.40946],[17.44476,68.40704],[17.4482,68.4059],[17.45038,68.4055],[17.45639,68.40557],[17.45986,68.40468]],[[17.45986,68.40468],[17.47115,68.40251],[17.47423,68.40134],[17.47547,68.40032],[17.48477,68.39998],[17.48781,68.39949],[17.48863,68.39871],[17.49091,68.39816],[17.4982,68.39807],[17.5041,68.39754],[17.51997,68.39542],[17.53018,68.39348],[17.54162,68.39048],[17.54703,68.38968],[17.55123,68.38801],[17.55503,68.38715]],[[17.43573,68.40978],[17.43635,68.409],[17.43944,68.40915]],[[17.62124,68.4471],[17.6175,68.44537],[17.61244,68.44501],[17.60505,68.44548],[17.60168,68.4463],[17.59924,68.44745]],[[17.43448,68.41025],[17.43083,68.40932],[17.42535,68.40877],[17.41655,68.41155],[17.41491,68.41496],[17.41756,68.41526],[17.4214,68.41473],[17.42878,68.41627]],[[17.30795,68.41447],[17.30626,68.41487],[17.30162,68.41505],[17.29846,68.41806],[17.2952,68.41922],[17.29671,68.42028],[17.29859,68.42073],[17.30231,68.4209],[17.30895,68.4219]],[[17.30895,68.4219],[17.31515,68.42202]],[[17.80125,68.40941],[17.8102,68.40837],[17.81701,68.407],[17.82349,68.40703],[17.82513,68.4066],[17.82787,68.40662],[17.83219,68.40789],[17.8296,68.4093],[17.84087,68.40997],[17.84235,68.41079],[17.84942,68.41265],[17.85531,68.41237],[17.86323,68.41359],[17.87946,68.41454],[17.89116,68.41356],[17.89576,68.41407],[17.90009,68.41382],[17.90464,68.41447]],[[17.31515,68.42202],[17.31971,68.42193],[17.33951,68.42484],[17.3494,68.42552],[17.35064,68.42519],[17.35398,68.42547],[17.35994,68.4236],[17.37696,68.42208],[17.38404,68.42183],[17.39011,68.41865],[17.39559,68.41666],[17.40046,68.41543],[17.40206,68.41577],[17.4035,68.41533],[17.40481,68.4139],[17.40834,68.41251],[17.4115,68.40988],[17.41227,68.40818],[17.42264,68.40582],[17.42297,68.40522]],[[17.80241,68.41884],[17.81291,68.41724],[17.82838,68.41659],[17.85323,68.41651],[17.86503,68.41785]],[[17.90044,68.41823],[17.90242,68.41669],[17.90098,68.41554],[17.90216,68.41482],[17.90337,68.4148]],[[17.86503,68.41785],[17.87829,68.41833],[17.8889,68.4194]],[[17.8889,68.4194],[17.90044,68.41823]],[[17.42886,68.41629],[17.43214,68.41981],[17.43195,68.42186],[17.4254,68.42807]],[[17.80241,68.41884],[17.78421,68.42298],[17.77654,68.4258]],[[17.4254,68.42807],[17.42456,68.42856],[17.42304,68.42859],[17.4213,68.42993],[17.41805,68.43108],[17.41784,68.43206],[17.41346,68.43319],[17.40957,68.43295],[17.39833,68.43059],[17.39228,68.43005],[17.38588,68.43029],[17.38284,68.43136]],[[17.68238,68.43473],[17.68992,68.43365],[17.69285,68.43397],[17.69688,68.43525],[17.70037,68.43814],[17.7032,68.43939],[17.71002,68.44064],[17.7168,68.43824],[17.71716,68.43749],[17.71587,68.4365],[17.71815,68.43493],[17.73006,68.43228],[17.73431,68.43294],[17.73646,68.43213],[17.73891,68.43024],[17.74343,68.42907],[17.747,68.42899],[17.75238,68.42509],[17.75967,68.42227],[17.76584,68.42085],[17.77118,68.41892],[17.77253,68.41904],[17.7743,68.41862],[17.77419,68.41779],[17.7791,68.41604],[17.78176,68.41443],[17.78362,68.41431],[17.78955,68.41145],[17.79707,68.40981],[17.80125,68.40941]],[[17.38284,68.43136],[17.37974,68.43282],[17.37971,68.43332],[17.38375,68.43622],[17.38785,68.44166],[17.39163,68.44298],[17.39383,68.44434],[17.39835,68.44576],[17.40391,68.44629],[17.40873,68.44744],[17.4169,68.44796],[17.41993,68.44728]],[[17.41993,68.44728],[17.42374,68.44578],[17.42511,68.44575],[17.4292,68.4469],[17.43263,68.4471],[17.43407,68.44764],[17.43573,68.44748],[17.43989,68.44836]],[[17.43989,68.44836],[17.44253,68.44808]],[[17.11088,68.45431],[17.08848,68.45204],[17.08606,68.45201],[17.08241,68.45257],[17.07407,68.45162]],[[17.0175,68.45547],[17.02269,68.45233],[17.02893,68.45126],[17.04866,68.4501],[17.07407,68.45162]],[[17.6361,68.44687],[17.63629,68.446],[17.63852,68.44515],[17.63981,68.44534],[17.64169,68.4465],[17.64568,68.44492],[17.65099,68.44359],[17.65446,68.44318],[17.65883,68.44074],[17.66017,68.43917],[17.66763,68.43689],[17.67051,68.43628],[17.67964,68.43564],[17.68238,68.43473]],[[17.7067,68.44574],[17.70257,68.44312],[17.69995,68.44402],[17.69956,68.44586]],[[17.72099,68.44551],[17.72712,68.44403],[17.73124,68.44369],[17.73257,68.44251],[17.74446,68.43907],[17.75383,68.43473],[17.76426,68.4325],[17.76782,68.4309]],[[17.59469,68.44752],[17.59703,68.44791],[17.59924,68.44745]],[[17.62124,68.4471],[17.62318,68.44756],[17.63248,68.448],[17.6361,68.44687]],[[17.7067,68.44574],[17.71188,68.44777],[17.71592,68.44691],[17.71749,68.44731],[17.71903,68.44721],[17.71933,68.44626],[17.72099,68.44551]],[[17.56238,68.45227],[17.57222,68.44976],[17.57681,68.44942],[17.57986,68.44815],[17.58406,68.44768]],[[17.4553,68.44962],[17.45562,68.45097],[17.45835,68.45226],[17.46979,68.45186],[17.47822,68.45367],[17.48626,68.45347],[17.49084,68.45268],[17.49605,68.45327],[17.50226,68.45347],[17.50677,68.45215],[17.51006,68.45207],[17.51783,68.45098],[17.51996,68.45157],[17.52098,68.4538],[17.52741,68.45383],[17.53049,68.45507],[17.53247,68.45528],[17.53629,68.4545],[17.54182,68.45477],[17.54583,68.45441],[17.55268,68.45311],[17.55424,68.45177],[17.56238,68.45227]],[[17.68954,68.46198],[17.69376,68.45995],[17.69732,68.45895],[17.69744,68.45778],[17.69963,68.45611],[17.7036,68.45474],[17.70566,68.45286],[17.70594,68.45149],[17.70424,68.44903],[17.69956,68.44586]],[[17.68574,68.46305],[17.68954,68.46198]],[[17.68574,68.46305],[17.68482,68.4634]],[[17.51197,68.46965],[17.50879,68.46906],[17.50778,68.4702],[17.50501,68.47033],[17.50329,68.46968],[17.50067,68.46969],[17.49831,68.46806]],[[17.01344,68.45551],[17.01689,68.45835],[17.02266,68.46128],[17.02323,68.46243],[17.027,68.46435],[17.02712,68.46524],[17.03082,68.46556],[17.03509,68.46732],[17.03848,68.46711],[17.03997,68.46739],[17.04169,68.46832],[17.0447,68.46865],[17.04975,68.47028],[17.05279,68.47029],[17.05588,68.47311],[17.06077,68.47578],[17.06832,68.47674],[17.07437,68.47654],[17.07642,68.47714]],[[17.64505,68.47053],[17.64792,68.46843],[17.65003,68.468],[17.65507,68.46808],[17.66681,68.46382],[17.6702,68.4635],[17.67922,68.46363],[17.68255,68.46336],[17.68211,68.46366],[17.68482,68.4634]],[[17.63141,68.47055],[17.62358,68.47136],[17.62318,68.47228],[17.62609,68.4729],[17.63313,68.47247],[17.63259,68.47083],[17.63141,68.47055]],[[17.56489,68.4744],[17.56107,68.47511]],[[17.0976,68.48093],[17.094,68.48092],[17.0927,68.48129],[17.09601,68.48185],[17.09839,68.48129],[17.0976,68.48093]],[[17.64505,68.47053],[17.63911,68.47288],[17.63801,68.47422]],[[17.56489,68.4744],[17.57279,68.47349],[17.57762,68.47351],[17.58271,68.47417],[17.58693,68.47531],[17.59344,68.47593],[17.61812,68.47611],[17.62424,68.4756],[17.63316,68.47545],[17.63801,68.47422]],[[17.56107,68.47511],[17.55999,68.47598],[17.56097,68.47796],[17.55912,68.47845]],[[17.51197,68.46965],[17.51818,68.46996],[17.52217,68.47126],[17.52931,68.47144],[17.53234,68.4699],[17.53793,68.47038],[17.54008,68.46965],[17.54203,68.46962],[17.54568,68.47095],[17.54839,68.47455],[17.54664,68.47558],[17.5422,68.47641],[17.54063,68.47744],[17.54305,68.47936],[17.54762,68.47986],[17.55025,68.47941],[17.55131,68.47856],[17.55624,68.47912],[17.55912,68.47845]],[[17.1969,68.45963],[17.205,68.46012],[17.2102,68.45965],[17.21362,68.4598],[17.22497,68.46201],[17.23112,68.46227],[17.23558,68.46289],[17.24916,68.46343],[17.25564,68.46523],[17.2774,68.46956],[17.29073,68.47341],[17.29899,68.47717],[17.3217,68.48599]],[[17.07798,68.49414],[17.07976,68.4935],[17.08393,68.49309],[17.08812,68.49081],[17.09515,68.49042],[17.09668,68.48939],[17.09659,68.48808],[17.10427,68.48567],[17.10499,68.48285],[17.10228,68.47996],[17.09055,68.47711],[17.08651,68.47778],[17.08374,68.47729],[17.07642,68.47714]],[[17.50621,68.48719],[17.50119,68.48813],[17.50441,68.48931],[17.50627,68.48931],[17.50785,68.48837],[17.50621,68.48719]],[[17.07284,68.49966],[17.07122,68.49851],[17.0716,68.49657],[17.07289,68.49615],[17.0753,68.49637],[17.07721,68.49577],[17.07798,68.49414]],[[17.35364,68.49595],[17.34706,68.4941],[17.34072,68.49142],[17.3217,68.48599]],[[17.51817,68.49356],[17.50929,68.48963],[17.50645,68.48955],[17.50535,68.49057],[17.50222,68.49048],[17.49974,68.48932],[17.49926,68.48867],[17.50028,68.48836],[17.49532,68.48493],[17.49381,68.48436],[17.48177,68.48229],[17.48154,68.48113],[17.47887,68.48069],[17.47648,68.4793],[17.47678,68.47602],[17.47577,68.47541],[17.47283,68.47491],[17.47188,68.47429],[17.47227,68.47342],[17.47075,68.47313],[17.47096,68.4727],[17.47329,68.47219],[17.47378,68.46972],[17.47067,68.46661],[17.47138,68.46608],[17.47449,68.46565],[17.4761,68.46489],[17.47799,68.46477],[17.48023,68.46543],[17.48302,68.46517],[17.48481,68.46562],[17.48438,68.46621],[17.48625,68.46646],[17.49032,68.46537],[17.49466,68.4657],[17.49738,68.46676],[17.49831,68.46806]],[[17.51472,68.49361],[17.51664,68.49389],[17.51817,68.49356]],[[17.07347,68.50016],[17.07376,68.50058],[17.07226,68.5009],[17.06901,68.50427]],[[17.0507,68.50775],[17.05001,68.50703],[17.05197,68.50647],[17.06235,68.50612],[17.06783,68.50496]],[[17.0507,68.50775],[17.05034,68.50965],[17.04837,68.51086],[17.04601,68.51103],[17.04174,68.51048],[17.03844,68.5106],[17.03208,68.50968],[17.02935,68.51118],[17.02677,68.51157]],[[17.00002,68.51799],[16.9969,68.51525]],[[16.99878,68.5146],[17.00278,68.51387],[17.0081,68.51434],[17.01027,68.51354],[17.01572,68.51299],[17.02021,68.51182],[17.02433,68.51143],[17.02677,68.51157]],[[16.99574,68.52602],[17.00213,68.52499],[17.00362,68.52422],[17.00315,68.5223],[16.99999,68.52061]],[[16.99999,68.52061],[17.00148,68.51941],[17.00002,68.51799]],[[17.51146,68.49366],[17.51416,68.49487],[17.52466,68.49732],[17.52623,68.49848],[17.52736,68.49848],[17.52766,68.49784],[17.52974,68.49753],[17.53218,68.49787],[17.53427,68.49874],[17.53461,68.50012],[17.53666,68.50102],[17.53866,68.50119],[17.54071,68.50082],[17.54045,68.49919],[17.54287,68.50009],[17.54321,68.50283],[17.53637,68.50265],[17.54184,68.5045],[17.54163,68.50605],[17.53939,68.50732],[17.54155,68.50774],[17.54866,68.51352],[17.55204,68.51316],[17.55487,68.51439],[17.55647,68.51566],[17.55606,68.51643],[17.55467,68.51664],[17.55561,68.51736],[17.55877,68.5174],[17.56548,68.51917],[17.56545,68.52326]],[[17.35364,68.49595],[17.3582,68.49752],[17.36038,68.49959],[17.36658,68.50269],[17.37278,68.50502],[17.37553,68.50738],[17.37975,68.50947],[17.41165,68.51917],[17.41638,68.5208],[17.42279,68.52421],[17.42672,68.52376],[17.43443,68.52504],[17.44113,68.52448],[17.44825,68.52567]],[[17.57232,68.53969],[17.56988,68.54148],[17.56462,68.54368],[17.56302,68.54595]],[[17.48439,68.52915],[17.4824,68.52828],[17.47738,68.52904],[17.47134,68.52861],[17.47041,68.52798],[17.47171,68.52685],[17.46989,68.52607],[17.46731,68.52635],[17.46909,68.5279],[17.46815,68.52863],[17.46676,68.52887],[17.46014,68.52728],[17.45816,68.52639],[17.45114,68.52584]],[[17.56545,68.52326],[17.56436,68.52533],[17.5624,68.52619],[17.56199,68.52822],[17.56724,68.53235],[17.57023,68.53325],[17.57205,68.53734]],[[17.50844,68.53858],[17.50142,68.5343],[17.49389,68.53244],[17.49131,68.53057],[17.48587,68.52993],[17.48439,68.52915]],[[17.57232,68.53969],[17.57407,68.53833],[17.57268,68.53761]],[[17.50844,68.53858],[17.51074,68.53957],[17.51422,68.54231],[17.51636,68.54307]],[[17.5217,68.54506],[17.52481,68.545],[17.53313,68.54715],[17.53954,68.54709],[17.54031,68.54789],[17.53909,68.54861],[17.54053,68.54873],[17.54366,68.55054]],[[17.47878,68.94289],[17.47655,68.94409],[17.4748,68.94644],[17.47124,68.94908],[17.46982,68.95145],[17.47028,68.95244],[17.48031,68.95458],[17.49252,68.9559],[17.49604,68.95672]],[[17.35746,68.98947],[17.37181,68.98587],[17.3743,68.98565]],[[17.49869,68.98006],[17.50828,68.98083]],[[17.54773,68.98192],[17.54581,68.97873],[17.5468,68.97674],[17.54605,68.97525],[17.54852,68.97116],[17.54917,68.96752],[17.55469,68.96598],[17.56494,68.96559],[17.56669,68.96467],[17.56649,68.96356],[17.56171,68.96221],[17.55981,68.95743],[17.55835,68.95643],[17.54008,68.95575],[17.53327,68.95606],[17.5278,68.95745],[17.51992,68.95788],[17.50374,68.95783],[17.49819,68.95736],[17.49604,68.95672]],[[17.50828,68.98083],[17.51771,68.98039],[17.52134,68.97986],[17.52615,68.98031],[17.54248,68.98314]],[[17.54248,68.98314],[17.54501,68.98334],[17.54736,68.98256],[17.54773,68.98192]],[[17.3864,68.98907],[17.3811,68.98771],[17.37767,68.98569],[17.3743,68.98565]],[[17.48475,68.98767],[17.48653,68.98618],[17.48626,68.98458],[17.48187,68.98243],[17.48814,68.97992],[17.49099,68.9798],[17.49395,68.98047],[17.49869,68.98006]],[[17.48475,68.98767],[17.48207,68.98896],[17.47697,68.98978],[17.47475,68.99101],[17.4767,68.99539],[17.47968,68.99662],[17.48353,68.9957],[17.48631,68.99587],[17.48577,68.99487],[17.48932,68.9939],[17.49081,68.99391]],[[17.49081,68.99391],[17.49039,68.99458],[17.49608,68.99877],[17.50104,69.00082]],[[17.35746,68.98947],[17.35396,68.99028],[17.34819,68.99325],[17.34396,68.99616],[17.34191,68.99866],[17.34625,69.00191]],[[17.42688,69.00229],[17.41895,68.99909],[17.41666,68.9957],[17.40836,68.9929],[17.4035,68.99309],[17.39884,68.99256],[17.3864,68.98907]],[[17.68477,68.6699],[17.68664,68.66941],[17.68426,68.66943]],[[17.68331,68.67052],[17.68477,68.6699]],[[17.49342,68.67858],[17.49499,68.67888]],[[17.77394,68.75941],[17.77495,68.7588]],[[17.72574,68.79455],[17.71015,68.79458]],[[17.40813,68.80928],[17.40317,68.80758]],[[17.60586,68.80727],[17.6081,68.80633]],[[17.85251,68.8671],[17.85237,68.86735]],[[17.73613,68.87134],[17.73608,68.87128]],[[17.73158,68.91263],[17.72903,68.91266]],[[17.65996,68.67089],[17.66637,68.66912],[17.67326,68.6694],[17.6739,68.6691],[17.67331,68.66869],[17.67548,68.66808],[17.67758,68.66995],[17.67944,68.67016],[17.68426,68.66943]],[[17.65079,68.67324],[17.65996,68.67089]],[[17.68331,68.67052],[17.68548,68.67409]],[[17.46533,68.6818],[17.46615,68.682],[17.47444,68.6808],[17.47612,68.68106],[17.48069,68.68029],[17.48416,68.68039],[17.48855,68.67831],[17.4901,68.67898],[17.49342,68.67858]],[[17.589,68.68476],[17.59392,68.68372],[17.60046,68.68306],[17.60625,68.68164],[17.60936,68.68136],[17.61304,68.68156],[17.6186,68.67992],[17.62513,68.67947],[17.63116,68.6777],[17.63381,68.67756],[17.64681,68.67465],[17.65079,68.67324]],[[17.49499,68.67888],[17.49573,68.67937],[17.49829,68.67831],[17.50009,68.67878],[17.51923,68.67842],[17.52365,68.6779],[17.53306,68.67869],[17.54774,68.68285],[17.54826,68.68459],[17.55645,68.6858],[17.56056,68.68565],[17.56489,68.68416],[17.57117,68.68539],[17.58393,68.68635],[17.589,68.68476]],[[17.44023,68.68461],[17.444,68.68358],[17.45068,68.68384],[17.44742,68.68697],[17.44798,68.68802],[17.44963,68.68858],[17.45212,68.68763],[17.45456,68.68727],[17.45676,68.68625],[17.45807,68.68524],[17.45792,68.68249],[17.46048,68.68091],[17.46348,68.68084],[17.46533,68.6818]],[[17.54339,68.68883],[17.53125,68.69161]],[[17.55011,68.69297],[17.54838,68.69241],[17.54927,68.6918],[17.55086,68.69205],[17.55313,68.69159],[17.55308,68.69011],[17.54709,68.68757],[17.54339,68.68883]],[[17.59012,68.69446],[17.6019,68.69215],[17.61082,68.6916],[17.61927,68.69037],[17.62173,68.68966],[17.62981,68.68877],[17.64997,68.68337],[17.6741,68.67739],[17.67944,68.67647],[17.68528,68.6746],[17.68548,68.67409]],[[17.55011,68.69297],[17.55659,68.69439],[17.55975,68.69469],[17.56481,68.69484],[17.58246,68.6941],[17.5869,68.69459],[17.59012,68.69446]],[[17.48692,68.69875],[17.49275,68.69791],[17.49764,68.69644],[17.49973,68.69637],[17.51312,68.69413],[17.51945,68.69229],[17.52228,68.69247],[17.52782,68.69156],[17.53125,68.69161]],[[17.43053,68.70001],[17.42786,68.69776],[17.4267,68.69555],[17.42947,68.69173],[17.42766,68.69132],[17.42782,68.69018],[17.42955,68.68853],[17.43578,68.68647],[17.43649,68.68548],[17.44023,68.68461]],[[17.48692,68.69875],[17.48256,68.6994],[17.47928,68.70045],[17.47703,68.70272],[17.47751,68.70399]],[[17.46898,68.71488],[17.46976,68.71356],[17.47467,68.71026],[17.47696,68.70902],[17.48142,68.70786],[17.47751,68.70399]],[[17.42469,68.7193],[17.42649,68.71681],[17.42646,68.71341],[17.42872,68.71214],[17.42846,68.71118],[17.42941,68.71082],[17.43287,68.71067],[17.43147,68.70904],[17.43391,68.70641],[17.43378,68.7029],[17.43053,68.70001]],[[17.46845,68.71867],[17.46901,68.71795],[17.4677,68.7165],[17.46898,68.71488]],[[17.46845,68.71867],[17.46817,68.71991],[17.46965,68.72091]],[[17.47032,68.72693],[17.47305,68.72512],[17.47093,68.72367],[17.47165,68.72199],[17.46965,68.72091]],[[17.34631,68.72278],[17.36144,68.72493],[17.36654,68.72766],[17.38293,68.72798],[17.38901,68.72778],[17.39059,68.72794],[17.39214,68.72868],[17.39685,68.72912],[17.40283,68.72808],[17.40597,68.72621],[17.40905,68.7258],[17.41077,68.72444],[17.41517,68.72401],[17.41496,68.72212],[17.41606,68.72127],[17.41969,68.72052],[17.42235,68.72098],[17.42428,68.72035],[17.42469,68.7193]],[[17.22324,68.72743],[17.22668,68.72907],[17.23121,68.72969],[17.23399,68.72956],[17.24134,68.73054],[17.24888,68.73309],[17.26367,68.73579],[17.2663,68.73572],[17.26563,68.7345],[17.26905,68.73389],[17.27311,68.73418],[17.28076,68.73586],[17.28339,68.73553],[17.2853,68.73479],[17.2926,68.73518],[17.2959,68.73413],[17.29814,68.732],[17.29528,68.73121],[17.29296,68.72884],[17.29592,68.72829],[17.2984,68.72667],[17.30191,68.72574],[17.31265,68.72606],[17.31569,68.72693],[17.31883,68.72729],[17.32627,68.72725],[17.33435,68.72406],[17.33612,68.72281],[17.33817,68.72254],[17.34274,68.72303],[17.34631,68.72278]],[[17.42498,68.74408],[17.43469,68.74061],[17.44015,68.7399],[17.45116,68.73732],[17.45624,68.73686],[17.4622,68.73485],[17.46369,68.73386],[17.46584,68.7296],[17.47032,68.72693]],[[17.41125,68.74514],[17.41445,68.74455],[17.41913,68.7449],[17.42498,68.74408]],[[17.34805,68.73926],[17.35419,68.73911],[17.35567,68.73942],[17.35745,68.74069],[17.36379,68.74054],[17.36931,68.74114],[17.37443,68.74393],[17.38474,68.74581],[17.40042,68.74648],[17.41125,68.74514]],[[17.26614,68.75439],[17.26848,68.75372],[17.27094,68.75216],[17.28214,68.75117],[17.29708,68.74754],[17.29898,68.74633],[17.30395,68.7451],[17.31402,68.74451],[17.31799,68.74176],[17.3176,68.74064],[17.31429,68.74002],[17.31398,68.73945],[17.31596,68.73914],[17.31768,68.73782],[17.32126,68.73768],[17.32204,68.73628],[17.33256,68.73662],[17.33475,68.73731],[17.33537,68.7384],[17.33688,68.73892],[17.34453,68.73947],[17.34805,68.73926]],[[17.79611,68.74828],[17.79725,68.74799],[17.80308,68.74793],[17.80517,68.74922],[17.80556,68.74994],[17.80416,68.75112],[17.80016,68.75168],[17.8006,68.75376]],[[17.26067,68.76644],[17.2564,68.76364],[17.25316,68.76263],[17.25215,68.76047],[17.25254,68.75852],[17.25634,68.75671],[17.25425,68.7551],[17.25544,68.75437],[17.25717,68.75431],[17.26048,68.75344],[17.26381,68.75436],[17.26614,68.75439]],[[17.77495,68.7588],[17.78139,68.7556],[17.78463,68.75463],[17.78746,68.75205],[17.79141,68.75115],[17.79201,68.74976],[17.79611,68.74828]],[[17.80283,68.75834],[17.80257,68.7561]],[[17.77012,68.76154],[17.77431,68.76111],[17.77327,68.76024],[17.77394,68.75941]],[[17.26067,68.76644],[17.26344,68.76888],[17.26272,68.77074],[17.26419,68.77261]],[[17.7568,68.76771],[17.75739,68.76718],[17.76404,68.76701],[17.76389,68.76675],[17.76037,68.76648],[17.76111,68.76613],[17.77017,68.76711],[17.76751,68.76278],[17.77012,68.76154]],[[17.80283,68.75834],[17.8025,68.76082],[17.80388,68.76378],[17.8022,68.76582],[17.79899,68.76743]],[[17.79826,68.77251],[17.79599,68.76824],[17.79712,68.76717],[17.79899,68.76743]],[[17.26419,68.77261],[17.26645,68.77356],[17.27562,68.77528],[17.2798,68.77544],[17.28365,68.77483],[17.29229,68.77728],[17.29953,68.77719],[17.30351,68.77753],[17.31648,68.77976],[17.32095,68.78113]],[[17.60333,68.80783],[17.60586,68.80727]],[[17.72752,68.77668],[17.73077,68.77665],[17.73844,68.77566],[17.74419,68.77298],[17.74778,68.77341],[17.74795,68.77233],[17.74925,68.77155],[17.75326,68.77057],[17.75672,68.76848],[17.7568,68.76771]],[[17.72359,68.777],[17.72752,68.77668]],[[17.32095,68.78113],[17.33603,68.78702],[17.34134,68.78751],[17.34858,68.78932],[17.35106,68.7894],[17.35343,68.79025]],[[17.60102,68.78807],[17.61409,68.7857],[17.62473,68.78305],[17.64088,68.78083],[17.64868,68.78053],[17.65579,68.78152],[17.66357,68.78055],[17.67459,68.78084],[17.68095,68.78018],[17.69267,68.78022],[17.7,68.77924],[17.70601,68.77922],[17.72359,68.777]],[[17.35343,68.79025],[17.35763,68.7922]],[[17.37829,68.79787],[17.3692,68.79562],[17.36358,68.79492],[17.35763,68.7922]],[[17.72574,68.79455],[17.73991,68.79383],[17.74731,68.79254],[17.75821,68.79157],[17.76986,68.7885],[17.77357,68.78638],[17.77693,68.78521],[17.7798,68.78276],[17.78232,68.78214],[17.78455,68.78004],[17.78808,68.77814],[17.79133,68.77779],[17.79688,68.77535],[17.79826,68.77251]],[[17.37829,68.79787],[17.39033,68.80298],[17.39071,68.80483],[17.39633,68.80561],[17.40317,68.80758]],[[17.30931,68.81066],[17.29346,68.8066],[17.28935,68.80449],[17.28494,68.80371],[17.27464,68.80001],[17.26629,68.79866],[17.26253,68.79765],[17.25616,68.7966],[17.24854,68.79642],[17.24223,68.79571],[17.23705,68.79609],[17.23009,68.79598]],[[17.52023,68.80766],[17.53405,68.80343],[17.53838,68.80319],[17.55394,68.7999],[17.56321,68.79638],[17.56928,68.79546],[17.57325,68.79365],[17.57916,68.7927],[17.58022,68.79194],[17.58602,68.79061],[17.59175,68.78989],[17.59546,68.78856],[17.60102,68.78807]],[[17.6081,68.80633],[17.61004,68.80543],[17.61327,68.80491],[17.61902,68.80313],[17.62644,68.8019],[17.65145,68.79614],[17.69071,68.79451],[17.71015,68.79458]],[[17.60333,68.80783],[17.59568,68.80873]],[[17.48034,68.81712],[17.48229,68.81738],[17.48921,68.81654],[17.4912,68.81541],[17.49743,68.81497],[17.50084,68.81389],[17.5062,68.81311],[17.51379,68.8106],[17.52023,68.80766]],[[17.40813,68.80928],[17.41378,68.81042],[17.41622,68.81133],[17.41668,68.81377],[17.4189,68.81614],[17.42425,68.81559],[17.43055,68.81706],[17.4477,68.81824],[17.45172,68.81815],[17.46019,68.81979],[17.46721,68.81955],[17.48034,68.81712]],[[17.54853,68.82079],[17.55725,68.81749],[17.57386,68.81391],[17.57894,68.81178],[17.59568,68.80873]],[[17.30931,68.81066],[17.31476,68.81172],[17.32133,68.81362],[17.32686,68.81435],[17.34269,68.82146],[17.34967,68.82292],[17.35438,68.82344],[17.35706,68.82451]],[[17.54853,68.82079],[17.53505,68.82453],[17.52905,68.82462]],[[17.52161,68.82531],[17.52905,68.82462]],[[17.36956,68.82917],[17.3679,68.82785],[17.35706,68.82451]],[[17.48185,68.83056],[17.49825,68.82718],[17.50425,68.82649],[17.50844,68.8269],[17.52161,68.82531]],[[17.38484,68.8342],[17.38231,68.83362],[17.37961,68.83403],[17.3778,68.83362],[17.36956,68.82917]],[[17.48185,68.83056],[17.47472,68.83165],[17.47409,68.83242],[17.47497,68.83374]],[[17.39565,68.83815],[17.38484,68.8342]],[[17.47497,68.83374],[17.47773,68.83664],[17.48262,68.83749]],[[17.41659,68.84606],[17.41023,68.84396],[17.40151,68.83964],[17.39873,68.83863],[17.39565,68.83815]],[[17.45,68.85356],[17.44363,68.8516],[17.4307,68.84964],[17.41659,68.84606]],[[17.52293,68.85249],[17.51143,68.84968],[17.49844,68.84427],[17.49543,68.84125],[17.48262,68.83749]],[[17.81366,68.862],[17.81837,68.86365],[17.8255,68.86469],[17.83067,68.8644]],[[17.83067,68.8644],[17.8402,68.86522],[17.8462,68.86519]],[[17.22753,68.87533],[17.235,68.87149],[17.23764,68.87099]],[[17.73608,68.87128],[17.73511,68.8707]],[[17.73525,68.87182],[17.73613,68.87134]],[[17.45,68.85356],[17.45602,68.85587],[17.46518,68.86304],[17.4689,68.86456],[17.46909,68.86575],[17.47165,68.86763],[17.47922,68.86946],[17.48425,68.87498],[17.48544,68.87568],[17.48691,68.87574]],[[17.73525,68.87182],[17.73531,68.87234]],[[17.48697,68.87626],[17.48691,68.87574]],[[17.73531,68.87234],[17.73825,68.87296],[17.74086,68.8726],[17.74369,68.87286],[17.74587,68.87249],[17.74679,68.87174],[17.74879,68.8719],[17.75145,68.87154],[17.75444,68.87024],[17.76837,68.86944],[17.77071,68.86953],[17.77231,68.87008],[17.77393,68.86995],[17.78077,68.86811],[17.791,68.86693],[17.79415,68.86595],[17.79839,68.86596],[17.80116,68.8651],[17.80268,68.86386],[17.80624,68.86285],[17.81319,68.8618],[17.81366,68.862]],[[17.23877,68.88219],[17.24443,68.87966],[17.25899,68.87533],[17.26027,68.87412],[17.26602,68.8728],[17.26865,68.87117],[17.27226,68.87008],[17.27646,68.86944],[17.28272,68.86658],[17.29113,68.86482],[17.29853,68.86396],[17.30442,68.86166],[17.30564,68.85998],[17.30811,68.85944],[17.30719,68.85815],[17.30502,68.85748],[17.28739,68.8584],[17.2794,68.86012],[17.27696,68.8619],[17.27273,68.86132],[17.26871,68.8618],[17.24705,68.86781],[17.2443,68.86943],[17.23764,68.87099]],[[17.23333,68.88411],[17.23877,68.88219]],[[17.6874,68.87947],[17.69583,68.8796],[17.69905,68.87918],[17.70014,68.87853],[17.6996,68.87752],[17.70231,68.8764],[17.71444,68.87474],[17.71708,68.87251],[17.72745,68.87151],[17.73068,68.87021],[17.73511,68.8707]],[[17.85237,68.86735],[17.85055,68.87084],[17.84639,68.8711],[17.84158,68.87203],[17.83811,68.87306],[17.83796,68.87363],[17.83391,68.87348],[17.83332,68.87521],[17.83175,68.87565],[17.83172,68.87609],[17.8287,68.87667],[17.82705,68.87837]],[[17.69406,68.88238],[17.69334,68.88202],[17.68954,68.88187],[17.69009,68.88127],[17.68946,68.88066],[17.68712,68.88029],[17.6874,68.87947]],[[17.52293,68.85249],[17.52813,68.85373],[17.55692,68.86349],[17.56574,68.86945],[17.56546,68.87036],[17.56414,68.87099],[17.567,68.87261],[17.57191,68.87278],[17.57582,68.87371],[17.58197,68.8741],[17.58708,68.87553],[17.58797,68.87698],[17.58713,68.87962],[17.60277,68.88211],[17.6048,68.88372],[17.60637,68.88393],[17.61182,68.88604],[17.61245,68.88663],[17.61066,68.88724],[17.61272,68.88761]],[[17.40972,68.899],[17.41865,68.89381],[17.42344,68.89226],[17.42655,68.89035],[17.42875,68.88986],[17.43112,68.89015],[17.43675,68.88927],[17.45024,68.88627],[17.45583,68.88703],[17.45973,68.88672],[17.46868,68.88435],[17.47811,68.87885],[17.48413,68.87704],[17.48641,68.87674],[17.48697,68.87626]],[[17.47687,68.89804],[17.47093,68.89462],[17.46887,68.89466],[17.46651,68.89337],[17.46036,68.89282],[17.45727,68.89397],[17.45768,68.89705],[17.45414,68.89837]],[[17.65653,68.89533],[17.64959,68.89276],[17.64841,68.89273],[17.6436,68.89397],[17.63745,68.89371],[17.62238,68.89089],[17.6178,68.88868],[17.61272,68.88761]],[[17.69261,68.89477],[17.68968,68.89367],[17.68364,68.89438],[17.67587,68.89394],[17.67474,68.89505]],[[17.72713,68.89422],[17.72873,68.89263],[17.72848,68.88987],[17.72342,68.88642],[17.71956,68.88491],[17.71521,68.88415],[17.71132,68.88417],[17.70266,68.88311],[17.6995,68.88135],[17.69679,68.88243],[17.69406,68.88238]],[[17.76974,68.89353],[17.77141,68.89289],[17.77307,68.89048],[17.77137,68.88941],[17.76672,68.89028],[17.7653,68.89035],[17.76459,68.88986],[17.7633,68.88984],[17.76046,68.8904],[17.75825,68.89115],[17.75793,68.89174],[17.75958,68.89219],[17.75645,68.89374]],[[17.7978,68.89307],[17.80124,68.89229],[17.80402,68.88911],[17.80927,68.88804],[17.81518,68.88547],[17.82027,68.884],[17.82197,68.88289],[17.82157,68.88122],[17.8224,68.88041],[17.82705,68.87837]],[[17.65653,68.89533],[17.66058,68.89582],[17.6659,68.8955],[17.67288,68.89639],[17.67477,68.89613],[17.67474,68.89505]],[[17.7382,68.89565],[17.73877,68.89509],[17.7381,68.89483]],[[17.78983,68.89346],[17.78519,68.89423],[17.78348,68.89538],[17.78851,68.89428],[17.78983,68.89346]],[[17.47687,68.89804],[17.47956,68.89953],[17.48415,68.89998],[17.48982,68.90159]],[[17.7381,68.89483],[17.73588,68.89502],[17.73324,68.89608],[17.73298,68.89703],[17.73174,68.8976],[17.73206,68.8989],[17.7382,68.89565]],[[17.79152,68.89827],[17.78842,68.89838],[17.79002,68.89734],[17.79233,68.8967],[17.79044,68.89506],[17.7978,68.89307]],[[17.69261,68.89477],[17.6973,68.89937],[17.70025,68.901],[17.70287,68.90153],[17.70955,68.90025],[17.71588,68.89992],[17.71586,68.89921],[17.72246,68.89748],[17.72713,68.89422]],[[17.73012,68.90126],[17.735,68.90091],[17.73665,68.90002],[17.73651,68.89925],[17.73518,68.89921],[17.73279,68.90002],[17.72731,68.89915],[17.72589,68.90066],[17.72785,68.90122],[17.73012,68.90126]],[[17.71883,68.90064],[17.71672,68.90033],[17.71411,68.90173],[17.714,68.90277],[17.71709,68.90253],[17.71883,68.90064]],[[17.79152,68.89827],[17.79196,68.89856],[17.78869,68.89944],[17.78445,68.9001],[17.78028,68.90226]],[[17.75645,68.89374],[17.74998,68.89751],[17.74582,68.89878],[17.74617,68.9002],[17.74323,68.90299],[17.74658,68.9024],[17.75163,68.90034],[17.75833,68.9008],[17.76192,68.90035],[17.7617,68.89887],[17.7675,68.89693],[17.76816,68.89439],[17.76974,68.89353]],[[17.68789,68.90476],[17.68703,68.90375],[17.68176,68.901],[17.67786,68.90127],[17.67112,68.9029],[17.67061,68.90399],[17.67208,68.90468],[17.67439,68.90461],[17.68202,68.90588],[17.68547,68.90606],[17.6874,68.90579],[17.68789,68.90476]],[[17.7556,68.9077],[17.7591,68.90716],[17.76164,68.90735],[17.77586,68.90517],[17.78028,68.90226]],[[17.73999,68.91013],[17.74518,68.90922],[17.74873,68.9095],[17.74431,68.90794],[17.74687,68.90718],[17.752,68.90679],[17.75281,68.90803],[17.75425,68.90842],[17.7556,68.9077]],[[17.72903,68.91266],[17.72395,68.91111],[17.72391,68.91016],[17.72039,68.90866],[17.72198,68.90824],[17.7217,68.90794],[17.717,68.90795],[17.71336,68.90896]],[[17.73999,68.91013],[17.73591,68.91099],[17.73158,68.91263]],[[17.37092,68.92242],[17.38092,68.9193],[17.38749,68.91615],[17.40277,68.90504],[17.40513,68.90204],[17.40766,68.90099],[17.40972,68.899]],[[17.36757,68.92308],[17.37092,68.92242]],[[17.3544,68.92376],[17.36757,68.92308]],[[17.48982,68.90159],[17.50179,68.90314],[17.50743,68.90493],[17.50909,68.90675],[17.51209,68.90796],[17.51506,68.90847],[17.51777,68.9081],[17.52075,68.90849],[17.52048,68.9072],[17.52181,68.90654],[17.523,68.9062],[17.52564,68.90633],[17.52899,68.90756],[17.53063,68.90743],[17.53338,68.90815],[17.534,68.90918],[17.53304,68.90989],[17.53494,68.91034],[17.54066,68.91073],[17.54901,68.91225],[17.55993,68.91318],[17.5654,68.91315],[17.57512,68.91488],[17.57895,68.91482],[17.59508,68.91714],[17.60464,68.91922],[17.61657,68.9202]],[[17.71336,68.90896],[17.70634,68.91265],[17.70741,68.91508],[17.70567,68.91639],[17.70585,68.91787],[17.70673,68.91874],[17.7092,68.9197],[17.71108,68.91993]],[[17.27699,68.92573],[17.28323,68.92704],[17.29155,68.92711],[17.2954,68.92605],[17.30607,68.92622],[17.31423,68.9244],[17.3203,68.92388],[17.32615,68.92402],[17.34196,68.92309],[17.34628,68.92393],[17.34912,68.92351],[17.3544,68.92376]],[[17.71108,68.91993],[17.72277,68.92093],[17.72443,68.92172],[17.72429,68.92281]],[[17.24924,68.93023],[17.26278,68.92848],[17.26801,68.92642],[17.27231,68.92652],[17.27699,68.92573]],[[17.24367,68.93048],[17.24752,68.93057],[17.24924,68.93023]],[[17.72086,68.93239],[17.72186,68.93169],[17.71775,68.92947],[17.71798,68.92812],[17.71491,68.92735],[17.71575,68.9265],[17.72085,68.92471],[17.72082,68.92411],[17.71888,68.92382],[17.72085,68.92333],[17.72175,68.92379],[17.72288,68.92372],[17.72429,68.92281]],[[17.71726,68.93323],[17.72086,68.93239]],[[17.70106,68.93347],[17.70496,68.93303],[17.71726,68.93323]],[[17.61657,68.9202],[17.62795,68.92202],[17.63639,68.92247],[17.64154,68.92378],[17.64391,68.92508],[17.65401,68.92814],[17.6681,68.93095],[17.68667,68.93243],[17.69627,68.93403],[17.69825,68.93414],[17.70106,68.93347]],[[17.47878,68.94289],[17.48185,68.94112],[17.48194,68.93734],[17.48529,68.93419],[17.48437,68.93253],[17.48114,68.93001],[17.47193,68.9276],[17.46413,68.9236],[17.45953,68.9226],[17.45566,68.92116],[17.45268,68.91903],[17.44846,68.91306],[17.44937,68.91],[17.44711,68.90806],[17.4484,68.90599],[17.45323,68.90223],[17.45414,68.89837]],[[17.14368,68.66684],[17.14136,68.66699],[17.14042,68.6674],[17.14073,68.66807],[17.14355,68.66792],[17.14368,68.66684]],[[17.17568,68.76759],[17.17563,68.76756]],[[17.14716,68.79259],[17.14687,68.79119]],[[17.02528,68.86545],[17.02844,68.86521]],[[17.11762,68.9163],[17.11948,68.91518],[17.11891,68.91374],[17.11728,68.91277]],[[17.13171,68.64805],[17.13529,68.64653],[17.13618,68.6454],[17.13861,68.64491],[17.13869,68.64415]],[[17.12348,68.65703],[17.12216,68.65691],[17.12205,68.6578],[17.12497,68.66193],[17.12616,68.66114],[17.12465,68.65986],[17.12348,68.65703]],[[17.14381,68.67017],[17.14789,68.66839],[17.14744,68.66677],[17.15094,68.66616],[17.15501,68.66635],[17.15698,68.66604],[17.15816,68.66547],[17.15876,68.66387],[17.16401,68.66236],[17.18116,68.66019],[17.19118,68.66003],[17.19769,68.65942],[17.20589,68.65978],[17.20883,68.65963],[17.21021,68.65918],[17.20819,68.65801],[17.20901,68.65713],[17.20693,68.65683],[17.20479,68.65721],[17.19994,68.65637],[17.19826,68.65491],[17.1938,68.65275],[17.18896,68.65226],[17.18598,68.65134],[17.18387,68.6495],[17.18885,68.64975],[17.18989,68.65022],[17.19132,68.64995],[17.19128,68.6496],[17.18631,68.64667],[17.18073,68.64531],[17.17562,68.64477],[17.17436,68.64393],[17.16763,68.64407],[17.16443,68.645],[17.16017,68.64535],[17.14927,68.64415],[17.14238,68.64387],[17.13869,68.64415]],[[17.14381,68.67017],[17.14199,68.67069],[17.13894,68.67079],[17.13119,68.6699],[17.12768,68.67059]],[[17.13171,68.64805],[17.12502,68.65093],[17.12591,68.6527],[17.12485,68.65413],[17.12269,68.65411],[17.11834,68.65331],[17.11614,68.65367],[17.11582,68.65474],[17.12154,68.65922],[17.11874,68.66391],[17.11953,68.66657],[17.11893,68.66709],[17.11716,68.66711],[17.10643,68.6706],[17.11089,68.67239],[17.11332,68.67481],[17.10973,68.67448],[17.10812,68.67488],[17.10403,68.67333],[17.10072,68.6747],[17.0947,68.67436]],[[17.12768,68.67059],[17.12056,68.67227],[17.11635,68.67193],[17.11496,68.67273],[17.11948,68.67535],[17.11866,68.67654],[17.12073,68.67697],[17.11949,68.67747]],[[17.07043,68.67914],[17.0624,68.67901],[17.06153,68.67925]],[[17.0742,68.6791],[17.07662,68.67742],[17.07766,68.67523],[17.08172,68.6736],[17.08794,68.6738],[17.08867,68.6732],[17.09012,68.67311],[17.0947,68.67436]],[[17.11245,68.67862],[17.10936,68.67664],[17.11127,68.67686],[17.11403,68.67789],[17.11949,68.67747]],[[17.07043,68.67914],[17.0717,68.67942],[17.0742,68.6791]],[[16.99766,68.71555],[17.00384,68.71556],[17.00987,68.71472],[17.0132,68.71483],[17.02542,68.71389],[17.03369,68.71597],[17.03785,68.71633],[17.04211,68.71601],[17.04476,68.71266],[17.04651,68.71217],[17.04773,68.71113],[17.04857,68.70954],[17.04835,68.7083],[17.04586,68.70679],[17.04613,68.70142],[17.04549,68.70066],[17.04237,68.69971],[17.04427,68.69889],[17.04536,68.69096],[17.04668,68.69035],[17.0484,68.69028],[17.04751,68.68905],[17.04868,68.68802],[17.0517,68.6874],[17.05444,68.68747],[17.05481,68.68515],[17.05657,68.68481],[17.05847,68.68537],[17.06007,68.68487],[17.06166,68.68322],[17.06114,68.68233],[17.05851,68.68111],[17.06153,68.67925]],[[17.1921,68.72248],[17.18496,68.72082],[17.17699,68.71964],[17.15396,68.71738],[17.13631,68.71628],[17.12181,68.71467],[17.11968,68.71407],[17.11709,68.71192],[17.11434,68.71142],[17.10933,68.70509],[17.11125,68.70165],[17.10787,68.69676],[17.1087,68.69591],[17.10715,68.69228],[17.10176,68.68929],[17.09748,68.68493],[17.0994,68.68467],[17.10377,68.68485],[17.10596,68.6839],[17.10881,68.68337],[17.10785,68.68212],[17.10938,68.68134],[17.11136,68.68113],[17.11594,68.68155],[17.11774,68.68126],[17.11866,68.67958],[17.11245,68.67862]],[[17.1921,68.72248],[17.20803,68.72572],[17.21973,68.72664],[17.22324,68.72743]],[[17.12801,68.75186],[17.12319,68.75106],[17.11729,68.74883],[17.10159,68.74768]],[[16.99944,68.74224],[17.00636,68.74318],[17.01042,68.74306],[17.01534,68.74455],[17.0192,68.74494],[17.03244,68.74467],[17.05112,68.74539],[17.06892,68.74442],[17.07249,68.74483],[17.07767,68.74611],[17.09428,68.74745],[17.10159,68.74768]],[[17.16174,68.76117],[17.15997,68.76048],[17.15244,68.75907],[17.14729,68.75869],[17.14258,68.755],[17.13568,68.75211],[17.13208,68.75225],[17.12801,68.75186]],[[17.17563,68.76756],[17.1714,68.76511],[17.17065,68.76389],[17.16669,68.76236],[17.16174,68.76117]],[[17.18239,68.77317],[17.18145,68.77253],[17.18114,68.7705],[17.17568,68.76759]],[[17.14687,68.79119],[17.14802,68.79039],[17.1503,68.78991],[17.15926,68.78937],[17.16241,68.78937],[17.16352,68.79044]],[[17.16352,68.79044],[17.1634,68.79131],[17.16441,68.79167],[17.16891,68.79231],[17.17385,68.79223],[17.17563,68.79299],[17.17675,68.79282],[17.17563,68.79094],[17.17811,68.78973],[17.17823,68.78578],[17.18073,68.78371],[17.18422,68.78234],[17.18157,68.77899],[17.18032,68.77887],[17.17687,68.77713],[17.17885,68.77539],[17.18306,68.7748],[17.18339,68.77386],[17.18239,68.77317]],[[17.2152,68.79628],[17.21951,68.79541],[17.22534,68.79609],[17.23009,68.79598]],[[17.14716,68.79259],[17.14654,68.79344],[17.13936,68.79501],[17.13384,68.79936],[17.12849,68.80151],[17.11853,68.80078],[17.11143,68.80161],[17.10842,68.80362],[17.10707,68.80565]],[[17.2152,68.79628],[17.21313,68.79759],[17.21039,68.79808],[17.2102,68.79867],[17.21201,68.79928],[17.21108,68.80011],[17.20732,68.8006],[17.20341,68.80064],[17.1999,68.80169],[17.19801,68.80323],[17.19472,68.80434],[17.18766,68.80501]],[[17.10707,68.80565],[17.10486,68.80681],[17.09693,68.80917],[17.0951,68.81186],[17.09269,68.81346]],[[17.18323,68.81232],[17.1849,68.80862],[17.18379,68.80686],[17.18492,68.80558],[17.18766,68.80501]],[[17.17852,68.81936],[17.17834,68.81833],[17.18119,68.81554],[17.18117,68.81406],[17.18323,68.81232]],[[17.05587,68.83853],[17.05873,68.83893],[17.05993,68.83972],[17.0649,68.8405],[17.06985,68.8402],[17.07062,68.83987],[17.06989,68.83818],[17.07345,68.83755],[17.07224,68.83674],[17.07268,68.83631],[17.07558,68.83619],[17.0731,68.83522],[17.07685,68.83479],[17.07912,68.83319],[17.07927,68.83089],[17.07838,68.83001],[17.08058,68.82952],[17.08244,68.82988],[17.08352,68.8293],[17.08215,68.82804],[17.08179,68.82546],[17.08308,68.82369],[17.08297,68.82222],[17.08105,68.82018],[17.08231,68.81774],[17.08431,68.81648],[17.08613,68.81616],[17.08793,68.81649],[17.09233,68.81636],[17.09309,68.81701],[17.09422,68.81697],[17.09453,68.8164],[17.0926,68.81511],[17.09269,68.81346]],[[17.17852,68.81936],[17.1764,68.82252],[17.17504,68.82338],[17.17278,68.82359],[17.17218,68.82525],[17.17267,68.82569],[17.17459,68.82592],[17.18009,68.82867],[17.18304,68.83097],[17.18425,68.83308],[17.18166,68.83627],[17.17653,68.83823],[17.17556,68.83986]],[[17.0038,68.85136],[17.00254,68.85176],[17.0009,68.8501],[16.99789,68.85052]],[[17.0038,68.85136],[17.00759,68.85365]],[[17.04453,68.85695],[17.04316,68.85519],[17.04686,68.85529],[17.0479,68.85448],[17.04455,68.85188],[17.04295,68.84694],[17.04432,68.84634],[17.05034,68.84636],[17.05475,68.84482],[17.05456,68.84306],[17.05272,68.84245],[17.0497,68.84225],[17.05068,68.84099],[17.05413,68.84077],[17.05687,68.84249],[17.0578,68.84233],[17.05665,68.84146],[17.05742,68.8405],[17.05309,68.83816]],[[17.15825,68.85751],[17.15914,68.85622],[17.16452,68.85281],[17.16871,68.85129],[17.17018,68.85028],[17.17117,68.84414],[17.17556,68.83986]],[[17.00969,68.85933],[17.00665,68.85587],[17.00759,68.85365]],[[17.04503,68.85891],[17.04453,68.85695]],[[17.04157,68.8625],[17.04262,68.86241],[17.04368,68.863],[17.04516,68.8631],[17.0444,68.8617],[17.04315,68.86172],[17.04256,68.86085],[17.04567,68.86077],[17.04503,68.85891]],[[17.04024,68.86339],[17.04157,68.8625]],[[17.00969,68.85933],[17.01172,68.85954],[17.01568,68.8609],[17.01853,68.86271],[17.01871,68.86349],[17.02299,68.86398],[17.02374,68.86449],[17.02321,68.86587],[17.02528,68.86545]],[[17.14807,68.86574],[17.14862,68.86177],[17.15513,68.85931],[17.15825,68.85751]],[[17.02844,68.86521],[17.03188,68.8672],[17.04172,68.86424],[17.04024,68.86339]],[[17.02004,68.8685],[17.01796,68.86849],[17.0173,68.86879],[17.02006,68.8726],[17.02065,68.87231],[17.01983,68.87077],[17.02183,68.86964],[17.02004,68.8685]],[[17.14807,68.86574],[17.14697,68.86639],[17.14303,68.8671],[17.13461,68.86731],[17.13532,68.86949],[17.1382,68.87117]],[[17.20385,68.88693],[17.20543,68.88669],[17.20871,68.88429],[17.21227,68.88264],[17.21514,68.8805],[17.2153,68.87912],[17.22351,68.87755],[17.22753,68.87533]],[[17.23333,68.88411],[17.22608,68.88919],[17.22328,68.88994],[17.22155,68.89122]],[[17.11568,68.89606],[17.12533,68.8907],[17.12791,68.88692],[17.12724,68.88472],[17.12804,68.88364],[17.1311,68.88202],[17.13206,68.88058],[17.13258,68.87806],[17.13105,68.87635],[17.13693,68.87474],[17.13869,68.87263],[17.1382,68.87117]],[[17.10273,68.90307],[17.10527,68.89965],[17.11568,68.89606]],[[17.178,68.90212],[17.18104,68.90055],[17.18168,68.89885],[17.18981,68.89507],[17.19219,68.89202],[17.1974,68.89002],[17.20002,68.8882],[17.20385,68.88693]],[[17.21047,68.90171],[17.21052,68.89926],[17.21516,68.89666],[17.21667,68.89344],[17.22155,68.89122]],[[17.21047,68.90171],[17.20685,68.9041],[17.19962,68.90636],[17.19449,68.90924]],[[17.17645,68.90966],[17.177,68.90641],[17.17476,68.90539],[17.178,68.90212]],[[17.10273,68.90307],[17.09848,68.9061],[17.09776,68.90856],[17.09962,68.90927],[17.11426,68.91156],[17.11728,68.91277]],[[17.16538,68.91971],[17.17015,68.91879],[17.17584,68.91665],[17.18343,68.91533],[17.18766,68.91376],[17.18727,68.91251],[17.18245,68.91403],[17.17604,68.91323],[17.17706,68.91065],[17.17645,68.90966]],[[17.19449,68.90924],[17.19045,68.91155],[17.19018,68.91384],[17.19563,68.91547],[17.19949,68.91762],[17.19992,68.91987]],[[17.12324,68.92406],[17.13267,68.92371],[17.13462,68.92279],[17.14394,68.92134],[17.15586,68.92075],[17.16538,68.91971]],[[17.11511,68.92271],[17.1137,68.92397],[17.11401,68.92553],[17.11866,68.92715]],[[17.11866,68.92715],[17.12274,68.92771],[17.12542,68.92742],[17.12568,68.927],[17.12346,68.92553],[17.12324,68.92406]],[[17.19992,68.91987],[17.1982,68.92184],[17.2062,68.92426],[17.21733,68.92663],[17.22099,68.92825],[17.23021,68.92909],[17.235,68.93042],[17.23823,68.92958],[17.24367,68.93048]],[[17.11762,68.9163],[17.11485,68.91801],[17.11699,68.92114],[17.11511,68.92271]]]}}]}