{"type":"FeatureCollection","features":[{"type":"Feature","properties":{},"geometry":{"type":"MultiLineString","coordinates":[[[16.09304,69.19306],[16.09182,69.19283]],[[16.1409,69.30226],[16.14795,69.29911]],[[16.12853,69.3123],[16.13407,69.30945],[16.13527,69.30785],[16.13507,69.30608],[16.1409,69.30226]],[[15.99889,69.12298],[16.00033,69.12181],[16.00574,69.12154]],[[16.00787,69.12401],[16.00951,69.12326],[16.0111,69.12105],[16.00918,69.12098],[16.00574,69.12154]],[[16.06492,69.14787],[16.06466,69.14752],[16.06646,69.14703],[16.0667,69.14648],[16.06511,69.14492]],[[16.01252,69.13016],[16.0097,69.12968],[16.00726,69.12842],[16.00669,69.12712],[16.0079,69.12576],[16.00787,69.12401]],[[16.03692,69.13397],[16.0285,69.13285],[16.01518,69.13021],[16.01252,69.13016]],[[16.03692,69.13397],[16.0404,69.134]],[[16.04962,69.13704],[16.0404,69.134]],[[16.05242,69.13985],[16.05305,69.13867],[16.04998,69.13805],[16.04962,69.13704]],[[16.05542,69.14071],[16.05285,69.14059],[16.05242,69.13985]],[[16.06511,69.14492],[16.06226,69.14296],[16.06312,69.14235],[16.06294,69.14092],[16.05841,69.14039],[16.05542,69.14071]],[[16.09545,69.16615],[16.09524,69.16363],[16.09903,69.16243],[16.09721,69.16207],[16.09618,69.16104],[16.09259,69.16059],[16.08797,69.1545],[16.08822,69.15385],[16.0852,69.15237],[16.08353,69.15288],[16.08166,69.15263],[16.08163,69.15222],[16.08352,69.1521],[16.08266,69.15123],[16.07755,69.15031],[16.07515,69.14944],[16.07311,69.14929],[16.0709,69.14982],[16.06813,69.14951],[16.06492,69.14787]],[[16.10116,69.16916],[16.10034,69.16818],[16.09618,69.16692],[16.09545,69.16615]],[[16.09182,69.19283],[16.0899,69.19214],[16.08875,69.19043],[16.08475,69.18792],[16.08576,69.18166]],[[16.09105,69.18163],[16.09099,69.17948],[16.08961,69.17893],[16.08742,69.17961],[16.08576,69.18166]],[[16.09401,69.18161],[16.09367,69.17853],[16.09539,69.17513],[16.09877,69.1749],[16.10148,69.17519],[16.1023,69.17491],[16.09997,69.17369],[16.10361,69.17221],[16.10033,69.16955],[16.10116,69.16916]],[[16.09105,69.18163],[16.09141,69.18218],[16.09328,69.18266],[16.09401,69.18161]],[[16.10333,69.20615],[16.105,69.20593],[16.10888,69.20688],[16.1092,69.20451],[16.09985,69.19577],[16.09588,69.19467],[16.09465,69.19281],[16.09304,69.19306]],[[16.10215,69.21764],[16.09933,69.21545],[16.0961,69.21444],[16.09743,69.21149],[16.10164,69.20993],[16.10084,69.20711],[16.10333,69.20615]],[[16.12963,69.24679],[16.13149,69.24691],[16.13809,69.24883]],[[16.11056,69.22635],[16.11011,69.223],[16.10584,69.22195],[16.10215,69.21764]],[[16.11056,69.22635],[16.11157,69.23036],[16.11565,69.23216],[16.11458,69.23384],[16.11482,69.23696],[16.11925,69.24373],[16.12161,69.24522]],[[16.12161,69.24522],[16.12447,69.24625],[16.12963,69.24679]],[[16.16914,69.27081],[16.16972,69.26874],[16.17193,69.26811],[16.17027,69.26691],[16.17061,69.26547],[16.17533,69.26503],[16.17343,69.26431],[16.17372,69.2637],[16.17215,69.26306],[16.1755,69.26291],[16.17293,69.26147],[16.17597,69.26149],[16.17597,69.26068],[16.17426,69.25986],[16.16999,69.26039],[16.16719,69.25993],[16.16473,69.25743],[16.16111,69.25643],[16.15743,69.254],[16.14965,69.25194],[16.14368,69.24978],[16.13809,69.24883]],[[16.17699,69.28261],[16.17338,69.28164],[16.17401,69.28],[16.17835,69.28002],[16.17455,69.27811],[16.17649,69.27759],[16.17654,69.27527],[16.17178,69.27402],[16.17197,69.27359],[16.17361,69.27385],[16.17421,69.27363],[16.16982,69.27239],[16.16914,69.27081]],[[16.16199,69.2917],[16.1673,69.2883],[16.17084,69.28688],[16.17371,69.28631],[16.17912,69.28621],[16.17681,69.28449],[16.17799,69.28315],[16.17699,69.28261]],[[15.99929,69.29894],[16.00304,69.29954],[16.00527,69.29856],[16.0034,69.29753],[16.00483,69.29616],[16.0083,69.29599],[16.01068,69.29642],[16.0138,69.29546]],[[16.14795,69.29911],[16.15145,69.29802],[16.15387,69.29797],[16.15486,69.29675],[16.15909,69.29532],[16.16199,69.2917]],[[16.0138,69.29546],[16.01566,69.29507],[16.02108,69.29521],[16.0257,69.29633],[16.03163,69.29666],[16.03558,69.2974],[16.03861,69.29866],[16.03879,69.29942],[16.04584,69.2996],[16.05061,69.30198],[16.05141,69.30289],[16.05726,69.30252],[16.06316,69.30353],[16.06437,69.30482],[16.06869,69.30613],[16.0666,69.30691],[16.06702,69.30756],[16.06951,69.30761],[16.07205,69.30822]],[[16.12853,69.3123],[16.12841,69.3135],[16.13139,69.31591]],[[16.11185,69.31604],[16.10943,69.31449],[16.10443,69.31364],[16.10296,69.31275],[16.09965,69.31253],[16.09838,69.31385],[16.0963,69.31314],[16.0945,69.31137],[16.09155,69.31061],[16.08654,69.31092],[16.08489,69.31228],[16.08241,69.31248],[16.08087,69.31241],[16.07996,69.31188],[16.07597,69.31159],[16.07404,69.31096],[16.07347,69.309],[16.07205,69.30822]],[[16.11053,69.3185],[16.10922,69.31776],[16.10335,69.31799],[16.1052,69.31892],[16.10669,69.31851],[16.10818,69.31912],[16.11053,69.3185]],[[16.1306,69.32184],[16.12927,69.3214],[16.12852,69.32026],[16.13015,69.31891],[16.1329,69.31889],[16.13139,69.31591]],[[16.11185,69.31604],[16.11155,69.31727],[16.11544,69.32015],[16.11593,69.32135],[16.11498,69.32234],[16.11605,69.32441],[16.11949,69.32463],[16.12167,69.32358],[16.12109,69.32283],[16.12452,69.32355],[16.12541,69.3223],[16.1302,69.32234]],[[16.06209,69.32485],[16.06008,69.32503],[16.06084,69.32557],[16.06627,69.32675],[16.06433,69.32521],[16.06209,69.32485]],[[16.1302,69.32234],[16.13254,69.32299],[16.13246,69.32392],[16.12894,69.32515],[16.12836,69.32614],[16.13206,69.32704],[16.13463,69.32666],[16.13334,69.32333],[16.13468,69.32289],[16.1364,69.32342],[16.13998,69.32617],[16.14078,69.32618],[16.13736,69.3231],[16.13531,69.32243],[16.1306,69.32184]],[[16.45673,69.00323],[16.45567,69.00323],[16.45468,69.00399],[16.45958,69.00423],[16.45932,69.00375],[16.45673,69.00323]],[[16.36668,69.01674],[16.36431,69.01668],[16.36337,69.0173],[16.36693,69.0177],[16.36668,69.01674]],[[16.46357,69.01252],[16.46236,69.01246],[16.46196,69.01294],[16.46034,69.01315],[16.46144,69.01415],[16.46324,69.01412],[16.46357,69.01252]],[[16.48392,69.01764],[16.48296,69.01746],[16.48123,69.01794],[16.48348,69.01884],[16.48504,69.01862],[16.48392,69.01764]],[[16.49998,69.01985],[16.5017,69.01984]],[[16.55192,69.0371],[16.55013,69.03697],[16.54914,69.03728],[16.55144,69.03822],[16.55307,69.0375],[16.55192,69.0371]],[[16.45358,69.04792],[16.45139,69.04759],[16.45077,69.04783],[16.45281,69.0494],[16.45498,69.04898],[16.45358,69.04792]],[[16.5047,69.06364],[16.50305,69.06315],[16.50166,69.06343],[16.50476,69.06457]],[[16.50476,69.06457],[16.50591,69.06453],[16.5047,69.06364]],[[16.50299,69.08444],[16.50073,69.08416],[16.49941,69.08482],[16.50261,69.0857],[16.50408,69.08506],[16.50299,69.08444]],[[16.5202,69.16598],[16.51838,69.16559],[16.5178,69.16577],[16.51999,69.16709],[16.52251,69.1672],[16.5202,69.16598]],[[16.55964,68.99945],[16.56451,69.00076],[16.56719,69.00099],[16.56844,69.00071],[16.56657,69.00039],[16.5661,68.99966]],[[16.50226,69.02802],[16.50339,69.028],[16.50393,69.02741],[16.50215,69.02648]],[[16.57015,69.00177],[16.56757,69.00175],[16.56436,69.003],[16.56853,69.00458],[16.57339,69.00419],[16.57492,69.00356],[16.57015,69.00177]],[[16.37596,69.01066],[16.37464,69.01085],[16.376,69.01126]],[[16.39287,69.00965],[16.3905,69.00923],[16.38563,69.00973],[16.38579,69.01083],[16.38982,69.01163],[16.39172,69.0114],[16.3931,69.01063],[16.39287,69.00965]],[[16.37603,69.01178],[16.3779,69.01166],[16.376,69.01126]],[[16.53814,69.01299],[16.53714,69.0121],[16.53843,69.01122],[16.53442,69.00882],[16.53585,69.00809],[16.53426,69.0078],[16.5339,69.00639],[16.5313,69.00522],[16.53277,69.0036],[16.5297,69.00014],[16.53267,68.99886]],[[16.37603,69.01178],[16.37019,69.01191],[16.36922,69.01248],[16.37166,69.01426],[16.37626,69.01536]],[[16.37626,69.01536],[16.38155,69.01651],[16.38435,69.01669],[16.38522,69.01622],[16.38363,69.01518],[16.38604,69.01482],[16.38715,69.01375],[16.38692,69.0132],[16.38373,69.01258],[16.38396,69.01194],[16.3822,69.01128],[16.37596,69.01066]],[[16.48262,69.01601],[16.48412,69.01527],[16.48728,69.01544],[16.48618,69.0166]],[[16.44493,68.99962],[16.4491,69.00136],[16.46028,69.00296],[16.46359,69.00404],[16.46523,69.0051],[16.46424,69.00643],[16.46577,69.00698],[16.46788,69.007],[16.46933,69.00793],[16.46654,69.00905],[16.46673,69.00957],[16.46914,69.0098],[16.47144,69.00923],[16.47301,69.00958],[16.47104,69.01188],[16.472,69.01247],[16.47267,69.01539],[16.4775,69.01584],[16.47727,69.01648],[16.4785,69.01683],[16.48262,69.01601]],[[16.37636,69.01694],[16.37477,69.01693],[16.37436,69.01726],[16.37642,69.0179]],[[16.50586,69.08059],[16.50654,69.08037],[16.5058,69.07977]],[[16.37642,69.0179],[16.37934,69.01834],[16.38293,69.01803],[16.37948,69.01702],[16.37636,69.01694]],[[16.47054,69.01893],[16.46834,69.01898],[16.46527,69.0199],[16.47093,69.01988],[16.47203,69.0193],[16.47054,69.01893]],[[16.46091,69.01645],[16.46436,69.01678],[16.46476,69.01602],[16.46361,69.01534],[16.46179,69.0149],[16.45972,69.0154],[16.45626,69.0141],[16.45473,69.01405],[16.45161,69.01738],[16.45697,69.01841],[16.4597,69.01828],[16.4614,69.01777],[16.46091,69.01645]],[[16.478,69.01768],[16.4769,69.01746],[16.47441,69.01778],[16.47258,69.01927],[16.47606,69.02003],[16.47787,69.01989],[16.47928,69.01827],[16.478,69.01768]],[[16.48618,69.0166],[16.48721,69.01805],[16.48832,69.01835],[16.49272,69.01875],[16.49583,69.01959],[16.49998,69.01985]],[[16.53947,69.02022],[16.54565,69.01928],[16.54724,69.01756],[16.54473,69.01667],[16.54663,69.01562],[16.54436,69.01422],[16.54089,69.01379],[16.53814,69.01299]],[[16.5017,69.01984],[16.50638,69.01969],[16.51236,69.02057]],[[16.37667,69.02188],[16.37957,69.02138],[16.37921,69.02058],[16.37651,69.01932]],[[16.52785,69.0199],[16.53093,69.02074],[16.53947,69.02022]],[[16.37651,69.01932],[16.3717,69.01907],[16.36724,69.01981],[16.37063,69.02219],[16.37488,69.02279],[16.37667,69.02188]],[[16.51236,69.02057],[16.51683,69.02167],[16.5193,69.02171],[16.52231,69.02053],[16.52785,69.0199]],[[16.51584,69.02363],[16.50878,69.02355],[16.50807,69.02403],[16.50658,69.02405],[16.50193,69.0233]],[[16.50202,69.02457],[16.50026,69.02521],[16.50215,69.02648]],[[16.55792,69.02605],[16.55574,69.02434],[16.55605,69.02385],[16.5579,69.02404],[16.55859,69.02367],[16.55552,69.0221],[16.55226,69.02239],[16.54862,69.02171],[16.53338,69.02213],[16.52021,69.02297],[16.51584,69.02363]],[[16.50193,69.0233],[16.49874,69.0234],[16.49528,69.02445],[16.4976,69.0264],[16.50226,69.02802]],[[16.48925,69.03021],[16.48722,69.0299],[16.48827,69.03112],[16.49058,69.03198],[16.49181,69.03195],[16.49156,69.03113],[16.48925,69.03021]],[[16.49159,69.02747],[16.49368,69.02744],[16.4935,69.02672],[16.48386,69.02434],[16.48397,69.02405],[16.48611,69.02385],[16.48308,69.02307],[16.48131,69.02305],[16.48069,69.0236],[16.47586,69.02326],[16.47057,69.02352],[16.46881,69.02397],[16.46976,69.02455],[16.47387,69.02485],[16.48195,69.02757],[16.48325,69.02759],[16.48252,69.02674],[16.48489,69.02612],[16.48776,69.02799],[16.48975,69.02848],[16.48939,69.02928],[16.4928,69.03023],[16.49389,69.02984],[16.49279,69.0289],[16.49042,69.02855],[16.49159,69.02747]],[[16.5024,69.03014],[16.50106,69.03087],[16.50255,69.03237]],[[16.50255,69.03237],[16.50448,69.03329],[16.50763,69.03224],[16.50578,69.03061],[16.5024,69.03014]],[[16.5009,69.03245],[16.49681,69.03248],[16.49678,69.03355],[16.49917,69.0347],[16.50215,69.03354],[16.5009,69.03245]],[[16.50202,69.02457],[16.50564,69.02501],[16.50693,69.02564],[16.5072,69.02755],[16.5094,69.02904],[16.5096,69.03045],[16.51385,69.03191],[16.51316,69.03211],[16.50905,69.03141],[16.50963,69.03336],[16.51357,69.03583],[16.5155,69.03604],[16.51769,69.0352],[16.52085,69.03534],[16.52192,69.03407],[16.52502,69.03389],[16.52849,69.0345],[16.5317,69.03229],[16.53312,69.03294],[16.53261,69.03398],[16.5341,69.03435],[16.53585,69.03439],[16.53635,69.03369],[16.54074,69.0348],[16.54371,69.0351],[16.54801,69.03465],[16.55141,69.03556],[16.55355,69.03484],[16.55608,69.0349],[16.55657,69.03443],[16.55389,69.03293],[16.55422,69.03255],[16.56016,69.03244],[16.56117,69.03211],[16.55864,69.02901],[16.55792,69.02605]],[[16.46942,69.03763],[16.47039,69.0376],[16.4712,69.03842],[16.47303,69.03859],[16.47673,69.03761],[16.47616,69.0372],[16.46967,69.0372],[16.46738,69.03664],[16.46285,69.03734],[16.46345,69.03878],[16.46684,69.03929],[16.46942,69.03763]],[[16.50602,69.04395],[16.5033,69.04333]],[[16.39434,69.04085],[16.39075,69.04084],[16.394,69.04179],[16.39669,69.04166],[16.39654,69.04122],[16.39434,69.04085]],[[16.50315,69.04115],[16.50401,69.04065],[16.5031,69.04036]],[[16.50315,69.04115],[16.50127,69.04157],[16.49967,69.04141],[16.49881,69.04187],[16.50007,69.04261],[16.5033,69.04333]],[[16.47696,69.0442],[16.47677,69.04367],[16.48421,69.04253],[16.48379,69.04185],[16.48045,69.04132],[16.4787,69.04237],[16.47757,69.04241],[16.47365,69.0417],[16.47273,69.041],[16.47633,69.0407],[16.47719,69.03947],[16.48252,69.03824],[16.48449,69.03828],[16.48573,69.039],[16.48685,69.03881],[16.48677,69.03806],[16.49033,69.03835],[16.4917,69.04011],[16.49307,69.04059],[16.49713,69.03995],[16.5031,69.04036]],[[16.5039,69.05202],[16.51225,69.04981],[16.5161,69.04677],[16.51411,69.04583],[16.50648,69.04636],[16.50729,69.04552],[16.50696,69.04429],[16.50602,69.04395]],[[16.47696,69.0442],[16.47494,69.04478],[16.47261,69.04442],[16.47183,69.04501],[16.47321,69.04618],[16.47844,69.04624],[16.47509,69.04709],[16.47629,69.04788],[16.47532,69.04868],[16.47356,69.04876],[16.47399,69.0496],[16.47649,69.0498],[16.47805,69.04926],[16.47911,69.04956],[16.47858,69.05044],[16.48105,69.05074],[16.48365,69.0504],[16.48299,69.04978],[16.48411,69.04941],[16.48735,69.05031],[16.49884,69.05156],[16.49933,69.05237],[16.5039,69.05202]],[[16.52752,69.06107],[16.52937,69.06006],[16.53719,69.06076],[16.53882,69.06125],[16.54057,69.06093],[16.54258,69.06114],[16.54618,69.06256],[16.54644,69.06422],[16.54748,69.06361],[16.54711,69.06271],[16.55077,69.06193],[16.55077,69.06131],[16.54788,69.05987],[16.54788,69.05889],[16.54562,69.05818],[16.5456,69.0572],[16.54106,69.05662],[16.53986,69.05602],[16.54147,69.05476],[16.53995,69.05352],[16.54153,69.05198],[16.5387,69.05054],[16.53733,69.0505],[16.53706,69.05103],[16.53169,69.05122],[16.52071,69.05234],[16.51724,69.05365],[16.51673,69.0545],[16.51313,69.05448],[16.51142,69.05504],[16.51335,69.0564],[16.51747,69.058],[16.51578,69.05965],[16.51625,69.0606],[16.51918,69.06146],[16.52238,69.06101],[16.52075,69.06228],[16.52182,69.06326],[16.52061,69.06488],[16.52245,69.06569],[16.52396,69.06569],[16.52495,69.06466],[16.52929,69.06292],[16.52677,69.06229],[16.52567,69.06154],[16.52752,69.06107]],[[16.54424,69.0677],[16.5449,69.06748],[16.55096,69.06811],[16.55057,69.06768],[16.54572,69.06684],[16.54572,69.06546],[16.54361,69.06529],[16.54081,69.06641],[16.54047,69.06737],[16.54243,69.06836],[16.54379,69.06831],[16.54424,69.0677]],[[16.52044,69.07191],[16.52422,69.072],[16.52525,69.07168],[16.52299,69.07054],[16.5231,69.06959],[16.51765,69.06797],[16.51433,69.06824],[16.51346,69.06889],[16.51417,69.06935],[16.52034,69.07157],[16.51717,69.07249],[16.51852,69.07311],[16.51965,69.07297],[16.52044,69.07191]],[[16.48685,69.07589],[16.48692,69.0732],[16.48532,69.07279],[16.48223,69.0731],[16.48169,69.07458],[16.48366,69.07497],[16.4846,69.0758],[16.48685,69.07589]],[[16.51755,69.0756],[16.51404,69.07597],[16.51618,69.07694],[16.51734,69.07686],[16.51755,69.0756]],[[16.50513,69.06997],[16.49912,69.06869],[16.49893,69.07006],[16.50125,69.07118],[16.50253,69.0707],[16.50348,69.07082],[16.50369,69.07168],[16.49989,69.07195],[16.49697,69.07089],[16.49599,69.07144],[16.50122,69.07329],[16.5001,69.07364],[16.49982,69.07456],[16.49695,69.07473],[16.49687,69.07523],[16.50096,69.07522],[16.50182,69.07614],[16.50564,69.07743]],[[16.50564,69.07743],[16.51146,69.07974],[16.51441,69.0802],[16.51637,69.0799],[16.51531,69.07881],[16.51275,69.07798],[16.5132,69.07661],[16.51085,69.07604],[16.51433,69.07519],[16.51492,69.07288],[16.51229,69.07241],[16.51194,69.07174],[16.51044,69.07153],[16.50977,69.07175],[16.5103,69.0725],[16.50827,69.07229],[16.50746,69.07114],[16.50513,69.06997]],[[16.47318,69.07875],[16.47038,69.07852],[16.46998,69.07928],[16.47206,69.07947],[16.47442,69.08027],[16.475,69.08162],[16.47929,69.08233],[16.47938,69.08173],[16.47318,69.07875]],[[16.55622,69.07992],[16.55355,69.07924],[16.55264,69.07938],[16.55523,69.08142],[16.55702,69.08177],[16.55828,69.08119],[16.55622,69.07992]],[[16.50586,69.08059],[16.50507,69.08148],[16.50602,69.08285]],[[16.4864,69.08164],[16.4837,69.08148],[16.48233,69.08204],[16.48288,69.08286],[16.48602,69.08307],[16.4864,69.08164]],[[16.5058,69.07977],[16.50249,69.07963],[16.5001,69.07869],[16.49879,69.07935],[16.496,69.07762],[16.49121,69.07839],[16.49115,69.0793],[16.49329,69.07939],[16.49426,69.0798],[16.49366,69.08031],[16.49164,69.08038],[16.49148,69.0807],[16.49669,69.08211],[16.49602,69.08249],[16.49701,69.08335],[16.49471,69.08322],[16.49391,69.08363],[16.49498,69.08425],[16.49795,69.08417],[16.49769,69.08351],[16.5001,69.08352],[16.50074,69.08266],[16.50348,69.08395],[16.5061,69.08409]],[[16.5061,69.08409],[16.50786,69.08382],[16.50995,69.08457],[16.51151,69.08424],[16.51199,69.08341],[16.51153,69.08293],[16.50756,69.08222],[16.50693,69.0824],[16.5077,69.08359],[16.50602,69.08285]],[[16.52324,69.08427],[16.52107,69.08341],[16.517,69.08311],[16.5186,69.08407],[16.52233,69.08462],[16.52324,69.08427]],[[16.5223,69.09078],[16.5193,69.09027],[16.51843,69.09052],[16.52144,69.09165],[16.52456,69.09172],[16.5223,69.09078]],[[16.52111,69.09326],[16.51928,69.09321],[16.51844,69.0938],[16.52083,69.09521],[16.52247,69.09373],[16.52111,69.09326]],[[16.61,69.15687],[16.60824,69.15675],[16.6074,69.15758],[16.60798,69.15818],[16.61221,69.15952],[16.61333,69.15894],[16.61319,69.15799],[16.61,69.15687]],[[16.62326,69.16214],[16.62668,69.16083],[16.62648,69.15975],[16.62506,69.15954],[16.62275,69.16022],[16.61905,69.15945],[16.61462,69.15969],[16.61386,69.16025],[16.61451,69.16113],[16.61982,69.16171],[16.61968,69.16236],[16.62151,69.16328],[16.62246,69.16322],[16.62326,69.16214]],[[16.52564,69.16531],[16.52449,69.16538],[16.52661,69.16698],[16.53123,69.16818],[16.53002,69.16695],[16.52564,69.16531]],[[16.53122,69.17079],[16.52734,69.16886],[16.5244,69.16879],[16.52577,69.17026],[16.5291,69.17079],[16.52916,69.17135],[16.53079,69.17122],[16.53122,69.17079]],[[16.63454,69.22079],[16.63165,69.22029],[16.63029,69.22097],[16.63291,69.22188],[16.63476,69.2213],[16.63454,69.22079]],[[16.86684,69.05448],[16.85803,69.0553]],[[16.83349,69.12301],[16.84231,69.12183],[16.85408,69.11952]],[[16.90946,69.12029],[16.91529,69.11741]],[[16.90045,69.12974],[16.90061,69.13104],[16.90725,69.13371],[16.92355,69.13673],[16.9422,69.13874],[16.95495,69.13922],[16.96024,69.13907],[16.96237,69.13828],[16.9677,69.13728],[16.97609,69.1364],[16.97785,69.13728],[16.9776,69.13998]],[[16.84598,69.15769],[16.84442,69.15747],[16.84198,69.15786],[16.8421,69.15837],[16.84385,69.15891],[16.84704,69.15902],[16.84756,69.15824],[16.84598,69.15769]],[[16.99084,69.1908],[17.00172,69.19023]],[[16.89289,69.20182],[16.89585,69.20296],[16.89634,69.20447]],[[16.76904,69.29154],[16.76704,69.29172],[16.7683,69.29201],[16.76716,69.29288],[16.77152,69.29267],[16.77125,69.29214],[16.76904,69.29154]],[[16.78688,69.29435],[16.7833,69.29458],[16.78303,69.29523],[16.78673,69.29547],[16.78857,69.29492],[16.78688,69.29435]],[[16.9023,69.30945],[16.90294,69.30915]],[[16.9023,69.30945],[16.9012,69.3104]],[[16.93796,69.39848],[16.93961,69.39764]],[[16.85413,69.01968],[16.85287,69.01854],[16.84961,69.01832],[16.84875,69.01857],[16.84934,69.01925],[16.84755,69.01972],[16.8535,69.02109],[16.85413,69.01968]],[[16.86866,69.02268],[16.86539,69.02346],[16.86626,69.02413],[16.86952,69.02322],[16.86866,69.02268]],[[16.88167,69.02452],[16.87828,69.02393],[16.87808,69.02451],[16.87924,69.02511],[16.88205,69.0252],[16.88167,69.02452]],[[16.8778,69.02672],[16.87525,69.02598],[16.87347,69.02604],[16.8739,69.027],[16.87796,69.02861]],[[16.87796,69.02861],[16.88448,69.02918],[16.88353,69.0285],[16.88011,69.02815],[16.8778,69.02672]],[[16.8742,69.0288],[16.87246,69.02845],[16.86887,69.02874],[16.87428,69.02966],[16.87536,69.02931],[16.8742,69.0288]],[[16.90932,69.02941],[16.90836,69.02981],[16.90643,69.02969],[16.90591,69.02885]],[[16.91606,69.0353],[16.91805,69.03492],[16.92216,69.03512]],[[16.92216,69.03512],[16.92653,69.03612],[16.92891,69.03511],[16.92505,69.03415],[16.92309,69.03286],[16.92339,69.03227],[16.92136,69.03143],[16.91168,69.02923],[16.90932,69.02941]],[[16.90591,69.02885],[16.90563,69.02785],[16.90661,69.02751],[16.906,69.02704],[16.90391,69.02677],[16.90202,69.02736],[16.89661,69.02543],[16.8917,69.02534],[16.88782,69.02483],[16.88607,69.02522],[16.88509,69.0242],[16.88384,69.02412],[16.88264,69.0266],[16.89502,69.03012],[16.8943,69.03041],[16.89035,69.0301],[16.88633,69.02906],[16.88554,69.02979],[16.88691,69.03038],[16.89388,69.03105],[16.89568,69.03248],[16.90073,69.03328],[16.90346,69.03427],[16.91004,69.0357],[16.91521,69.03632],[16.91606,69.0353]],[[16.8802,69.05474],[16.87498,69.05419],[16.86684,69.05448]],[[16.85803,69.0553],[16.85458,69.05479],[16.85385,69.05373],[16.85143,69.05384],[16.84961,69.05436],[16.84731,69.05427],[16.84086,69.05307],[16.83578,69.05265],[16.83152,69.0526],[16.82741,69.05331],[16.82214,69.05323]],[[16.92627,69.06008],[16.92158,69.05998],[16.92203,69.05845],[16.92019,69.05821],[16.91868,69.05889],[16.92123,69.06005],[16.91831,69.06121],[16.91579,69.06147]],[[16.8802,69.05474],[16.89054,69.05461],[16.89672,69.05538],[16.90318,69.0568],[16.90492,69.05598],[16.90613,69.0564],[16.9045,69.05739],[16.9063,69.05861],[16.9127,69.06106],[16.91579,69.06147]],[[16.94198,69.06513],[16.94254,69.06481],[16.94566,69.06575],[16.9479,69.06568],[16.94595,69.06416],[16.93506,69.06194],[16.93392,69.06088],[16.92775,69.05964],[16.92627,69.06008]],[[16.82214,69.05323],[16.81399,69.05259],[16.80857,69.05373],[16.80248,69.05332],[16.80037,69.05429],[16.79586,69.05361],[16.79444,69.05436],[16.78952,69.05439],[16.78947,69.05492],[16.79281,69.05588],[16.79234,69.05644],[16.7863,69.05657],[16.78159,69.05761],[16.78947,69.05884],[16.79284,69.05891],[16.79122,69.05991],[16.79215,69.06026],[16.79531,69.06048],[16.79998,69.06],[16.80521,69.06004],[16.80541,69.06035],[16.80334,69.06102],[16.80371,69.06146],[16.81009,69.06294],[16.80839,69.06355],[16.80538,69.06351],[16.806,69.06448],[16.81245,69.06494],[16.81476,69.06427],[16.81631,69.06517],[16.81556,69.0665],[16.81765,69.06746]],[[16.81765,69.06746],[16.81615,69.06759]],[[16.80732,69.0691],[16.80329,69.06937],[16.79956,69.06911]],[[16.81615,69.06759],[16.81205,69.06705],[16.8085,69.06743],[16.80832,69.06874],[16.80732,69.0691]],[[16.94198,69.06513],[16.94785,69.06789],[16.95272,69.06951],[16.95446,69.07262],[16.95973,69.07403],[16.96196,69.07553],[16.96429,69.07594],[16.96525,69.07519],[16.96722,69.07484],[16.97238,69.07598],[16.97758,69.07586],[16.9831,69.07782],[16.98685,69.07827]],[[16.98685,69.07827],[17.0012,69.07848]],[[16.78555,69.08612],[16.78431,69.082],[16.78181,69.08129],[16.78162,69.08052],[16.78263,69.07979],[16.78539,69.07989],[16.78379,69.07848],[16.78375,69.07707],[16.78486,69.07432],[16.78745,69.07318],[16.7871,69.07257],[16.78535,69.07267],[16.78484,69.0722],[16.78545,69.07117],[16.78737,69.07074],[16.78781,69.06948],[16.78515,69.06856],[16.79211,69.06845],[16.79956,69.06911]],[[16.88504,69.11112],[16.90055,69.10753],[16.90971,69.10622],[16.91303,69.10613],[16.91529,69.10649],[16.91669,69.10711],[16.91668,69.10847]],[[16.78555,69.08612],[16.78649,69.08769],[16.78947,69.08954],[16.78949,69.09103],[16.78583,69.09278],[16.78665,69.09354],[16.78559,69.09477],[16.78156,69.09592],[16.78075,69.09978],[16.7844,69.10033],[16.78722,69.10287],[16.79254,69.10465],[16.79671,69.10839],[16.7995,69.1098]],[[16.91668,69.10847],[16.91682,69.10951],[16.91868,69.1102]],[[16.91868,69.1102],[16.91799,69.11186],[16.91862,69.11473],[16.91706,69.11665],[16.91529,69.11741]],[[16.85408,69.11952],[16.86201,69.11842],[16.86813,69.11649],[16.87379,69.11395],[16.88504,69.11112]],[[16.7995,69.1098],[16.8027,69.11114],[16.80384,69.11406],[16.8085,69.12041],[16.81315,69.12257],[16.82023,69.12416],[16.82213,69.12422],[16.82766,69.12388],[16.83349,69.12301]],[[16.90045,69.12974],[16.90092,69.12665],[16.90276,69.12462],[16.90946,69.12029]],[[16.99692,69.1481],[17.00141,69.1467]],[[16.9776,69.13998],[16.97742,69.14277],[16.98513,69.14422],[16.987,69.14497],[16.98857,69.14689],[16.9875,69.14784],[16.99018,69.14854],[16.99111,69.14948],[16.99074,69.15034],[16.99175,69.15058],[16.99639,69.15039],[16.99692,69.1481]],[[16.86977,69.1571],[16.86211,69.15719],[16.86155,69.15748],[16.86539,69.15851],[16.8685,69.15867],[16.86953,69.15826],[16.86977,69.1571]],[[16.88901,69.1571],[16.88345,69.15499],[16.87048,69.15443],[16.86258,69.15485],[16.86716,69.15611],[16.87083,69.15587],[16.87691,69.15712],[16.88392,69.15936],[16.88733,69.15962],[16.8892,69.15925]],[[16.8892,69.15925],[16.89367,69.16027],[16.8957,69.15913],[16.89533,69.15864],[16.88901,69.1571]],[[16.82527,69.18867],[16.82169,69.18848],[16.81983,69.19019],[16.82172,69.19225],[16.82378,69.19271],[16.82548,69.19227],[16.82537,69.19135],[16.82723,69.1904],[16.82527,69.18867]],[[16.99084,69.1908],[16.98484,69.1909],[16.97799,69.19229],[16.9697,69.1949]],[[16.82512,69.19704],[16.82704,69.19654],[16.82692,69.19537],[16.82369,69.19444],[16.82306,69.19614],[16.82402,69.19701],[16.82512,69.19704]],[[16.83137,69.19502],[16.8297,69.19558],[16.83073,69.19699],[16.83214,69.19733],[16.83484,69.19628],[16.83137,69.19502]],[[16.89258,69.19826],[16.89448,69.19775],[16.89707,69.19796],[16.90702,69.20002]],[[16.90702,69.20002],[16.91236,69.20073],[16.92095,69.20042],[16.92569,69.20065],[16.93827,69.19925],[16.9548,69.1983],[16.96248,69.19705],[16.9697,69.1949]],[[16.89258,69.19826],[16.88839,69.19974],[16.88703,69.20069],[16.89289,69.20182]],[[16.83423,69.20133],[16.83196,69.20184],[16.83199,69.20278],[16.83327,69.20316],[16.83463,69.20278],[16.83423,69.20133]],[[16.83973,69.20559],[16.83401,69.20457],[16.8332,69.20485],[16.83459,69.20597],[16.84015,69.20642],[16.84086,69.20603],[16.83973,69.20559]],[[16.9401,69.2116],[16.94221,69.21],[16.9418,69.20854],[16.94057,69.20759],[16.93574,69.20573],[16.92854,69.20457],[16.92382,69.20427],[16.91152,69.20596],[16.90331,69.20755],[16.89849,69.20777],[16.89559,69.20708],[16.89406,69.20591],[16.89634,69.20447]],[[16.91138,69.21934],[16.92256,69.21683],[16.9401,69.2116]],[[16.90801,69.21997],[16.91138,69.21934]],[[16.89464,69.22194],[16.90801,69.21997]],[[16.89464,69.22194],[16.88909,69.22269],[16.88652,69.22214],[16.88388,69.22214],[16.88027,69.22289],[16.87836,69.22394],[16.88201,69.22613],[16.88615,69.22742],[16.88488,69.22953],[16.8867,69.22944],[16.89395,69.23158],[16.8956,69.23291]],[[16.8956,69.23291],[16.89817,69.23397],[16.91084,69.23623],[16.91989,69.23669],[16.93733,69.2366],[16.9452,69.237],[16.95075,69.23777],[16.96204,69.23768],[16.97008,69.23819],[16.97561,69.23901],[16.9941,69.23917],[16.9987,69.2403]],[[16.9987,69.2403],[16.99811,69.24181],[16.99942,69.24276],[16.99884,69.24376],[17.00054,69.24441]],[[16.81743,69.2582],[16.81823,69.25757],[16.81752,69.25723],[16.81229,69.2571],[16.81118,69.25738],[16.81367,69.25773],[16.81267,69.25807],[16.81132,69.25812],[16.80942,69.25748],[16.80798,69.25828],[16.8095,69.25827],[16.80902,69.25925],[16.81042,69.25949],[16.81743,69.2582]],[[16.80016,69.26539],[16.79363,69.26312],[16.79319,69.26255],[16.79127,69.26228],[16.78751,69.26298],[16.78506,69.26268],[16.7837,69.26338],[16.78585,69.26432],[16.7821,69.26426],[16.78036,69.26469],[16.78001,69.2656]],[[16.78001,69.2656],[16.78048,69.26598],[16.77879,69.26634],[16.77961,69.26677],[16.78459,69.26634],[16.7858,69.26662],[16.7854,69.26708],[16.78126,69.26802],[16.78221,69.26903],[16.78631,69.27035],[16.78583,69.27127],[16.78892,69.27089],[16.78996,69.27134],[16.7929,69.27057],[16.79476,69.26859],[16.79551,69.26873],[16.79527,69.27014],[16.79742,69.27003],[16.79808,69.26842],[16.80117,69.26594],[16.80016,69.26539]],[[16.961,69.27581],[16.9701,69.2764],[16.97643,69.2786],[16.98546,69.28048],[16.99149,69.28251],[17.00113,69.28433]],[[16.76103,69.28683],[16.75994,69.28669],[16.75869,69.28704],[16.76229,69.28969],[16.76389,69.28932],[16.76381,69.2889],[16.76103,69.28683]],[[16.961,69.27581],[16.95503,69.27633],[16.9534,69.27707],[16.95487,69.278],[16.95639,69.28064],[16.9542,69.28201],[16.95059,69.28313],[16.94963,69.28489],[16.95126,69.28656],[16.95544,69.28851],[16.95909,69.28886]],[[16.7946,69.29235],[16.79704,69.29217],[16.79637,69.29006],[16.79474,69.28863],[16.79148,69.28898],[16.79111,69.28932],[16.79366,69.29154],[16.79123,69.29038],[16.78919,69.29002],[16.78525,69.2909],[16.78776,69.29193],[16.78976,69.2913],[16.79115,69.2914],[16.78972,69.2927],[16.79431,69.29468],[16.79605,69.29417],[16.7946,69.29235]],[[16.76474,69.29967],[16.76305,69.29976],[16.76317,69.30098],[16.76559,69.30187],[16.76763,69.30033],[16.76474,69.29967]],[[16.95826,69.29891],[16.96278,69.29795],[16.9653,69.30009],[16.96892,69.30067]],[[16.99166,69.30576],[16.98381,69.30421],[16.97801,69.30204],[16.96892,69.30067]],[[16.99166,69.30576],[17.0012,69.30658]],[[17.00667,69.29983],[16.99963,69.29841],[16.98912,69.29724],[16.98291,69.29392],[16.96435,69.28965],[16.95909,69.28886]],[[16.90294,69.30915],[16.90564,69.30795],[16.90714,69.30613],[16.91199,69.30476],[16.91532,69.30329],[16.91796,69.30126],[16.91879,69.29908],[16.92162,69.29753],[16.92814,69.29705],[16.93485,69.29721],[16.94271,69.29756],[16.94832,69.29825],[16.95366,69.29814],[16.95636,69.29899],[16.95826,69.29891]],[[16.9012,69.3104],[16.89781,69.312],[16.89714,69.31355],[16.89821,69.3142],[16.90273,69.31436]],[[16.90273,69.31436],[16.9057,69.31509],[16.90599,69.31702],[16.90839,69.31775],[16.91221,69.31823]],[[16.91221,69.31823],[16.92534,69.31979],[16.93246,69.31968]],[[16.93246,69.31968],[16.94016,69.32005],[16.95895,69.31817],[16.96528,69.31957],[16.97205,69.32318],[16.97838,69.32423],[16.99138,69.32742],[16.99634,69.32915],[17.02045,69.32913]],[[16.98749,69.33155],[16.98398,69.33153],[16.98272,69.3321],[16.98594,69.33311],[16.98686,69.33288],[16.98749,69.33155]],[[17.00239,69.33869],[16.99673,69.34073],[16.99727,69.34127],[16.99861,69.34141],[17.0013,69.3408]],[[16.96739,69.36232],[16.96089,69.36177],[16.93535,69.36441],[16.93032,69.36412],[16.92165,69.36428],[16.91453,69.36371],[16.9071,69.36388]],[[16.90926,69.37222],[16.90782,69.37211]],[[16.96739,69.36232],[16.97548,69.36183],[16.98617,69.36022],[16.99124,69.36038],[16.99338,69.36091],[16.99613,69.36471],[16.99945,69.36664],[17.00383,69.36757]],[[16.90028,69.3742],[16.90426,69.37256],[16.90782,69.37211]],[[16.9071,69.36388],[16.89718,69.36403],[16.8944,69.36364],[16.8879,69.36355],[16.88452,69.36384],[16.88242,69.36462],[16.88264,69.36578],[16.87731,69.36746],[16.87425,69.37093],[16.86796,69.37245],[16.86655,69.37374],[16.8659,69.37663],[16.86792,69.3779],[16.87132,69.37805],[16.87318,69.3769],[16.87996,69.37525],[16.89257,69.37531],[16.89712,69.37491],[16.90028,69.3742]],[[16.90926,69.37222],[16.92022,69.37556],[16.92288,69.37782],[16.92796,69.37982],[16.932,69.38289],[16.93256,69.38415],[16.92544,69.38566],[16.91848,69.38785],[16.91982,69.39088],[16.92403,69.39156],[16.92508,69.39214],[16.9285,69.39206]],[[16.93961,69.39764],[16.93992,69.39583],[16.94244,69.39492],[16.94283,69.39424],[16.94149,69.39329],[16.93928,69.39233],[16.9285,69.39206]],[[17.00181,69.39324],[16.98969,69.39326],[16.98259,69.39415],[16.97541,69.39806]],[[16.93796,69.39848],[16.93655,69.40073],[16.93744,69.40258],[16.93915,69.4036],[16.93881,69.40492],[16.94084,69.40547],[16.94854,69.40452],[16.95152,69.40442],[16.95518,69.40488],[16.9622,69.4037],[16.97541,69.39806]]]}}]}