{"type":"FeatureCollection","features":[{"type":"Feature","properties":{},"geometry":{"type":"MultiLineString","coordinates":[[[17.56098,69.0354],[17.56497,69.03611]],[[17.67403,69.07675],[17.67723,69.07704],[17.67982,69.07807],[17.68091,69.07917]],[[17.69351,69.08576],[17.69512,69.08603]],[[17.71658,69.11878],[17.71711,69.11862]],[[17.72216,69.11869],[17.71711,69.11862]],[[17.70775,69.11892],[17.71231,69.11935],[17.71658,69.11878]],[[17.92175,69.23383],[17.91723,69.23394]],[[17.49608,68.99877],[17.50104,69.00082]],[[17.34191,68.99866],[17.34625,69.00191],[17.35677,69.0059]],[[17.35677,69.0059],[17.36034,69.00858],[17.36293,69.01273],[17.36194,69.01381]],[[17.53409,69.01622],[17.53182,69.01462],[17.52479,69.01226],[17.51887,69.0085],[17.51401,69.00642],[17.51111,69.00362],[17.50104,69.00082]],[[17.24732,69.0202],[17.24494,69.02048],[17.24527,69.0223],[17.24437,69.02308],[17.24725,69.0237],[17.24463,69.0254],[17.24423,69.02666],[17.24541,69.02742],[17.24798,69.02788],[17.25292,69.02631],[17.25314,69.02587],[17.24917,69.02395],[17.24949,69.02337],[17.2516,69.02276],[17.25176,69.02205],[17.24898,69.02128],[17.24732,69.0202]],[[17.46106,69.02938],[17.45424,69.02379],[17.45007,69.0212],[17.44823,69.01818],[17.43666,69.01167],[17.43728,69.01102],[17.4417,69.01147],[17.4416,69.01021],[17.43618,69.00691],[17.43095,69.00491],[17.42688,69.00229],[17.41895,68.99909]],[[17.22724,69.03609],[17.23021,69.03375],[17.22946,69.0301],[17.23066,69.02918],[17.22985,69.02784],[17.226,69.02683],[17.22564,69.02557]],[[17.35524,69.03437],[17.35269,69.03291],[17.35098,69.03025],[17.35385,69.02834],[17.35294,69.02437],[17.35621,69.02052],[17.35783,69.01617],[17.36194,69.01381]],[[17.46106,69.02938],[17.46254,69.03087],[17.4678,69.03279]],[[17.5497,69.03159],[17.54878,69.03042],[17.54335,69.0285],[17.54283,69.02637],[17.53921,69.02539],[17.53802,69.02376],[17.53252,69.01962],[17.53425,69.01726],[17.53409,69.01622]],[[17.47207,69.03502],[17.4678,69.03279]],[[17.5497,69.03159],[17.55386,69.03404],[17.56098,69.0354]],[[17.48815,69.03512],[17.48517,69.03532],[17.48573,69.03619],[17.48881,69.03631],[17.48815,69.03512]],[[17.47207,69.03502],[17.47769,69.03717],[17.48167,69.0373],[17.48555,69.03842]],[[17.48555,69.03842],[17.49127,69.03725],[17.49463,69.03728],[17.49717,69.03806],[17.5053,69.03823]],[[17.52562,69.04424],[17.52387,69.04375],[17.51966,69.04049],[17.5168,69.03954],[17.50886,69.03819],[17.5053,69.03823]],[[17.52891,69.04855],[17.52777,69.04636],[17.52868,69.04506],[17.52562,69.04424]],[[17.35524,69.03437],[17.358,69.0363],[17.3675,69.03943],[17.37443,69.04314],[17.37975,69.05016],[17.38006,69.05361],[17.38194,69.05623]],[[17.53954,69.05795],[17.53663,69.05689],[17.53684,69.05572],[17.53792,69.05512],[17.5346,69.05371],[17.53175,69.0505],[17.52891,69.04855]],[[17.56497,69.03611],[17.58519,69.04102],[17.59444,69.04247],[17.59641,69.04356],[17.5977,69.04568],[17.60207,69.04654],[17.60749,69.0487],[17.60832,69.05107],[17.61229,69.05357],[17.61954,69.05667],[17.62723,69.059],[17.6316,69.06116],[17.63342,69.06147]],[[17.63342,69.06147],[17.63859,69.06194],[17.64062,69.06343]],[[17.25709,69.0617],[17.2565,69.06234],[17.2536,69.06207],[17.2532,69.06303],[17.25493,69.06485],[17.25402,69.06738],[17.25791,69.06967]],[[17.25791,69.06967],[17.26053,69.07089],[17.2615,69.06958],[17.26339,69.06927],[17.26122,69.06756],[17.26209,69.06602],[17.26019,69.06438],[17.26055,69.06372],[17.25709,69.0617]],[[17.65657,69.0702],[17.65114,69.06859],[17.64358,69.06528],[17.64062,69.06343]],[[17.41031,69.07848],[17.40017,69.07372],[17.3985,69.07006],[17.39333,69.06802],[17.39302,69.06708],[17.38895,69.06504],[17.39011,69.06315],[17.38913,69.06157],[17.38194,69.05623]],[[17.55116,69.07644],[17.55246,69.0753],[17.55299,69.07321],[17.55186,69.07027],[17.55463,69.06878],[17.55204,69.06507],[17.55342,69.06439],[17.53889,69.0616],[17.53921,69.06123],[17.54766,69.06182],[17.54563,69.06069],[17.54113,69.05949],[17.54123,69.05853],[17.54353,69.05892],[17.54427,69.05873],[17.54,69.05691],[17.53954,69.05795]],[[17.6674,69.07467],[17.66595,69.0734],[17.66196,69.07237],[17.65757,69.07191],[17.65657,69.0702]],[[17.6674,69.07467],[17.6697,69.07614],[17.67403,69.07675]],[[17.41031,69.07848],[17.41249,69.07951],[17.43084,69.08245],[17.43758,69.08446],[17.44119,69.08506],[17.46259,69.08487],[17.47059,69.08662],[17.48806,69.0866],[17.49613,69.08733],[17.49918,69.08677],[17.50188,69.08515],[17.50454,69.08555],[17.50499,69.08652],[17.50795,69.08696],[17.50903,69.08675],[17.50913,69.08573],[17.51074,69.08578]],[[17.68091,69.07917],[17.68238,69.08123],[17.68817,69.08479],[17.69351,69.08576]],[[17.67118,69.08996],[17.67309,69.08936],[17.67678,69.08919]],[[17.68594,69.09047],[17.69418,69.08744]],[[17.68594,69.09047],[17.68246,69.09089],[17.679,69.0895],[17.67678,69.08919]],[[17.67118,69.08996],[17.66031,69.09387]],[[17.51074,69.08578],[17.51584,69.0863],[17.52288,69.08829],[17.53189,69.08913],[17.53467,69.08989],[17.53633,69.09118],[17.5462,69.09167],[17.55257,69.0925],[17.55892,69.0926],[17.57304,69.09452],[17.58331,69.09546],[17.58563,69.09621],[17.58765,69.09634],[17.58803,69.09589],[17.58567,69.09486],[17.57854,69.09402],[17.57939,69.09315],[17.58574,69.09333],[17.58484,69.09188],[17.58653,69.0905],[17.58627,69.08967],[17.58189,69.08934],[17.56887,69.08576],[17.56702,69.0857],[17.56706,69.08654],[17.56624,69.08673],[17.55686,69.08573],[17.55848,69.08452],[17.55648,69.08407],[17.55566,69.08471],[17.55405,69.08476],[17.55237,69.08391],[17.55469,69.08346],[17.55403,69.08283],[17.55008,69.0836],[17.54841,69.08324],[17.54798,69.08266],[17.55116,69.08182],[17.55116,69.08133],[17.54829,69.08133],[17.54677,69.08084],[17.54497,69.07966],[17.54473,69.07853],[17.55116,69.07644]],[[17.63746,69.09507],[17.64222,69.09698],[17.64837,69.09791],[17.65242,69.09719],[17.65275,69.09519],[17.66031,69.09387]],[[17.63746,69.09507],[17.62801,69.09341],[17.6217,69.0931],[17.62326,69.09383],[17.6263,69.09735],[17.63476,69.10154],[17.63634,69.10461],[17.6388,69.10616]],[[17.27284,69.11218],[17.27079,69.10636],[17.26907,69.1053],[17.26497,69.10488],[17.26133,69.10286]],[[17.75083,69.11436],[17.75665,69.11496],[17.75851,69.11613],[17.76043,69.11574],[17.76202,69.11614]],[[17.28852,69.11583],[17.28443,69.11395],[17.27694,69.11387],[17.2744,69.11288]],[[17.76594,69.11731],[17.76202,69.11614]],[[17.32333,69.12455],[17.30303,69.11894],[17.29595,69.11639],[17.29192,69.11636],[17.28852,69.11583]],[[17.70775,69.11892],[17.70194,69.11797],[17.69484,69.11595],[17.68798,69.11491],[17.68433,69.11502],[17.67707,69.11333],[17.66593,69.11166],[17.65828,69.10951],[17.65554,69.10942],[17.65101,69.10841],[17.64817,69.10887],[17.64501,69.10863],[17.6388,69.10616]],[[17.73237,69.11853],[17.73074,69.11823],[17.72718,69.11861]],[[17.7368,69.11846],[17.73574,69.11847]],[[17.75083,69.11436],[17.74751,69.11507],[17.74557,69.11673],[17.74229,69.11753],[17.74085,69.11839]],[[17.79255,69.11756],[17.78979,69.11586],[17.78659,69.1154],[17.77663,69.11589],[17.77328,69.11715],[17.76994,69.11762],[17.76594,69.11731]],[[17.72216,69.11869],[17.72718,69.11861]],[[17.73237,69.11853],[17.73433,69.11881],[17.73574,69.11847]],[[17.7368,69.11846],[17.73896,69.11912],[17.74085,69.11839]],[[17.79255,69.11756],[17.79719,69.11972]],[[17.85252,69.12782],[17.85405,69.12771]],[[17.79719,69.11972],[17.80385,69.12236],[17.81385,69.12432],[17.81768,69.12567],[17.82157,69.12645],[17.8296,69.12706],[17.83351,69.12814],[17.84062,69.12903],[17.84757,69.12903],[17.85252,69.12782]],[[17.85405,69.12771],[17.85617,69.12789],[17.85995,69.12928],[17.86925,69.13036],[17.87967,69.13285],[17.89396,69.13409]],[[17.42836,69.14028],[17.42705,69.13954],[17.42046,69.13891],[17.41757,69.13939],[17.41573,69.13927],[17.41117,69.14075],[17.40596,69.14138],[17.40742,69.14238],[17.40524,69.14318],[17.40546,69.14387],[17.40655,69.14464],[17.40869,69.14498]],[[17.42023,69.14571],[17.42299,69.14585]],[[17.40869,69.14498],[17.41642,69.14605],[17.42023,69.14571]],[[17.46265,69.1453],[17.46492,69.14526],[17.46484,69.1447],[17.46005,69.14409],[17.4592,69.14531],[17.46132,69.14728],[17.46267,69.14676],[17.46265,69.1453]],[[17.42299,69.14585],[17.43256,69.14844],[17.43505,69.14742],[17.43947,69.14782],[17.44348,69.14709],[17.44766,69.14618],[17.44986,69.14504],[17.44745,69.14363],[17.44716,69.14203],[17.44171,69.13989],[17.44035,69.13871],[17.4382,69.13866],[17.43657,69.13919],[17.43727,69.13999],[17.43596,69.14039],[17.43011,69.13985],[17.43002,69.14049],[17.43288,69.1416],[17.43243,69.14197],[17.42805,69.14061],[17.42836,69.14028]],[[17.45479,69.14859],[17.45368,69.14804],[17.44881,69.14851],[17.44774,69.1493],[17.45094,69.14957],[17.45479,69.14859]],[[17.44349,69.14884],[17.43641,69.14874],[17.43402,69.14909],[17.43759,69.14976],[17.44313,69.14968],[17.4442,69.1491],[17.44349,69.14884]],[[17.47138,69.15035],[17.4741,69.14917],[17.4742,69.1485],[17.47146,69.14896],[17.46775,69.14844],[17.46709,69.1495],[17.46853,69.15022],[17.47015,69.15018],[17.47123,69.15119],[17.47476,69.15145],[17.47138,69.15035]],[[17.32333,69.12455],[17.33003,69.1292],[17.32624,69.13188],[17.32005,69.13324],[17.3182,69.13617],[17.31637,69.13619],[17.31607,69.13648],[17.31949,69.13705],[17.32105,69.13791],[17.32593,69.13754],[17.33044,69.13875],[17.33017,69.13982],[17.33206,69.14015],[17.35388,69.13905],[17.35693,69.13907],[17.36162,69.13997],[17.37059,69.144],[17.37829,69.14822],[17.3845,69.14967],[17.39014,69.15161],[17.39251,69.15315]],[[17.51866,69.15459],[17.52146,69.15433],[17.52174,69.15397],[17.51856,69.15374]],[[17.51866,69.15459],[17.51567,69.15483],[17.51525,69.15518],[17.51891,69.15679]],[[17.46919,69.15825],[17.46631,69.15843],[17.47339,69.16011],[17.47407,69.15962],[17.47224,69.15863],[17.46919,69.15825]],[[17.89396,69.13409],[17.89691,69.13487],[17.90016,69.13684],[17.90469,69.13728],[17.91074,69.14041],[17.92548,69.14523],[17.93575,69.14661],[17.93973,69.1462],[17.94277,69.14541],[17.95023,69.14538],[17.96406,69.14908],[17.97092,69.1495],[17.9754,69.15104],[17.9826,69.15196],[17.98538,69.15289],[17.98867,69.15236],[17.9961,69.1527],[18.00631,69.14958]],[[17.51891,69.15679],[17.52015,69.15706],[17.52544,69.15675],[17.53044,69.15923],[17.53438,69.15935],[17.53809,69.15998],[17.54702,69.15822],[17.55179,69.15839],[17.55777,69.15774],[17.56186,69.15858],[17.56482,69.15864],[17.56926,69.15744],[17.57036,69.15874],[17.57272,69.15941],[17.57739,69.16017],[17.5851,69.16029],[17.5884,69.15976],[17.59012,69.15868],[17.59236,69.15825],[17.59684,69.15895],[17.59849,69.16131],[17.60279,69.16157],[17.60731,69.16078],[17.61236,69.1581],[17.60858,69.1539],[17.61129,69.15218],[17.60692,69.14877],[17.60975,69.14813],[17.61009,69.14749],[17.61798,69.14695],[17.64417,69.15054]],[[17.40932,69.16577],[17.41016,69.16535],[17.4089,69.1647],[17.40408,69.16376],[17.401,69.16401],[17.39947,69.16324],[17.39975,69.16198],[17.40586,69.16067],[17.40619,69.15981],[17.4041,69.15816],[17.39891,69.15749],[17.3952,69.15635],[17.39396,69.15489],[17.39472,69.15393],[17.39251,69.15315]],[[17.51856,69.15374],[17.51546,69.15391],[17.51246,69.15353],[17.5105,69.1519],[17.50726,69.15126],[17.50626,69.15141],[17.50642,69.15252],[17.50393,69.15281],[17.49856,69.14947],[17.49209,69.14728],[17.48879,69.14759],[17.48388,69.14653],[17.48309,69.14753],[17.48358,69.14901],[17.48189,69.14932],[17.4811,69.14884],[17.47855,69.14966],[17.4789,69.15024],[17.48219,69.15142],[17.48142,69.15331],[17.48619,69.15532],[17.48491,69.15703],[17.48883,69.15922],[17.49189,69.16055],[17.50319,69.16284],[17.50577,69.164],[17.51331,69.1654],[17.51556,69.16536],[17.51644,69.16471],[17.51589,69.16378],[17.51325,69.16245],[17.51295,69.16175],[17.51919,69.1592]],[[17.49671,69.16699],[17.49041,69.16527],[17.48763,69.16573],[17.48456,69.16535],[17.48588,69.16331],[17.47909,69.16072],[17.47579,69.16076],[17.46776,69.15989],[17.4668,69.16042],[17.47122,69.16084],[17.4722,69.16138],[17.47035,69.16178],[17.46401,69.16112],[17.46108,69.16143],[17.46421,69.1628],[17.46388,69.16331],[17.46675,69.16439],[17.4696,69.16413],[17.47182,69.1649],[17.47621,69.16545],[17.4792,69.16625],[17.48458,69.1667],[17.48557,69.16715]],[[17.52929,69.16651],[17.52914,69.16018],[17.52509,69.15898],[17.52118,69.15886],[17.51919,69.1592]],[[17.70328,69.16387],[17.69198,69.16091],[17.681,69.15991],[17.6744,69.15875],[17.66084,69.15377],[17.65383,69.15192],[17.64417,69.15054]],[[17.85284,69.16145],[17.84308,69.1595],[17.8356,69.15853],[17.82691,69.15885],[17.81905,69.15798],[17.80987,69.16106],[17.80779,69.16092],[17.80236,69.16228]],[[17.80236,69.16228],[17.79807,69.16249]],[[17.77184,69.16381],[17.77742,69.16305],[17.79807,69.16249]],[[17.48557,69.16715],[17.48686,69.16786],[17.48607,69.16882],[17.48687,69.16936],[17.49027,69.16987],[17.49371,69.17105],[17.49699,69.17075],[17.49494,69.16892],[17.4975,69.16749],[17.49671,69.16699]],[[17.70328,69.16387],[17.70506,69.1647],[17.70676,69.16477],[17.71056,69.16578],[17.71438,69.16797],[17.72046,69.1688]],[[17.72046,69.1688],[17.72563,69.16878],[17.73056,69.16932],[17.74105,69.16735],[17.75452,69.16671],[17.76005,69.1661],[17.76365,69.16503],[17.77184,69.16381]],[[17.85284,69.16145],[17.86485,69.16369],[17.87246,69.16606],[17.87894,69.16664],[17.88192,69.16613],[17.88599,69.16796],[17.89202,69.16864],[17.89872,69.1699]],[[17.52126,69.17711],[17.52379,69.17729],[17.52435,69.17695],[17.52302,69.17616],[17.52516,69.17614],[17.52665,69.17647],[17.52814,69.17779],[17.52999,69.17838],[17.53208,69.1785],[17.5315,69.17712],[17.52766,69.17568],[17.52714,69.1743],[17.53006,69.17372],[17.53052,69.17324],[17.53267,69.17308],[17.53307,69.17267],[17.53022,69.17194],[17.52891,69.17069],[17.5234,69.16928],[17.52538,69.16822],[17.52523,69.16699],[17.52929,69.16651]],[[17.91602,69.17344],[17.91075,69.17233],[17.90549,69.17037],[17.89872,69.1699]],[[17.92837,69.17736],[17.92799,69.17774],[17.92458,69.17752],[17.92145,69.17625],[17.92014,69.17405],[17.91602,69.17344]],[[17.52126,69.17711],[17.51539,69.17626],[17.50855,69.17585],[17.50339,69.17626],[17.49862,69.17563],[17.49404,69.17575],[17.49136,69.17645],[17.49067,69.17947],[17.49734,69.18256],[17.50301,69.18393],[17.50467,69.18483],[17.51453,69.18704],[17.51906,69.18877],[17.52264,69.18898]],[[17.52427,69.20312],[17.53002,69.20168],[17.53337,69.20154],[17.53247,69.2005],[17.53446,69.19956],[17.53354,69.19799],[17.53622,69.19639],[17.53964,69.19649],[17.5396,69.19565],[17.54272,69.19462],[17.54334,69.19364],[17.54186,69.19295],[17.53854,69.19304],[17.5362,69.1927],[17.53518,69.19202],[17.53638,69.19102],[17.53074,69.19018],[17.52739,69.1888],[17.52264,69.18898]],[[17.93643,69.19486],[17.94052,69.19657],[17.94872,69.19837],[17.95035,69.19737],[17.9489,69.19553]],[[17.9489,69.19553],[17.95049,69.19402],[17.95164,69.19393],[17.95469,69.195],[17.95945,69.19801],[17.96179,69.19886],[17.97441,69.20006],[17.98096,69.20002],[17.98546,69.19831],[17.98695,69.1967],[18.00238,69.19668]],[[18.00105,69.18934],[17.99603,69.18739],[17.99079,69.18618],[17.98659,69.1839],[17.97837,69.18276],[17.97566,69.1813],[17.96795,69.17975],[17.96425,69.17815],[17.95734,69.17653],[17.94997,69.17599],[17.94437,69.17497],[17.94073,69.17491],[17.9314,69.17331],[17.9235,69.17301],[17.92258,69.17328],[17.92242,69.17441],[17.92706,69.17625],[17.92837,69.17736]],[[17.41096,69.16821],[17.40924,69.16988],[17.41243,69.17233],[17.4152,69.17321],[17.4193,69.17377],[17.42162,69.17491],[17.43314,69.1781],[17.43653,69.17968],[17.44046,69.1805],[17.44149,69.18201],[17.439,69.18408],[17.43891,69.18634],[17.44039,69.18736],[17.43996,69.18815],[17.44249,69.1893],[17.44172,69.19086],[17.45127,69.19364],[17.45126,69.19449],[17.44946,69.1953],[17.45027,69.19584],[17.45424,69.1963],[17.45982,69.19795],[17.45932,69.20028],[17.4625,69.20088],[17.46543,69.20072],[17.47076,69.2026],[17.48322,69.20425],[17.49495,69.20823],[17.49515,69.20667],[17.49347,69.20632],[17.49383,69.20515],[17.49225,69.20399],[17.49449,69.20332],[17.49928,69.20394],[17.50345,69.2029],[17.50662,69.20286],[17.50831,69.20225],[17.51334,69.20209],[17.51823,69.20234],[17.52261,69.20332],[17.52427,69.20312]],[[17.92051,69.2052],[17.92228,69.20455],[17.92812,69.20455],[17.92798,69.20284],[17.93247,69.20249],[17.93478,69.20057],[17.93282,69.19939],[17.93286,69.19588],[17.93407,69.19434],[17.93643,69.19486]],[[17.93437,69.20496],[17.93089,69.20437],[17.93014,69.20458],[17.93093,69.20502]],[[17.93093,69.20502],[17.93498,69.2056],[17.93437,69.20496]],[[17.90467,69.21455],[17.90793,69.21437],[17.91808,69.21644],[17.92022,69.21641],[17.92368,69.21561],[17.92109,69.21275],[17.9196,69.20639],[17.92051,69.2052]],[[17.84692,69.22773],[17.84952,69.22741],[17.85766,69.22839],[17.86173,69.2267],[17.867,69.22298],[17.8726,69.2223],[17.8821,69.21821],[17.89386,69.21495],[17.89752,69.21583],[17.90275,69.21632],[17.9046,69.21541],[17.90467,69.21455]],[[17.8849,69.23298],[17.8895,69.23379],[17.89276,69.23387]],[[17.90725,69.23384],[17.90062,69.2335],[17.89891,69.23405],[17.89741,69.23406],[17.89513,69.23311],[17.89399,69.23381],[17.89276,69.23387]],[[17.911,69.23453],[17.90725,69.23384]],[[17.91723,69.23394],[17.911,69.23453]],[[17.94921,69.23471],[17.94703,69.23466],[17.94699,69.23514],[17.94881,69.23595],[17.95053,69.23601],[17.95023,69.23502],[17.94921,69.23471]],[[17.84722,69.22793],[17.85507,69.23021],[17.8656,69.23094],[17.86309,69.23173],[17.8638,69.23324],[17.86741,69.23434],[17.86509,69.23642],[17.86952,69.23827],[17.87288,69.23903],[17.8757,69.23773],[17.87634,69.23655],[17.8778,69.23631],[17.87493,69.23428],[17.87509,69.23271],[17.8792,69.23229],[17.8849,69.23298]],[[17.92175,69.23383],[17.92329,69.23346],[17.92832,69.23368],[17.93962,69.23801],[17.94547,69.23949],[17.94902,69.24097],[17.9507,69.24087]],[[18.00458,69.23023],[17.99236,69.2268],[17.99022,69.22682],[17.98936,69.22784],[17.98711,69.22791],[17.98006,69.22635],[17.9789,69.22631],[17.97828,69.22679],[17.97698,69.22667],[17.9749,69.22579],[17.97045,69.22809],[17.97513,69.22929],[17.97322,69.23158],[17.97345,69.2325],[17.9717,69.2334],[17.9719,69.23535],[17.98539,69.24329]],[[17.96121,69.24939],[17.95729,69.2455],[17.95783,69.24371],[17.9542,69.24077],[17.9507,69.24087]],[[17.99356,69.24883],[17.99091,69.24606],[17.99228,69.24574],[17.99215,69.24534],[17.98539,69.24329]],[[17.41096,69.16821],[17.41405,69.16683],[17.41648,69.16718],[17.41744,69.16692],[17.41492,69.16587],[17.41238,69.16615],[17.41118,69.16685],[17.40916,69.16613]],[[17.99863,69.26147],[17.99861,69.26053]],[[17.9839,69.32529],[17.9818,69.32532],[17.98216,69.32686],[17.98383,69.32659],[17.9839,69.32529]],[[17.9483,69.33923],[17.94376,69.33936],[17.94075,69.33888],[17.93943,69.33953]],[[17.96823,69.63091],[17.96737,69.63102],[17.96761,69.63176],[17.97276,69.6319],[17.97309,69.63138],[17.96823,69.63091]],[[17.99942,69.25326],[17.99356,69.24883]],[[17.99942,69.25326],[17.99916,69.25427],[18.00074,69.25604]],[[18.00074,69.25604],[17.99895,69.25717],[17.99796,69.25886],[17.99861,69.26053]],[[17.99863,69.26147],[17.99674,69.26245],[17.99685,69.26342],[17.99894,69.26434],[17.99899,69.26498],[17.99794,69.26552],[17.99366,69.26581],[17.9943,69.26634]],[[17.94464,69.26563],[17.94568,69.26377],[17.94012,69.26107],[17.93942,69.25864],[17.94131,69.25794],[17.94401,69.25768],[17.94677,69.25778],[17.94756,69.25835],[17.956,69.25757],[17.96348,69.25746],[17.96493,69.25128],[17.96345,69.24986],[17.96121,69.24939]],[[17.94287,69.26728],[17.94175,69.26678],[17.94213,69.26643],[17.94722,69.26835],[17.9492,69.26841],[17.94626,69.26708],[17.94464,69.26563]],[[17.9943,69.26634],[17.99322,69.26717],[17.99062,69.26751],[17.99126,69.26868],[17.98597,69.27124],[17.9853,69.27434]],[[17.99101,69.28716],[17.9894,69.28116],[17.98646,69.27782],[17.9853,69.27434]],[[17.99452,69.2937],[17.99169,69.29083],[17.99244,69.28946],[17.99101,69.28716]],[[17.99452,69.2937],[17.99392,69.29601]],[[17.99392,69.29601],[17.99334,69.2968],[17.99695,69.29999]],[[17.99695,69.29999],[17.99645,69.30163],[17.99262,69.30531],[17.98888,69.30652],[17.98459,69.30697],[17.98408,69.30775],[17.98607,69.30867],[17.98912,69.3078],[17.99363,69.30851],[17.99486,69.30913],[17.99392,69.31017],[17.99464,69.31076],[18.00244,69.30953]],[[17.9483,69.33923],[17.95363,69.33907],[17.95491,69.33789],[17.95777,69.33922]],[[17.97122,69.34367],[17.95961,69.34085],[17.95777,69.33922]],[[17.97122,69.34367],[17.97894,69.34679],[17.98183,69.34587]],[[17.98183,69.34587],[17.97911,69.34329],[17.98153,69.3429],[17.98759,69.34454],[17.99368,69.34505],[18.00005,69.34713]],[[17.98843,69.40877],[17.98549,69.40873],[17.9846,69.4095],[17.98675,69.41062],[17.98875,69.40968],[17.98843,69.40877]],[[17.95292,69.42349],[17.95118,69.42241],[17.94693,69.42179],[17.94587,69.4239],[17.94369,69.42378],[17.94256,69.42315],[17.94132,69.42494],[17.93909,69.42537],[17.93793,69.42521],[17.93639,69.42339]],[[17.95292,69.42349],[17.95416,69.42491],[17.95893,69.4263],[17.96122,69.42893]],[[18.00612,69.42718],[17.99744,69.42375],[17.99862,69.4227],[17.99806,69.42142],[17.99293,69.4171],[17.99625,69.41391],[17.99653,69.41188],[17.99505,69.41041],[17.99631,69.40927],[18.0027,69.40643]],[[18.00253,69.40595],[17.99814,69.40427],[17.99089,69.40474],[17.98546,69.40466],[17.98103,69.40551],[17.97075,69.40595],[17.96626,69.40691],[17.96488,69.40959],[17.9596,69.41067],[17.95695,69.41391],[17.9519,69.41585],[17.94634,69.42079],[17.94476,69.42134],[17.94276,69.42145],[17.93907,69.42106],[17.93787,69.42279],[17.93677,69.42295]],[[17.96758,69.43698],[17.96802,69.43648],[17.96357,69.43536],[17.96503,69.43189],[17.96122,69.42893]],[[18.00476,69.4533],[17.99813,69.44918],[17.99499,69.44628],[17.99551,69.44557],[17.99382,69.44559],[17.9929,69.44481],[17.99286,69.44181],[17.99071,69.44112],[17.98882,69.44153],[17.98533,69.44148],[17.97562,69.44049],[17.97379,69.4395],[17.96837,69.43946],[17.96723,69.43799],[17.96758,69.43698]],[[17.94904,69.5189],[17.9475,69.51754],[17.94572,69.51735]],[[17.95914,69.51873],[17.95978,69.51622],[17.95479,69.51575],[17.95304,69.51727],[17.94966,69.51889]],[[17.97913,69.51839],[17.98572,69.51747],[17.98814,69.5164],[17.9901,69.51446],[17.99612,69.51254],[18.00059,69.51212]],[[17.94904,69.5189],[17.94966,69.51889]],[[17.95914,69.51873],[17.95873,69.52048],[17.96064,69.52133],[17.96269,69.52159],[17.96469,69.52097],[17.96689,69.51938],[17.97354,69.51851],[17.97913,69.51839]],[[17.99216,69.62043],[17.99151,69.6193],[17.98902,69.61982],[17.98727,69.61935],[17.98458,69.6202],[17.98528,69.62055],[17.99125,69.62089],[17.99216,69.62043]],[[17.99235,69.62285],[17.99192,69.62167],[17.99088,69.62135],[17.98697,69.62134],[17.98502,69.62197],[17.98559,69.62249],[17.98867,69.62304],[17.99235,69.62285]],[[17.95478,69.63549],[17.95283,69.63512],[17.95251,69.63632],[17.95568,69.63632],[17.95478,69.63549]],[[17.96248,69.63833],[17.95452,69.63849],[17.95813,69.63977],[17.95289,69.64061],[17.95204,69.64158],[17.95383,69.64365],[17.95043,69.64286],[17.94924,69.64303],[17.94887,69.64388],[17.95111,69.64451],[17.95307,69.64436],[17.9542,69.64384],[17.95494,69.64528],[17.95608,69.64556],[17.95694,69.64494],[17.96003,69.64458],[17.96181,69.64382],[17.96304,69.64234]],[[17.96304,69.64234],[17.96465,69.6424],[17.96584,69.64394],[17.96823,69.64432],[17.96754,69.64599],[17.96942,69.64814],[17.97069,69.64856],[17.97835,69.64731],[17.98312,69.6458],[17.98481,69.64369],[17.9869,69.64434],[17.9877,69.64524],[17.99171,69.64543],[17.99123,69.64596],[17.98868,69.64628],[17.98822,69.64728],[17.99527,69.64669],[17.99359,69.64555],[17.99438,69.64394],[17.9955,69.64406],[17.99682,69.64519],[17.99872,69.64548],[18.00413,69.64507]],[[18.0005,69.642],[17.99718,69.64247],[17.99545,69.64201],[17.99512,69.64129],[17.9902,69.64082],[17.98783,69.64005],[17.98844,69.63968],[17.99066,69.64019],[17.99075,69.63886],[17.99186,69.63817],[17.99845,69.63753],[17.99877,69.63651],[17.99408,69.63462],[17.99582,69.63388],[17.99744,69.63387],[18.00002,69.63262]],[[18,69.63063],[17.99736,69.63098],[17.99778,69.63169],[17.99438,69.63317],[17.99183,69.63344],[17.98943,69.63324],[17.98844,69.63427],[17.99074,69.63491],[17.98929,69.63587],[17.9854,69.63551],[17.97708,69.63127],[17.97405,69.63114],[17.97364,69.63178],[17.97765,69.63397],[17.96838,69.63364],[17.96768,69.6347],[17.9687,69.63566],[17.96692,69.63644],[17.9637,69.63689],[17.96382,69.63761],[17.96248,69.63833]],[[17.98714,69.64881],[17.98935,69.64886],[17.98968,69.6485],[17.98554,69.64776],[17.98246,69.64874],[17.98344,69.64951],[17.9774,69.65028],[17.98026,69.65122],[17.98406,69.65084],[17.98714,69.64881]],[[17.89332,69.27567],[17.89414,69.2771]],[[17.91594,69.29861],[17.91361,69.29962],[17.91305,69.30142]],[[17.90098,69.3036],[17.8967,69.30125]],[[17.92316,69.3298],[17.91979,69.32717]],[[17.93203,69.33966],[17.93896,69.33993]],[[17.4709,69.43758],[17.47326,69.43655]],[[17.87806,69.44766],[17.87789,69.44776]],[[17.80764,69.46294],[17.81044,69.46304]],[[17.81133,69.46103],[17.81142,69.46088]],[[17.81035,69.46233],[17.81239,69.46189],[17.81245,69.46133],[17.81133,69.46103]],[[17.81035,69.46233],[17.80874,69.46241]],[[17.29395,69.47564],[17.29408,69.47551]],[[17.48965,69.48573],[17.49242,69.48728]],[[17.68408,69.52318],[17.68998,69.52174]],[[17.91962,69.52096],[17.91969,69.5194]],[[17.63012,69.52692],[17.63253,69.52396]],[[17.57187,69.56974],[17.57838,69.56829],[17.58208,69.56685]],[[17.66152,69.5684],[17.663,69.56345]],[[17.85518,69.56464],[17.8514,69.56541]],[[17.91281,69.27532],[17.90891,69.2744],[17.90584,69.27204],[17.9004,69.27268],[17.89972,69.27137],[17.89818,69.27056],[17.89385,69.27129]],[[17.89332,69.27567],[17.8901,69.273],[17.89072,69.27193],[17.89385,69.27129]],[[17.91281,69.27532],[17.923,69.27678],[17.92901,69.27426],[17.93674,69.27448],[17.93908,69.27489],[17.94133,69.27325],[17.94538,69.27291],[17.94639,69.27244],[17.94628,69.27148],[17.94274,69.26916],[17.94338,69.26868],[17.94578,69.26936],[17.94628,69.26861],[17.94287,69.26728]],[[17.89414,69.2771],[17.89989,69.2832],[17.9044,69.28376],[17.90651,69.28516],[17.91208,69.28617],[17.91283,69.28577],[17.90973,69.2836],[17.91147,69.28297],[17.91388,69.28326]],[[17.91844,69.29011],[17.9188,69.28923],[17.9203,69.29017],[17.92305,69.2907],[17.91957,69.28638],[17.91612,69.28501],[17.91388,69.28326]],[[17.91914,69.29499],[17.9193,69.2913],[17.91844,69.29011]],[[17.91594,69.29861],[17.9174,69.29771],[17.91914,69.29499]],[[17.89411,69.30133],[17.89508,69.30085],[17.8967,69.30125]],[[17.90098,69.3036],[17.9033,69.30444],[17.90521,69.30384],[17.90461,69.30304],[17.90529,69.30268],[17.91135,69.3033],[17.91305,69.30142]],[[17.91852,69.31777],[17.92099,69.31768],[17.92217,69.31699],[17.92129,69.31521],[17.9181,69.31459]],[[17.89411,69.30133],[17.89418,69.30316],[17.89671,69.30412],[17.89684,69.30467],[17.89419,69.30497],[17.89222,69.30478],[17.89054,69.30702],[17.88669,69.3078],[17.88969,69.30899],[17.88714,69.31054],[17.8904,69.31067],[17.89141,69.31011],[17.89368,69.3109],[17.88069,69.31169],[17.87649,69.31277],[17.87714,69.31415],[17.87601,69.31486],[17.87815,69.31666],[17.87578,69.3175],[17.87559,69.31809],[17.87871,69.3186],[17.88082,69.31713],[17.88413,69.31699],[17.88613,69.31757],[17.8836,69.31865],[17.89384,69.31934],[17.89751,69.32014],[17.89922,69.32009],[17.9008,69.31784],[17.90809,69.31779],[17.90964,69.31723],[17.90818,69.31639],[17.90861,69.31586],[17.91134,69.31672],[17.91385,69.31653],[17.91592,69.31588],[17.91494,69.3147],[17.9181,69.31459]],[[17.91852,69.31777],[17.91199,69.31783],[17.91022,69.31901],[17.91076,69.32023]],[[17.91076,69.32023],[17.91385,69.32126],[17.91384,69.3225],[17.91221,69.3233],[17.90896,69.3234],[17.90866,69.3237],[17.91057,69.32432],[17.91473,69.32476],[17.91979,69.32717]],[[17.92534,69.33349],[17.92316,69.3298]],[[17.92534,69.33349],[17.92776,69.33492],[17.92996,69.3385],[17.93203,69.33966]],[[17.40374,69.36636],[17.40165,69.36782]],[[17.40165,69.36782],[17.39962,69.36925]],[[17.3217,69.39377],[17.32629,69.3921],[17.32897,69.39031],[17.33251,69.38632],[17.35423,69.37892],[17.35822,69.37838],[17.35847,69.37762],[17.3664,69.374],[17.36804,69.37249],[17.3712,69.37211],[17.38734,69.36414],[17.39366,69.36184],[17.39647,69.36166],[17.39655,69.36251],[17.40409,69.36483]],[[17.34136,69.39351],[17.34113,69.39221],[17.3396,69.39224],[17.33564,69.39359]],[[17.34576,69.39345],[17.34951,69.39248],[17.35242,69.39261],[17.35496,69.39189],[17.36327,69.39189],[17.37108,69.39244],[17.37166,69.39198],[17.38236,69.39012],[17.39296,69.39018],[17.39995,69.3885],[17.40588,69.3863],[17.41086,69.38589],[17.41159,69.38491],[17.40876,69.3803],[17.40456,69.37969],[17.40363,69.37864],[17.40414,69.37765],[17.40616,69.37659],[17.40616,69.37495],[17.39888,69.37018],[17.39962,69.36925]],[[17.34136,69.39351],[17.34282,69.39384],[17.34576,69.39345]],[[17.29275,69.4024],[17.29518,69.40157],[17.30514,69.39973],[17.3217,69.39377]],[[17.2931,69.40573],[17.29549,69.40434],[17.29553,69.40334],[17.2976,69.40241],[17.3052,69.40117],[17.30945,69.40138],[17.31454,69.39999],[17.33125,69.39664],[17.33424,69.39591],[17.3346,69.3942],[17.33564,69.39359]],[[17.33301,69.40394],[17.33631,69.40285],[17.33906,69.40291],[17.34337,69.40221],[17.33873,69.40449],[17.33612,69.40498],[17.33648,69.40628]],[[17.33301,69.40394],[17.31957,69.40834],[17.31893,69.40796],[17.32206,69.40635],[17.31486,69.40293],[17.31114,69.40219],[17.30508,69.40342],[17.29688,69.40626],[17.29324,69.407]],[[17.2931,69.40573],[17.28272,69.40794],[17.28212,69.40837],[17.28628,69.40882],[17.28979,69.40751],[17.29324,69.407]],[[17.29384,69.41267],[17.2973,69.41155],[17.2961,69.4109],[17.29363,69.41066]],[[17.29363,69.41066],[17.28972,69.41082],[17.28683,69.41206],[17.28062,69.41279],[17.27946,69.41446],[17.28261,69.41468],[17.29384,69.41267]],[[17.2946,69.41985],[17.30084,69.41698],[17.30111,69.41631],[17.30341,69.41592],[17.30625,69.41476],[17.30832,69.41464],[17.31659,69.41118],[17.31929,69.41095],[17.32564,69.40918],[17.33235,69.40888],[17.33254,69.40801],[17.33046,69.40694],[17.33211,69.40607],[17.33364,69.40584],[17.33571,69.40646],[17.33648,69.40628]],[[17.2946,69.41985],[17.29363,69.42113],[17.29496,69.42322]],[[17.29496,69.42322],[17.29713,69.42433],[17.29894,69.42369],[17.30091,69.42359],[17.31073,69.42598],[17.31449,69.42555],[17.32172,69.42256],[17.32682,69.41962],[17.33094,69.41898],[17.33362,69.41679],[17.33615,69.41599],[17.33644,69.41424],[17.34008,69.41362],[17.34357,69.41402],[17.34502,69.41493],[17.34885,69.41469],[17.35246,69.41511],[17.35365,69.4157],[17.3532,69.41654],[17.35398,69.41696],[17.35851,69.41654],[17.36146,69.41741],[17.3641,69.41769],[17.38432,69.4181],[17.39737,69.42055],[17.40169,69.42068],[17.40504,69.42035],[17.4091,69.41897],[17.41627,69.41911],[17.41895,69.42026],[17.41983,69.42543],[17.42098,69.4261],[17.42288,69.4264]],[[17.40469,69.43751],[17.39645,69.43565],[17.3893,69.43454],[17.38084,69.43475],[17.36626,69.43598],[17.3616,69.4367],[17.35612,69.43818]],[[17.47326,69.43655],[17.47494,69.43556],[17.47925,69.4345],[17.48109,69.433],[17.4855,69.43269],[17.49014,69.43179],[17.49359,69.4283],[17.49768,69.42662],[17.4979,69.42476],[17.49506,69.42339],[17.48809,69.42356],[17.47774,69.42466],[17.46429,69.42758],[17.45857,69.42808],[17.43767,69.42804],[17.42955,69.42738],[17.42288,69.4264]],[[17.40469,69.43751],[17.41436,69.44009],[17.42033,69.44048],[17.42459,69.44158]],[[17.45061,69.4415],[17.45529,69.44],[17.45698,69.44026],[17.45946,69.44001],[17.4709,69.43758]],[[17.30059,69.44384],[17.31187,69.44221],[17.32081,69.44185],[17.32721,69.4411],[17.34516,69.44081],[17.35251,69.43932],[17.35612,69.43818]],[[17.42459,69.44158],[17.43591,69.44211],[17.45061,69.4415]],[[17.29717,69.44387],[17.30059,69.44384]],[[17.29717,69.44387],[17.29401,69.44606],[17.28581,69.44609],[17.2834,69.44669],[17.28001,69.44691]],[[17.88561,69.45146],[17.88275,69.45014],[17.87897,69.44928],[17.87727,69.44949],[17.87522,69.45068],[17.87355,69.45075],[17.87054,69.44894],[17.87271,69.44852],[17.876,69.44914],[17.87441,69.4482],[17.87555,69.44774],[17.87789,69.44776]],[[17.88561,69.45146],[17.8856,69.45268],[17.88352,69.45335],[17.88914,69.45572]],[[17.81142,69.46088],[17.81581,69.45894],[17.81511,69.45783],[17.8187,69.45454],[17.81976,69.45446],[17.82284,69.45681],[17.82548,69.45581],[17.8267,69.45446],[17.83336,69.45428],[17.83595,69.45318],[17.83582,69.4519],[17.83762,69.45155],[17.83946,69.45169],[17.84166,69.45038],[17.84471,69.44985],[17.8449,69.44819],[17.84717,69.44684],[17.85298,69.44653],[17.85942,69.44872],[17.86811,69.4473],[17.87284,69.44772],[17.87306,69.4469],[17.87656,69.44601],[17.87833,69.44657],[17.87806,69.44766]],[[17.30029,69.47305],[17.30635,69.46724],[17.3083,69.46438],[17.31207,69.46314],[17.32282,69.461],[17.32717,69.45911],[17.33086,69.45673]],[[17.29408,69.47551],[17.29595,69.4741],[17.30029,69.47305]],[[17.6453,69.47714],[17.64578,69.47633],[17.64997,69.47455],[17.65623,69.47391],[17.66221,69.47243],[17.67194,69.4721],[17.6773,69.47017],[17.68217,69.46967],[17.6829,69.46906],[17.68175,69.46768],[17.67677,69.46671],[17.67159,69.46644],[17.66311,69.46745],[17.65628,69.46771],[17.6466,69.46624],[17.64109,69.46426],[17.63666,69.46336],[17.6233,69.46212],[17.61144,69.46231],[17.60268,69.46145],[17.60157,69.46095],[17.60128,69.4592],[17.59881,69.4581],[17.5974,69.45819],[17.59571,69.45947],[17.58973,69.46052],[17.58442,69.46092],[17.57901,69.46239],[17.57298,69.46707],[17.56367,69.47144],[17.55596,69.47273]],[[17.28784,69.48395],[17.2932,69.48056],[17.29395,69.47564]],[[17.33175,69.48337],[17.32947,69.48054],[17.32794,69.47643],[17.3292,69.47446],[17.33237,69.47129],[17.33988,69.46796],[17.34058,69.46678],[17.3437,69.46558],[17.34401,69.46391],[17.34765,69.46283],[17.35005,69.46117],[17.35035,69.45809],[17.34627,69.45675],[17.33922,69.45567],[17.33392,69.45554],[17.33086,69.45673]],[[17.36924,69.48287],[17.37213,69.48164]],[[17.40119,69.48243],[17.39995,69.48141],[17.39617,69.48012],[17.39173,69.47961],[17.39176,69.47881],[17.38975,69.47858],[17.3814,69.47947],[17.38073,69.48003],[17.37549,69.48138],[17.37213,69.48164]],[[17.55466,69.48025],[17.554,69.47826],[17.54975,69.47482],[17.55596,69.47273]],[[17.63919,69.47899],[17.6453,69.47714]],[[17.85225,69.47563],[17.85533,69.47327],[17.85724,69.46879],[17.85097,69.46512],[17.84229,69.46263],[17.84047,69.46159],[17.84028,69.46004],[17.84385,69.45839],[17.84289,69.45788],[17.83343,69.45939],[17.82135,69.46248],[17.82052,69.46228],[17.82187,69.46098],[17.8212,69.46012],[17.81684,69.45949],[17.81444,69.4611],[17.81425,69.46264],[17.81044,69.46304]],[[17.88991,69.47501],[17.89143,69.47138],[17.89438,69.46945],[17.89582,69.46572],[17.8944,69.46293],[17.88765,69.4591],[17.89028,69.45697],[17.88914,69.45572]],[[17.33175,69.48337],[17.33139,69.48894],[17.33285,69.48997],[17.33516,69.49009],[17.33905,69.48973],[17.34868,69.48799],[17.35689,69.48594],[17.36392,69.48495],[17.36924,69.48287]],[[17.63919,69.47899],[17.63426,69.48105],[17.62707,69.48306],[17.61908,69.48719]],[[17.65758,69.48854],[17.65915,69.48733],[17.66381,69.48562],[17.67688,69.48214]],[[17.61146,69.49094],[17.61631,69.48951],[17.61908,69.48719]],[[17.49242,69.48728],[17.50203,69.4942]],[[17.38653,69.4954],[17.3985,69.49001],[17.40416,69.48528],[17.40119,69.48243]],[[17.50203,69.4942],[17.50237,69.49595],[17.49864,69.49646],[17.49926,69.49756],[17.50149,69.49815],[17.50625,69.49827],[17.51085,69.49943]],[[17.51085,69.49943],[17.5182,69.49963],[17.52197,69.50038],[17.53958,69.49401],[17.54499,69.49269],[17.55482,69.48938],[17.55717,69.4869],[17.55466,69.48025]],[[17.38653,69.4954],[17.36797,69.50146],[17.36111,69.50499]],[[17.88379,69.50088],[17.8794,69.5003],[17.86995,69.50016],[17.86493,69.49796],[17.85961,69.49647],[17.8524,69.49171],[17.85001,69.48974],[17.84978,69.48804],[17.84442,69.48502],[17.84863,69.47852],[17.85225,69.47563]],[[17.63218,69.50553],[17.63504,69.50419],[17.64239,69.50313],[17.6429,69.50194],[17.64732,69.50084],[17.6489,69.50003],[17.65058,69.49839],[17.65113,69.49475],[17.65758,69.48854]],[[17.62802,69.51217],[17.62818,69.51058],[17.63034,69.50877],[17.62995,69.50817],[17.63218,69.50553]],[[17.90331,69.50861],[17.90573,69.5083],[17.90687,69.50886],[17.90805,69.50881],[17.90604,69.50763],[17.90904,69.50733],[17.90831,69.50702],[17.905,69.50715],[17.90429,69.50503],[17.89798,69.50374],[17.89442,69.50351],[17.89127,69.50209],[17.88379,69.50088]],[[17.4479,69.51629],[17.45045,69.51614],[17.4526,69.51549],[17.45647,69.51531],[17.46043,69.51605],[17.4621,69.51565],[17.46618,69.51556],[17.46879,69.51606],[17.47493,69.51599],[17.47712,69.51693],[17.47905,69.51672],[17.48036,69.51371],[17.49133,69.50833],[17.49071,69.5056],[17.49193,69.50345],[17.48974,69.50087],[17.49297,69.49858],[17.49219,69.49846],[17.49219,69.4972],[17.49397,69.49689],[17.49389,69.49641],[17.48274,69.49335],[17.48025,69.49319],[17.47918,69.49205],[17.48115,69.49033],[17.48615,69.48987],[17.48969,69.48893],[17.48993,69.48847],[17.48748,69.48752],[17.48742,69.48598],[17.48826,69.48555],[17.48965,69.48573]],[[17.67688,69.48214],[17.67885,69.48208],[17.68106,69.48263],[17.68317,69.48584],[17.67963,69.48959],[17.66651,69.49722],[17.65689,69.5147],[17.65715,69.5159],[17.66641,69.51461],[17.67768,69.51245],[17.68874,69.5119]],[[17.56175,69.52119],[17.57264,69.51489],[17.58641,69.50939],[17.59907,69.49736],[17.60645,69.49216],[17.61146,69.49094]],[[17.88991,69.47501],[17.8857,69.47993],[17.88497,69.48337],[17.88871,69.48451],[17.89776,69.48576],[17.90433,69.49008],[17.90594,69.49236],[17.90292,69.49582],[17.91034,69.49708],[17.91208,69.49931],[17.91948,69.49856],[17.92443,69.49863],[17.92611,69.49894],[17.92949,69.50069],[17.93303,69.50293],[17.93991,69.5118],[17.94344,69.51391],[17.94261,69.51594],[17.94348,69.51686],[17.94572,69.51735]],[[17.68998,69.52174],[17.70874,69.51894],[17.71096,69.51786],[17.71156,69.51605],[17.71414,69.51425],[17.71292,69.5125],[17.70633,69.51082],[17.70189,69.51065],[17.68874,69.5119]],[[17.43415,69.52598],[17.44012,69.52248],[17.44061,69.52063],[17.43933,69.51893],[17.4402,69.51712],[17.44396,69.51572],[17.4479,69.51629]],[[17.32106,69.52838],[17.32379,69.52716],[17.32362,69.52632],[17.32601,69.52497],[17.33033,69.52367],[17.33431,69.52042],[17.34568,69.5161],[17.34564,69.51409],[17.34811,69.51117],[17.34769,69.5105],[17.36111,69.50499]],[[17.40373,69.52726],[17.41101,69.52388],[17.41666,69.52234],[17.41947,69.52197],[17.42162,69.52199],[17.42826,69.52363],[17.42965,69.52489],[17.42954,69.52621],[17.4322,69.52645],[17.43415,69.52598]],[[17.55532,69.52511],[17.55822,69.52397],[17.56175,69.52119]],[[17.63253,69.52396],[17.63133,69.52069],[17.63239,69.5182],[17.62911,69.51549],[17.62802,69.51217]],[[17.91969,69.5194],[17.91779,69.51737],[17.90403,69.51235],[17.90236,69.51029],[17.90087,69.50971],[17.90331,69.50861]],[[17.54111,69.52986],[17.5497,69.52733],[17.55532,69.52511]],[[17.91658,69.52622],[17.91928,69.524],[17.91962,69.52096]],[[17.30704,69.53577],[17.30912,69.53465],[17.30807,69.53308],[17.30955,69.532],[17.32106,69.52838]],[[17.62207,69.53181],[17.62577,69.53006],[17.63012,69.52692]],[[17.30704,69.53577],[17.30533,69.53663],[17.30575,69.54018],[17.30755,69.54055]],[[17.91026,69.53516],[17.91101,69.53457],[17.91025,69.53211],[17.9111,69.53016],[17.91269,69.52957],[17.91609,69.52971],[17.91784,69.52884],[17.91658,69.52622]],[[17.30755,69.54055],[17.3089,69.54062],[17.31015,69.54158],[17.31206,69.54157],[17.32023,69.53996],[17.32461,69.53836],[17.32824,69.53779],[17.33232,69.53836],[17.33996,69.538],[17.34086,69.53884],[17.34295,69.53932],[17.34623,69.53832],[17.34881,69.53609],[17.35307,69.53553],[17.36027,69.53275],[17.37357,69.52962],[17.37757,69.52952],[17.38028,69.53021],[17.38413,69.5331],[17.38332,69.53473],[17.38455,69.53532],[17.3958,69.52961],[17.40014,69.52865],[17.40373,69.52726]],[[17.54111,69.52986],[17.52637,69.534],[17.5153,69.53587],[17.50686,69.5379],[17.50222,69.54033],[17.49793,69.5409],[17.49754,69.54136],[17.49965,69.54201],[17.50055,69.54287],[17.50156,69.54621],[17.49765,69.54868]],[[17.65675,69.54655],[17.6605,69.54646],[17.66255,69.54474],[17.66503,69.54446],[17.66574,69.54124],[17.66481,69.54019],[17.66199,69.54075],[17.65782,69.54309],[17.65137,69.54769],[17.65204,69.54878],[17.65421,69.54863],[17.65471,69.54745],[17.65675,69.54655]],[[17.68408,69.52318],[17.6804,69.52478],[17.67729,69.52742],[17.6773,69.53146],[17.67932,69.53592],[17.67638,69.5402],[17.67172,69.54229],[17.67239,69.54306],[17.67047,69.54418],[17.67102,69.54458],[17.66715,69.54915],[17.66715,69.55219]],[[17.92075,69.54864],[17.9225,69.54554],[17.92182,69.54349],[17.92083,69.54277],[17.91678,69.54221],[17.91467,69.53904],[17.91297,69.53836],[17.91026,69.53516]],[[17.66764,69.55323],[17.66715,69.55219]],[[17.91925,69.55091],[17.92075,69.54864]],[[17.59521,69.55596],[17.59753,69.5561],[17.59833,69.55582],[17.60291,69.55267],[17.60336,69.55006],[17.60184,69.54735],[17.60252,69.54376],[17.61038,69.53547],[17.61422,69.53299],[17.61812,69.53238],[17.61968,69.53253],[17.62207,69.53181]],[[17.58918,69.55732],[17.59172,69.55624],[17.59521,69.55596]],[[17.58789,69.56176],[17.58912,69.56036],[17.58918,69.55732]],[[17.663,69.56345],[17.6644,69.5601],[17.66798,69.55565],[17.66764,69.55323]],[[17.89911,69.56061],[17.90045,69.56139],[17.90603,69.5578],[17.90743,69.55797],[17.90776,69.55906],[17.91008,69.55825],[17.91124,69.55734],[17.91168,69.55459],[17.91145,69.55393],[17.90945,69.55356],[17.91012,69.55269],[17.9124,69.55234],[17.91514,69.55287],[17.91925,69.55091]],[[17.58208,69.56685],[17.58474,69.56562],[17.58529,69.56344],[17.58789,69.56176]],[[17.46674,69.57125],[17.47724,69.56474],[17.48063,69.55963],[17.48534,69.5553],[17.48787,69.55351],[17.49765,69.54868]],[[17.72466,69.56743],[17.72736,69.56463]],[[17.80923,69.56609],[17.80732,69.56419],[17.8039,69.56264],[17.80422,69.56133],[17.80196,69.55936],[17.79341,69.55815],[17.79056,69.55609],[17.79311,69.55427],[17.79334,69.55154],[17.79583,69.54995],[17.79489,69.54897],[17.79186,69.54897],[17.79283,69.54624],[17.7973,69.5441],[17.79042,69.54273],[17.79117,69.54134],[17.79362,69.54002],[17.79221,69.53648],[17.79252,69.53404],[17.79008,69.53252],[17.78671,69.53198],[17.78067,69.53291],[17.77808,69.5363],[17.77613,69.53679],[17.77407,69.53857],[17.76659,69.54098],[17.76522,69.54199],[17.76424,69.54184],[17.76326,69.54077],[17.75978,69.54091],[17.75712,69.5416],[17.75439,69.54612],[17.75498,69.54692],[17.75702,69.5471],[17.75026,69.5532],[17.74664,69.55542],[17.74155,69.55733],[17.73974,69.5577],[17.73718,69.55738],[17.73365,69.55784],[17.72736,69.56463]],[[17.86179,69.56524],[17.85886,69.56401],[17.85518,69.56464]],[[17.89298,69.56472],[17.89344,69.56203],[17.89491,69.56059],[17.89755,69.56037],[17.89911,69.56061]],[[17.56761,69.57006],[17.56922,69.57029],[17.57187,69.56974]],[[17.84122,69.56912],[17.84636,69.56616],[17.8514,69.56541]],[[17.80923,69.56609],[17.81035,69.56699],[17.81659,69.5694],[17.81675,69.57037]],[[17.71447,69.57395],[17.71959,69.57111],[17.72479,69.56931],[17.72466,69.56743]],[[17.89084,69.57149],[17.89515,69.56922],[17.89517,69.56864],[17.89386,69.56867],[17.89254,69.5682],[17.89298,69.56472]],[[17.81675,69.57037],[17.815,69.57169],[17.81831,69.57255],[17.81678,69.57355],[17.81887,69.57357],[17.82485,69.5725]],[[17.82485,69.5725],[17.83159,69.57194],[17.82913,69.57369],[17.83212,69.57335],[17.83533,69.57236],[17.84122,69.56912]],[[17.54145,69.57829],[17.54443,69.57604],[17.55294,69.57313],[17.55455,69.57184],[17.56094,69.57029],[17.56445,69.56985],[17.56761,69.57006]],[[17.85254,69.57864],[17.85441,69.57861],[17.85445,69.57936]],[[17.71206,69.58251],[17.7109,69.57847],[17.7118,69.5758],[17.71447,69.57395]],[[17.86179,69.56524],[17.85238,69.57281],[17.85226,69.57387],[17.85379,69.57518],[17.85306,69.57696],[17.85083,69.57807],[17.84927,69.57822],[17.84696,69.57785],[17.84249,69.57891],[17.84209,69.57976],[17.84467,69.57954],[17.84545,69.58041],[17.84752,69.57934],[17.85254,69.57864]],[[17.85445,69.57936],[17.85296,69.58192],[17.8537,69.5822],[17.85731,69.58154],[17.86213,69.58207],[17.86732,69.5801],[17.86854,69.58088],[17.86721,69.58317],[17.87011,69.58137],[17.87102,69.58227],[17.87191,69.58233],[17.87467,69.58043],[17.87755,69.5798],[17.87955,69.58011],[17.88093,69.57959],[17.88509,69.57596],[17.88798,69.57439],[17.88915,69.57442],[17.88858,69.5755],[17.89158,69.57434],[17.89084,69.57149]],[[17.69843,69.5888],[17.70649,69.58548],[17.71109,69.58436],[17.71219,69.58352],[17.71206,69.58251]],[[17.82716,69.58994],[17.82254,69.59057],[17.82731,69.59108]],[[17.82731,69.59108],[17.83233,69.59035],[17.83064,69.58998],[17.82716,69.58994]],[[17.46674,69.57125],[17.46472,69.57218],[17.46406,69.57413],[17.4649,69.57493],[17.47078,69.57556],[17.47292,69.57697],[17.47356,69.57842],[17.47972,69.58114],[17.4863,69.58169],[17.48729,69.58254],[17.486,69.58394],[17.4881,69.58563],[17.48508,69.58826],[17.48822,69.59162],[17.4879,69.59258],[17.47918,69.59826],[17.48172,69.60075],[17.48413,69.60124],[17.4875,69.60093],[17.49282,69.60167],[17.4955,69.60155],[17.49578,69.60095],[17.50229,69.60101],[17.50872,69.59867],[17.51043,69.59485],[17.51498,69.59128],[17.51859,69.58995],[17.52423,69.58674],[17.5377,69.58209],[17.54165,69.57884],[17.54145,69.57829]],[[17.66152,69.5684],[17.66228,69.57083],[17.65768,69.57584],[17.64947,69.58092],[17.64471,69.58581],[17.62666,69.59628],[17.62456,69.59958],[17.62659,69.59969],[17.63022,69.59872],[17.64716,69.5924],[17.65282,69.59284],[17.6573,69.59273],[17.66337,69.59134],[17.66735,69.59089],[17.67016,69.59139],[17.67035,69.59218],[17.67697,69.5927],[17.68135,69.59402],[17.68467,69.59373],[17.68443,69.59735],[17.68806,69.59807],[17.69769,69.59207],[17.69697,69.59113],[17.69843,69.5888]],[[17.82848,69.59988],[17.83101,69.5995],[17.8284,69.59927]],[[17.82766,69.59374],[17.82108,69.59381],[17.82137,69.5945],[17.81537,69.59594],[17.81682,69.59707],[17.81623,69.59762],[17.81422,69.59792],[17.80955,69.59765],[17.80885,69.59802],[17.80927,69.59838],[17.81242,69.59861],[17.82501,69.59793],[17.82509,69.59926],[17.8284,69.59927]],[[17.93896,69.33993],[17.93943,69.33953]],[[17.82848,69.59988],[17.82536,69.60004],[17.82405,69.60104],[17.82882,69.60244]],[[17.82882,69.60244],[17.83093,69.6025],[17.83354,69.60184],[17.83471,69.60014],[17.83752,69.59843],[17.83503,69.59726],[17.84561,69.59604],[17.84794,69.59519],[17.84711,69.59441],[17.85283,69.59276],[17.85365,69.5916],[17.85125,69.5912],[17.84836,69.59136],[17.84949,69.5906],[17.84819,69.59055],[17.84384,69.59118],[17.8448,69.59188],[17.83744,69.59274],[17.83177,69.59268],[17.83376,69.59362],[17.82982,69.59393],[17.82766,69.59374]],[[17.91458,69.62489],[17.91475,69.62224],[17.919,69.61977],[17.91839,69.6188],[17.92067,69.61809],[17.92249,69.61849],[17.92293,69.6191],[17.92621,69.61823],[17.92774,69.61835],[17.9317,69.6163],[17.93282,69.6149],[17.93132,69.61497],[17.92654,69.61748],[17.92483,69.61767],[17.93202,69.61269],[17.92951,69.61237],[17.92739,69.61072],[17.92327,69.60954],[17.92003,69.61094],[17.91733,69.61084],[17.91479,69.61268],[17.91211,69.61274],[17.90784,69.61413],[17.90575,69.61413],[17.90185,69.61636],[17.89801,69.61689],[17.89592,69.61682],[17.89511,69.6166],[17.8956,69.61595],[17.89435,69.6157],[17.88633,69.61916],[17.88809,69.62019],[17.88587,69.62185],[17.88676,69.62233],[17.88877,69.62218],[17.89125,69.62046],[17.89333,69.62038],[17.89723,69.62081],[17.89973,69.62161],[17.90097,69.62124],[17.90307,69.6215],[17.90049,69.62282],[17.90107,69.62492],[17.90272,69.62545],[17.90599,69.62554],[17.90838,69.62479],[17.91036,69.62487],[17.9123,69.6255],[17.91458,69.62489]],[[17.14712,69.01429],[17.1449,69.01466]],[[17.21817,69.02222],[17.21482,69.02183]],[[17.05441,69.03824],[17.05437,69.03825]],[[17.17981,69.04508],[17.18153,69.04463]],[[17.16828,69.05072],[17.16973,69.04855]],[[17.16385,69.08176],[17.16344,69.08173]],[[17.18165,69.08154],[17.18059,69.08155]],[[17.01805,69.19022],[17.02234,69.1899]],[[16.99084,69.1908],[17.00172,69.19023],[17.00793,69.19089],[17.01805,69.19022]],[[17.02535,69.26876],[17.03866,69.26627],[17.04858,69.26263]],[[17.12917,69.30651],[17.12549,69.30656]],[[17.15045,69.30911],[17.15235,69.30897],[17.15242,69.30962],[17.15143,69.30994]],[[17.17963,69.34992],[17.17383,69.3503]],[[17.17096,69.35086],[17.17383,69.3503]],[[17.18609,69.35067],[17.18408,69.35007],[17.17963,69.34992]],[[17.16031,69.35241],[17.17096,69.35086]],[[17.03425,69.36361],[17.03542,69.36372]],[[17.16656,69.41471],[17.16657,69.41477]],[[17.12847,69.39625],[17.12877,69.39731]],[[17.14973,69.0117],[17.14759,69.01138],[17.14777,69.01283],[17.15002,69.01271],[17.14973,69.0117]],[[17.1235,69.01355],[17.12462,69.01376],[17.12512,69.01338],[17.12381,69.01258],[17.12686,69.01237]],[[17.16832,69.01522],[17.17018,69.01515],[17.17046,69.01483],[17.16421,69.01352],[17.16086,69.01397],[17.162,69.0146],[17.16832,69.01522]],[[17.1449,69.01466],[17.13951,69.01572],[17.13593,69.01548],[17.13448,69.01484],[17.13659,69.01422],[17.13252,69.01328],[17.13217,69.01253],[17.12686,69.01237]],[[17.1235,69.01355],[17.11806,69.01253],[17.11691,69.01191],[17.11703,69.01091],[17.10791,69.00993],[17.10625,69.01031],[17.10576,69.01108],[17.1042,69.01127],[17.10146,69.01077],[17.10049,69.01002],[17.09289,69.00854],[17.08806,69.00705],[17.08045,69.00661],[17.07416,69.00823],[17.06817,69.00741],[17.06685,69.00672],[17.06588,69.00677],[17.06581,69.00743],[17.06491,69.00763],[17.06055,69.00646],[17.05731,69.00635],[17.05742,69.00728],[17.05635,69.00744],[17.05388,69.00652],[17.05206,69.00636],[17.05171,69.00736],[17.04815,69.00713],[17.04596,69.00829],[17.04314,69.00769],[17.04108,69.00836],[17.04107,69.01177],[17.03869,69.01156],[17.03769,69.01196],[17.03772,69.0134],[17.04069,69.01475],[17.04041,69.0161],[17.03939,69.01643],[17.04108,69.01717]],[[17.1779,69.02063],[17.17405,69.02056],[17.17136,69.0193],[17.16854,69.0192],[17.16349,69.01605],[17.16008,69.0159],[17.15792,69.01519],[17.15311,69.01445],[17.15344,69.01331],[17.15032,69.01353],[17.14712,69.01429]],[[17.21482,69.02183],[17.21207,69.02067],[17.20971,69.02044],[17.20871,69.02095],[17.20899,69.02223],[17.20799,69.02263]],[[17.19308,69.02319],[17.1932,69.02245],[17.18395,69.01951],[17.18026,69.01969],[17.1779,69.02063]],[[17.20799,69.02263],[17.20409,69.02351]],[[17.20409,69.02351],[17.19955,69.02315],[17.19796,69.02382],[17.19475,69.0241],[17.19267,69.02374],[17.19308,69.02319]],[[17.05509,69.02714],[17.05545,69.02574],[17.05271,69.02475],[17.04887,69.02218],[17.04461,69.02098],[17.04384,69.01979],[17.04556,69.01888],[17.04552,69.01831],[17.04108,69.01717]],[[17.22564,69.02557],[17.22615,69.02484],[17.22465,69.02333],[17.21817,69.02222]],[[17.0344,69.03849],[17.03465,69.03811],[17.03154,69.0372],[17.02968,69.03541],[17.03211,69.03512],[17.03318,69.03587],[17.03762,69.03652],[17.04332,69.03604],[17.0474,69.03348],[17.04924,69.03317],[17.05127,69.03331],[17.051,69.03223],[17.05421,69.03022],[17.05245,69.02846],[17.05509,69.02714]],[[17.05737,69.03821],[17.05441,69.03824]],[[17.06134,69.03816],[17.0602,69.036],[17.05659,69.03491],[17.05635,69.03578],[17.05875,69.0367],[17.05901,69.03819]],[[17.06997,69.03806],[17.06803,69.03672],[17.06673,69.03651],[17.06505,69.03716],[17.0683,69.03808]],[[17.05737,69.03821],[17.05901,69.03819]],[[17.06134,69.03816],[17.06138,69.0388],[17.06762,69.04024],[17.06863,69.03981],[17.06711,69.03887],[17.06976,69.03935],[17.07064,69.03897],[17.0683,69.03808]],[[17.0344,69.03849],[17.03391,69.03915],[17.0374,69.03975],[17.03668,69.04044],[17.04123,69.04054]],[[17.05423,69.0413],[17.05533,69.03943],[17.05437,69.03825]],[[17.04123,69.04054],[17.04368,69.04115],[17.04773,69.04075],[17.05192,69.0419],[17.05399,69.04169],[17.05423,69.0413]],[[17.08991,69.0411],[17.08477,69.04105],[17.08274,69.04154],[17.08243,69.04249],[17.0865,69.04413],[17.09066,69.04329],[17.08991,69.0411]],[[17.16973,69.04855],[17.17186,69.04609],[17.175,69.0455],[17.17881,69.04625],[17.17981,69.04508]],[[17.03334,69.05012],[17.02911,69.0491],[17.0293,69.04971],[17.03234,69.05113],[17.03497,69.05094],[17.03334,69.05012]],[[17.049,69.0534],[17.04554,69.05306],[17.0443,69.05361],[17.04622,69.05429],[17.04898,69.05446],[17.05022,69.054],[17.049,69.0534]],[[17.18153,69.04463],[17.18629,69.04306],[17.18862,69.04002],[17.19322,69.03878],[17.19387,69.03967],[17.1919,69.04023],[17.18964,69.04499],[17.19043,69.04956],[17.19166,69.05052],[17.19819,69.05378],[17.20362,69.05474],[17.20671,69.05463],[17.2092,69.05383],[17.20864,69.05259],[17.20943,69.05152],[17.20638,69.05069],[17.20632,69.04998],[17.21104,69.05023],[17.21832,69.0527],[17.219,69.05059],[17.21741,69.04949],[17.21906,69.0472],[17.21575,69.04529],[17.21861,69.04437],[17.22504,69.04356],[17.22357,69.03979],[17.22534,69.03874],[17.22724,69.03609]],[[17.06997,69.03806],[17.07527,69.03944],[17.07716,69.03902],[17.07989,69.03937],[17.08318,69.03897],[17.08817,69.03924],[17.09932,69.04102],[17.10946,69.04213],[17.1103,69.04353],[17.11523,69.04483],[17.1151,69.0451],[17.11027,69.04551],[17.10854,69.04499],[17.10447,69.04514],[17.09983,69.04592],[17.09909,69.04663],[17.1,69.04781],[17.10244,69.04838],[17.10334,69.0492],[17.10289,69.05009],[17.10496,69.05152],[17.10438,69.05172],[17.1013,69.05121],[17.0997,69.05161],[17.10067,69.0534],[17.09633,69.05339],[17.0915,69.05165],[17.08639,69.05223],[17.08418,69.052],[17.0837,69.05355],[17.07852,69.05373],[17.0738,69.05068],[17.07559,69.04894],[17.07403,69.04799],[17.06967,69.04822],[17.06551,69.04743],[17.06296,69.04512],[17.05579,69.04294],[17.04958,69.04214],[17.04828,69.04238],[17.04959,69.04374],[17.04905,69.04503],[17.04641,69.04631],[17.04466,69.04603],[17.04305,69.04733],[17.04448,69.0478],[17.0462,69.04782],[17.04675,69.04865],[17.04475,69.04941],[17.03973,69.04867],[17.03721,69.0493],[17.03672,69.0502],[17.03795,69.05131],[17.04173,69.05217],[17.04625,69.05231],[17.04659,69.05156],[17.04821,69.0514],[17.05112,69.05232],[17.05489,69.05206],[17.05639,69.05243],[17.0579,69.05348],[17.05615,69.05385],[17.0534,69.05354],[17.05396,69.05414],[17.05229,69.05484],[17.05446,69.05572],[17.05471,69.0571],[17.05552,69.05732],[17.05837,69.05729],[17.06223,69.05613],[17.06504,69.05663],[17.06973,69.0564],[17.07414,69.0554],[17.07502,69.05646],[17.07781,69.05679],[17.0784,69.05812],[17.08143,69.05803],[17.08458,69.05742],[17.08767,69.05885],[17.08911,69.05818],[17.09158,69.06118],[17.09462,69.06229],[17.09534,69.0633],[17.0967,69.06331],[17.09745,69.06275],[17.09854,69.06273],[17.10045,69.06507],[17.10669,69.06713],[17.11062,69.06711],[17.11183,69.06672],[17.11201,69.06573],[17.11501,69.06568],[17.11567,69.06519],[17.1231,69.0672],[17.12818,69.06697],[17.126,69.06544],[17.12775,69.06585],[17.12867,69.06537],[17.13203,69.06565]],[[17.04361,69.07217],[17.039,69.07095],[17.03409,69.07061],[17.03265,69.07016],[17.02994,69.07017],[17.02969,69.07106],[17.02865,69.07126],[17.02656,69.07051],[17.02569,69.07101],[17.02633,69.07192],[17.02277,69.07191],[17.02209,69.07147],[17.02374,69.07046],[17.02292,69.06893],[17.02075,69.06784],[17.01848,69.06792],[17.01365,69.06873],[17.01595,69.07017],[17.0137,69.0706],[17.01741,69.07171],[17.01932,69.07083],[17.02034,69.07096],[17.02084,69.0719],[17.01629,69.07309],[17.02193,69.07453]],[[17.04825,69.0766],[17.05023,69.07602],[17.04965,69.07439],[17.04703,69.07266],[17.04361,69.07217]],[[17.02193,69.07453],[17.01479,69.07498],[17.01509,69.07592],[17.01291,69.07601],[17.01104,69.07657],[17.01364,69.07708],[17.01402,69.07765]],[[17.01402,69.07765],[17.00765,69.07739]],[[17.0012,69.07848],[17.00093,69.07757],[17.00275,69.07713],[17.00765,69.07739]],[[16.98685,69.07827],[17.0012,69.07848]],[[17.22253,69.07493],[17.21774,69.07392],[17.21631,69.07433],[17.21553,69.07526],[17.21656,69.07715],[17.22062,69.07833],[17.22294,69.07772],[17.22292,69.07658],[17.22498,69.07606],[17.22253,69.07493]],[[17.16344,69.08173],[17.16017,69.08131],[17.15767,69.08003],[17.15709,69.0777],[17.15353,69.07586],[17.1489,69.07534],[17.14784,69.07461],[17.13945,69.07322],[17.13297,69.07114],[17.13518,69.06924],[17.13203,69.06565]],[[17.12979,69.08219],[17.09453,69.07678],[17.08958,69.07656],[17.08687,69.07682],[17.07968,69.07583],[17.07591,69.07585],[17.07139,69.07508],[17.06256,69.0751],[17.05674,69.07317],[17.05474,69.07347],[17.0604,69.0776],[17.06041,69.07818],[17.05831,69.07848],[17.04825,69.0766]],[[17.18549,69.08149],[17.18793,69.0801],[17.18768,69.07858],[17.19616,69.07944],[17.19946,69.07708],[17.20189,69.07676],[17.20503,69.07743],[17.2053,69.07581],[17.20158,69.07428],[17.19356,69.06911],[17.19295,69.06814],[17.19512,69.06685],[17.19372,69.0664],[17.1912,69.0668],[17.18816,69.06628],[17.18102,69.06392],[17.17568,69.06123],[17.17062,69.05624],[17.17003,69.05329],[17.16828,69.05072]],[[17.19248,69.0814],[17.19264,69.08102],[17.18994,69.08061],[17.18803,69.08146]],[[17.21687,69.08109],[17.21811,69.08028],[17.21582,69.07956],[17.21479,69.07985],[17.21497,69.08111]],[[17.18165,69.08154],[17.18267,69.08181]],[[17.21497,69.08111],[17.21598,69.08143],[17.21687,69.08109]],[[17.12979,69.08219],[17.13367,69.08253]],[[17.18803,69.08146],[17.18969,69.08197],[17.19248,69.0814]],[[17.18267,69.08181],[17.18414,69.08215],[17.18549,69.08149]],[[17.16448,69.08394],[17.1657,69.08374],[17.16642,69.0824],[17.16606,69.08202],[17.16385,69.08176]],[[17.13367,69.08253],[17.13758,69.08313],[17.14212,69.08305],[17.14675,69.0839],[17.14986,69.08374],[17.15534,69.0846],[17.15859,69.08409],[17.16448,69.08394]],[[17.17553,69.08444],[17.17536,69.08343],[17.17845,69.0833],[17.17882,69.08273],[17.17731,69.08244],[17.18059,69.08155]],[[17.17553,69.08444],[17.18135,69.08524],[17.19027,69.08541],[17.21406,69.08701],[17.21687,69.08749],[17.2184,69.08822],[17.23037,69.09017],[17.23527,69.09149],[17.23981,69.09354],[17.24552,69.09466],[17.25218,69.09697],[17.26133,69.10286]],[[16.99692,69.1481],[17.00141,69.1467],[17.00878,69.14295],[17.01352,69.14121]],[[17.02046,69.13873],[17.02334,69.13821],[17.02533,69.13718],[17.0346,69.13676]],[[17.0346,69.13676],[17.04288,69.13847],[17.05059,69.13852],[17.05368,69.13821],[17.05768,69.13912]],[[17.01352,69.14121],[17.01754,69.14018],[17.02046,69.13873]],[[17.05768,69.13912],[17.06263,69.14235],[17.06577,69.14291],[17.07658,69.14315],[17.08231,69.14193]],[[17.08231,69.14193],[17.08397,69.14172],[17.08456,69.14204],[17.08581,69.14697],[17.08451,69.1482],[17.07698,69.15054],[17.07047,69.15101],[17.0679,69.15153],[17.05978,69.15193],[17.05733,69.15328],[17.05738,69.15575],[17.06181,69.15983],[17.06502,69.16183],[17.07189,69.16481]],[[17.10361,69.17224],[17.0966,69.17099],[17.09354,69.16995],[17.08942,69.16996]],[[17.08942,69.16996],[17.08327,69.17059],[17.07404,69.17018],[17.07067,69.17118],[17.06578,69.1709],[17.05994,69.16954],[17.06306,69.16888],[17.06868,69.16949],[17.0715,69.1682],[17.07437,69.16765],[17.07529,69.16666],[17.07189,69.16481]],[[17.1164,69.17811],[17.11522,69.17823],[17.1159,69.17867],[17.1214,69.17957],[17.11966,69.17907],[17.11907,69.17831],[17.1164,69.17811]],[[17.10361,69.17224],[17.11184,69.17326],[17.1278,69.1769],[17.1288,69.17835],[17.1238,69.18025],[17.12763,69.18072],[17.13185,69.18076],[17.14321,69.18]],[[17.14321,69.18],[17.15113,69.18142],[17.15465,69.18265],[17.15952,69.18338]],[[17.04951,69.18847],[17.06107,69.18445],[17.06899,69.1831]],[[17.03967,69.19055],[17.04593,69.18949],[17.04951,69.18847]],[[17.02234,69.1899],[17.02973,69.19021],[17.034,69.18983],[17.0351,69.19083],[17.03967,69.19055]],[[17.06899,69.1831],[17.07726,69.18096],[17.08796,69.18101],[17.10789,69.18349],[17.11904,69.18558],[17.12733,69.18603],[17.13345,69.18828],[17.14421,69.19018]],[[17.18532,69.19005],[17.17899,69.18888],[17.17582,69.18754],[17.17326,69.18563],[17.17005,69.18484],[17.16274,69.18456],[17.15952,69.18338]],[[17.14421,69.19018],[17.14964,69.1913],[17.16409,69.1928],[17.18539,69.19586],[17.20014,69.1997],[17.20239,69.19973],[17.20766,69.19865],[17.20993,69.19777],[17.21105,69.19622],[17.20436,69.19311],[17.18532,69.19005]],[[17.05539,69.23256],[17.06587,69.23093],[17.07018,69.22973]],[[17.02265,69.23981],[17.02895,69.23896],[17.03367,69.23768],[17.03958,69.23533],[17.04328,69.23489],[17.04708,69.23368],[17.05539,69.23256]],[[17.00905,69.24188],[17.01553,69.24033],[17.02265,69.23981]],[[17.07018,69.22973],[17.0729,69.22895],[17.09124,69.22659],[17.10056,69.22627],[17.11225,69.22666],[17.11677,69.22769],[17.11797,69.22678],[17.12072,69.22692],[17.12194,69.22732],[17.12179,69.22826],[17.12729,69.22838],[17.13012,69.22977],[17.12829,69.2317],[17.12843,69.23632],[17.1326,69.23932],[17.13174,69.2419]],[[16.99884,69.24376],[17.00054,69.24441],[17.00324,69.24465],[17.00516,69.24421],[17.00905,69.24188]],[[17.13174,69.2419],[17.13138,69.24294],[17.1327,69.24401]],[[17.1327,69.24401],[17.13427,69.24468],[17.14685,69.24613],[17.14987,69.24744]],[[17.15017,69.25052],[17.1514,69.25047],[17.15274,69.24964],[17.14987,69.24744]],[[17.10976,69.24725],[17.11152,69.24704],[17.11282,69.24543],[17.11102,69.24319],[17.11249,69.24264],[17.11565,69.24278],[17.14025,69.25116],[17.14403,69.25109],[17.14884,69.25019],[17.15017,69.25052]],[[17.10976,69.24725],[17.10689,69.24759],[17.10392,69.24989],[17.10486,69.25068],[17.10373,69.2512],[17.10566,69.25154],[17.10583,69.25203],[17.10209,69.25191],[17.10113,69.25244],[17.10285,69.25346],[17.10221,69.25496],[17.10404,69.25698]],[[17.07134,69.26235],[17.06597,69.26141],[17.05275,69.26082],[17.05006,69.26117],[17.04858,69.26263]],[[17.10439,69.26196],[17.10248,69.26075],[17.1021,69.25964],[17.10404,69.25698]],[[17.02535,69.26876],[17.01628,69.27026],[17.01347,69.27117],[17.01151,69.27389],[17.0205,69.2763],[17.02612,69.27696]],[[17.07273,69.27957],[17.06994,69.2766],[17.066,69.27575],[17.05838,69.27503],[17.04295,69.27492],[17.03055,69.27667],[17.02612,69.27696]],[[17.10439,69.26196],[17.10808,69.26402],[17.11805,69.27171],[17.12367,69.27335],[17.13628,69.2751],[17.14801,69.27777],[17.14993,69.27918],[17.15304,69.27948]],[[17.07273,69.27957],[17.06842,69.28066],[17.04887,69.28016]],[[17.02677,69.28398],[17.03564,69.2809],[17.0401,69.28032],[17.04887,69.28016]],[[16.99149,69.28251],[17.00113,69.28433],[17.01459,69.28546],[17.02677,69.28398]],[[17.07134,69.26235],[17.08219,69.26689],[17.08795,69.27152],[17.09075,69.27509],[17.09375,69.27738],[17.09644,69.2785],[17.10397,69.28052],[17.12013,69.28292],[17.12819,69.28485],[17.13107,69.28492],[17.13919,69.284],[17.14446,69.28467],[17.14867,69.28465],[17.15371,69.28623]],[[17.15371,69.28623],[17.1598,69.28773],[17.1672,69.28835],[17.17373,69.28827],[17.17761,69.28687],[17.18307,69.28736],[17.18438,69.28681],[17.18367,69.28618],[17.17762,69.2847],[17.17303,69.28455],[17.16758,69.28494],[17.16092,69.28189],[17.15988,69.28171],[17.15797,69.28206],[17.15664,69.28165],[17.15304,69.27948]],[[16.99166,69.30576],[17.0012,69.30658],[17.01639,69.30725],[17.02014,69.30601],[17.02201,69.30353],[17.02073,69.30299],[17.01108,69.30137],[17.00667,69.29983],[16.99963,69.29841]],[[17.13807,69.30641],[17.13488,69.30601],[17.13168,69.30648]],[[17.12917,69.30651],[17.13168,69.30648]],[[17.13807,69.30641],[17.14332,69.30792],[17.15045,69.30911]],[[17.15143,69.30994],[17.15035,69.30989],[17.15005,69.31034],[17.15367,69.31075]],[[16.99634,69.32915],[17.02045,69.32913],[17.02559,69.32956],[17.03114,69.33062]],[[17.03114,69.33062],[17.03364,69.33117],[17.03933,69.33124],[17.05197,69.32838],[17.05815,69.32763],[17.0717,69.32467],[17.07743,69.3256],[17.08004,69.32323],[17.08318,69.32253],[17.09201,69.31896],[17.10161,69.31315],[17.11864,69.31023],[17.12549,69.30656]],[[17.11648,69.34025],[17.10958,69.33764],[17.10337,69.33809],[17.09877,69.33698],[17.09579,69.33674],[17.09479,69.33626],[17.09021,69.33575],[17.0825,69.33618]],[[17.01502,69.3419],[17.01799,69.34082],[17.0223,69.3406],[17.02692,69.33931],[17.0244,69.33838],[17.0184,69.3373],[17.01729,69.33652],[17.01588,69.33631],[17.0128,69.33676],[17.00631,69.33862],[17.00239,69.33869],[16.99673,69.34073]],[[16.99861,69.34141],[17.0013,69.3408]],[[17.04776,69.34461],[17.05148,69.34367],[17.05265,69.34273],[17.0602,69.33992],[17.06005,69.33949],[17.06242,69.3386],[17.06107,69.33852],[17.07322,69.33683],[17.0825,69.33618]],[[17.0013,69.3408],[17.00244,69.34081],[17.00458,69.3424],[17.00392,69.34386],[17.00517,69.34462],[17.00676,69.34482],[17.01114,69.34389],[17.01502,69.3419]],[[17.11648,69.34025],[17.12387,69.34359],[17.12733,69.34424],[17.13141,69.34431],[17.14764,69.34197],[17.15531,69.33973],[17.15589,69.33894],[17.15418,69.33782],[17.15159,69.33747],[17.14351,69.33822],[17.13672,69.33946],[17.1324,69.33893],[17.13197,69.33735],[17.12956,69.33506],[17.12632,69.33376],[17.10659,69.32969],[17.10162,69.3292],[17.10115,69.32429],[17.09662,69.32266],[17.09677,69.32092],[17.10047,69.31897],[17.10668,69.31687],[17.11982,69.31398],[17.12218,69.31296],[17.12188,69.31196],[17.12438,69.31096],[17.14469,69.31075],[17.14818,69.3112],[17.15305,69.31113]],[[17.03301,69.35052],[17.04474,69.34534],[17.04776,69.34461]],[[17.02772,69.35259],[17.03301,69.35052]],[[17.16069,69.35623],[17.17406,69.35476],[17.18045,69.35444],[17.18724,69.35221],[17.18609,69.35067]],[[17.07062,69.36118],[17.07647,69.36091],[17.08045,69.36033],[17.08123,69.35981],[17.08458,69.35916],[17.09543,69.35843],[17.09591,69.35783],[17.10614,69.35742],[17.1251,69.35526],[17.1391,69.35442],[17.16031,69.35241]],[[17.02772,69.35259],[17.02191,69.35577],[17.02154,69.35682],[17.02712,69.36187],[17.03425,69.36361]],[[17.03542,69.36372],[17.04299,69.36394],[17.0543,69.36353],[17.0563,69.36298],[17.06847,69.36193],[17.07062,69.36118]],[[16.99945,69.36664],[17.00383,69.36757],[17.0086,69.36793],[17.01453,69.36958],[17.02089,69.37046],[17.02482,69.3709],[17.03496,69.37119]],[[17.03496,69.37119],[17.04048,69.37098],[17.06623,69.36799],[17.09683,69.3624],[17.11707,69.36027],[17.15449,69.3571],[17.16069,69.35623]],[[17.10819,69.38374],[17.10921,69.38303],[17.11093,69.38278],[17.11086,69.38241],[17.10594,69.38333],[17.09778,69.3824],[17.09509,69.38342]],[[17.06898,69.39236],[17.07113,69.39103],[17.07342,69.39045],[17.075,69.389],[17.07826,69.38813],[17.08009,69.38879],[17.08114,69.38868],[17.08633,69.38616],[17.09509,69.38342]],[[17.01659,69.39758],[17.01604,69.39561],[17.01385,69.39478],[17.00181,69.39324],[16.98969,69.39326]],[[17.06898,69.39236],[17.06574,69.39701]],[[17.12847,69.39625],[17.12721,69.39448],[17.12299,69.39428],[17.11919,69.39302],[17.11297,69.3918],[17.10662,69.38879],[17.10598,69.38803],[17.10701,69.38462],[17.10819,69.38374]],[[17.01659,69.39758],[17.01734,69.39834],[17.02314,69.40055],[17.03092,69.40165],[17.03489,69.40162]],[[17.03489,69.40162],[17.03786,69.40189]],[[17.03786,69.40189],[17.04611,69.40284],[17.05215,69.40285],[17.0629,69.40212],[17.06483,69.40057],[17.06574,69.39701]],[[17.16656,69.41471],[17.16745,69.41365],[17.16644,69.41346]],[[17.12877,69.39731],[17.12833,69.40193],[17.12604,69.40329],[17.13079,69.40494],[17.13233,69.40603],[17.14694,69.40967],[17.14819,69.4111],[17.14649,69.41164]],[[17.14649,69.41164],[17.13853,69.41353],[17.14181,69.41445],[17.14822,69.41383],[17.15254,69.41394],[17.16037,69.4127],[17.16644,69.41346]],[[17.16678,69.41688],[17.16767,69.41664],[17.16657,69.41477]],[[17.16686,69.41764],[17.16877,69.41706],[17.16965,69.41754],[17.17075,69.41746],[17.17285,69.41671],[17.17081,69.41614],[17.17366,69.41555]],[[17.17366,69.41555],[17.18327,69.41288],[17.18134,69.41195],[17.18375,69.41091],[17.18663,69.41035],[17.19008,69.41038],[17.19214,69.41117],[17.19387,69.41133],[17.19718,69.41068],[17.19949,69.41216],[17.20442,69.41191],[17.20598,69.41251],[17.20771,69.41431],[17.20634,69.4153],[17.20871,69.41609],[17.20903,69.41682],[17.21083,69.41715],[17.21467,69.41708],[17.21888,69.4162],[17.22495,69.41355],[17.22827,69.41293],[17.23071,69.41312],[17.23463,69.41432],[17.23191,69.41585],[17.23245,69.41614],[17.24042,69.41435],[17.24791,69.41169],[17.24892,69.41183],[17.24899,69.41246],[17.25209,69.41271],[17.25526,69.41348],[17.26053,69.41364],[17.26549,69.4132],[17.26842,69.41218],[17.26955,69.41074],[17.26828,69.40959],[17.2717,69.40875],[17.27126,69.40754],[17.2723,69.40663],[17.2743,69.40549],[17.27834,69.40432],[17.28245,69.40181],[17.28394,69.40173],[17.28463,69.40242],[17.28439,69.40407],[17.29014,69.40392],[17.29161,69.40351],[17.29275,69.4024]],[[17.16678,69.41688],[17.16406,69.41719],[17.16129,69.417],[17.16009,69.41742],[17.16192,69.41824],[17.16686,69.41764]],[[17.2375,69.41796],[17.23155,69.41885],[17.22964,69.42008],[17.23256,69.4199],[17.2339,69.41894],[17.23792,69.41847],[17.2375,69.41796]],[[17.15559,69.42203],[17.15261,69.42216],[17.15265,69.42296],[17.15553,69.42325],[17.16006,69.42261],[17.15559,69.42203]],[[17.21303,69.42328],[17.20931,69.42275],[17.20755,69.42298],[17.20837,69.42363],[17.213,69.42419],[17.21303,69.42328]],[[17.19643,69.42684],[17.19258,69.42658],[17.18913,69.42692],[17.18849,69.42729],[17.1939,69.4275],[17.19663,69.42709],[17.19643,69.42684]],[[17.22279,69.43328],[17.21757,69.4334],[17.21294,69.43413],[17.21428,69.43447],[17.22001,69.43411],[17.22279,69.43328]],[[17.15095,69.44083],[17.14075,69.43982],[17.13957,69.43987],[17.13867,69.44044],[17.13469,69.43923],[17.1274,69.43797],[17.1252,69.43794],[17.12681,69.43907],[17.13364,69.44105]],[[17.22035,69.43851],[17.2094,69.43892],[17.2048,69.44016]],[[17.22938,69.43985],[17.23556,69.43852],[17.23564,69.43793],[17.23745,69.43765],[17.24007,69.43601],[17.23881,69.43547],[17.23241,69.43573],[17.23287,69.43774],[17.22903,69.43844],[17.22527,69.43854],[17.22182,69.43798],[17.22035,69.43851]],[[17.16927,69.44161],[17.1668,69.44116],[17.16007,69.44111],[17.16099,69.44168],[17.16381,69.44214],[17.16932,69.44207]],[[17.13364,69.44105],[17.13663,69.44186],[17.14361,69.44245],[17.14436,69.44141],[17.15073,69.44166],[17.15234,69.44124],[17.15095,69.44083]],[[17.16932,69.44207],[17.17279,69.44204],[17.16927,69.44161]],[[17.22028,69.44038],[17.22041,69.44172],[17.22203,69.44189],[17.22938,69.43985]],[[17.15802,69.44177],[17.15605,69.44157],[17.15609,69.44264],[17.1596,69.44287],[17.15978,69.44216],[17.15802,69.44177]],[[17.2048,69.44016],[17.20591,69.44094],[17.20557,69.44255],[17.20828,69.44276],[17.21133,69.44099],[17.22028,69.44038]],[[17.17764,69.44438],[17.17327,69.44377],[17.17124,69.44395],[17.17308,69.44469],[17.17617,69.44501],[17.17746,69.44493],[17.17764,69.44438]],[[17.21027,69.44446],[17.20791,69.44412],[17.20677,69.44433],[17.20611,69.44567],[17.20906,69.4454],[17.21027,69.44446]],[[17.10759,69.45047],[17.11761,69.44795],[17.12201,69.44743],[17.12777,69.44728],[17.13163,69.44512]],[[17.13163,69.44512],[17.13426,69.44352],[17.1325,69.44293],[17.12586,69.44215],[17.12011,69.44247],[17.11594,69.44204],[17.11058,69.44225],[17.10785,69.44185],[17.10624,69.44313],[17.11552,69.44313],[17.11993,69.44438],[17.11695,69.44476],[17.116,69.44532],[17.10728,69.44558],[17.10518,69.44708],[17.10561,69.4484],[17.10105,69.4491],[17.10046,69.45055],[17.10097,69.4513],[17.10363,69.45164],[17.10604,69.45132],[17.10759,69.45047]],[[17.13534,69.45083],[17.13014,69.45087],[17.12973,69.4518],[17.13107,69.45253],[17.1339,69.45295],[17.13574,69.45229],[17.13534,69.45083]],[[17.1301,69.45507],[17.12887,69.45408],[17.12721,69.45404],[17.12654,69.45458],[17.12267,69.45422],[17.12256,69.45471],[17.12382,69.45508],[17.12934,69.45564],[17.1301,69.45507]],[[17.12669,69.45759],[17.12371,69.45757],[17.12084,69.4594],[17.12099,69.46008],[17.12567,69.46122],[17.12651,69.46115],[17.12789,69.45984],[17.12669,69.45759]],[[17.22696,69.464],[17.2309,69.46303],[17.23964,69.46329],[17.24042,69.46286],[17.23849,69.46231],[17.23947,69.46143],[17.24779,69.46034],[17.24718,69.45949],[17.24477,69.45913],[17.24902,69.45668],[17.24748,69.45603],[17.25695,69.453],[17.2612,69.45267],[17.26281,69.45308],[17.26558,69.45295],[17.26711,69.4515],[17.27005,69.45035],[17.27631,69.44945],[17.27684,69.44828],[17.27533,69.44789],[17.27619,69.44736],[17.28001,69.44691]],[[17.22696,69.464],[17.2257,69.4641],[17.22429,69.4653],[17.22935,69.46711],[17.23115,69.46955],[17.23151,69.47177],[17.2287,69.47326],[17.22123,69.47551],[17.22132,69.47623],[17.21966,69.47738]],[[17.21224,69.48493],[17.20877,69.48363],[17.21285,69.48197],[17.21305,69.4811],[17.21087,69.47978],[17.20905,69.47957],[17.21205,69.47806],[17.21597,69.47816],[17.21966,69.47738]],[[17.26162,69.49047],[17.26421,69.4904],[17.26688,69.48954],[17.27113,69.48903],[17.28784,69.48395]],[[17.21224,69.48493],[17.21052,69.48699],[17.20786,69.48791],[17.2065,69.48956],[17.20899,69.49123]],[[17.25428,69.49314],[17.25646,69.49195],[17.26162,69.49047]],[[17.20899,69.49123],[17.20771,69.49303],[17.20526,69.49449],[17.19951,69.49652],[17.19769,69.49688],[17.19627,69.49654],[17.19586,69.49704],[17.19807,69.49793],[17.19855,69.49959],[17.20011,69.50075],[17.21858,69.50445],[17.21987,69.50513],[17.22661,69.50296],[17.23129,69.50289],[17.23755,69.49974],[17.24279,69.49782],[17.24984,69.49669],[17.25428,69.49314]]]}}]}