{"type":"FeatureCollection","features":[{"type":"Feature","properties":{},"geometry":{"type":"MultiLineString","coordinates":[[[15.05711,68.99976],[15.05835,69.00044],[15.06191,69.00097],[15.06572,69.00225],[15.06674,69.00314],[15.0761,69.00411]],[[15.08195,69.0057],[15.08294,69.00609]],[[15.06202,69.02181],[15.06019,69.021],[15.0572,69.02078],[15.05824,69.02182],[15.06202,69.02181]],[[15.53926,69.00487],[15.54099,69.00534]],[[15.55006,69.00534],[15.55265,69.00483]],[[15.8348,69.02005],[15.83327,69.01874],[15.83076,69.01833]],[[15.87707,69.04819],[15.87862,69.0479],[15.88107,69.0483]],[[15.67118,69.13893],[15.66917,69.13894]],[[15.82416,69.18544],[15.82476,69.18565]],[[15.81948,69.18876],[15.81762,69.18857],[15.81563,69.18883],[15.81954,69.18964],[15.82105,69.18929],[15.81948,69.18876]],[[15.86627,69.27259],[15.86846,69.27289],[15.86939,69.27258]],[[15.05417,68.9997],[15.04964,69.00095],[15.04563,69.0014],[15.04231,69.00133],[15.04139,69.00086]],[[15.04139,69.00086],[15.0415,69.00033],[15.03842,68.99991]],[[15.0285,68.9991],[15.02755,69.00222],[15.02399,69.00247],[15.01701,69.00103],[15.01752,68.99968]],[[15.87072,69.27257],[15.86939,69.27258]],[[15.06178,69.01625],[15.06262,69.01571],[15.06371,69.01582],[15.06381,69.01524],[15.06134,69.01531],[15.05758,69.01467],[15.05718,69.015],[15.0588,69.01589],[15.06091,69.01651],[15.06178,69.01625]],[[15.08195,69.0057],[15.0761,69.00411]],[[15.18032,69.00563],[15.18341,69.00507],[15.18905,69.00295],[15.1883,68.99999]],[[15.06839,69.01501],[15.06635,69.01502],[15.06559,69.0159],[15.06606,69.01701],[15.06766,69.0178],[15.07281,69.01804],[15.07492,69.01658],[15.06839,69.01501]],[[15.07995,69.01964],[15.07541,69.01781],[15.07408,69.01791],[15.07377,69.01843],[15.076,69.01946],[15.07965,69.02015],[15.07995,69.01964]],[[15.08294,69.00609],[15.08474,69.00767],[15.09144,69.00991],[15.09225,69.011],[15.09072,69.01216],[15.09267,69.01318],[15.09674,69.01275],[15.0988,69.01327],[15.09944,69.01446],[15.09655,69.01599],[15.0972,69.0169],[15.10614,69.01928],[15.10676,69.02095],[15.11029,69.01863],[15.11367,69.01895],[15.11704,69.01824],[15.12201,69.02038],[15.12249,69.01924],[15.12513,69.01945]],[[15.1282,69.02137],[15.1263,69.02147],[15.12546,69.02208],[15.12801,69.0235],[15.13038,69.0226],[15.13096,69.02176],[15.1282,69.02137]],[[15.12513,69.01945],[15.12614,69.01991],[15.13127,69.02058],[15.13317,69.01927],[15.13489,69.01894],[15.13676,69.0192],[15.13927,69.01859],[15.14711,69.02075],[15.1518,69.0216],[15.15517,69.02344],[15.15697,69.0234],[15.1559,69.02267],[15.1562,69.02029],[15.15757,69.01954],[15.16149,69.01947],[15.15881,69.0184],[15.16235,69.01638],[15.1648,69.01684],[15.16523,69.01789],[15.16862,69.01825],[15.17081,69.01774],[15.16976,69.01548],[15.17432,69.01476],[15.17514,69.01387],[15.17741,69.01339],[15.18298,69.01398],[15.18536,69.01378],[15.18075,69.01196],[15.1811,69.01017],[15.17774,69.00786],[15.1778,69.00674],[15.18032,69.00563]],[[15.16264,69.02527],[15.16014,69.02579],[15.15995,69.02656],[15.16321,69.0263],[15.16264,69.02527]],[[15.12371,69.02725],[15.12094,69.02573],[15.11536,69.02504],[15.11077,69.02472],[15.10718,69.02494],[15.10608,69.0254],[15.10699,69.02643],[15.10858,69.02667],[15.11399,69.02662],[15.12326,69.02754],[15.12371,69.02725]],[[15.12519,69.03002],[15.12794,69.0305],[15.12905,69.03018],[15.12856,69.02946],[15.12518,69.02836]],[[15.12518,69.02836],[15.12342,69.02789],[15.12047,69.02784],[15.1192,69.02822],[15.11415,69.02841],[15.11353,69.02926],[15.11479,69.02977],[15.11862,69.03022],[15.12088,69.03104],[15.12269,69.02986],[15.12519,69.03002]],[[15.17639,69.06731],[15.17523,69.06706],[15.17477,69.06606],[15.17171,69.06425],[15.16525,69.06409],[15.16573,69.06484],[15.16324,69.06568],[15.16545,69.06703],[15.17109,69.0673],[15.17952,69.06867],[15.18235,69.06863],[15.18046,69.06789],[15.17639,69.06731]],[[15.809,69.16172],[15.81409,69.16398],[15.8161,69.16635],[15.81739,69.17067],[15.81656,69.17244]],[[15.54007,69.00159],[15.54236,69.00148],[15.5425,69.00063],[15.54515,68.99964]],[[15.59048,69.0029],[15.59491,69.00242],[15.59567,69.00151],[15.60267,69.00103],[15.60974,68.99986]],[[15.4632,69.00509],[15.46477,69.00359],[15.46487,69.00239],[15.46277,69.00069],[15.45923,68.99957]],[[15.53926,69.00487],[15.53988,69.00459],[15.53881,69.00396],[15.53488,69.00337],[15.53453,69.00279],[15.53537,69.00232],[15.5379,69.00215],[15.53885,69.00138],[15.54007,69.00159]],[[15.55265,69.00483],[15.5591,69.00459],[15.56526,69.00345],[15.5754,69.00312],[15.58178,69.00366],[15.58441,69.00297],[15.59048,69.0029]],[[15.75775,69.00404],[15.7601,69.0034],[15.75012,68.9998]],[[15.76135,69.00723],[15.75775,69.00404]],[[15.76598,69.00926],[15.76135,69.00723]],[[15.77165,69.01195],[15.76965,69.01162]],[[15.76965,69.01162],[15.76598,69.00926]],[[15.4632,69.00509],[15.46276,69.00797],[15.46088,69.00947],[15.45816,69.01097],[15.45473,69.0117],[15.45692,69.01324]],[[15.82206,69.01405],[15.81263,69.01275],[15.80787,69.01323],[15.80448,69.01313],[15.80311,69.01269],[15.79891,69.01283],[15.79006,69.01139],[15.78546,69.01227],[15.78155,69.01227],[15.77967,69.01196],[15.77828,69.01113],[15.78112,69.00913],[15.78067,69.00888],[15.77857,69.00958],[15.7777,69.01108],[15.77456,69.01184],[15.77165,69.01195]],[[15.45692,69.01324],[15.45562,69.01372],[15.45781,69.01373],[15.45903,69.01432],[15.45988,69.01701]],[[15.83076,69.01833],[15.82734,69.01704],[15.82206,69.01405]],[[15.45988,69.01701],[15.45763,69.0174],[15.45794,69.01817],[15.45954,69.01877],[15.46186,69.01845],[15.46878,69.02102],[15.47097,69.02121],[15.47197,69.02292],[15.48098,69.02205],[15.48627,69.02265],[15.48797,69.02219],[15.49694,69.02503],[15.50064,69.02466]],[[15.84893,69.02382],[15.84506,69.02246],[15.84219,69.02194],[15.84061,69.02082],[15.83734,69.0211],[15.8348,69.02005]],[[15.86065,69.02483],[15.85764,69.02468],[15.85787,69.02549],[15.85623,69.02562],[15.85057,69.02456],[15.84893,69.02382]],[[15.50075,69.02958],[15.5063,69.02929],[15.50801,69.02878],[15.5083,69.02794],[15.50468,69.02695],[15.50351,69.02578],[15.50064,69.02466]],[[15.50075,69.02958],[15.49738,69.02972],[15.49814,69.03074],[15.50079,69.03129]],[[15.50079,69.03129],[15.50586,69.03356]],[[15.51087,69.03916],[15.50975,69.03839],[15.50748,69.0385],[15.50688,69.03823],[15.50701,69.03756],[15.50843,69.03745],[15.50904,69.0368],[15.50539,69.03458],[15.50586,69.03356]],[[15.86872,69.04157],[15.86886,69.04064],[15.8668,69.03989],[15.86429,69.04063],[15.86231,69.04033],[15.85887,69.03844],[15.85549,69.03749],[15.8544,69.0358],[15.85685,69.03541],[15.85926,69.03326],[15.86863,69.03278],[15.87225,69.03223],[15.87203,69.03009],[15.87465,69.02879],[15.87507,69.02789],[15.8741,69.02734],[15.86065,69.02483]],[[15.51747,69.04978],[15.50843,69.04632],[15.50836,69.04484]],[[15.86872,69.04157],[15.87092,69.04363],[15.86865,69.04431],[15.87031,69.04716],[15.8685,69.04836]],[[15.87162,69.04835],[15.87183,69.04803],[15.87707,69.04819]],[[15.8685,69.04836],[15.86833,69.04917]],[[15.86991,69.04989],[15.8725,69.0499],[15.87348,69.04938],[15.87162,69.04835]],[[15.51747,69.04978],[15.52281,69.05201],[15.52463,69.05445]],[[15.89521,69.05563],[15.89438,69.05237],[15.88539,69.05251],[15.88449,69.05057],[15.88107,69.0483]],[[15.52463,69.05445],[15.52643,69.05639],[15.53096,69.0586],[15.5329,69.06126],[15.5317,69.0641],[15.53337,69.06432],[15.53412,69.06486]],[[15.9027,69.06553],[15.90534,69.06565],[15.90636,69.06488],[15.9044,69.06168],[15.90157,69.0601],[15.89702,69.05928],[15.89727,69.0582],[15.89521,69.05563]],[[15.52728,69.06565],[15.52707,69.06531],[15.51941,69.0656],[15.51964,69.06517],[15.5267,69.0648],[15.51981,69.06443],[15.51757,69.06516],[15.51693,69.06592],[15.52062,69.06709],[15.52393,69.06754],[15.52765,69.06901],[15.5288,69.06862],[15.52895,69.06792],[15.52684,69.06731],[15.52569,69.0661],[15.52728,69.06565]],[[15.53304,69.0693],[15.52983,69.06953],[15.53092,69.0705],[15.53298,69.07025],[15.53304,69.0693]],[[15.89759,69.06946],[15.89734,69.06825],[15.89883,69.06768],[15.90177,69.06751],[15.9026,69.06692],[15.89961,69.06602],[15.89925,69.0652],[15.9007,69.06494],[15.9027,69.06553]],[[15.91454,69.07721],[15.91692,69.07562],[15.91275,69.07183],[15.90936,69.07199],[15.90653,69.07313],[15.90199,69.07318]],[[15.90027,69.07261],[15.89759,69.06946]],[[15.53412,69.06486],[15.53451,69.06672],[15.5401,69.07022],[15.54305,69.07125],[15.54832,69.07219],[15.55395,69.07497],[15.55537,69.07685],[15.55866,69.07833],[15.56266,69.07901],[15.56363,69.07953],[15.56167,69.08106],[15.56184,69.08226],[15.55999,69.08336]],[[15.92805,69.08531],[15.91957,69.08257],[15.91786,69.08152],[15.91454,69.07721]],[[15.56886,69.09446],[15.56361,69.09208],[15.56074,69.08931],[15.55749,69.08911],[15.55702,69.08961],[15.55569,69.08966],[15.54841,69.08835],[15.55035,69.08784],[15.55118,69.0865],[15.55454,69.08527],[15.55515,69.08457],[15.55999,69.08336]],[[15.94007,69.09283],[15.93707,69.09224],[15.93272,69.09008],[15.93197,69.08799],[15.92949,69.08701],[15.92805,69.08531]],[[15.95347,69.09276],[15.95209,69.09222],[15.94877,69.09186],[15.94788,69.09121],[15.94917,69.09069],[15.94477,69.08957],[15.94464,69.09044],[15.94653,69.09102],[15.9462,69.09186],[15.94883,69.09278]],[[15.94007,69.09283],[15.93925,69.09367],[15.94306,69.09518]],[[15.70859,69.14767],[15.70573,69.14774],[15.70496,69.14935],[15.70677,69.14912],[15.70859,69.14767]],[[15.94306,69.09518],[15.9454,69.09518],[15.94747,69.09573],[15.95056,69.09473],[15.951,69.09403],[15.94907,69.09342],[15.94883,69.09278]],[[15.95427,69.09713],[15.95333,69.09611],[15.95473,69.09576],[15.9566,69.09598],[15.95743,69.09562],[15.95347,69.09276]],[[15.95427,69.09713],[15.95723,69.09939],[15.95918,69.0998],[15.96087,69.10357],[15.96489,69.10534]],[[15.60525,69.11903],[15.59576,69.11834],[15.60211,69.12038],[15.60326,69.11954],[15.60681,69.11949]],[[15.96643,69.10893],[15.96551,69.10686],[15.96681,69.10637],[15.96489,69.10534]],[[15.96643,69.10893],[15.96995,69.11092],[15.97322,69.11113],[15.97509,69.1124],[15.97929,69.1137],[15.98318,69.11364],[15.98328,69.11412],[15.98174,69.11459],[15.98347,69.11583],[15.98695,69.11651],[15.99091,69.11671],[15.99392,69.11766],[15.99385,69.11973],[15.99811,69.1215],[15.99639,69.12192]],[[15.99639,69.12192],[15.99791,69.12294],[15.99889,69.12298],[16.00033,69.12181]],[[15.61806,69.12432],[15.61933,69.12551],[15.6215,69.1255]],[[15.56886,69.09446],[15.56707,69.09534],[15.56381,69.09512],[15.56385,69.0956],[15.56624,69.09594],[15.56608,69.0966],[15.56326,69.09704],[15.55999,69.09911],[15.56552,69.1024],[15.57004,69.10402],[15.56985,69.1048],[15.56707,69.10441],[15.56389,69.1051],[15.56377,69.10546],[15.56903,69.10587],[15.57389,69.10494],[15.57841,69.10579],[15.58427,69.10525],[15.58438,69.10592],[15.58087,69.10668],[15.58012,69.1076],[15.58187,69.1082],[15.58107,69.10899],[15.58167,69.10993],[15.5931,69.1077],[15.59677,69.10874],[15.59719,69.10975],[15.59912,69.11028],[15.60159,69.10964],[15.60295,69.11057],[15.60262,69.11113],[15.61444,69.11535],[15.61449,69.11677],[15.61173,69.11791]],[[15.60672,69.11661],[15.6016,69.11639],[15.59814,69.11699],[15.60026,69.11781],[15.60518,69.11863]],[[15.67118,69.13893],[15.67371,69.13892]],[[15.60729,69.11971],[15.60896,69.1203],[15.60676,69.12092],[15.61111,69.12292],[15.60768,69.12384],[15.60871,69.12456],[15.61237,69.12416],[15.61219,69.12467],[15.61412,69.1259],[15.61674,69.12421],[15.61806,69.12432]],[[15.6215,69.1255],[15.62211,69.12582],[15.62075,69.12621],[15.62192,69.12666],[15.6287,69.12588]],[[15.65961,69.12909],[15.65476,69.1301],[15.65002,69.13],[15.64606,69.13038]],[[15.6287,69.12588],[15.63063,69.12627],[15.62951,69.12711],[15.63222,69.12806],[15.63129,69.12863],[15.63359,69.1291],[15.636,69.12876],[15.63738,69.12935],[15.63684,69.13047],[15.64606,69.13038]],[[15.68539,69.13775],[15.6911,69.13787],[15.69305,69.13752],[15.69565,69.13773],[15.70297,69.13724]],[[15.65961,69.12909],[15.66637,69.13016],[15.66781,69.13111],[15.67046,69.13126],[15.67132,69.13215],[15.67122,69.13421],[15.66984,69.13534],[15.66629,69.13642],[15.6692,69.13709],[15.66509,69.13741],[15.66428,69.13803],[15.6706,69.13774],[15.67209,69.13811],[15.67697,69.13732],[15.68295,69.13828],[15.68539,69.13775]],[[15.67445,69.13892],[15.67371,69.13892]],[[15.72201,69.13873],[15.72193,69.13782],[15.71425,69.13851],[15.70975,69.13798],[15.7041,69.13839],[15.70492,69.13747],[15.70297,69.13724]],[[15.66917,69.13894],[15.669,69.13931],[15.67215,69.14001],[15.67569,69.13958],[15.67445,69.13892]],[[15.68477,69.14108],[15.68488,69.1406],[15.68649,69.14028],[15.68617,69.13991],[15.68321,69.1401],[15.68259,69.13942],[15.67947,69.13953],[15.67945,69.14107],[15.68314,69.14105],[15.68391,69.14199],[15.68477,69.14108]],[[15.74201,69.14184],[15.74532,69.14202]],[[15.74532,69.14202],[15.75221,69.14411],[15.75508,69.14427]],[[15.75516,69.14667],[15.7512,69.14752],[15.75437,69.14746],[15.7552,69.14776]],[[15.7552,69.14776],[15.75749,69.14736],[15.75516,69.14667]],[[15.72063,69.14567],[15.72122,69.14498],[15.71917,69.14563],[15.71525,69.14571],[15.71225,69.14664],[15.71473,69.14692],[15.71709,69.14793],[15.71834,69.14787],[15.72028,69.14698],[15.72063,69.14567]],[[15.72201,69.13873],[15.72176,69.13936],[15.71996,69.13979],[15.71723,69.13955],[15.71515,69.13984],[15.7177,69.14246],[15.71551,69.14321],[15.71683,69.14447],[15.71803,69.14468],[15.72194,69.14361],[15.72624,69.14372],[15.72536,69.14507],[15.72754,69.14601],[15.72444,69.14679],[15.72592,69.14819],[15.72799,69.148],[15.73135,69.14627],[15.73309,69.14598],[15.73331,69.14468],[15.74072,69.14377],[15.741,69.14314],[15.73819,69.14254],[15.74201,69.14184]],[[15.68507,69.14751],[15.68246,69.14722],[15.68219,69.14818],[15.6802,69.14856],[15.6803,69.14934],[15.6834,69.15021],[15.68552,69.1487],[15.68507,69.14751]],[[15.72016,69.14851],[15.71903,69.14834],[15.71696,69.15011],[15.72119,69.14889],[15.72016,69.14851]],[[15.67292,69.1582],[15.67108,69.1577],[15.67001,69.158],[15.67049,69.15866],[15.67369,69.15933],[15.67292,69.1582]],[[15.75508,69.14427],[15.75985,69.14523],[15.76392,69.14672],[15.76693,69.14888],[15.76693,69.14954],[15.77112,69.14934],[15.77592,69.15013],[15.79332,69.15474],[15.79844,69.15677],[15.8038,69.16002],[15.809,69.16172]],[[15.80776,69.1749],[15.80555,69.17471],[15.801,69.17506],[15.80718,69.17665],[15.81122,69.17639],[15.80776,69.1749]],[[15.81656,69.17244],[15.81232,69.17532],[15.81469,69.17724],[15.81747,69.17847]],[[15.82033,69.18313],[15.81226,69.18193],[15.81428,69.18102],[15.81316,69.18032],[15.81554,69.1802],[15.81822,69.17903]],[[15.82033,69.18313],[15.82,69.18376],[15.82348,69.18443],[15.82416,69.18544]],[[15.82476,69.18565],[15.82709,69.18636],[15.82741,69.18717],[15.82314,69.19024],[15.81096,69.1889],[15.80528,69.1892],[15.803,69.19002],[15.80096,69.18956],[15.79651,69.18974],[15.79494,69.19011],[15.79493,69.19051],[15.79793,69.19106],[15.80079,69.19097],[15.80239,69.19049],[15.82174,69.1909],[15.82225,69.19133],[15.8202,69.19248],[15.81762,69.19324],[15.81542,69.19329],[15.81532,69.19362],[15.8177,69.19398],[15.82247,69.1938],[15.82525,69.19418],[15.8258,69.1948],[15.82991,69.19524],[15.83698,69.19539]],[[15.8357,69.1959],[15.83317,69.1959],[15.83414,69.19693],[15.83332,69.19732],[15.8368,69.19756],[15.83784,69.19706],[15.8357,69.1959]],[[15.86331,69.22777],[15.8611,69.22684],[15.85802,69.22724],[15.85502,69.22699],[15.84899,69.2253],[15.84236,69.22441],[15.84112,69.22381],[15.84148,69.22248],[15.84692,69.2229],[15.84532,69.222],[15.84769,69.22159],[15.84679,69.22097],[15.8512,69.22163],[15.85352,69.22045],[15.854,69.218],[15.84983,69.21652],[15.85365,69.21613],[15.85495,69.21482],[15.857,69.21184],[15.85389,69.21078],[15.85423,69.21013],[15.85313,69.20965],[15.85593,69.20945],[15.85838,69.2083],[15.86019,69.20531],[15.85733,69.20239],[15.85238,69.20017],[15.85431,69.19973],[15.85402,69.19899],[15.85104,69.19798],[15.84777,69.19746],[15.84537,69.19754],[15.84358,69.19826],[15.84021,69.19831],[15.83899,69.19791],[15.84007,69.1975],[15.84032,69.19653],[15.83816,69.1959]],[[15.83583,69.23734],[15.83429,69.23734],[15.83416,69.23805],[15.83879,69.23912],[15.83798,69.23811],[15.83583,69.23734]],[[15.85336,69.25402],[15.8496,69.25398],[15.84767,69.25487],[15.85442,69.25492],[15.85503,69.25436],[15.85336,69.25402]],[[15.87337,69.27256],[15.86678,69.27096],[15.86443,69.27126],[15.86627,69.27259]],[[15.94049,69.27221],[15.9262,69.26881],[15.92258,69.26898],[15.91759,69.26639],[15.91385,69.26571],[15.91128,69.26582],[15.90699,69.26429],[15.90145,69.26479],[15.89926,69.26422],[15.89518,69.26415],[15.8907,69.26172],[15.88718,69.26111],[15.8856,69.25956]],[[15.86331,69.22777],[15.86583,69.22922],[15.86773,69.23163],[15.86734,69.23459],[15.86536,69.23652],[15.86115,69.23717],[15.85995,69.23797],[15.85739,69.23842],[15.8505,69.23787],[15.84459,69.23668],[15.84305,69.23688],[15.84477,69.23768],[15.84105,69.23804],[15.84499,69.2404],[15.84791,69.24051],[15.8578,69.24278],[15.85989,69.24377],[15.85897,69.24497],[15.85983,69.24578],[15.86359,69.24727],[15.86241,69.24828],[15.85897,69.24902],[15.8572,69.24994],[15.85563,69.25005],[15.85735,69.25132],[15.85695,69.25184],[15.85394,69.25162],[15.8532,69.25225],[15.85197,69.25237],[15.84854,69.25192],[15.84806,69.25215],[15.84966,69.25321],[15.85332,69.2536],[15.85734,69.2549],[15.85917,69.25458],[15.8677,69.25092],[15.87545,69.25199],[15.88212,69.25508],[15.8856,69.25956]],[[15.94049,69.27221],[15.94341,69.27328],[15.94569,69.27306],[15.94942,69.27425],[15.95138,69.27347]],[[15.87072,69.27257],[15.87407,69.27591],[15.87876,69.27585],[15.88022,69.27516],[15.87994,69.27347],[15.87885,69.27294],[15.87337,69.27256]],[[15.95138,69.27347],[15.95673,69.274],[15.9641,69.27651]],[[15.9641,69.27651],[15.96888,69.27843],[15.97363,69.28145],[15.97694,69.28513],[15.98011,69.28652],[15.98433,69.28728],[15.99029,69.28972],[15.99425,69.29423],[15.99403,69.29488],[15.99214,69.29521],[15.99298,69.29681],[15.99048,69.29748],[15.99028,69.29812],[15.99318,69.29809],[15.99556,69.29907],[15.99929,69.29894],[16.00304,69.29954]],[[15.98425,69.30122],[15.98237,69.30107],[15.98167,69.30176],[15.98376,69.30278],[15.98518,69.30155],[15.98425,69.30122]]]}}]}