{"type":"FeatureCollection","features":[{"type":"Feature","properties":{},"geometry":{"type":"MultiLineString","coordinates":[[[19.02758,69.81531],[19.03152,69.81421],[19.03668,69.81157]],[[18.99321,69.81964],[19.00354,69.81233]],[[19.02758,69.81531],[19.02109,69.81631],[19.02154,69.81978],[19.01896,69.82242],[19.01684,69.82341],[19.01235,69.82868],[19.01375,69.83305],[19.0068,69.83497],[19.00589,69.83688],[19.00013,69.83886],[18.99552,69.84119]],[[19.00766,69.64925],[19.00711,69.64898]],[[19.00733,69.68639],[19.00766,69.68487],[19.00645,69.68309],[19.00212,69.68141]],[[19.00868,69.68765],[19.00733,69.68639]],[[19.14452,69.74035],[19.1454,69.74024]],[[19.16466,69.74217],[19.16503,69.74214]],[[18.99827,69.65203],[19.0015,69.65241],[19.00322,69.6517],[19.00473,69.64951],[19.00711,69.64898]],[[19.04368,69.67664],[19.04266,69.67535],[19.03495,69.67246],[19.02826,69.66889],[19.02284,69.66847],[19.01852,69.66733],[19.01686,69.6662],[19.01814,69.66442],[19.01736,69.66346],[19.01376,69.66201],[19.01118,69.66184],[19.00647,69.65589],[19.00084,69.65424],[19.0025,69.65321],[19.00432,69.65298],[19.00599,69.64995],[19.00766,69.64925]],[[18.99986,69.68062],[19.00212,69.68141]],[[19.04368,69.67664],[19.04805,69.67803],[19.05104,69.67851],[19.05648,69.6808],[19.05911,69.68323],[19.05721,69.6846],[19.06407,69.68602],[19.06579,69.68563],[19.06846,69.68621],[19.07527,69.69165]],[[19.08683,69.70479],[19.08067,69.69876],[19.07783,69.6971],[19.07848,69.69617],[19.07783,69.6945],[19.07527,69.69165]],[[19.0161,69.71244],[19.01841,69.70954],[19.02106,69.70942],[19.02199,69.70782],[19.0231,69.70741],[19.02349,69.70506],[19.01743,69.70438],[19.0183,69.70396],[19.02007,69.70402],[19.02094,69.70336],[19.02099,69.69778],[19.02395,69.69646],[19.02283,69.69612],[19.01913,69.69665],[19.01674,69.69554],[19.01589,69.69473],[19.0178,69.69412],[19.01819,69.69281],[19.01407,69.68843],[19.00868,69.68765]],[[18.99578,69.71248],[19.00221,69.71328],[19.00841,69.71465]],[[19.00841,69.71465],[19.01314,69.71461],[19.01579,69.71342],[19.0161,69.71244]],[[19.09294,69.7204],[19.09081,69.71918],[19.08936,69.7153],[19.092,69.71106],[19.08683,69.70479]],[[19.09299,69.72042],[19.09294,69.7204]],[[19.09299,69.72042],[19.09436,69.72178],[19.09356,69.72504],[19.09686,69.72759],[19.09761,69.72996]],[[19.00649,69.73835],[19.00172,69.73547],[18.99579,69.73461]],[[19.00649,69.73835],[19.01367,69.74237]],[[19.09761,69.72996],[19.09331,69.73377],[19.09827,69.73411],[19.10024,69.73509],[19.10672,69.73661],[19.11646,69.74046],[19.11715,69.74145]],[[19.14195,69.74246],[19.14337,69.74265]],[[19.14337,69.74265],[19.15141,69.74267],[19.15279,69.74229],[19.15307,69.74174],[19.15116,69.74064],[19.1454,69.74024]],[[19.16926,69.74257],[19.16804,69.74251]],[[19.14345,69.74309],[19.1493,69.74318],[19.15364,69.7445],[19.15337,69.7432],[19.1555,69.74253],[19.15957,69.74277],[19.16052,69.74318],[19.16466,69.74217]],[[19.11715,69.74145],[19.11704,69.74256],[19.11876,69.74343],[19.12557,69.74537],[19.12756,69.74689],[19.13122,69.74787],[19.13498,69.74699],[19.13923,69.74815],[19.14121,69.74776],[19.14354,69.74603],[19.14021,69.74508],[19.14046,69.74416],[19.14182,69.74297],[19.14345,69.74309]],[[19.16926,69.74257],[19.16852,69.74346],[19.17092,69.74443],[19.17345,69.74686],[19.17638,69.74797]],[[19.04834,69.76638],[19.04773,69.76475],[19.0487,69.76377],[19.04791,69.76294],[19.04296,69.76148],[19.04046,69.75932],[19.02765,69.7523],[19.02641,69.7496],[19.02371,69.74775],[19.02423,69.74604],[19.01989,69.74378],[19.01367,69.74237]],[[19.06191,69.78424],[19.05976,69.78468],[19.05739,69.78669],[19.06083,69.78587],[19.06191,69.78424]],[[19.02389,69.79603],[19.02809,69.79202],[19.03297,69.78909],[19.03896,69.7866],[19.04113,69.78454],[19.04473,69.78297],[19.04705,69.77885],[19.05064,69.77701],[19.05153,69.77498],[19.0547,69.7734],[19.05332,69.77012],[19.05065,69.7689],[19.04834,69.76638]],[[19.00354,69.81233],[19.01378,69.80625],[19.02001,69.80144],[19.02159,69.79953],[19.02173,69.7977],[19.02389,69.79603]],[[19.03668,69.81157],[19.04766,69.80837],[19.04871,69.80556],[19.05768,69.80113],[19.05982,69.79936],[19.0592,69.79857],[19.06088,69.79645],[19.06386,69.79587],[19.06621,69.79419],[19.06668,69.79136],[19.07294,69.79022],[19.07581,69.78925],[19.08946,69.78731],[19.09291,69.78749],[19.09794,69.78659],[19.10118,69.7866],[19.11208,69.78791],[19.11944,69.78743],[19.13181,69.78763],[19.14345,69.78887],[19.1488,69.79012],[19.15273,69.79026]],[[19.09718,69.38161],[19.10669,69.37845]],[[19.06584,69.40659],[19.06652,69.40304]],[[19.10947,69.55935],[19.10771,69.55918]],[[18.99721,69.28758],[19.00367,69.28783],[19.00558,69.28715],[19.00539,69.28816]],[[18.99954,69.29305],[19.0026,69.29194],[19.0048,69.29015],[19.00539,69.28816]],[[19.12678,69.34409],[19.13972,69.34326],[19.15078,69.34392]],[[19.15078,69.34392],[19.15906,69.34346],[19.17107,69.3442],[19.17788,69.3455],[19.19429,69.3456]],[[19.0689,69.35549],[19.08061,69.35187],[19.09118,69.34916],[19.10066,69.34774],[19.1091,69.3459],[19.11404,69.3458],[19.11893,69.34483],[19.12678,69.34409]],[[19.0689,69.35549],[19.05019,69.36203]],[[19.13306,69.37479],[19.14887,69.37515],[19.16332,69.37476]],[[19.13306,69.37479],[19.12213,69.37431],[19.1194,69.37448],[19.10669,69.37845]],[[19.20047,69.37733],[19.17456,69.37504],[19.16332,69.37476]],[[19.00719,69.38211],[19.02531,69.37359],[19.03406,69.36852],[19.05019,69.36203]],[[19.09718,69.38161],[19.08949,69.38451],[19.08306,69.38773]],[[19.07584,69.39222],[19.08306,69.38773]],[[18.99989,69.38562],[19.00719,69.38211]],[[19.06652,69.40304],[19.06719,69.4003],[19.0722,69.39508],[19.07295,69.39272],[19.07584,69.39222]],[[19.06584,69.40659],[19.06406,69.41021],[19.06525,69.41197]],[[19.06267,69.42279],[19.06444,69.41629],[19.0638,69.41513],[19.06525,69.41197]],[[19.06267,69.42279],[19.06119,69.42465],[19.05935,69.42538],[19.05868,69.42961],[19.05647,69.43161]],[[19.0374,69.43843],[19.05315,69.43391],[19.05591,69.43266],[19.05647,69.43161]],[[18.99655,69.44467],[19.00075,69.44395],[19.00318,69.44163],[19.0095,69.44078],[19.0108,69.44002],[19.01778,69.44038],[19.03105,69.4397],[19.0374,69.43843]],[[19.01096,69.51057],[19.01531,69.50856]],[[18.99966,69.51093],[19.00237,69.51119],[19.00676,69.50997],[19.00822,69.50919],[19.00781,69.50865],[19.01014,69.50779],[19.01499,69.50812]],[[19.01096,69.51057],[19.00823,69.51206],[19.00258,69.51314],[19.00304,69.51431],[19.00628,69.51629]],[[19.00116,69.53007],[18.99694,69.53323]],[[19.03709,69.54203],[19.03668,69.53977],[19.03381,69.53731],[19.02213,69.53284],[19.02076,69.53092],[19.01503,69.52925],[19.00934,69.52858],[19.00513,69.52875],[19.00116,69.53007]],[[19.06744,69.54132],[19.06605,69.5392],[19.06409,69.53817],[19.05723,69.53145],[19.05111,69.52809],[19.04125,69.52518],[19.0299,69.52052],[19.02645,69.52067],[19.02548,69.5215],[19.02496,69.52057],[19.02357,69.52011],[19.00997,69.51884],[19.00628,69.51629]],[[19.06744,69.54132],[19.0737,69.54547],[19.07838,69.54707],[19.0847,69.54833],[19.08912,69.54828],[19.10584,69.54943]],[[19.03709,69.54203],[19.03761,69.54547],[19.04026,69.54936],[19.03959,69.54991],[19.05047,69.55338],[19.06413,69.5564],[19.08481,69.55749],[19.09028,69.55732],[19.09404,69.55818],[19.10771,69.55918]],[[19.13077,69.56142],[19.12693,69.5604],[19.12038,69.56041],[19.10947,69.55935]],[[19.13077,69.56142],[19.13694,69.56191],[19.14098,69.5603],[19.14765,69.56061],[19.15321,69.56482],[19.15937,69.56697],[19.16019,69.56907],[19.16199,69.5701],[19.1669,69.57076],[19.16895,69.57185],[19.17071,69.57208],[19.17588,69.57148],[19.17891,69.57197],[19.18382,69.57127],[19.18317,69.57087],[19.18475,69.5698],[19.18499,69.56828],[19.17936,69.56247],[19.17915,69.55955],[19.18073,69.55774],[19.183,69.55634],[19.18755,69.55512],[19.19083,69.55125],[19.19557,69.54783],[19.21536,69.53781]],[[19.10584,69.54943],[19.11968,69.55062],[19.12679,69.55235],[19.13354,69.5533],[19.13623,69.55305],[19.14475,69.55369],[19.15267,69.55365],[19.15951,69.55438],[19.16484,69.55391],[19.17097,69.54772],[19.17196,69.5458],[19.17511,69.54484],[19.17661,69.54306],[19.18665,69.5385]],[[19.401,69.9923],[19.39922,69.99078],[19.4027,69.99058],[19.4048,69.98984],[19.40645,69.98893],[19.40511,69.98832]],[[19.38395,70],[19.38614,69.99901]],[[19.8493,69.99263],[19.85126,69.99191],[19.85924,69.98504]],[[19.74269,69.56922],[19.74134,69.56793]],[[19.69668,69.57455],[19.69175,69.5706]],[[19.75344,69.59666],[19.74188,69.59907]],[[19.90409,69.59735],[19.9105,69.59575],[19.91389,69.59392]],[[19.89093,69.61025],[19.89441,69.61]],[[19.67425,69.65679],[19.66888,69.65605],[19.67203,69.65738],[19.67617,69.65725],[19.67425,69.65679]],[[19.64277,69.65813],[19.64366,69.65875]],[[19.63664,69.66197],[19.63656,69.66035],[19.63538,69.65997],[19.63598,69.65937],[19.63759,69.65909],[19.63575,69.65779],[19.63292,69.65743]],[[19.63696,69.66407],[19.63664,69.66197]],[[19.63867,69.66483],[19.63696,69.66407]],[[19.67593,69.75268],[19.67811,69.75077]],[[19.67302,69.75691],[19.67523,69.75654],[19.67326,69.75531]],[[19.19967,69.76284],[19.20266,69.76438],[19.20806,69.76576],[19.21748,69.76692],[19.22474,69.76854],[19.23955,69.77041],[19.24785,69.77243],[19.25117,69.77399],[19.25991,69.77523],[19.26625,69.77705]],[[19.72119,69.77871],[19.7198,69.77693],[19.7177,69.77601]],[[19.99241,69.7792],[19.99263,69.78015],[19.99008,69.78112]],[[19.57193,69.79851],[19.56779,69.79735]],[[19.53104,69.79956],[19.53183,69.79969]],[[19.54477,69.80014],[19.54714,69.79915]],[[19.2694,69.80609],[19.27197,69.80685],[19.28079,69.80677],[19.28614,69.80725]],[[19.93862,69.82114],[19.94025,69.82238]],[[19.9931,69.83204],[19.99233,69.82993]],[[19.9636,69.83288],[19.96508,69.83455]],[[19.78155,69.91889],[19.78382,69.92496],[19.78597,69.92606],[19.7911,69.92756]],[[19.79333,69.92925],[19.79282,69.92802],[19.7911,69.92756]],[[19.54794,69.95597],[19.56014,69.957],[19.57909,69.95782]],[[19.83731,69.9507],[19.83985,69.95195]],[[19.87778,69.97062],[19.87739,69.97016]],[[19.72617,69.97425],[19.72946,69.97791]],[[19.53299,69.98304],[19.53319,69.98291]],[[19.37008,69.98803],[19.37552,69.98903],[19.37705,69.98893]],[[19.39223,69.98824],[19.40079,69.98744],[19.40511,69.98832]],[[19.37705,69.98893],[19.37752,69.98775],[19.38112,69.98773],[19.38433,69.98833],[19.38605,69.99014],[19.38712,69.98996],[19.38703,69.98934],[19.38927,69.98888],[19.39253,69.98959],[19.39106,69.98855],[19.39223,69.98824]],[[19.87925,69.97867],[19.88127,69.97717],[19.88243,69.97377]],[[19.53479,69.98299],[19.54019,69.98365],[19.54572,69.98587],[19.55714,69.9894]],[[19.85924,69.98504],[19.86488,69.9818],[19.87725,69.97989],[19.87925,69.97867]],[[19.401,69.9923],[19.39945,69.99321],[19.39257,69.99289],[19.3911,69.99229],[19.38803,69.99231],[19.3877,69.99408],[19.39123,69.99503],[19.38958,69.99563],[19.38601,69.99544],[19.38614,69.99901]],[[19.55714,69.9894],[19.5603,69.9919],[19.55644,69.99583],[19.55708,69.9969]],[[19.32667,70.00432],[19.33537,69.9993],[19.33958,69.99863],[19.34174,69.99582],[19.34695,69.99316],[19.36186,69.98885],[19.36659,69.9881]],[[19.55708,69.9969],[19.55702,70.0016]],[[19.97376,70.00189],[19.96803,69.99949],[19.96548,69.99716],[19.96675,69.99577],[19.96463,69.99494],[19.95538,69.9969],[19.94812,69.9975],[19.94246,69.99709],[19.93834,69.99639],[19.93441,69.9951],[19.92775,69.99417],[19.92027,69.99419],[19.91362,69.99509],[19.90943,69.99611]],[[19.72946,69.97791],[19.73265,69.98072],[19.73699,69.98648],[19.73725,69.98981],[19.73861,69.99133],[19.74371,69.99315],[19.75055,69.99709],[19.77396,70.00733]],[[19.82901,70.00129],[19.83763,69.99903],[19.84351,69.996],[19.846,69.99358],[19.8493,69.99263]],[[19.90943,69.99611],[19.90082,69.9984],[19.89123,70.00184]],[[19.66748,70.00025],[19.6728,69.99794],[19.674,69.99561],[19.6721,69.98831],[19.6677,69.98139],[19.66876,69.97952]],[[19.54357,70.00081],[19.53978,69.99463],[19.53678,69.99321],[19.53608,69.98955],[19.53239,69.98435],[19.53299,69.98304]],[[19.69547,69.50613],[19.69309,69.50598],[19.69111,69.5066],[19.69261,69.50801],[19.69455,69.50851],[19.69728,69.50834],[19.69808,69.50742],[19.69652,69.50709],[19.69547,69.50613]],[[19.23059,69.53062],[19.24309,69.52415],[19.24889,69.51946],[19.24787,69.5175],[19.24363,69.51661],[19.24336,69.51554],[19.23983,69.51461],[19.23868,69.51384],[19.24079,69.51209],[19.2413,69.51012],[19.23654,69.51386],[19.23777,69.51479],[19.23769,69.51594],[19.23574,69.51654],[19.2321,69.51669],[19.23006,69.51747],[19.22829,69.51898]],[[19.18665,69.5385],[19.19079,69.53667],[19.19459,69.53604],[19.196,69.53503],[19.20516,69.53151],[19.21002,69.53023],[19.21039,69.52931],[19.21486,69.52663],[19.22286,69.52391],[19.22617,69.52154],[19.22829,69.51898]],[[19.21536,69.53781],[19.22251,69.53377],[19.23059,69.53062]],[[19.6352,69.52716],[19.63036,69.51872],[19.63248,69.51781],[19.63573,69.51779],[19.63574,69.51686],[19.63118,69.51086],[19.63482,69.50963],[19.63466,69.50865],[19.6378,69.50682],[19.63665,69.50605],[19.63445,69.50558],[19.63405,69.50495],[19.6362,69.50309],[19.6359,69.50118],[19.63909,69.49845],[19.63879,69.49709],[19.64752,69.4945],[19.64958,69.49143],[19.65193,69.49039],[19.66347,69.48945],[19.6709,69.48812],[19.67286,69.48418],[19.66892,69.48131]],[[19.73024,69.52461],[19.72786,69.52314],[19.72847,69.52235],[19.72328,69.51956],[19.72233,69.51797],[19.71513,69.51577],[19.71461,69.51326],[19.71098,69.51075],[19.71247,69.50969],[19.7126,69.50792],[19.70884,69.5058],[19.70547,69.50581],[19.70483,69.50695],[19.70302,69.50663],[19.70628,69.50441],[19.70937,69.50349],[19.70728,69.50195],[19.70808,69.50095],[19.71074,69.50036],[19.71074,69.49959],[19.71764,69.4978],[19.72696,69.49682],[19.73152,69.49499],[19.73136,69.49104],[19.73281,69.48714],[19.72982,69.48439],[19.72872,69.48405],[19.72356,69.48415],[19.72132,69.48326],[19.71805,69.48288],[19.71542,69.48197],[19.71309,69.48012]],[[19.6393,69.54058],[19.63882,69.53954],[19.64039,69.53662],[19.64183,69.53572],[19.64225,69.53274],[19.64176,69.53211],[19.63893,69.53128],[19.6352,69.52716]],[[19.64991,69.54917],[19.64789,69.54581],[19.6416,69.54174]],[[19.71926,69.5474],[19.71825,69.54565],[19.72318,69.54329],[19.72452,69.54128],[19.72662,69.54014],[19.72725,69.53858],[19.72993,69.53797],[19.7319,69.53839],[19.73414,69.53804],[19.73338,69.53687],[19.73619,69.53532],[19.73817,69.53496],[19.7389,69.53429],[19.73725,69.53375],[19.73793,69.53286],[19.74043,69.53225],[19.73892,69.52707],[19.73024,69.52461]],[[19.71926,69.5474],[19.71597,69.55178],[19.71885,69.5539],[19.71643,69.55503],[19.72293,69.5577]],[[19.67155,69.55967],[19.66871,69.55832],[19.67004,69.55675],[19.66835,69.55486],[19.66132,69.5513],[19.658,69.54823],[19.65614,69.54846],[19.65812,69.54966],[19.65715,69.55047],[19.64991,69.54917]],[[19.73367,69.5633],[19.72938,69.56117],[19.72491,69.55968],[19.72293,69.5577]],[[19.73367,69.5633],[19.74134,69.56793]],[[19.69175,69.5706],[19.68938,69.56784],[19.68493,69.56454],[19.67768,69.56157],[19.67155,69.55967]],[[19.69122,69.58101],[19.69251,69.57965],[19.69978,69.57782],[19.69668,69.57455]],[[19.74269,69.56922],[19.74882,69.57236],[19.75121,69.57497],[19.75085,69.57718],[19.75256,69.5809],[19.75634,69.58496]],[[19.75772,69.59117],[19.75796,69.58667],[19.75634,69.58496]],[[19.75772,69.59117],[19.75344,69.59666]],[[19.91389,69.59392],[19.91544,69.59313],[19.92647,69.59193],[19.93597,69.58961],[19.94607,69.58769],[19.95481,69.5863],[19.96348,69.58554],[19.9717,69.5833],[19.98579,69.58206],[19.99654,69.58226],[20.01319,69.58187]],[[19.74188,69.59907],[19.73914,69.59897],[19.73781,69.59846],[19.73976,69.59649]],[[19.73976,69.59649],[19.7418,69.59503],[19.74199,69.59392],[19.74117,69.59247],[19.73961,69.5919],[19.73757,69.59365],[19.73367,69.59464],[19.72865,69.59757],[19.7303,69.59992],[19.73163,69.60033]],[[19.88804,69.5977],[19.89215,69.59713],[19.89485,69.5976],[19.90409,69.59735]],[[19.71782,69.60689],[19.71454,69.60403],[19.71346,69.60161],[19.7085,69.60017],[19.70497,69.59437],[19.70138,69.59264],[19.69348,69.58544],[19.69122,69.58101]],[[19.73163,69.60033],[19.73324,69.60077],[19.73322,69.60205],[19.73124,69.60342],[19.72924,69.60363],[19.72938,69.60665],[19.7303,69.60762],[19.73613,69.6079],[19.74294,69.60726],[19.75478,69.60712],[19.76137,69.60747]],[[19.70862,69.61389],[19.71106,69.61115],[19.71763,69.60813],[19.71782,69.60689]],[[19.91452,69.60833],[19.92386,69.60766],[19.94463,69.60466],[19.95491,69.59936],[19.95914,69.59853],[19.96296,69.59867],[19.96671,69.59783],[19.96569,69.59561],[19.96873,69.59479],[19.99612,69.5902],[20.01477,69.58856]],[[19.76137,69.60747],[19.76366,69.60817],[19.76392,69.60989],[19.77172,69.61046],[19.77487,69.61115],[19.77652,69.6122],[19.78656,69.61244],[19.79401,69.61097],[19.80458,69.60819],[19.80626,69.60698],[19.80545,69.60548],[19.80728,69.6048],[19.81347,69.60492],[19.81782,69.60435],[19.82342,69.60522],[19.83275,69.60565],[19.84037,69.60518],[19.84251,69.60461],[19.84352,69.6019],[19.84979,69.6],[19.85263,69.5997],[19.85437,69.59988],[19.85762,69.60055],[19.85941,69.60189],[19.86576,69.60234],[19.87262,69.60121],[19.88804,69.5977]],[[19.70857,69.6151],[19.70862,69.61389]],[[19.89441,69.61],[19.90959,69.60926],[19.91452,69.60833]],[[19.89093,69.61025],[19.88075,69.61088],[19.87561,69.61162],[19.87255,69.6126],[19.86242,69.61288],[19.86076,69.61347],[19.86528,69.61561],[19.86458,69.6169],[19.86117,69.61567],[19.85972,69.61577],[19.85777,69.61683],[19.8419,69.6188],[19.84001,69.62005],[19.83565,69.62071],[19.82896,69.62707],[19.82632,69.6313]],[[19.82066,69.63516],[19.82397,69.63322],[19.82418,69.6318],[19.82632,69.6313]],[[19.62373,69.65859],[19.62617,69.65694],[19.62684,69.65712],[19.63331,69.65602],[19.63486,69.65539],[19.63906,69.65607],[19.64277,69.65813]],[[19.63292,69.65743],[19.63006,69.65747],[19.62667,69.65817],[19.62511,69.65926]],[[19.67862,69.65759],[19.6829,69.65878],[19.69447,69.65734],[19.69784,69.6548],[19.70859,69.65183],[19.71577,69.65032],[19.71614,69.64919],[19.72098,69.64709],[19.72702,69.64691],[19.73273,69.64628],[19.73861,69.64239],[19.73806,69.63733],[19.73183,69.63383],[19.72714,69.63201],[19.72594,69.63029],[19.71689,69.62527],[19.70997,69.61911],[19.70857,69.6151]],[[19.64621,69.66172],[19.64366,69.65875]],[[19.65163,69.66157],[19.65942,69.65978],[19.67356,69.65844],[19.67862,69.65759]],[[19.8188,69.65706],[19.82037,69.6541],[19.819,69.65044],[19.81518,69.64751],[19.81461,69.64257],[19.81762,69.64051],[19.81803,69.63838],[19.82066,69.63516]],[[19.64621,69.66172],[19.64692,69.66611],[19.64908,69.66723],[19.65064,69.66652],[19.64977,69.66618],[19.6499,69.66327],[19.65163,69.66157]],[[19.63867,69.66483],[19.6393,69.66667],[19.64573,69.66819]],[[19.77674,69.67591],[19.80023,69.67018],[19.81023,69.66517],[19.80991,69.66333],[19.81748,69.65966],[19.8188,69.65706]],[[19.77674,69.67591],[19.77351,69.67794],[19.76944,69.67949],[19.77022,69.68284]],[[19.77022,69.68284],[19.76967,69.68377],[19.77274,69.68657],[19.7718,69.68843],[19.77253,69.68989],[19.77378,69.69066],[19.78043,69.69227]],[[19.67232,69.70597],[19.66677,69.69611],[19.66509,69.69119],[19.66507,69.68731],[19.6599,69.67596],[19.65509,69.67217],[19.65074,69.67044],[19.65131,69.66957],[19.64573,69.66819]],[[19.79321,69.70271],[19.79299,69.70128],[19.78859,69.69597],[19.78578,69.69394],[19.78043,69.69227]],[[19.79321,69.70271],[19.79467,69.70516],[19.79292,69.70856],[19.79543,69.71096]],[[19.79543,69.71096],[19.79468,69.71208],[19.79607,69.71372],[19.80367,69.71611]],[[19.80367,69.71611],[19.8116,69.7194],[19.81332,69.7219],[19.81581,69.72363]],[[19.81581,69.72363],[19.81869,69.72494],[19.82766,69.72545],[19.83466,69.72674]],[[19.83466,69.72674],[19.84572,69.73044]],[[19.19967,69.76284],[19.19785,69.76212],[19.19526,69.7621],[19.19278,69.75719],[19.18729,69.75483],[19.18528,69.75306],[19.17638,69.74797]],[[19.67811,69.75077],[19.68723,69.74788],[19.68893,69.74525],[19.69239,69.74275],[19.69897,69.74087],[19.70107,69.73859],[19.70081,69.73564],[19.6986,69.73033],[19.69491,69.72845],[19.69239,69.72528],[19.69306,69.72387],[19.68821,69.71951],[19.68253,69.7163],[19.68238,69.715],[19.67594,69.71062],[19.67232,69.70597]],[[19.84432,69.74627],[19.84634,69.74344],[19.84517,69.74156],[19.84633,69.73907],[19.84555,69.73224],[19.84779,69.73113],[19.84572,69.73044]],[[19.28003,69.77722],[19.28437,69.77679],[19.29054,69.77506]],[[19.67326,69.75531],[19.67111,69.75538],[19.66918,69.75611],[19.67078,69.75699],[19.67302,69.75691]],[[19.68263,69.75776],[19.67564,69.75649],[19.67833,69.75534],[19.67677,69.75503],[19.67593,69.75268]],[[19.29054,69.77506],[19.29268,69.77504],[19.30329,69.77662]],[[19.84432,69.74627],[19.83928,69.7492],[19.83581,69.75229],[19.84003,69.75461],[19.84333,69.76095],[19.84293,69.76305]],[[19.26625,69.77705],[19.27453,69.77928],[19.28003,69.77722]],[[19.96031,69.76096],[19.95498,69.76063],[19.95169,69.75997],[19.94711,69.75982],[19.9476,69.7605],[19.95096,69.76112],[19.95372,69.76215]],[[19.38354,69.77654],[19.38575,69.77765],[19.38672,69.77618],[19.3859,69.77587],[19.38426,69.77612]],[[19.30329,69.77662],[19.31256,69.77779],[19.31999,69.77931],[19.32444,69.77837],[19.32778,69.77857],[19.33182,69.77763],[19.33542,69.77615]],[[19.96031,69.76096],[19.95974,69.76306],[19.96522,69.76311],[19.96609,69.76269],[19.96933,69.76328]],[[19.33542,69.77615],[19.33975,69.77549],[19.35376,69.77646],[19.35529,69.77624],[19.35566,69.77544],[19.35821,69.77478],[19.36534,69.77466],[19.36688,69.77492],[19.36692,69.77582],[19.37252,69.7757],[19.38017,69.77821],[19.38624,69.77811],[19.39103,69.77732],[19.39851,69.77715],[19.40224,69.77767],[19.41056,69.78028]],[[19.7177,69.77601],[19.71319,69.77143],[19.70459,69.76774],[19.69182,69.75966],[19.68263,69.75776]],[[19.95254,69.77161],[19.95104,69.76817],[19.95335,69.767],[19.95137,69.76646],[19.95424,69.76643],[19.95578,69.76601],[19.95224,69.76446],[19.9519,69.76352],[19.95372,69.76215]],[[19.4768,69.79074],[19.46941,69.78942],[19.46491,69.78819],[19.46046,69.78633],[19.44639,69.78319],[19.44525,69.78374],[19.43979,69.78423],[19.43621,69.78552],[19.43289,69.78585],[19.42858,69.78501],[19.42143,69.78442],[19.41056,69.78028]],[[19.99241,69.7792],[19.98989,69.77546],[19.99056,69.77397],[19.98692,69.76848],[19.98411,69.76585],[19.97816,69.76408],[19.96933,69.76328]],[[19.90115,69.78233],[19.89721,69.78148],[19.88578,69.78036],[19.87698,69.7804],[19.8749,69.77929],[19.86244,69.77663],[19.85,69.77118],[19.84732,69.76809],[19.84775,69.76677],[19.84467,69.76559],[19.84293,69.76305]],[[19.4768,69.79074],[19.49282,69.79317],[19.49392,69.79408],[19.49942,69.79493]],[[19.56571,69.79685],[19.56158,69.79635],[19.55914,69.79655]],[[19.56571,69.79685],[19.56779,69.79735]],[[19.2694,69.80609],[19.26831,69.80508],[19.26648,69.80519],[19.2639,69.80603],[19.25811,69.80483],[19.25179,69.80079],[19.24003,69.79813],[19.23659,69.79692],[19.23128,69.79717],[19.21908,69.79664],[19.20542,69.79665],[19.2007,69.79636],[19.19691,69.79565],[19.19329,69.7958],[19.18582,69.79464],[19.1783,69.79205],[19.16931,69.7902],[19.16458,69.78999],[19.15681,69.79058],[19.15273,69.79026]],[[19.53104,69.79956],[19.52253,69.79775],[19.51914,69.79764],[19.51492,69.79687],[19.50637,69.79739],[19.49942,69.79493]],[[19.54714,69.79915],[19.55363,69.79716],[19.55914,69.79655]],[[19.91262,69.79686],[19.9175,69.80306],[19.9225,69.80703],[19.92502,69.81042],[19.93862,69.82114]],[[19.7276,69.7944],[19.72622,69.79187],[19.72108,69.7882],[19.72082,69.78566],[19.71715,69.78283],[19.71863,69.78134],[19.72224,69.78085],[19.72119,69.77871]],[[19.90808,69.78947],[19.90593,69.78797],[19.90671,69.78712],[19.90549,69.78429],[19.90347,69.78299],[19.90115,69.78233]],[[19.95254,69.77161],[19.95837,69.77471],[19.95801,69.77637],[19.9597,69.77687],[19.9582,69.77833],[19.95899,69.78066],[19.95666,69.78185],[19.958,69.78376],[19.96188,69.78636],[19.96194,69.78796]],[[19.9983,69.78693],[19.99269,69.78382],[19.98539,69.78154],[19.98595,69.78116],[19.99008,69.78112]],[[19.53183,69.79969],[19.54266,69.80051],[19.54477,69.80014]],[[19.90808,69.78947],[19.91051,69.79189],[19.91031,69.79357],[19.91262,69.79686]],[[19.97185,69.80125],[19.96781,69.79678],[19.96796,69.79545],[19.96504,69.79269],[19.96554,69.79196],[19.96194,69.78796]],[[19.57193,69.79851],[19.58205,69.80316],[19.59536,69.80445],[19.60155,69.80572],[19.61126,69.80868],[19.61887,69.81011],[19.629,69.81126],[19.63986,69.81073],[19.65776,69.81538],[19.66763,69.81537],[19.67848,69.8165]],[[19.67848,69.8165],[19.68546,69.81654],[19.70091,69.81543],[19.71214,69.81393],[19.7175,69.81227],[19.72136,69.81167],[19.72743,69.80702],[19.7298,69.80652],[19.73239,69.80501],[19.73196,69.8007],[19.7276,69.7944]],[[19.58149,69.9331],[19.57301,69.93007]],[[19.41421,69.82574],[19.41714,69.82483],[19.41765,69.824],[19.41618,69.82157]],[[19.41618,69.82157],[19.41591,69.81909],[19.41179,69.81744],[19.40358,69.81572],[19.39671,69.81545],[19.39558,69.81572],[19.39514,69.81726],[19.3976,69.81992],[19.40381,69.82342],[19.40506,69.82513],[19.40757,69.82583],[19.41213,69.826],[19.41421,69.82574]],[[20.00628,69.79574],[19.99847,69.79085],[19.99992,69.78874],[19.9983,69.78693]],[[19.42905,69.82716],[19.4275,69.82715],[19.42712,69.82866],[19.43267,69.8291],[19.42905,69.82716]],[[19.42106,69.83034],[19.42089,69.82951]],[[19.42089,69.82951],[19.41856,69.82857],[19.41222,69.83021],[19.41267,69.83181],[19.41516,69.83247],[19.41991,69.83228],[19.42106,69.83034]],[[19.94025,69.82238],[19.94474,69.82499],[19.94646,69.82559],[19.94868,69.82566]],[[19.94868,69.82566],[19.95357,69.82622],[19.95891,69.82885]],[[19.99233,69.82993],[19.98846,69.82073],[19.98452,69.81518],[19.98659,69.81402],[19.98599,69.81364],[19.98721,69.81183],[19.98143,69.81138],[19.97978,69.81049],[19.97302,69.80444],[19.97334,69.80345],[19.97185,69.80125]],[[19.37202,69.84851],[19.36416,69.84436],[19.36565,69.84224],[19.36261,69.83696],[19.35641,69.83504],[19.35426,69.83392],[19.35727,69.83021],[19.35443,69.82711],[19.35048,69.826],[19.34595,69.82356],[19.34259,69.82251],[19.33405,69.82097],[19.32535,69.82028],[19.32065,69.81788],[19.31111,69.81677],[19.30263,69.81318],[19.29949,69.80878],[19.29352,69.80794],[19.28799,69.80789],[19.28614,69.80725]],[[19.40877,69.8476],[19.40823,69.84393],[19.40597,69.84059],[19.40665,69.83845],[19.41043,69.83691],[19.42211,69.83531]],[[19.52633,69.84463],[19.52297,69.84419],[19.51545,69.84428],[19.50227,69.84372],[19.4916,69.84224],[19.47317,69.84078],[19.46891,69.83986],[19.46519,69.83822],[19.45792,69.83678],[19.45383,69.83661],[19.44723,69.83741],[19.44141,69.8375],[19.43812,69.83675],[19.43873,69.83491],[19.43614,69.83424],[19.43293,69.83464],[19.42594,69.83469],[19.42211,69.83531]],[[19.9636,69.83288],[19.95891,69.82885]],[[19.52633,69.84463],[19.53611,69.84606],[19.55095,69.84916],[19.55542,69.84936]],[[19.40877,69.8476],[19.40983,69.85155],[19.41136,69.85328],[19.41612,69.85506],[19.41705,69.85606],[19.42677,69.85745]],[[19.96508,69.83455],[19.9779,69.84424],[19.98372,69.84639],[19.98602,69.84673],[19.9902,69.84637],[19.99287,69.84695],[19.98899,69.84161],[19.99053,69.8353],[19.9931,69.83204]],[[19.55542,69.84936],[19.55856,69.84965],[19.58446,69.8498],[19.60901,69.85151],[19.63637,69.85418],[19.64151,69.85598],[19.65058,69.85757],[19.65772,69.85732],[19.6719,69.85499],[19.6868,69.85384]],[[19.4374,69.89182],[19.43376,69.89054]],[[19.37202,69.84851],[19.37789,69.8508],[19.37774,69.85201],[19.38172,69.85611],[19.38966,69.85925],[19.39819,69.86171],[19.40618,69.86466],[19.41132,69.86773],[19.4147,69.8725],[19.41728,69.87403],[19.41952,69.87648],[19.41749,69.87969],[19.42059,69.88098],[19.42398,69.8849],[19.43376,69.89054]],[[19.47618,69.89085],[19.46908,69.88721],[19.4547,69.8778],[19.44509,69.86822],[19.44121,69.86591],[19.43659,69.86069],[19.43125,69.85821],[19.42677,69.85745]],[[19.75907,69.88346],[19.75502,69.87983],[19.7528,69.87659],[19.75313,69.8734],[19.74971,69.8727],[19.73967,69.86513],[19.73406,69.86234],[19.73107,69.85941],[19.72317,69.85687],[19.7208,69.85461],[19.71841,69.8542],[19.70691,69.85417],[19.69878,69.85369],[19.6868,69.85384]],[[19.46947,69.90021],[19.46237,69.89731],[19.44629,69.8945],[19.4374,69.89182]],[[19.48465,69.9114],[19.48314,69.91065],[19.48345,69.90934],[19.48014,69.90757],[19.47724,69.90437],[19.46947,69.90021]],[[19.48606,69.91537],[19.4858,69.9122],[19.48465,69.9114]],[[19.78155,69.91889],[19.78007,69.91631],[19.77452,69.91161],[19.77398,69.91028],[19.7699,69.90737],[19.77133,69.90239],[19.76705,69.89602],[19.76699,69.8942],[19.76339,69.88764],[19.75907,69.88346]],[[19.47618,69.89085],[19.48201,69.89373],[19.48274,69.89556],[19.48659,69.89606],[19.49778,69.90214],[19.50954,69.91154],[19.52077,69.91934],[19.52634,69.92053],[19.53038,69.92232],[19.54067,69.92403],[19.54712,69.92568],[19.55885,69.92684],[19.57301,69.93007]],[[19.48978,69.93235],[19.49145,69.93138],[19.48923,69.93021],[19.49153,69.92873],[19.4903,69.92766],[19.4896,69.92476],[19.48591,69.92062],[19.48606,69.91537]],[[19.48854,69.93283],[19.48978,69.93235]],[[19.48174,69.93565],[19.48282,69.93513],[19.48197,69.93365],[19.48272,69.93316],[19.48854,69.93283]],[[19.47812,69.93734],[19.48174,69.93565]],[[19.58149,69.9331],[19.59017,69.93514],[19.60516,69.9343]],[[19.60516,69.9343],[19.60718,69.93449],[19.61837,69.9382],[19.61963,69.93809],[19.61887,69.93747],[19.62192,69.93764],[19.63154,69.94122]],[[19.80771,69.93898],[19.80489,69.93798],[19.80458,69.93653],[19.79634,69.93309],[19.79333,69.92925]],[[19.47812,69.93734],[19.47767,69.93828],[19.4725,69.93932],[19.47133,69.9404],[19.47041,69.94372],[19.47335,69.94507],[19.47037,69.94755],[19.47018,69.94894],[19.4716,69.94975],[19.47492,69.9502],[19.48029,69.94939],[19.49879,69.94881],[19.51095,69.95033],[19.53032,69.95373]],[[19.54794,69.95597],[19.53544,69.95468],[19.53032,69.95373]],[[19.80771,69.93898],[19.8164,69.9411],[19.82452,69.94462],[19.82864,69.94721],[19.83731,69.9507]],[[19.63154,69.94122],[19.63914,69.94485],[19.65106,69.94852],[19.66669,69.95483],[19.6688,69.9552],[19.66993,69.95472],[19.67561,69.95497],[19.68019,69.95645]],[[19.6048,69.96031],[19.5895,69.95775],[19.57909,69.95782]],[[19.68019,69.95645],[19.68425,69.95967],[19.68818,69.95998],[19.69083,69.96138]],[[19.6311,69.96831],[19.63004,69.96646],[19.62855,69.96641],[19.62464,69.96474],[19.62284,69.96202],[19.62062,69.9621],[19.61879,69.96058],[19.61369,69.95929],[19.61233,69.95972],[19.6048,69.96031]],[[19.69083,69.96138],[19.69783,69.96746],[19.7,69.9686],[19.70532,69.96989],[19.71287,69.9699]],[[19.64505,69.972],[19.63227,69.96917],[19.6311,69.96831]],[[19.66504,69.97587],[19.65769,69.97417],[19.64505,69.972]],[[19.72617,69.97425],[19.71881,69.97075],[19.71616,69.97007],[19.71287,69.9699]],[[19.87739,69.97016],[19.86936,69.96504],[19.85649,69.96027],[19.84622,69.95422],[19.83985,69.95195]],[[19.88243,69.97377],[19.87778,69.97062]],[[19.53319,69.98291],[19.53479,69.98299]],[[19.66876,69.97952],[19.67153,69.97607],[19.66803,69.97622],[19.66504,69.97587]],[[19.53488,69.21518],[19.53418,69.21452],[19.53105,69.2135]],[[19.53488,69.21518],[19.53606,69.21606],[19.53724,69.21539]],[[19.41939,69.22896],[19.42483,69.22839]],[[19.41786,69.22917],[19.41939,69.22896]],[[19.41296,69.26329],[19.41417,69.26112]],[[19.30348,69.26697],[19.29997,69.2666],[19.29864,69.26707],[19.30217,69.26783],[19.30348,69.26697]],[[19.94792,69.27444],[19.95769,69.27627]],[[19.41358,69.30223],[19.41017,69.29826],[19.40959,69.29337],[19.40718,69.29165],[19.40801,69.29104]],[[19.34822,69.30987],[19.34069,69.30482]],[[19.41372,69.30821],[19.41358,69.30223]],[[19.93073,69.30347],[19.93111,69.30371]],[[19.25394,69.344],[19.26223,69.34334],[19.27298,69.34383],[19.27562,69.34424]],[[19.27562,69.34424],[19.27954,69.34488]],[[19.97704,69.33844],[19.98045,69.33777]],[[19.97165,69.33872],[19.97361,69.33899],[19.97704,69.33844]],[[19.36915,69.35428],[19.36497,69.35699]],[[19.3274,69.37148],[19.32675,69.37142]],[[19.51095,69.39559],[19.509,69.39507],[19.50402,69.39483],[19.49998,69.39377],[19.49631,69.39435]],[[19.50321,69.21601],[19.51754,69.21426],[19.52399,69.21383],[19.52721,69.21399],[19.53105,69.2135]],[[19.27946,69.2225],[19.2855,69.223]],[[19.26224,69.22394],[19.26402,69.22328],[19.27946,69.2225]],[[19.2855,69.223],[19.29343,69.22304],[19.29726,69.22347]],[[19.25219,69.22734],[19.25524,69.22584],[19.26224,69.22394]],[[19.29726,69.22347],[19.30744,69.22627],[19.31222,69.22339],[19.31201,69.22232]],[[19.5431,69.21587],[19.53668,69.22018],[19.52678,69.22096]],[[19.46045,69.22182],[19.46642,69.22019],[19.4688,69.21998],[19.48431,69.22264],[19.48972,69.22243],[19.49145,69.22186],[19.49474,69.21847],[19.50321,69.21601]],[[19.42483,69.22839],[19.43032,69.2276],[19.43434,69.22751],[19.43614,69.22631],[19.43672,69.22689],[19.44585,69.22499],[19.44969,69.22375],[19.46045,69.22182]],[[19.23884,69.23338],[19.2447,69.2315],[19.24832,69.23085],[19.25219,69.22734]],[[19.23091,69.23539],[19.23607,69.23466],[19.23884,69.23338]],[[19.39485,69.23238],[19.40491,69.23179],[19.41786,69.22917]],[[19.31201,69.22232],[19.31263,69.22212],[19.31344,69.22244],[19.31379,69.2232],[19.31208,69.22537],[19.31208,69.22785],[19.31077,69.22963],[19.30896,69.23031],[19.31741,69.2323],[19.3214,69.23299],[19.32516,69.23311],[19.3311,69.23472],[19.33885,69.23608],[19.3426,69.23622],[19.34644,69.23575]],[[19.23376,69.24953],[19.23352,69.24763],[19.23561,69.24578],[19.23482,69.24467],[19.23189,69.24477],[19.23365,69.24269],[19.23775,69.24231],[19.24024,69.24297],[19.24305,69.24262],[19.24614,69.2435],[19.24733,69.24285],[19.24389,69.24225],[19.24436,69.24106],[19.23859,69.24068],[19.23755,69.24033],[19.23794,69.23543],[19.23102,69.23576]],[[19.42885,69.24809],[19.45505,69.23782],[19.46137,69.23602],[19.46655,69.23535],[19.47615,69.23167],[19.48159,69.23086],[19.48862,69.22736],[19.49324,69.22696],[19.50143,69.22552],[19.50498,69.22404],[19.51186,69.22263],[19.52678,69.22096]],[[19.42885,69.24809],[19.41637,69.25612],[19.41417,69.26112]],[[19.27057,69.26687],[19.26206,69.26413],[19.25767,69.26063],[19.25384,69.26005],[19.25078,69.25628],[19.24706,69.25332],[19.24494,69.2524],[19.23751,69.25089],[19.23376,69.24953]],[[19.27057,69.26687],[19.27145,69.26976]],[[19.92323,69.26673],[19.92587,69.26594],[19.92484,69.26478]],[[19.92822,69.26478],[19.92861,69.26662],[19.93053,69.26669],[19.93175,69.26764]],[[19.93175,69.26764],[19.9292,69.26793],[19.93086,69.26902],[19.92844,69.26956],[19.92809,69.2702],[19.92082,69.27056],[19.91777,69.27169],[19.91808,69.27238],[19.92937,69.27114]],[[19.27145,69.26976],[19.27242,69.27155],[19.26989,69.27264],[19.27638,69.2727],[19.28704,69.27712],[19.28964,69.27765],[19.29281,69.27897],[19.29367,69.27993],[19.29265,69.28093],[19.28789,69.28132],[19.28693,69.2819],[19.29019,69.28204],[19.29258,69.28361],[19.29555,69.28441],[19.29973,69.28458],[19.29978,69.28658],[19.31006,69.28796]],[[19.89953,69.27411],[19.90513,69.27367],[19.90344,69.27223],[19.90643,69.26948],[19.92323,69.26673]],[[19.93076,69.27165],[19.93341,69.27241],[19.94169,69.27347]],[[19.94792,69.27444],[19.94169,69.27347]],[[19.41296,69.26329],[19.40996,69.26815],[19.41229,69.27031],[19.40956,69.27379],[19.41122,69.27898],[19.40897,69.28517],[19.41028,69.28719],[19.41035,69.28979],[19.40801,69.29104]],[[19.34069,69.30482],[19.3387,69.30014],[19.33968,69.29851],[19.33769,69.29642],[19.33407,69.29445],[19.32872,69.29278],[19.31006,69.28796]],[[19.91418,69.28999],[19.91477,69.28868],[19.91109,69.28739],[19.91114,69.2861],[19.90325,69.27683],[19.89953,69.27411]],[[19.91961,69.29454],[19.9189,69.2935],[19.91519,69.29167],[19.91418,69.28999]],[[19.96483,69.29325],[19.95741,69.28425],[19.95968,69.28153],[19.95929,69.27763],[19.95769,69.27627]],[[19.93073,69.30347],[19.92661,69.3],[19.92114,69.29664],[19.91961,69.29454]],[[19.94177,69.30833],[19.93639,69.30546],[19.93111,69.30371]],[[19.41372,69.30821],[19.41593,69.31395],[19.41509,69.31577],[19.41794,69.31988],[19.41645,69.32091],[19.40973,69.32356],[19.40822,69.32535],[19.40532,69.32672]],[[19.94819,69.31243],[19.94177,69.30833]],[[19.94819,69.31243],[19.95094,69.31393]],[[19.32252,69.33411],[19.32994,69.32981],[19.33452,69.32611],[19.34229,69.3158],[19.34109,69.31385],[19.34432,69.31196],[19.34702,69.31181],[19.34864,69.31126],[19.34822,69.30987]],[[19.31954,69.33547],[19.32252,69.33411]],[[19.31505,69.33735],[19.31954,69.33547]],[[20.00654,69.31794],[19.99868,69.31298],[19.998,69.31074],[19.99338,69.3061],[19.98741,69.30298],[19.98558,69.30134],[19.98306,69.30094],[19.97902,69.2985],[19.96898,69.29645],[19.96577,69.29451],[19.96483,69.29325]],[[19.39458,69.33795],[19.40384,69.32974],[19.40532,69.32672]],[[19.19429,69.3456],[19.21006,69.34618],[19.22328,69.34533],[19.24109,69.34514],[19.25394,69.344]],[[19.28894,69.34489],[19.29261,69.34492],[19.29913,69.34278],[19.30455,69.3418],[19.30852,69.34054],[19.31505,69.33735]],[[19.36915,69.35428],[19.37195,69.35258],[19.37407,69.35021],[19.38634,69.34329],[19.38744,69.34034],[19.39458,69.33795]],[[19.98045,69.33777],[19.98348,69.33585],[19.98115,69.33543],[19.97908,69.33442],[19.97801,69.33283],[19.97425,69.33225],[19.97284,69.33049],[19.97268,69.32777],[19.97,69.3274],[19.96805,69.32659],[19.96646,69.32399],[19.9622,69.32202],[19.95655,69.31654],[19.95094,69.31393]],[[19.32675,69.37142],[19.3234,69.37119],[19.32149,69.37066],[19.31901,69.37145],[19.31215,69.37241],[19.30108,69.37323],[19.29453,69.37437]],[[19.36987,69.37349],[19.369,69.37215],[19.36434,69.37162],[19.36074,69.37024],[19.35414,69.36864],[19.35217,69.36776],[19.35171,69.36645],[19.35252,69.3643],[19.36268,69.35881],[19.36497,69.35699]],[[19.3274,69.37148],[19.35055,69.37482],[19.35769,69.37521],[19.36276,69.37455],[19.36469,69.37489]],[[19.36469,69.37489],[19.37197,69.37554],[19.36987,69.37349]],[[19.20047,69.37733],[19.21215,69.37821],[19.21827,69.37783],[19.22701,69.37882],[19.23113,69.37853],[19.23589,69.379],[19.26644,69.37905],[19.27092,69.38058]],[[19.27092,69.38058],[19.27701,69.37973],[19.2808,69.37867],[19.28207,69.37808],[19.2828,69.37652],[19.28732,69.37609],[19.29066,69.37494],[19.29453,69.37437]],[[20.00191,69.35902],[19.994,69.35551],[19.98216,69.35127],[19.97446,69.34629],[19.96709,69.34258],[19.96896,69.33952],[19.97165,69.33872]],[[19.47947,69.39424],[19.47751,69.39379],[19.47759,69.39317],[19.47145,69.3928],[19.47087,69.39192],[19.46823,69.39081],[19.45786,69.38911]],[[19.45786,69.38911],[19.45324,69.3899],[19.43963,69.38973],[19.43898,69.39009],[19.4425,69.39091],[19.43765,69.39175],[19.43715,69.39215],[19.445,69.39309],[19.44885,69.3928],[19.4541,69.39406],[19.45762,69.39554],[19.45922,69.39568]],[[19.47947,69.39424],[19.48212,69.39424],[19.48724,69.39526],[19.49631,69.39435]],[[19.48871,69.39616],[19.47682,69.39421],[19.46339,69.39563],[19.45922,69.39568]],[[19.51095,69.39559],[19.52389,69.39972],[19.54761,69.41048]],[[19.54761,69.41048],[19.54893,69.41114]],[[19.64408,69.40998],[19.64711,69.41034],[19.64757,69.41198],[19.64673,69.41391]],[[19.64673,69.41391],[19.65049,69.42019],[19.65714,69.42167],[19.65702,69.42313],[19.65817,69.42298],[19.66116,69.42094]],[[19.54893,69.41114],[19.55317,69.41348],[19.56068,69.41648],[19.56884,69.42138],[19.57688,69.42495],[19.58206,69.42673],[19.58322,69.42766],[19.59433,69.43082]],[[19.6526,69.42948],[19.65639,69.42557],[19.66027,69.42276],[19.66158,69.42261],[19.66255,69.42184]],[[19.59433,69.43082],[19.60168,69.43251],[19.60675,69.43426],[19.60784,69.43406],[19.60842,69.43306],[19.61156,69.43301],[19.61192,69.43409],[19.61402,69.43471],[19.61843,69.43031],[19.62147,69.42876],[19.62523,69.42839],[19.62949,69.42907],[19.63021,69.42824],[19.62942,69.42611],[19.63155,69.42462],[19.63371,69.424],[19.63993,69.42321],[19.64303,69.42008],[19.64564,69.41969],[19.64676,69.41841],[19.64406,69.41728],[19.6442,69.41626],[19.6432,69.41574],[19.64383,69.41519],[19.64251,69.41458],[19.64073,69.4114],[19.64226,69.40947]],[[19.56911,69.43901],[19.56432,69.43768],[19.56129,69.43603],[19.55639,69.43476],[19.55643,69.43148],[19.55285,69.42985],[19.54211,69.42123],[19.53628,69.41838],[19.53001,69.41418],[19.52941,69.41313],[19.52338,69.41075],[19.51907,69.40775],[19.50952,69.40471],[19.50985,69.40357],[19.50847,69.40284],[19.4959,69.39955],[19.49139,69.39915],[19.49194,69.39858],[19.48826,69.39707],[19.48871,69.39616]],[[19.64425,69.43702],[19.64251,69.4352],[19.64298,69.43414],[19.6526,69.42948]],[[19.56911,69.43901],[19.56906,69.43929],[19.58882,69.44484],[19.59805,69.44815]],[[19.64425,69.43702],[19.64665,69.43969],[19.64737,69.44461],[19.65045,69.44783],[19.65377,69.44945]],[[19.65377,69.44945],[19.6655,69.45972]],[[19.6655,69.45972],[19.67439,69.46449],[19.68485,69.46846],[19.68952,69.46953]],[[19.68952,69.46953],[19.69043,69.47056],[19.69187,69.47096]],[[19.66892,69.48131],[19.66398,69.47708],[19.65319,69.47138],[19.62678,69.46048],[19.61126,69.45327],[19.59805,69.44815]],[[19.71309,69.48012],[19.70822,69.47789],[19.70162,69.47285],[19.6972,69.47172]],[[19.34644,69.23575],[19.3498,69.23567],[19.35564,69.23762],[19.35887,69.23801],[19.36201,69.23781],[19.36463,69.2371],[19.36618,69.23724],[19.36919,69.23673],[19.37118,69.23443],[19.37379,69.23348],[19.37733,69.23342],[19.38073,69.2346],[19.38514,69.23449],[19.39124,69.23265],[19.39485,69.23238]]]}}]}