{"type":"FeatureCollection","features":[{"type":"Feature","properties":{},"geometry":{"type":"MultiLineString","coordinates":[[[22.03671,69.93417],[22.03945,69.9347],[22.04313,69.93657]],[[21.99767,69.94251],[22.01417,69.93901],[22.02522,69.93876],[22.02813,69.93681],[22.03293,69.9351]],[[22.05008,69.94205],[22.04926,69.94325]],[[21.99163,69.99151],[22.00067,69.9891]],[[22.01397,69.7631],[22.01464,69.76239]],[[22.00684,69.76339],[22.00755,69.76367]],[[22.00548,69.76435],[22.00557,69.76344]],[[22.06804,69.78378],[22.05965,69.78726],[22.05236,69.78957],[22.0457,69.79296],[22.03831,69.7952],[22.0343,69.79741]],[[22.02046,69.80235],[22.02854,69.80023],[22.0343,69.79741]],[[21.97602,69.8213],[22.00284,69.80864]],[[22.02492,69.84623],[22.0266,69.8476]],[[22.02247,69.85377],[22.02416,69.85289]],[[22.03293,69.9351],[22.03502,69.93465],[22.03475,69.93398],[22.03671,69.93417]],[[22.05008,69.94205],[22.04808,69.94124],[22.04105,69.94054],[22.04048,69.94015],[22.0416,69.93906],[22.04048,69.93834],[22.04221,69.938]],[[22.00496,69.9555],[22.00381,69.95419],[22.00523,69.95],[22.00442,69.94926],[22.00182,69.94852],[21.99217,69.94726]],[[22.01196,69.97232],[22.01326,69.96609],[22.01204,69.96212],[22.00901,69.95832],[22.00496,69.9555]],[[22.00067,69.9891],[22.00328,69.98783],[22.01071,69.98202],[22.01115,69.97581],[22.01246,69.97365],[22.01196,69.97232]],[[22.04351,69.9874],[22.04307,69.98375],[22.0362,69.97559],[22.03762,69.97369],[22.03862,69.96848],[22.0381,69.96349],[22.03596,69.96184],[22.03597,69.95903],[22.03253,69.95719],[22.03528,69.95505],[22.03466,69.95326],[22.03666,69.95145],[22.04472,69.94789],[22.04926,69.94325]],[[22.03209,69.99923],[22.04063,69.99223],[22.04351,69.9874]],[[22.03209,69.99923],[22.02653,70.00245]],[[21.99576,69.72823],[22.00681,69.72739],[22.01595,69.72614],[22.0184,69.72622],[22.02736,69.72782],[22.03114,69.72776]],[[22.03247,69.72861],[22.03431,69.72953],[22.04081,69.72935],[22.04524,69.72882],[22.05071,69.72518],[22.05851,69.72181],[22.06194,69.72385],[22.05893,69.72586],[22.05873,69.72719],[22.06022,69.72896],[22.06181,69.72925],[22.06293,69.73136],[22.06505,69.73199],[22.06453,69.73301],[22.06593,69.73358],[22.06821,69.73348],[22.07001,69.73493],[22.07286,69.73601],[22.07956,69.73706],[22.0811,69.73821],[22.09172,69.73817],[22.09617,69.73874],[22.12398,69.73605]],[[22.12421,69.73636],[22.12281,69.73666],[22.12371,69.73728],[22.12218,69.73792],[22.12378,69.73826],[22.12583,69.73994],[22.12995,69.74043]],[[22.13297,69.74936],[22.13844,69.74869],[22.14046,69.74648],[22.14085,69.7444],[22.13986,69.74349],[22.13379,69.74236],[22.12995,69.74043]],[[22.09357,69.75212],[22.08852,69.75259],[22.08814,69.75313],[22.0914,69.75341],[22.09623,69.7529],[22.09357,69.75212]],[[22.01464,69.76239],[22.01575,69.75884],[22.02566,69.75516],[22.03115,69.75369],[22.04109,69.75208],[22.05541,69.74856],[22.05373,69.74806],[22.045,69.74829],[22.04214,69.74794],[22.03143,69.74359],[22.03171,69.74216],[22.03791,69.74167],[22.04512,69.74184],[22.05132,69.74037],[22.05501,69.74],[22.05593,69.73946],[22.04731,69.73825],[22.03042,69.73827],[22.02637,69.73717],[22.01959,69.73717],[22.01492,69.73613],[22.00466,69.73548],[21.99816,69.73547]],[[22.00684,69.76339],[22.00557,69.76344]],[[22.07839,69.76052],[22.09275,69.75757],[22.0973,69.75624],[22.10356,69.75529],[22.10612,69.75427],[22.11201,69.75364],[22.11481,69.75247],[22.12733,69.75],[22.13297,69.74936]],[[22.00755,69.76367],[22.01276,69.76423],[22.01403,69.76399],[22.01397,69.7631]],[[22.00548,69.76435],[22.00622,69.76647],[22.00916,69.76851]],[[22.01015,69.77149],[22.0237,69.77184],[22.03067,69.77067],[22.02217,69.77085],[22.01778,69.77005],[22.01186,69.76955],[22.00916,69.76851]],[[21.99105,69.76733],[22.00174,69.77045],[22.01015,69.77149]],[[22.06804,69.78378],[22.07562,69.78009],[22.08382,69.77844],[22.0889,69.77683],[22.08992,69.77609],[22.08807,69.77416],[22.08395,69.77382],[22.08175,69.77295],[22.08123,69.77105],[22.07331,69.76848],[22.06807,69.76873],[22.06054,69.76974],[22.04813,69.77024],[22.0446,69.76991],[22.03574,69.76793],[22.03031,69.76756],[22.02966,69.76676],[22.03699,69.76602],[22.0493,69.76709],[22.05224,69.76602],[22.05709,69.76517],[22.05637,69.7637],[22.06282,69.76259],[22.06374,69.76272],[22.06329,69.76328],[22.06477,69.7635],[22.07008,69.76263],[22.07839,69.76052]],[[22.00284,69.80864],[22.02046,69.80235]],[[21.99884,69.79195],[22.00159,69.7917],[22.00444,69.79264],[22.01095,69.79129],[22.01206,69.79021],[22.00883,69.78926],[22.00619,69.78931],[22.00127,69.79006],[21.99549,69.79166]],[[21.99816,69.84223],[22.00271,69.84203]],[[22.00271,69.84203],[22.0064,69.84215],[22.01284,69.84156],[22.01464,69.84268],[22.01471,69.84389],[22.01759,69.84544],[22.01981,69.8449],[22.02174,69.84538],[22.02279,69.84522]],[[22.02416,69.85289],[22.02511,69.84976],[22.02706,69.84852],[22.0266,69.8476]],[[22.02247,69.85377],[22.01961,69.85451],[22.00288,69.86238],[21.99886,69.8631]],[[23.01173,69.9235],[22.99889,69.92047],[22.99753,69.91947],[23.001,69.91929]]]}}]}