{"type":"FeatureCollection","features":[{"type":"Feature","properties":{},"geometry":{"type":"MultiLineString","coordinates":[[[29.92515,69.62737],[29.92518,69.62729]],[[29.9678,69.71565],[29.97027,69.71646]],[[29.97974,69.71461],[29.9812,69.71519],[29.98535,69.71577],[29.98934,69.7154],[29.99243,69.71632]],[[29.97027,69.71646],[29.97787,69.7183]],[[30.00286,69.72373],[29.99651,69.72196]],[[29.88025,69.76927],[29.88608,69.77126],[29.88897,69.77441]],[[29.90949,69.81278],[29.90751,69.8145]],[[29.90809,69.81549],[29.90751,69.8145]],[[29.95915,69.83182],[29.95656,69.83143]],[[29.93534,69.59811],[29.93769,69.59442],[29.93675,69.5925],[29.93743,69.59167]],[[29.93249,69.60353],[29.9354,69.59966],[29.93534,69.59811]],[[29.93071,69.60827],[29.93249,69.60353]],[[29.94712,69.60933],[29.94811,69.60246],[29.94744,69.59849],[29.95065,69.59432],[29.95209,69.59015],[29.94839,69.58953],[29.94502,69.58951],[29.94122,69.59024],[29.93743,69.59167]],[[29.94712,69.60933],[29.9467,69.61178]],[[29.92885,69.6155],[29.92864,69.61307],[29.93011,69.61128],[29.93071,69.60827]],[[29.92698,69.6255],[29.93015,69.62376],[29.92841,69.62042],[29.92885,69.6155]],[[29.92518,69.62729],[29.92698,69.6255]],[[29.93869,69.62611],[29.9426,69.62085],[29.9467,69.61178]],[[29.92437,69.6298],[29.92515,69.62737]],[[29.92315,69.63685],[29.92437,69.6298]],[[29.93749,69.64015],[29.93677,69.63746],[29.93978,69.63286],[29.9381,69.62862],[29.93869,69.62611]],[[29.92369,69.64521],[29.92134,69.64289],[29.92217,69.63945],[29.92351,69.6383],[29.92315,69.63685]],[[29.92595,69.64969],[29.92369,69.64521]],[[29.92295,69.65714],[29.92466,69.65577],[29.92633,69.65257],[29.92595,69.64969]],[[29.91971,69.66638],[29.92344,69.6665],[29.92347,69.66587],[29.92472,69.66541],[29.92192,69.66524],[29.92457,69.66404],[29.92313,69.66197],[29.92359,69.66095],[29.92096,69.65899],[29.92295,69.65714]],[[29.9332,69.66805],[29.93619,69.66562],[29.93429,69.66101],[29.9355,69.6575],[29.93462,69.65616],[29.93492,69.6526],[29.93684,69.64784],[29.93501,69.64502],[29.93699,69.6425],[29.93749,69.64015]],[[29.91809,69.67394],[29.91626,69.67251],[29.91649,69.67169],[29.91814,69.67109],[29.92053,69.67152],[29.92275,69.67132],[29.92007,69.66993],[29.92642,69.66699],[29.92027,69.66718],[29.9181,69.66661]],[[29.92555,69.67329],[29.92774,69.67053],[29.92867,69.67001],[29.93118,69.66974],[29.9332,69.66805]],[[29.90057,69.68844],[29.89983,69.68618],[29.90398,69.6848],[29.90473,69.68389],[29.91111,69.6821],[29.91046,69.68174],[29.90869,69.68232],[29.90645,69.68238],[29.90475,69.68173],[29.90427,69.68011],[29.90638,69.67742],[29.90584,69.67657],[29.91674,69.67608],[29.91829,69.67545],[29.91834,69.67567],[29.91809,69.67394]],[[29.8976,69.6948],[29.89617,69.69434],[29.9004,69.69221],[29.90057,69.68844]],[[29.92555,69.67329],[29.92496,69.67383],[29.92615,69.67604],[29.92476,69.68059],[29.91573,69.69281],[29.91812,69.69363]],[[29.89939,69.70075],[29.90248,69.6967],[29.90229,69.69561],[29.8976,69.6948]],[[29.89655,69.70508],[29.8964,69.70332],[29.89939,69.70075]],[[29.91812,69.69363],[29.92107,69.69687],[29.9257,69.69956],[29.92924,69.70009],[29.9313,69.70111],[29.93568,69.70138],[29.94601,69.70353],[29.9511,69.70411],[29.95905,69.70639],[29.96107,69.70793],[29.96442,69.70867],[29.96761,69.70807],[29.96995,69.70923]],[[29.9678,69.71565],[29.95592,69.71238],[29.95344,69.7106],[29.9487,69.70976],[29.94441,69.70825],[29.93772,69.70448],[29.93024,69.70202],[29.92804,69.70071],[29.92384,69.70047],[29.91781,69.69907],[29.9127,69.69904],[29.91169,69.69942],[29.90773,69.70215],[29.90711,69.70322],[29.90843,69.70414],[29.90823,69.70481],[29.90607,69.70663],[29.9,69.70669],[29.89715,69.70599],[29.89655,69.70508]],[[29.97974,69.71461],[29.97634,69.71257],[29.97646,69.7105],[29.97431,69.70968],[29.97057,69.70954],[29.96995,69.70923]],[[29.99243,69.71632],[29.99531,69.71667],[29.99774,69.71637]],[[29.99774,69.71637],[30.00016,69.71681]],[[29.97787,69.7183],[29.9849,69.71845],[29.98763,69.7196],[29.99651,69.72196]],[[29.87521,69.73785],[29.87952,69.7348],[29.87884,69.73347],[29.87667,69.73173],[29.87455,69.73092],[29.87404,69.72985]],[[29.85564,69.74151],[29.85966,69.74086],[29.86151,69.74096],[29.87521,69.73785]],[[29.91226,69.74417],[29.91486,69.74415],[29.91415,69.74493]],[[29.87577,69.72973],[29.88214,69.72996],[29.88455,69.7312],[29.88336,69.73183],[29.88433,69.73308],[29.89397,69.73818],[29.89425,69.73969],[29.8985,69.74109],[29.90089,69.74286],[29.90238,69.74529],[29.91226,69.74417]],[[29.92396,69.75123],[29.92643,69.74965],[29.92813,69.74962],[29.93002,69.7502],[29.92803,69.75184],[29.92874,69.75275],[29.93515,69.75243],[29.9372,69.75307]],[[29.91415,69.74493],[29.91142,69.74583],[29.90993,69.74723],[29.91067,69.74987],[29.90976,69.75116],[29.91081,69.75256],[29.91269,69.75365],[29.9156,69.75423],[29.91711,69.75559],[29.92108,69.75413],[29.92206,69.75215],[29.92396,69.75123]],[[29.86672,69.76931],[29.86434,69.76839],[29.86082,69.76872],[29.85835,69.76946],[29.85962,69.77105]],[[29.88025,69.76927],[29.88074,69.76831],[29.87766,69.76769],[29.87375,69.76799],[29.87045,69.76893],[29.86672,69.76931]],[[29.95288,69.76299],[29.95465,69.76154],[29.95972,69.75981],[29.96013,69.75856],[29.95553,69.75855],[29.94942,69.7595],[29.94402,69.75959],[29.93866,69.75741],[29.93622,69.75485],[29.9372,69.75307]],[[29.88897,69.77441],[29.89019,69.77469]],[[29.89019,69.77469],[29.89432,69.77268],[29.89886,69.77366],[29.90214,69.77523]],[[29.95288,69.76299],[29.9525,69.76506],[29.95051,69.76595],[29.95084,69.76692],[29.95261,69.76777],[29.95436,69.76772],[29.95524,69.7669],[29.95321,69.76548],[29.95657,69.76505],[29.96152,69.76647],[29.96405,69.7667],[29.96862,69.76833],[29.97106,69.76828],[29.97949,69.76942],[29.98177,69.7688],[29.98398,69.76881],[29.99313,69.77005],[30.00142,69.77057]],[[29.91365,69.81242],[29.91066,69.81209],[29.90949,69.81278]],[[30.00209,69.79681],[29.9869,69.79396],[29.98071,69.79361],[29.96299,69.79131],[29.95779,69.7903],[29.94919,69.78801],[29.94746,69.787],[29.93573,69.78425],[29.93239,69.78273],[29.92853,69.78225],[29.92462,69.781],[29.9166,69.77993],[29.91539,69.77875],[29.91038,69.77777],[29.90952,69.77663],[29.90467,69.77598],[29.90214,69.77523]],[[29.91365,69.81242],[29.91664,69.81352],[29.91744,69.8128],[29.92019,69.81222],[29.92485,69.81282],[29.92887,69.8147],[29.93001,69.81714],[29.9325,69.8177],[29.93062,69.81842],[29.93247,69.81916],[29.93389,69.81913]],[[29.90809,69.81549],[29.91021,69.81461],[29.91251,69.81477],[29.91353,69.81639],[29.91314,69.81716],[29.90869,69.8176],[29.90926,69.81854],[29.91154,69.81957],[29.9103,69.82033],[29.90717,69.82049],[29.90643,69.82116],[29.90749,69.82167],[29.91127,69.82217],[29.91072,69.82249],[29.9087,69.82216],[29.90608,69.82244],[29.90702,69.82334],[29.90572,69.8242],[29.9063,69.8249],[29.9144,69.82817]],[[29.91581,69.82838],[29.9144,69.82817]],[[29.91581,69.82838],[29.91639,69.82806],[29.92807,69.82816],[29.93055,69.82882],[29.93508,69.8288],[29.93946,69.83059],[29.94212,69.83048]],[[29.95656,69.83143],[29.94983,69.82898],[29.94513,69.82861],[29.94449,69.82809],[29.94333,69.82827],[29.94212,69.83048]],[[29.93389,69.81913],[29.93799,69.81918],[29.93793,69.81986],[29.9415,69.82272],[29.94461,69.82268],[29.94798,69.82365],[29.94582,69.82535],[29.94362,69.82494],[29.94264,69.82512],[29.94202,69.82662],[29.94357,69.82747],[29.94912,69.82767],[29.95394,69.82519],[29.95771,69.82406],[29.96864,69.8238],[29.96861,69.82334],[29.96533,69.82265],[29.96532,69.82206],[29.97618,69.81993],[29.98102,69.82028],[29.98323,69.8213],[29.99224,69.82288],[29.99602,69.82249],[30.00281,69.82265]],[[30.00018,69.83974],[29.99046,69.83929],[29.9879,69.83984],[29.98596,69.84091],[29.98372,69.83882],[29.98775,69.83621],[29.99077,69.83565],[29.99733,69.83538],[29.9995,69.83577],[30.00061,69.83552]],[[30.00061,69.83552],[29.99882,69.83418],[29.99985,69.82999],[29.99637,69.83053],[29.99272,69.83186],[29.99162,69.83169],[29.99065,69.83041],[29.98567,69.83012],[29.96959,69.83184],[29.95915,69.83182]],[[29.97158,69.87097],[29.96969,69.87108],[29.96692,69.87014],[29.96479,69.86991],[29.96326,69.86869],[29.95974,69.86918],[29.96006,69.87151],[29.96144,69.87264],[29.9727,69.87416],[29.97526,69.87602]],[[29.97158,69.87097],[29.97437,69.86976],[29.97715,69.86945],[29.98364,69.87249],[29.98524,69.87517],[29.98679,69.87593],[29.98914,69.87622],[29.99198,69.87598],[29.99562,69.87472],[30.00114,69.87103]],[[30.00114,69.87103],[29.998,69.86963],[29.99245,69.86863],[29.9925,69.86748],[29.9959,69.86573],[29.99355,69.86549],[29.99214,69.86434],[29.99306,69.86366],[30.00006,69.8621]],[[30.00142,69.86038],[29.99255,69.8611],[29.99087,69.86041],[29.98681,69.85982],[29.98429,69.8589],[29.98452,69.857],[29.98306,69.85568],[29.98627,69.85469],[29.99081,69.85404],[29.99367,69.85463],[30.00075,69.85384]],[[29.98133,69.88434],[29.98513,69.88327],[29.98704,69.88216],[29.98702,69.87965],[29.98426,69.87758],[29.97996,69.87708],[29.97526,69.87602]],[[29.91332,69.90452],[29.91308,69.90323],[29.912,69.90271],[29.89776,69.89984],[29.89555,69.89853],[29.89167,69.89827],[29.88204,69.89906],[29.88117,69.89954],[29.88182,69.9005],[29.87607,69.90293],[29.8768,69.90392],[29.8756,69.90511],[29.87231,69.90497],[29.86955,69.90529],[29.86587,69.90588],[29.86375,69.90667]],[[29.92216,69.90376],[29.92613,69.90229],[29.92479,69.90123],[29.92708,69.90072],[29.93542,69.9004],[29.93738,69.90073],[29.93874,69.90178],[29.94057,69.90211],[29.94718,69.90018],[29.95044,69.89848],[29.95479,69.89733],[29.955,69.89598],[29.95758,69.89477],[29.95768,69.89334],[29.96035,69.89236],[29.96456,69.89171],[29.97573,69.88871],[29.97786,69.88701],[29.97751,69.88586],[29.98133,69.88434]],[[29.91332,69.90452],[29.91548,69.90468],[29.9208,69.9042],[29.92216,69.90376]],[[29.92028,69.90981],[29.91777,69.91011],[29.91981,69.91168],[29.91867,69.91253],[29.92034,69.91268],[29.9257,69.91207],[29.92517,69.91081],[29.92028,69.90981]],[[29.49766,69.66516],[29.49366,69.66426]],[[29.56017,69.70462],[29.56091,69.70366]],[[29.56017,69.70462],[29.55988,69.70502]],[[29.68607,69.73991],[29.69007,69.74123],[29.69523,69.74051]],[[29.70956,69.74253],[29.7075,69.74258],[29.70695,69.74292],[29.71043,69.74372],[29.71143,69.74318],[29.70956,69.74253]],[[29.82164,69.75616],[29.81762,69.75661]],[[29.72701,69.77603],[29.72786,69.77494],[29.7269,69.77421]],[[29.72768,69.78236],[29.72755,69.78234]],[[29.81583,69.79193],[29.81962,69.79152],[29.82505,69.78914],[29.82713,69.78677],[29.82488,69.78523]],[[29.4221,69.8553],[29.42603,69.85488]],[[29.41724,69.85604],[29.4221,69.8553]],[[29.42672,69.85586],[29.42686,69.855],[29.42603,69.85488]],[[29.42672,69.85586],[29.42464,69.8569]],[[29.75384,69.85721],[29.75099,69.85648],[29.74148,69.85555]],[[29.60555,69.9199],[29.60391,69.9198],[29.60195,69.9203],[29.60389,69.92107],[29.60601,69.92054]],[[29.83202,69.91149],[29.83603,69.91233],[29.83811,69.91239],[29.84204,69.91166],[29.84374,69.91049]],[[29.48099,69.66102],[29.47522,69.6603],[29.47137,69.65925],[29.47459,69.65879],[29.47523,69.65818],[29.47451,69.65674],[29.47705,69.65546],[29.4806,69.65465]],[[29.49366,69.66426],[29.48636,69.66165],[29.48099,69.66102]],[[29.5261,69.66153],[29.52105,69.66003],[29.52047,69.65816],[29.51589,69.65615],[29.51336,69.65556],[29.50768,69.65541],[29.50346,69.6533],[29.5,69.6531],[29.49845,69.65336],[29.48553,69.65687],[29.48524,69.6546],[29.4843,69.6543]],[[29.5261,69.66153],[29.53136,69.6628],[29.53632,69.66538],[29.54618,69.66905],[29.54715,69.67138],[29.54941,69.67331],[29.54901,69.67376],[29.55102,69.67525],[29.55283,69.6758],[29.5538,69.67731],[29.55897,69.68007],[29.56897,69.68781],[29.56853,69.6894],[29.57841,69.69334]],[[29.53463,69.70077],[29.53484,69.70021],[29.53347,69.69979],[29.53315,69.69909],[29.53588,69.69792],[29.53872,69.69224],[29.53632,69.69061],[29.5317,69.69035],[29.53211,69.68748],[29.52822,69.68744],[29.52708,69.68699],[29.52865,69.68606],[29.52828,69.6849],[29.52347,69.68313],[29.52386,69.68192],[29.52006,69.68056],[29.51997,69.67921],[29.51752,69.67823],[29.51554,69.6765],[29.50851,69.67346],[29.50917,69.67233],[29.50399,69.66947],[29.49991,69.66556],[29.49766,69.66516]],[[29.56091,69.70366],[29.56402,69.70096],[29.56282,69.69935],[29.54965,69.70104],[29.54793,69.70205],[29.54845,69.7025],[29.54469,69.70354],[29.54533,69.70478]],[[29.54533,69.70478],[29.54451,69.70531],[29.54228,69.70563],[29.53533,69.70559]],[[29.60519,69.7008],[29.6018,69.69896],[29.5919,69.69717],[29.57841,69.69334]],[[29.56284,69.70739],[29.55957,69.70671],[29.55988,69.70502]],[[29.60519,69.7008],[29.60739,69.70167],[29.61694,69.70393],[29.62157,69.70404],[29.62487,69.70637],[29.62905,69.7079],[29.63202,69.70968],[29.63552,69.71019],[29.63849,69.71187],[29.64134,69.71192],[29.64173,69.71266]],[[29.56284,69.70739],[29.57597,69.70979],[29.57834,69.71275],[29.58253,69.7152],[29.58334,69.71651],[29.58573,69.71756],[29.58602,69.71822]],[[29.64597,69.72335],[29.64986,69.72744]],[[29.64597,69.72335],[29.64082,69.71712],[29.64173,69.71266]],[[29.58602,69.71822],[29.59175,69.71936],[29.59663,69.72233],[29.5976,69.72811]],[[29.5976,69.72811],[29.5979,69.72903],[29.60189,69.73051],[29.6048,69.73083]],[[29.60621,69.73283],[29.61393,69.73301],[29.61386,69.73158],[29.61297,69.73089],[29.61027,69.73038],[29.61096,69.72942],[29.60954,69.72854],[29.60704,69.72859],[29.60493,69.7291],[29.60624,69.73058],[29.6048,69.73083]],[[29.60621,69.73283],[29.60402,69.73296],[29.60679,69.73365]],[[29.65558,69.73011],[29.65189,69.72888],[29.64986,69.72744]],[[29.66532,69.73398],[29.66566,69.73322],[29.66387,69.73164],[29.66021,69.7314],[29.65558,69.73011]],[[29.62574,69.74504],[29.62687,69.74327],[29.62037,69.74011],[29.62104,69.73874],[29.61993,69.73594],[29.6165,69.73486],[29.61282,69.73485],[29.60679,69.73365]],[[29.68607,69.73991],[29.67812,69.73909],[29.66944,69.73682],[29.66552,69.73566],[29.66474,69.73465],[29.66532,69.73398]],[[29.61769,69.7491],[29.62534,69.74714],[29.62648,69.74584],[29.62574,69.74504]],[[29.63607,69.74829],[29.63256,69.74925],[29.62714,69.74976],[29.61924,69.7513]],[[29.61723,69.75169],[29.61924,69.7513]],[[29.65006,69.74901],[29.646,69.746],[29.64063,69.7464],[29.63607,69.74829]],[[29.61769,69.7491],[29.61383,69.75126],[29.60872,69.75273]],[[29.69523,69.74051],[29.69971,69.74033],[29.70523,69.74083],[29.7043,69.73914],[29.70541,69.73894],[29.72468,69.74242],[29.73602,69.74348],[29.74527,69.74546],[29.74774,69.74527]],[[29.65579,69.75366],[29.65545,69.75314],[29.65717,69.75171],[29.65182,69.75033],[29.65006,69.74901]],[[29.74774,69.74527],[29.75907,69.74483],[29.76786,69.74651]],[[29.64154,69.75758],[29.64032,69.75649],[29.63747,69.75545],[29.63423,69.75612],[29.63224,69.75812],[29.64014,69.75796],[29.64154,69.75758]],[[29.62519,69.75971],[29.62984,69.75794],[29.63409,69.75423],[29.63777,69.75396],[29.64186,69.75482]],[[29.64186,69.75482],[29.65284,69.75612],[29.6544,69.7564],[29.65508,69.75712],[29.65668,69.7572],[29.65916,69.75645],[29.65916,69.75564],[29.65579,69.75366]],[[29.78271,69.74663],[29.78849,69.74575],[29.79785,69.74326],[29.80316,69.74279]],[[29.76786,69.74651],[29.77527,69.74795],[29.7784,69.74769],[29.78271,69.74663]],[[29.80316,69.74279],[29.80834,69.74425],[29.82146,69.74464],[29.82553,69.74555],[29.82986,69.74414],[29.83412,69.7446],[29.83628,69.74446]],[[29.83628,69.74446],[29.84553,69.74334],[29.85066,69.74429],[29.85564,69.74151]],[[29.62519,69.75971],[29.62195,69.76183],[29.62282,69.76272],[29.62219,69.76394],[29.61855,69.7639],[29.61744,69.76506],[29.62245,69.76729],[29.63143,69.76853]],[[29.81762,69.75661],[29.80493,69.75744],[29.80248,69.75702],[29.79893,69.75704],[29.79268,69.75798],[29.78971,69.75777],[29.78394,69.75812],[29.77028,69.75624],[29.76217,69.75593],[29.75583,69.75662]],[[29.7269,69.77421],[29.72269,69.77296],[29.72217,69.77218],[29.71785,69.77044],[29.7158,69.76808],[29.71053,69.7659],[29.69985,69.75789],[29.69946,69.7562],[29.70529,69.75442],[29.70771,69.75413],[29.71491,69.75484],[29.71904,69.75621],[29.72626,69.75617],[29.73094,69.75576],[29.73828,69.75658],[29.74335,69.75663],[29.75085,69.756],[29.75583,69.75662]],[[29.69772,69.77682],[29.6952,69.77656],[29.69425,69.77683],[29.694,69.77856],[29.69571,69.77852],[29.69737,69.77782],[29.69835,69.77717],[29.69772,69.77682]],[[29.84672,69.76837],[29.85286,69.75913],[29.84403,69.75873],[29.84077,69.75743],[29.83521,69.7573],[29.83098,69.75613],[29.82726,69.75621],[29.824,69.75581],[29.82164,69.75616]],[[29.72755,69.78234],[29.72512,69.78184],[29.72228,69.77983],[29.72701,69.77603]],[[29.63143,69.76853],[29.63817,69.76693],[29.64843,69.7666],[29.65181,69.76702],[29.66246,69.76964],[29.67076,69.77026],[29.67881,69.77352],[29.67981,69.77334],[29.67928,69.77217],[29.68001,69.77135],[29.68112,69.77102],[29.68289,69.77134],[29.68496,69.77464],[29.68639,69.77543],[29.68514,69.77743],[29.68904,69.78019],[29.69254,69.78057],[29.68943,69.78215],[29.69137,69.78287],[29.68933,69.78464],[29.69012,69.78556]],[[29.8408,69.77267],[29.84493,69.77133],[29.84672,69.76837]],[[29.68529,69.78597],[29.68872,69.7862],[29.69012,69.78556]],[[29.68323,69.78615],[29.68529,69.78597]],[[29.72768,69.78236],[29.72916,69.7828],[29.73184,69.78504],[29.73073,69.78641],[29.731,69.78797]],[[29.85962,69.77105],[29.85515,69.77287],[29.85276,69.77529],[29.85172,69.77497],[29.85126,69.77385],[29.84892,69.77303],[29.84771,69.77286],[29.8455,69.77343],[29.84079,69.77821],[29.83789,69.77853],[29.83887,69.77974],[29.83831,69.78188]],[[29.8408,69.77267],[29.84005,69.77335],[29.84239,69.77351],[29.84326,69.77412],[29.83997,69.77642],[29.83712,69.77679],[29.83573,69.77616],[29.83133,69.77609],[29.83242,69.77904],[29.82976,69.78239],[29.82618,69.78384],[29.8215,69.78414],[29.82488,69.78523]],[[29.83562,69.78778],[29.83469,69.78603],[29.83833,69.78339],[29.83831,69.78188]],[[29.81583,69.79193],[29.81723,69.79284],[29.81699,69.79361],[29.8119,69.79585],[29.81442,69.79742],[29.81504,69.79861],[29.81877,69.79692],[29.82505,69.7961],[29.82889,69.79399],[29.83245,69.79285],[29.83319,69.79045],[29.83563,69.78903],[29.83562,69.78778]],[[29.73615,69.80994],[29.73177,69.81014],[29.72937,69.81075]],[[29.72937,69.81075],[29.72802,69.81099],[29.72665,69.81039],[29.72752,69.80876],[29.72515,69.8069],[29.72996,69.80566],[29.7273,69.80543],[29.72424,69.80422],[29.71954,69.80018],[29.71538,69.79962],[29.71283,69.79864],[29.70985,69.7956],[29.70317,69.79176],[29.69367,69.7879],[29.68323,69.78615]],[[29.80465,69.80549],[29.79893,69.80683]],[[29.74764,69.81007],[29.74525,69.80888],[29.74094,69.80892],[29.73908,69.80959],[29.73615,69.80994]],[[29.80131,69.8078],[29.80287,69.80629],[29.80456,69.806]],[[29.7933,69.80899],[29.79893,69.80683]],[[29.79626,69.81311],[29.80181,69.81011],[29.80131,69.8078]],[[29.731,69.78797],[29.73576,69.79492],[29.73712,69.79553],[29.74091,69.80038],[29.74276,69.80119],[29.7416,69.80303],[29.74414,69.80345],[29.74957,69.80336],[29.75202,69.80397],[29.75817,69.80771],[29.76344,69.81354],[29.76656,69.81477],[29.77426,69.81616],[29.78025,69.81625],[29.78525,69.81738],[29.78676,69.81734],[29.79129,69.81265],[29.7933,69.80899]],[[29.73115,69.82558],[29.72699,69.82454],[29.72777,69.82323],[29.73086,69.82292],[29.73433,69.8212],[29.73932,69.82182],[29.74762,69.82138],[29.75135,69.82012],[29.75118,69.81739],[29.75949,69.81572],[29.75679,69.81415],[29.74878,69.8114],[29.74764,69.81007]],[[29.73877,69.82629],[29.73515,69.8262],[29.73115,69.82558]],[[29.75818,69.82577],[29.75253,69.82492],[29.74716,69.82585],[29.74303,69.82578],[29.73877,69.82629]],[[29.79643,69.8225],[29.7956,69.81362],[29.79626,69.81311]],[[29.35422,69.86192],[29.36246,69.86155],[29.37111,69.85912],[29.3766,69.85838]],[[29.3766,69.85838],[29.38515,69.85795],[29.39159,69.85907],[29.39741,69.85856],[29.4035,69.85909],[29.41021,69.85879],[29.41296,69.85826],[29.41724,69.85604]],[[29.35174,69.86986],[29.35405,69.86892],[29.35376,69.86754],[29.35469,69.86658],[29.35401,69.86611],[29.34888,69.86519],[29.34839,69.86445],[29.35011,69.86268],[29.35422,69.86192]],[[29.42464,69.8569],[29.42386,69.85919],[29.42192,69.86004],[29.42311,69.86486]],[[29.42311,69.86486],[29.42386,69.8657],[29.42843,69.86657],[29.43429,69.86665]],[[29.36326,69.87253],[29.35967,69.87287],[29.35639,69.87432],[29.34911,69.87501],[29.34729,69.87422],[29.34795,69.87377],[29.35205,69.87393],[29.35059,69.87135],[29.35174,69.86986]],[[29.37822,69.87456],[29.37675,69.87308],[29.37106,69.87256],[29.36326,69.87253]],[[29.41549,69.87369],[29.41639,69.87154],[29.40787,69.87064],[29.40277,69.87054],[29.39486,69.87125],[29.38227,69.87449],[29.37822,69.87456]],[[29.41135,69.8804],[29.41483,69.87904],[29.41823,69.87908],[29.41882,69.87879],[29.41834,69.87817],[29.41489,69.87723],[29.41549,69.87369]],[[29.74148,69.85555],[29.7388,69.85386],[29.74235,69.85262],[29.74781,69.85183],[29.74674,69.84902],[29.74889,69.84857],[29.75099,69.84901],[29.75595,69.84908],[29.76129,69.84854],[29.76141,69.84693],[29.75618,69.84432],[29.75605,69.84352],[29.75978,69.84234],[29.7594,69.8418],[29.76529,69.84094],[29.76706,69.84027],[29.76617,69.83712],[29.77653,69.83594],[29.77914,69.83375],[29.77878,69.83091],[29.77774,69.83037],[29.75818,69.82577]],[[29.44039,69.88098],[29.43692,69.88097],[29.43394,69.88164],[29.44042,69.88147],[29.44114,69.88125],[29.44039,69.88098]],[[29.44449,69.89485],[29.44299,69.89495],[29.44235,69.89591],[29.4423,69.897],[29.44316,69.89723],[29.44452,69.89722],[29.44521,69.89668],[29.44449,69.89485]],[[29.42802,69.89955],[29.42657,69.89728],[29.42737,69.89632],[29.42989,69.89577],[29.4297,69.89486],[29.41803,69.8898],[29.41104,69.8891],[29.41082,69.8884],[29.40108,69.8855],[29.40175,69.88503],[29.40592,69.88443],[29.41135,69.8804]],[[29.48656,69.89468],[29.48446,69.89357],[29.47719,69.89415],[29.47379,69.89324],[29.4698,69.89064],[29.46689,69.88733],[29.46797,69.88434],[29.46474,69.88091],[29.45538,69.87676],[29.45281,69.87638],[29.44962,69.8751],[29.44766,69.87139],[29.44013,69.86923],[29.43656,69.86688],[29.43429,69.86665]],[[29.75605,69.87196],[29.75348,69.86993],[29.75191,69.86697],[29.75218,69.86638],[29.75457,69.86578],[29.75515,69.86403],[29.75302,69.86227],[29.75469,69.8611],[29.75525,69.85963],[29.75538,69.85778],[29.75384,69.85721]],[[29.79774,69.8684],[29.79916,69.86646],[29.8044,69.86505],[29.80415,69.86414],[29.80759,69.86094],[29.80703,69.8595],[29.80831,69.85822],[29.80594,69.8565],[29.80603,69.84884],[29.80899,69.84426],[29.8119,69.84251],[29.80938,69.84169],[29.80987,69.84053],[29.80899,69.84004],[29.80338,69.84585],[29.79975,69.84641],[29.79708,69.84626],[29.79534,69.84576],[29.79471,69.84384],[29.79633,69.84172],[29.79816,69.8403],[29.80235,69.83856],[29.80754,69.83286],[29.80681,69.83222],[29.80317,69.83206],[29.79878,69.83103],[29.7978,69.82964],[29.80018,69.82728],[29.79836,69.82369],[29.79643,69.8225]],[[29.42802,69.89955],[29.42902,69.90049],[29.43536,69.90155],[29.45401,69.90131],[29.45786,69.90019]],[[29.47099,69.90421],[29.47067,69.90384],[29.4724,69.90279],[29.47061,69.90125],[29.46619,69.90049],[29.46234,69.90061],[29.45786,69.90019]],[[29.47828,69.91685],[29.48214,69.91581],[29.48203,69.91499],[29.48658,69.91085],[29.48463,69.90889],[29.48195,69.90822],[29.47463,69.90457],[29.47258,69.90413],[29.47099,69.90421]],[[29.4973,69.91833],[29.48832,69.91866],[29.48262,69.91849],[29.47871,69.91781],[29.47828,69.91685]],[[29.75744,69.89599],[29.75356,69.89519],[29.75113,69.89548],[29.7483,69.8966],[29.74067,69.89555],[29.73799,69.89644],[29.74031,69.89803],[29.7445,69.89851],[29.74738,69.89959],[29.75131,69.89954],[29.75738,69.89824],[29.75655,69.89745],[29.75807,69.89666],[29.75744,69.89599]],[[29.48656,69.89468],[29.48786,69.89576],[29.48811,69.89783],[29.49099,69.89885],[29.4938,69.90161],[29.5045,69.90031],[29.51253,69.90191],[29.51058,69.90326],[29.50585,69.90478],[29.50384,69.90599],[29.50395,69.90835],[29.51155,69.9127],[29.51562,69.91353],[29.51911,69.91353],[29.52181,69.91629],[29.52928,69.91815],[29.53262,69.91844],[29.53897,69.9183],[29.54061,69.91738],[29.54585,69.91632],[29.55,69.91685],[29.55356,69.9155],[29.55683,69.91521],[29.55872,69.91567],[29.55929,69.91654],[29.56404,69.91842],[29.56683,69.91829],[29.57272,69.91692],[29.57588,69.9173],[29.57704,69.91708],[29.57825,69.91203],[29.57608,69.91003],[29.57156,69.90803],[29.57163,69.90617],[29.57357,69.90305],[29.5697,69.90053],[29.57079,69.89942],[29.5725,69.89907],[29.57641,69.89905],[29.5782,69.9001],[29.58202,69.90716],[29.58804,69.9105],[29.58679,69.91139],[29.5872,69.91186],[29.59163,69.91268],[29.58897,69.91353],[29.58908,69.91416],[29.59021,69.91423],[29.59546,69.91288],[29.59988,69.9135],[29.6016,69.91435]],[[29.73064,69.90769],[29.73447,69.90704],[29.73682,69.9055],[29.73575,69.90477],[29.74139,69.90315],[29.74062,69.90271],[29.7385,69.90277],[29.73783,69.90216],[29.74189,69.90123],[29.74539,69.90089],[29.74675,69.90005],[29.74622,69.89972],[29.743,69.90013],[29.74008,69.89967],[29.73798,69.90136],[29.73653,69.90168],[29.73157,69.89989],[29.72732,69.89742],[29.72692,69.89657],[29.72816,69.89512],[29.74119,69.88949],[29.74989,69.88863],[29.75679,69.88672],[29.76196,69.88182],[29.76252,69.88054],[29.76177,69.87925],[29.75618,69.8762],[29.75729,69.87327],[29.75605,69.87196]],[[29.59718,69.91574],[29.59556,69.91592],[29.5962,69.91876],[29.59691,69.91931],[29.59896,69.91965],[29.60175,69.91897],[29.60023,69.91784],[29.60178,69.91724],[29.59718,69.91574]],[[29.60601,69.92054],[29.60661,69.92024],[29.60555,69.9199]],[[29.63911,69.91663],[29.63689,69.91692],[29.63796,69.9178],[29.64053,69.91855],[29.64325,69.91856],[29.64386,69.91813],[29.64267,69.9174],[29.63911,69.91663]],[[29.6016,69.91435],[29.60663,69.9165],[29.61334,69.91566],[29.61345,69.915],[29.61162,69.91437],[29.6096,69.91425],[29.60938,69.91347],[29.61156,69.91291],[29.62312,69.9127],[29.62703,69.9121],[29.62793,69.91111],[29.63322,69.90869],[29.63559,69.90587],[29.6413,69.90427],[29.64534,69.90374],[29.64758,69.90422],[29.65172,69.90379],[29.65352,69.90447],[29.65715,69.90427],[29.6681,69.90155],[29.67014,69.9019],[29.66815,69.90645],[29.66961,69.90731],[29.67266,69.90759],[29.67313,69.90682],[29.67133,69.90402],[29.67891,69.90095],[29.68439,69.89996],[29.68728,69.90027],[29.68819,69.90165],[29.68566,69.90436],[29.68695,69.90659],[29.68496,69.90992],[29.68558,69.91121],[29.6886,69.91268],[29.69605,69.91251],[29.6978,69.91273],[29.69841,69.91354],[29.7003,69.91389],[29.70447,69.91347],[29.71059,69.91365],[29.71528,69.91293],[29.71613,69.9118],[29.72404,69.91037],[29.72689,69.9085],[29.73064,69.90769]],[[29.62865,69.91857],[29.62717,69.91913],[29.62869,69.92005],[29.63139,69.92092],[29.63336,69.92088],[29.63438,69.9202],[29.63303,69.91947],[29.62865,69.91857]],[[29.78994,69.90734],[29.79161,69.90647],[29.79176,69.90213],[29.79495,69.89634],[29.79335,69.89235],[29.79246,69.89213],[29.79001,69.89283],[29.78763,69.89452],[29.78467,69.89898],[29.78308,69.89916],[29.77832,69.9028],[29.77579,69.90355],[29.77693,69.90473],[29.78242,69.90529],[29.78319,69.90573],[29.78232,69.90677],[29.78436,69.90743],[29.78902,69.90782],[29.78994,69.90734]],[[29.77147,69.91428],[29.77321,69.9141],[29.77514,69.91464],[29.77842,69.91408],[29.78045,69.91209],[29.78044,69.91056],[29.77743,69.90956],[29.77621,69.91026],[29.77351,69.90982],[29.77282,69.90944],[29.77499,69.90846],[29.77387,69.9077],[29.7696,69.9075],[29.76754,69.9088],[29.76742,69.90994],[29.76856,69.9103],[29.76669,69.91182],[29.76256,69.91214],[29.7621,69.91332],[29.76023,69.91446],[29.76199,69.915],[29.76853,69.9153],[29.77039,69.91513],[29.77147,69.91428]],[[29.56344,69.93422],[29.56139,69.93089],[29.55486,69.9287],[29.55307,69.92854],[29.5521,69.92983],[29.54743,69.92963],[29.5464,69.92885],[29.54812,69.92786],[29.5467,69.92738],[29.53887,69.92623],[29.5334,69.92499],[29.51739,69.92341],[29.51191,69.92221],[29.51116,69.92148],[29.50602,69.92021],[29.50479,69.91884],[29.50164,69.91784],[29.49894,69.91776],[29.4973,69.91833]],[[29.83202,69.91149],[29.8285,69.91048],[29.82496,69.91071],[29.82224,69.91028],[29.8206,69.90899],[29.81802,69.90898],[29.81704,69.90933],[29.81524,69.90898],[29.81309,69.9067],[29.81119,69.90678],[29.81099,69.90759],[29.8092,69.90822],[29.80705,69.90749],[29.8016,69.90739],[29.80009,69.90449],[29.79879,69.90489],[29.79914,69.90574],[29.79836,69.90604],[29.79719,69.90546],[29.79606,69.89719],[29.79716,69.89157],[29.79621,69.88926],[29.79807,69.88723],[29.80148,69.88606],[29.80294,69.88222],[29.80714,69.87954],[29.80561,69.87867],[29.80564,69.87535],[29.80467,69.87328],[29.80312,69.87272],[29.80307,69.87106],[29.79853,69.86974],[29.79774,69.8684]],[[29.84374,69.91049],[29.84327,69.90967],[29.8448,69.90945],[29.84566,69.90864],[29.8448,69.90801],[29.84618,69.90755],[29.8486,69.90756],[29.85251,69.90838],[29.85818,69.90843],[29.85984,69.90706],[29.86375,69.90667]],[[29.56344,69.93422],[29.5655,69.93547],[29.56768,69.93554],[29.56866,69.93471],[29.57065,69.93491],[29.57587,69.93778],[29.5807,69.93772],[29.59287,69.93929],[29.59863,69.941],[29.60127,69.94301],[29.61084,69.94332],[29.62426,69.94612]],[[29.64043,69.96875],[29.64476,69.96824],[29.64548,69.96735],[29.65038,69.96642],[29.65399,69.96608],[29.6582,69.96656],[29.65936,69.96579],[29.65973,69.96286],[29.66095,69.96144],[29.65641,69.95947],[29.65313,69.95865],[29.64138,69.95804],[29.64199,69.95633],[29.63984,69.95548],[29.64082,69.95499],[29.64361,69.95463],[29.64409,69.95391],[29.64238,69.95325],[29.63981,69.95318],[29.6389,69.95266],[29.63869,69.95216],[29.64048,69.95155],[29.63984,69.95077],[29.62756,69.94783],[29.62426,69.94612]],[[29.64043,69.96875],[29.63835,69.96998],[29.6413,69.97248],[29.64321,69.97262]],[[29.63262,69.9744],[29.63408,69.97352],[29.63013,69.9721],[29.62463,69.97336],[29.6223,69.97441],[29.61949,69.97447],[29.61728,69.97504],[29.61751,69.97567]],[[29.64663,69.97322],[29.64541,69.9729],[29.64747,69.97203],[29.64494,69.97188],[29.64321,69.97262]],[[29.67916,69.97048],[29.67763,69.96864],[29.67465,69.96805],[29.67601,69.96748],[29.67328,69.96639],[29.67144,69.9664],[29.66095,69.96843],[29.65865,69.97138],[29.66087,69.97202]],[[29.64518,69.97537],[29.64849,69.97473],[29.64739,69.97412],[29.64773,69.97345],[29.64663,69.97322]],[[29.63262,69.9744],[29.62948,69.97584],[29.63017,69.97636],[29.63975,69.97667],[29.64079,69.97686],[29.64077,69.97755],[29.64261,69.9776],[29.64366,69.97706],[29.64332,69.97612],[29.64518,69.97537]],[[29.49179,69.99114],[29.49702,69.98906],[29.50083,69.98906],[29.50275,69.98815],[29.50932,69.98856],[29.50676,69.98775],[29.50496,69.98794],[29.5043,69.9874],[29.50533,69.98689],[29.51365,69.98671],[29.51482,69.98726],[29.51271,69.98783],[29.51308,69.9881],[29.51738,69.98886],[29.52024,69.98839]],[[29.57527,69.9832],[29.57393,69.98337],[29.57428,69.98441],[29.57787,69.98369],[29.57685,69.9832],[29.57527,69.9832]],[[29.52024,69.98839],[29.5266,69.98739],[29.53059,69.98625],[29.53122,69.98566],[29.53443,69.985],[29.53572,69.98531],[29.53588,69.98625],[29.54031,69.98737],[29.54171,69.98733],[29.54272,69.987],[29.54165,69.98574],[29.54276,69.98562],[29.54516,69.98629],[29.5493,69.98564],[29.5508,69.98505],[29.54896,69.98446],[29.55144,69.98331],[29.55441,69.9833],[29.55556,69.98499],[29.55749,69.98511],[29.56058,69.98435],[29.56116,69.98341],[29.56522,69.98264],[29.57058,69.98075],[29.57404,69.9815],[29.577,69.98136],[29.57838,69.98291],[29.5797,69.98328],[29.58208,69.98209],[29.58119,69.98069],[29.58587,69.98011],[29.58677,69.97968],[29.58563,69.97897],[29.58762,69.97839],[29.59088,69.97842],[29.59396,69.97935],[29.59577,69.98053],[29.5991,69.98053],[29.60011,69.97968],[29.60489,69.97986],[29.60802,69.97934],[29.61751,69.97567]],[[29.49224,69.99219],[29.49132,69.99186],[29.49179,69.99114]],[[29.66087,69.97202],[29.66189,69.9726],[29.65907,69.97339],[29.66288,69.97434],[29.67006,69.97426],[29.66977,69.97489],[29.67152,69.97587],[29.67348,69.97586],[29.67728,69.97509],[29.6795,69.97511],[29.68004,69.97544],[29.67899,69.97636],[29.68313,69.97677],[29.68374,69.97751],[29.69053,69.97718],[29.69139,69.97668],[29.68857,69.97625],[29.69085,69.9744],[29.68675,69.97386],[29.68428,69.97229],[29.68137,69.97187],[29.67907,69.97095],[29.67916,69.97048]],[[29.62276,69.98516],[29.62966,69.98432],[29.63114,69.98311],[29.62938,69.98275],[29.62723,69.9832],[29.62126,69.9826],[29.61712,69.9834],[29.61668,69.98454],[29.6189,69.98572],[29.62311,69.98564],[29.62276,69.98516]],[[29.49856,70.00087],[29.50329,69.99919],[29.50422,69.99834],[29.4994,69.99788],[29.49944,69.99751],[29.50128,69.99713],[29.50114,69.99663],[29.49463,69.99432],[29.49462,69.99307],[29.49224,69.99219]]]}}]}