{"type":"FeatureCollection","features":[{"type":"Feature","properties":{},"geometry":{"type":"MultiLineString","coordinates":[[[20.7579,69.95275],[20.7667,69.94885],[20.76795,69.94718]],[[20.62951,69.96661],[20.62785,69.96906]],[[20.62785,69.96906],[20.62581,69.97053],[20.62565,69.97406],[20.62926,69.97557],[20.63067,69.97821],[20.62987,69.97882],[20.62338,69.98012],[20.62072,69.98276]],[[20.63725,69.99176],[20.64482,69.98878],[20.64689,69.98525]],[[20.62542,69.98848],[20.626,69.98885]],[[20.626,69.98885],[20.62773,69.99064],[20.6304,69.99182],[20.63725,69.99176]],[[20.81598,69.49965],[20.80805,69.50229]],[[20.52699,69.53779],[20.52915,69.53715],[20.53077,69.53766],[20.53105,69.53884],[20.5297,69.53917],[20.52688,69.53866],[20.52605,69.53923],[20.52768,69.54006],[20.53066,69.54041],[20.53357,69.54184]],[[20.55722,69.54518],[20.55262,69.54329]],[[20.53322,69.54877],[20.53324,69.5471],[20.53568,69.54621],[20.53539,69.54587]],[[20.56224,69.59002],[20.56658,69.58872]],[[20.50415,69.68185],[20.50011,69.67877],[20.49911,69.676],[20.49616,69.67448]],[[20.50415,69.68185],[20.50739,69.68368]],[[20.52474,69.7262],[20.52489,69.72541]],[[20.51929,69.7353],[20.52235,69.73429],[20.52472,69.73122],[20.52474,69.7262]],[[20.47132,69.76439],[20.47713,69.76492],[20.47993,69.7644]],[[20.5799,69.78918],[20.58298,69.78931]],[[20.97087,69.7799],[20.97253,69.77942],[20.97402,69.77819],[20.97304,69.77661],[20.97583,69.77549],[20.97316,69.77561],[20.97003,69.77696]],[[20.97087,69.7799],[20.96957,69.7805],[20.97116,69.78092]],[[20.71522,69.79695],[20.71673,69.79911]],[[20.74637,69.8091],[20.73498,69.80475],[20.7357,69.80416],[20.73209,69.80329],[20.73071,69.80359],[20.72789,69.80313],[20.71982,69.80138],[20.71673,69.79911]],[[20.85815,69.84892],[20.85992,69.84886]],[[20.37284,69.8999],[20.3779,69.89707]],[[20.56475,69.89638],[20.56411,69.89637]],[[20.36877,69.90742],[20.36921,69.90476],[20.37191,69.90253],[20.37284,69.8999]],[[20.56475,69.89638],[20.56839,69.89699],[20.57555,69.89941],[20.57832,69.90204]],[[20.57841,69.9045],[20.5791,69.90338],[20.57832,69.90204]],[[20.83697,69.89615],[20.82319,69.89349],[20.81787,69.89323],[20.8124,69.89354],[20.79796,69.89199],[20.78211,69.88831],[20.77467,69.88596]],[[20.61374,69.90456],[20.62153,69.90313]],[[20.70028,69.91668],[20.70028,69.91612],[20.69774,69.91478],[20.6939,69.91427]],[[20.62574,69.94339],[20.62435,69.944]],[[20.61623,69.9483],[20.62435,69.944]],[[20.98245,69.93631],[20.98183,69.93715],[20.98276,69.93815],[20.9864,69.93993]],[[20.61623,69.9483],[20.6134,69.95214]],[[20.93272,69.94174],[20.92722,69.94005],[20.91969,69.93842]],[[20.9864,69.93993],[20.98886,69.94171],[20.99145,69.94204],[20.99488,69.94171],[20.99579,69.94311],[20.99973,69.94321],[21.00256,69.9444]],[[20.6134,69.95214],[20.60965,69.95456],[20.61055,69.95615],[20.61446,69.957],[20.61503,69.96089],[20.62037,69.96267],[20.62663,69.96348],[20.62976,69.96545],[20.62951,69.96661]],[[20.66796,69.97182],[20.6694,69.97137],[20.67539,69.97107],[20.68422,69.96446],[20.68403,69.96318],[20.68087,69.95954],[20.68096,69.95566],[20.6787,69.9519],[20.67871,69.95006]],[[20.65556,69.97971],[20.65955,69.97871],[20.66141,69.97509],[20.66393,69.97398],[20.66691,69.97349],[20.66796,69.97182]],[[20.65242,69.98146],[20.65297,69.98039],[20.65556,69.97971]],[[20.64689,69.98525],[20.65107,69.98351],[20.65242,69.98146]],[[20.62072,69.98276],[20.61641,69.98672],[20.62542,69.98848]],[[20.95555,69.98224],[20.94811,69.97965],[20.94076,69.97881],[20.93706,69.97941],[20.92974,69.9831]],[[20.73645,69.98946],[20.75005,69.97793],[20.75442,69.9719],[20.7539,69.97081],[20.75547,69.96779],[20.75118,69.96463],[20.74951,69.95867],[20.75275,69.95734],[20.7579,69.95275]],[[20.99313,69.98097],[20.98617,69.97898],[20.98141,69.97666],[20.97546,69.97513],[20.97526,69.97376],[20.97005,69.97225],[20.9684,69.97141],[20.96834,69.97059],[20.96672,69.97011],[20.96024,69.96983],[20.95444,69.97073],[20.94928,69.97106],[20.94529,69.97229],[20.94181,69.9718],[20.93905,69.97205],[20.93664,69.97138],[20.93687,69.97047],[20.94754,69.9686],[20.95045,69.96711],[20.95931,69.9647],[20.96256,69.96311],[20.96517,69.95981],[20.96172,69.95601],[20.95735,69.95305],[20.94511,69.94652],[20.93504,69.94221],[20.93272,69.94174]],[[20.99313,69.98097],[20.99843,69.98217],[21.00169,69.98218]],[[20.90138,69.9961],[20.90555,69.99503],[20.90735,69.994],[20.91232,69.99306],[20.91067,69.99087],[20.91138,69.99025],[20.91616,69.99018],[20.92974,69.9831]],[[20.90138,69.9961],[20.89843,69.99809],[20.90114,70.00167]],[[20.95555,69.98224],[20.96237,69.98495],[20.96842,69.98611],[20.9697,69.98688],[20.96929,69.98865],[20.96402,69.98964],[20.96222,69.99049],[20.96128,69.99308],[20.96451,69.99674],[20.96731,69.99815],[20.97779,70.00044]],[[20.98322,70.00149],[20.98215,69.99948],[20.98264,69.99889],[20.98495,69.99868],[20.9842,69.99806],[20.98516,69.99753],[20.9861,69.99745],[20.99437,69.99928],[20.99529,69.99894],[20.99448,69.99773],[20.99942,69.99746],[21.00439,69.99887]],[[20.71452,70.00443],[20.72999,69.99205],[20.73645,69.98946]],[[20.81108,69.49436],[20.81364,69.49571],[20.81759,69.49555],[20.81905,69.49716],[20.82059,69.49761],[20.81598,69.49965]],[[20.76598,69.50683],[20.77594,69.50338],[20.78855,69.49816],[20.80094,69.49482],[20.80498,69.49461],[20.80798,69.49313],[20.81059,69.49406]],[[20.63623,69.51645],[20.63987,69.51569]],[[20.63987,69.51569],[20.64317,69.5156],[20.652,69.51439],[20.65628,69.51441],[20.67068,69.51327],[20.68478,69.51159],[20.69022,69.51189],[20.69375,69.51118],[20.70299,69.51277],[20.71702,69.51293],[20.73047,69.51423],[20.74082,69.51383],[20.75148,69.51223],[20.76598,69.50683]],[[20.61887,69.52167],[20.62528,69.5188],[20.62974,69.51872],[20.63412,69.51807],[20.63623,69.51645]],[[20.77006,69.52192],[20.78579,69.51329],[20.7939,69.50954],[20.7972,69.50677],[20.80805,69.50229]],[[20.75583,69.52424],[20.7522,69.52289],[20.74767,69.52264],[20.73232,69.52466],[20.71776,69.52548],[20.71052,69.52388],[20.70624,69.52432],[20.6985,69.52416],[20.69503,69.52361],[20.69188,69.52222],[20.68604,69.52489]],[[20.75583,69.52424],[20.75994,69.52433],[20.76489,69.52287],[20.76695,69.52285],[20.77006,69.52192]],[[20.64558,69.53728],[20.65604,69.53404],[20.66165,69.53114],[20.67213,69.52854],[20.68292,69.52644],[20.68604,69.52489]],[[20.52932,69.54344],[20.52511,69.53956],[20.52466,69.53849],[20.5258,69.53839]],[[20.53357,69.54184],[20.53026,69.54305],[20.53718,69.54367],[20.54095,69.54339],[20.54419,69.54467],[20.54565,69.5437],[20.5488,69.54368],[20.54993,69.54289],[20.5519,69.54291],[20.55262,69.54329]],[[20.38794,69.55049],[20.38725,69.54873],[20.38189,69.54538],[20.38071,69.54298],[20.37755,69.54137],[20.37847,69.5408],[20.37647,69.53797],[20.37763,69.5364],[20.37733,69.5347],[20.37314,69.53201],[20.37422,69.52929],[20.36555,69.52286],[20.35946,69.52052],[20.35856,69.51975],[20.35834,69.51805],[20.35496,69.5142],[20.35509,69.50968],[20.35667,69.50848],[20.35643,69.50748],[20.35472,69.50653]],[[20.53539,69.54587],[20.52932,69.54344]],[[20.58836,69.54418],[20.59573,69.54042],[20.60698,69.52904],[20.61277,69.52489],[20.61887,69.52167]],[[20.63177,69.54278],[20.64134,69.53819],[20.64558,69.53728]],[[20.55722,69.54518],[20.55892,69.54626],[20.56413,69.5479],[20.56856,69.54853],[20.58005,69.54686],[20.58475,69.54566],[20.58836,69.54418]],[[20.5248,69.56754],[20.52953,69.5646],[20.53347,69.55843],[20.53459,69.55441],[20.53322,69.54877]],[[20.38794,69.55049],[20.38806,69.55719],[20.39146,69.56053],[20.38945,69.56224],[20.38874,69.5648],[20.39172,69.57085],[20.39401,69.57233],[20.39489,69.57477],[20.39819,69.57696],[20.39917,69.58022],[20.39731,69.58212],[20.39692,69.58396],[20.39825,69.5859],[20.40086,69.5866]],[[20.40086,69.5866],[20.40664,69.58784],[20.41684,69.59112],[20.42216,69.59161],[20.42909,69.59143],[20.43702,69.59042],[20.45181,69.58508],[20.46806,69.5822],[20.47131,69.58093],[20.49084,69.57627],[20.50194,69.57467],[20.51166,69.57257],[20.52257,69.5688],[20.5248,69.56754]],[[20.56658,69.58872],[20.57447,69.58566],[20.58471,69.57992],[20.58336,69.57484],[20.59,69.57127],[20.59155,69.56799],[20.59639,69.56237],[20.60523,69.55765],[20.6093,69.55445],[20.63177,69.54278]],[[20.53363,69.6015],[20.54072,69.60091],[20.54134,69.60052]],[[20.54134,69.60052],[20.54895,69.59602],[20.55408,69.59423],[20.55524,69.59265],[20.56224,69.59002]],[[20.53363,69.6015],[20.5314,69.60274],[20.52857,69.60336],[20.52974,69.60382],[20.52858,69.60477],[20.51566,69.60723]],[[20.51566,69.60723],[20.50363,69.60859],[20.49875,69.61029],[20.48558,69.61351],[20.48196,69.61509]],[[20.46026,69.63823],[20.46102,69.63659],[20.46772,69.63263],[20.47128,69.62618],[20.47401,69.62424],[20.48196,69.61509]],[[20.49616,69.67448],[20.49162,69.67322],[20.4919,69.6702],[20.48881,69.67001],[20.48405,69.67036],[20.48187,69.6701],[20.47339,69.66402],[20.4711,69.66051],[20.47359,69.65757],[20.46946,69.65202],[20.46349,69.64767],[20.45949,69.64337],[20.46072,69.64053],[20.46026,69.63823]],[[20.35295,69.6807],[20.35792,69.6805],[20.3597,69.68077],[20.36269,69.67993],[20.37335,69.6785],[20.37816,69.67662],[20.37989,69.67394],[20.37615,69.6726],[20.37612,69.67091],[20.37184,69.66767],[20.37223,69.66691],[20.37527,69.6659],[20.37532,69.6648],[20.37209,69.66444],[20.37124,69.66274],[20.36852,69.66136],[20.3672,69.65958],[20.36393,69.65851],[20.36128,69.65686],[20.35934,69.65651],[20.35629,69.6566],[20.35095,69.65544],[20.34853,69.65539],[20.34554,69.65722],[20.34121,69.65883],[20.33893,69.6607],[20.33878,69.66317],[20.34178,69.66474],[20.34216,69.66559],[20.34038,69.66757],[20.34077,69.66898],[20.33771,69.67059],[20.33762,69.672],[20.33647,69.67219],[20.33355,69.67167],[20.33181,69.67244],[20.3311,69.67354],[20.33161,69.67454],[20.33618,69.67587],[20.33892,69.67852],[20.33799,69.67896],[20.33909,69.67932],[20.35504,69.6764],[20.35591,69.67774],[20.35516,69.67923],[20.354,69.67976],[20.34876,69.67975],[20.34649,69.68015],[20.34669,69.68256],[20.3522,69.68168],[20.35295,69.6807]],[[20.52367,69.71875],[20.52355,69.71792],[20.52604,69.71526],[20.52566,69.71426],[20.5285,69.70835],[20.52655,69.70629],[20.52362,69.70022],[20.5182,69.69727],[20.51376,69.69001],[20.51139,69.68828],[20.50909,69.68464],[20.50739,69.68368]],[[20.52367,69.71875],[20.52462,69.71923],[20.52593,69.72264],[20.52489,69.72541]],[[20.51929,69.7353],[20.51127,69.7399],[20.49938,69.74326],[20.48952,69.74487],[20.48579,69.74631],[20.48468,69.74772]],[[20.48468,69.74772],[20.4841,69.74827],[20.48494,69.74896],[20.49254,69.75233],[20.49162,69.75323],[20.48565,69.7552],[20.48137,69.75583],[20.47278,69.75623],[20.46369,69.75797],[20.4594,69.7613],[20.45956,69.76283],[20.46322,69.76405],[20.46509,69.76444],[20.46655,69.76409],[20.47132,69.76439]],[[20.50438,69.76438],[20.50761,69.76394],[20.51568,69.7637]],[[20.47993,69.7644],[20.48476,69.76499],[20.49483,69.7675],[20.49682,69.76765],[20.4984,69.76739],[20.49787,69.7663],[20.49867,69.76578],[20.50438,69.76438]],[[20.55335,69.77029],[20.54621,69.76862],[20.54371,69.76684],[20.5418,69.76629],[20.51568,69.7637]],[[20.5361,69.77317],[20.53551,69.77287],[20.53195,69.77323],[20.52865,69.77245],[20.5276,69.77259],[20.52822,69.77333],[20.53154,69.77408],[20.53519,69.77386],[20.5361,69.77317]],[[20.55335,69.77029],[20.5556,69.77115],[20.55503,69.77204],[20.55652,69.77329],[20.55869,69.77402],[20.57939,69.77574]],[[20.5799,69.78918],[20.56899,69.78839],[20.56839,69.78805],[20.56917,69.78725],[20.56771,69.78691],[20.56406,69.78798],[20.55849,69.78827],[20.5557,69.7894]],[[20.96549,69.77839],[20.97003,69.77696]],[[20.96435,69.78255],[20.96389,69.7804],[20.96549,69.77839]],[[20.57939,69.77574],[20.59048,69.77776],[20.59494,69.77952],[20.59907,69.78053],[20.6071,69.78167],[20.61689,69.78463],[20.62055,69.78484],[20.63739,69.7879],[20.64324,69.78956],[20.65209,69.79088],[20.66489,69.7916],[20.68271,69.79072],[20.68602,69.79103],[20.68915,69.79202],[20.69097,69.79025],[20.69346,69.79021]],[[20.69437,69.79055],[20.69466,69.7916],[20.69644,69.79161],[20.6971,69.79088],[20.69934,69.79101],[20.7047,69.79226],[20.70768,69.79234],[20.71038,69.79321]],[[20.97116,69.78092],[20.98296,69.78266],[20.99311,69.78334],[20.99558,69.78284],[20.99329,69.78232],[20.99267,69.78118],[20.99346,69.78104],[20.9944,69.78196],[20.99852,69.78223],[21.00255,69.78405]],[[20.71038,69.79321],[20.71291,69.79422],[20.71522,69.79695]],[[20.95155,69.79252],[20.95672,69.79055],[20.96313,69.78722],[20.96606,69.78306],[20.96581,69.78267],[20.96435,69.78255]],[[20.93808,69.79321],[20.94164,69.79326],[20.94268,69.79499],[20.94588,69.7951],[20.9491,69.7924],[20.95155,69.79252]],[[20.53094,69.81599],[20.53207,69.8086],[20.53542,69.80158],[20.53855,69.79831],[20.54528,69.7949],[20.54684,69.79306],[20.5557,69.7894]],[[20.68897,69.81096],[20.64953,69.80451],[20.62259,69.79782],[20.60704,69.79488],[20.59258,69.79095],[20.58298,69.78931]],[[20.92356,69.80323],[20.92413,69.80092],[20.93522,69.7948],[20.93616,69.7936],[20.93808,69.79321]],[[20.76533,69.81617],[20.74637,69.8091]],[[20.52212,69.8287],[20.52527,69.82657],[20.52418,69.82614],[20.52558,69.82493],[20.52993,69.8221],[20.52887,69.81867],[20.53094,69.81599]],[[20.68897,69.81096],[20.69543,69.8124],[20.70873,69.81662],[20.71522,69.819],[20.72213,69.82235]],[[20.98271,69.82155],[20.98186,69.82253],[20.98326,69.82347]],[[20.98326,69.82347],[20.98756,69.82421],[20.98856,69.82283],[20.98676,69.82068],[20.98454,69.82084],[20.98271,69.82155]],[[20.76533,69.81617],[20.77265,69.82066],[20.77512,69.82291],[20.77912,69.82449],[20.78356,69.82733],[20.78378,69.82878],[20.78177,69.8311]],[[20.52212,69.8287],[20.52056,69.8284],[20.5177,69.83004],[20.51533,69.83379],[20.5178,69.83732],[20.51754,69.84014]],[[20.72735,69.8415],[20.73277,69.83861],[20.73443,69.83688],[20.73491,69.832],[20.73306,69.82969],[20.72213,69.82235]],[[20.51754,69.84014],[20.51613,69.84239],[20.5165,69.8435],[20.51853,69.84705],[20.5221,69.84839]],[[21.00902,69.82618],[20.99808,69.8241],[20.99149,69.82122],[20.98944,69.81695],[20.99269,69.81509],[20.99268,69.81226],[20.99418,69.81125],[21.00792,69.80698]],[[20.3659,69.85609],[20.36554,69.85307],[20.3627,69.85118],[20.3605,69.84802],[20.36041,69.84631],[20.35738,69.84393],[20.3558,69.84048],[20.35738,69.83864],[20.35785,69.83345],[20.35588,69.83112],[20.35677,69.82915],[20.35616,69.82619],[20.3538,69.82146]],[[20.37168,69.85883],[20.36781,69.85763],[20.3659,69.85609]],[[20.85815,69.84892],[20.85516,69.84975]],[[20.38322,69.86556],[20.37878,69.86381],[20.37686,69.86192],[20.37168,69.85883]],[[20.54256,69.86063],[20.54203,69.85989],[20.53854,69.8593],[20.53492,69.85743],[20.53064,69.85647],[20.52752,69.85279],[20.5221,69.84839]],[[20.93857,69.84774],[20.93429,69.84627],[20.93461,69.84511],[20.93733,69.84438],[20.93934,69.84558],[20.94067,69.84577],[20.9409,69.84431],[20.9444,69.84448],[20.94596,69.84385],[20.94508,69.84295],[20.94787,69.84308],[20.95414,69.83954],[20.94915,69.83785],[20.94447,69.83728],[20.93848,69.83744],[20.93038,69.83684],[20.92707,69.83799],[20.9244,69.83834],[20.91625,69.83715],[20.90736,69.83494],[20.90254,69.83131],[20.90096,69.82885],[20.90519,69.82454],[20.90213,69.8227],[20.90188,69.82103],[20.90395,69.81988],[20.91026,69.82017],[20.91215,69.81982],[20.91831,69.81578],[20.91927,69.81457],[20.91845,69.81297],[20.91987,69.81126],[20.91953,69.8093],[20.9231,69.80709],[20.92356,69.80323]],[[20.69534,69.85576],[20.69898,69.85335],[20.72735,69.8415]],[[20.77844,69.85306],[20.78039,69.8514],[20.79029,69.84692],[20.79183,69.84519],[20.79056,69.84119],[20.7843,69.83839],[20.78089,69.83606],[20.78177,69.8311]],[[20.85412,69.85057],[20.85516,69.84975]],[[20.8729,69.84994],[20.86902,69.84967],[20.86702,69.8489],[20.85992,69.84886]],[[20.8729,69.84994],[20.8778,69.85046],[20.88095,69.85158],[20.88423,69.85192],[20.88762,69.85184],[20.88911,69.85129],[20.89186,69.85114],[20.89228,69.85138],[20.8909,69.85197],[20.8928,69.85227],[20.89636,69.85158],[20.89696,69.85087],[20.90029,69.85087],[20.90991,69.85265],[20.92394,69.85319],[20.92911,69.85278],[20.93101,69.85153],[20.93338,69.85144],[20.9378,69.85196],[20.94188,69.85077],[20.94119,69.84878],[20.93857,69.84774]],[[20.85412,69.85057],[20.84543,69.85304],[20.84527,69.85527],[20.86041,69.85794],[20.86266,69.85866]],[[20.91383,69.86728],[20.9121,69.86701],[20.90891,69.86758],[20.909,69.86796],[20.91368,69.86919],[20.91557,69.86892],[20.91383,69.86728]],[[20.77844,69.85306],[20.77603,69.85471],[20.76621,69.85603],[20.75972,69.8577],[20.75555,69.86],[20.75074,69.86393],[20.75009,69.86845],[20.75756,69.87359],[20.76305,69.87944]],[[20.38675,69.89451],[20.39088,69.8946],[20.39188,69.89401],[20.39475,69.88787],[20.39167,69.88407],[20.39205,69.87817],[20.3876,69.87005],[20.38529,69.86686],[20.38322,69.86556]],[[20.552,69.88983],[20.55903,69.8861],[20.56096,69.88156],[20.55951,69.88015],[20.55547,69.8782],[20.55367,69.87617],[20.55084,69.87495],[20.55199,69.87336],[20.54938,69.87194],[20.54962,69.87037],[20.5475,69.86915],[20.55169,69.86631],[20.55029,69.86412],[20.54518,69.86227],[20.54256,69.86063]],[[20.3779,69.89707],[20.38675,69.89451]],[[20.77467,69.88596],[20.76749,69.88291],[20.76305,69.87944]],[[20.552,69.88983],[20.54973,69.89183],[20.5591,69.89596],[20.56411,69.89637]],[[20.3681,69.90911],[20.36877,69.90742]],[[20.64625,69.90234],[20.64406,69.90173],[20.63165,69.90056],[20.62691,69.90132],[20.62153,69.90313]],[[20.3661,69.91106],[20.3681,69.90911]],[[20.72596,69.89978],[20.71853,69.89585],[20.71719,69.89455],[20.71312,69.89301],[20.71133,69.89144],[20.70661,69.89065],[20.69648,69.88762],[20.69659,69.88226],[20.69833,69.87873],[20.69724,69.87509],[20.69496,69.87365],[20.69184,69.86962],[20.68873,69.86805],[20.68629,69.86235],[20.68688,69.8582],[20.68881,69.85763],[20.69247,69.85732],[20.69534,69.85576]],[[20.93245,69.89297],[20.92904,69.88944],[20.91997,69.8848],[20.91877,69.88211],[20.91257,69.87671],[20.90249,69.87044],[20.89346,69.8661],[20.88072,69.86234],[20.87747,69.86094],[20.87075,69.85966],[20.865,69.85924],[20.86266,69.85866]],[[20.57841,69.9045],[20.57773,69.90563],[20.57923,69.90636],[20.59051,69.90671],[20.60469,69.90564],[20.60803,69.9048],[20.61374,69.90456]],[[20.64625,69.90234],[20.64915,69.9027],[20.65697,69.9025],[20.66521,69.90355],[20.67373,69.90283],[20.67634,69.90312],[20.68177,69.904],[20.68431,69.90494],[20.68549,69.90572],[20.68499,69.90713],[20.68916,69.90867]],[[20.73719,69.90782],[20.73967,69.90587],[20.73912,69.90532],[20.73579,69.90442],[20.72596,69.89978]],[[20.35629,69.92118],[20.36256,69.91368],[20.3661,69.91106]],[[20.68916,69.90867],[20.69234,69.90949],[20.69755,69.90955],[20.71393,69.91139],[20.71873,69.91239],[20.72582,69.91288],[20.72933,69.91258],[20.73315,69.91149],[20.73719,69.90782]],[[20.6939,69.91427],[20.68602,69.91291],[20.68475,69.9141],[20.68221,69.91479],[20.68055,69.91474],[20.67695,69.91372],[20.67911,69.9164],[20.67691,69.91868],[20.67769,69.91974],[20.68115,69.91922],[20.68626,69.91944],[20.68944,69.92007],[20.69679,69.9194],[20.69826,69.91887],[20.69795,69.918],[20.70028,69.91668]],[[20.35175,69.93197],[20.35502,69.92563],[20.35502,69.9224],[20.35629,69.92118]],[[20.68069,69.92202],[20.67087,69.92099],[20.66662,69.91864],[20.66708,69.91742],[20.6657,69.91607],[20.66127,69.91748],[20.6626,69.92056],[20.66125,69.9214],[20.66209,69.92214],[20.66387,69.92229],[20.66472,69.92365]],[[20.68953,69.92368],[20.68823,69.92297],[20.68069,69.92202]],[[20.66472,69.92365],[20.66837,69.92505],[20.6721,69.92586]],[[20.93245,69.89297],[20.93616,69.89815],[20.93881,69.8995],[20.93979,69.90107],[20.94375,69.90289],[20.94994,69.90459],[20.95873,69.90586],[20.96299,69.9082],[20.96699,69.91145],[20.96921,69.91209],[20.96894,69.91275],[20.96147,69.91512],[20.96371,69.91737]],[[20.83697,69.89615],[20.84678,69.90025],[20.85141,69.90298],[20.85082,69.90464],[20.85276,69.90664],[20.85278,69.90936],[20.85466,69.91145],[20.85428,69.91339],[20.86543,69.91676],[20.87201,69.91931],[20.8801,69.92078]],[[20.6721,69.92586],[20.68353,69.92729],[20.68556,69.92674],[20.68887,69.92476],[20.68953,69.92368]],[[20.97622,69.92019],[20.97418,69.91973],[20.97343,69.91901],[20.977,69.91829],[20.97717,69.91778],[20.97178,69.91678],[20.97088,69.91696],[20.97041,69.91808],[20.96812,69.91887],[20.96371,69.91737]],[[20.34663,69.94094],[20.3503,69.93966],[20.34913,69.93841],[20.34999,69.93399],[20.35175,69.93197]],[[20.97622,69.92019],[20.98332,69.92112],[20.98726,69.92101],[20.98817,69.92025],[20.99,69.92002],[20.99339,69.92037],[20.99732,69.92264],[20.99799,69.92436],[20.99971,69.92528],[21.0032,69.92611]],[[20.98245,69.93631],[20.98199,69.93505],[20.97772,69.93304],[20.97506,69.93305],[20.9714,69.93403],[20.96701,69.93351],[20.9615,69.93213],[20.96254,69.93047],[20.96176,69.92975],[20.95526,69.92942],[20.95089,69.93008],[20.9474,69.92919],[20.94753,69.92798],[20.94493,69.92693],[20.93825,69.92773],[20.93735,69.92844],[20.93358,69.92766],[20.92504,69.92768],[20.91825,69.92632],[20.89129,69.92279],[20.88663,69.92165],[20.8801,69.92078]],[[20.67401,69.94646],[20.66967,69.94405],[20.66821,69.94202],[20.6587,69.93768],[20.65474,69.93759],[20.64807,69.93827],[20.6329,69.94178],[20.62774,69.94259],[20.62574,69.94339]],[[20.77384,69.94323],[20.77497,69.9409],[20.78481,69.93484],[20.79182,69.93144],[20.79984,69.92974],[20.80503,69.92916],[20.81017,69.9273],[20.82921,69.92272],[20.8377,69.92222],[20.8487,69.92333],[20.85567,69.92474],[20.85986,69.92638],[20.86704,69.9277],[20.86998,69.92884],[20.88287,69.93064]],[[20.91969,69.93842],[20.9147,69.93652],[20.90359,69.93533],[20.89862,69.93382],[20.88287,69.93064]],[[20.76795,69.94718],[20.77216,69.94491],[20.77384,69.94323]],[[20.67871,69.95006],[20.67401,69.94646]],[[20.31499,69.96296],[20.31893,69.96122]],[[20.20435,69.4658],[20.19856,69.46628]],[[20.14316,69.58221],[20.14214,69.58248]],[[20.14272,69.58486],[20.14308,69.58418]],[[20.25825,69.68517],[20.25573,69.6842]],[[20.26528,69.71346],[20.26523,69.71325]],[[20.19068,69.8577],[20.19443,69.85686],[20.19306,69.85628],[20.1938,69.85577],[20.1969,69.85537],[20.19973,69.85675],[20.20311,69.85717]],[[20.17578,69.87176],[20.17688,69.86965],[20.18313,69.86463]],[[20.18746,69.91639],[20.18756,69.91545],[20.18557,69.91381]],[[20.16449,69.93046],[20.16491,69.92763],[20.16327,69.92056],[20.1639,69.91921],[20.16282,69.91711]],[[20.16362,69.93618],[20.1649,69.93488],[20.16449,69.93046]],[[20.23122,69.95368],[20.23361,69.95408]],[[20.24423,69.9597],[20.24785,69.96093]],[[20.31893,69.96122],[20.32408,69.96003]],[[20.24785,69.96093],[20.25294,69.96319]],[[20.20566,69.46004],[20.20552,69.4598]],[[20.20384,69.46368],[20.20415,69.46377]],[[20.20415,69.46377],[20.20764,69.46506]],[[20.2064,69.46605],[20.20435,69.4658]],[[20.2064,69.46605],[20.20788,69.466]],[[20.24819,69.53975],[20.25617,69.54099]],[[20.23031,69.5467],[20.2434,69.545]],[[20.32965,69.6434],[20.33037,69.64223]],[[20.28817,69.65169],[20.29028,69.65073]],[[20.25929,69.68557],[20.25825,69.68517]],[[20.3538,69.82146],[20.35238,69.82036],[20.34965,69.81942]],[[20.21436,69.50689],[20.21976,69.50699],[20.21843,69.50874],[20.21709,69.50929],[20.21737,69.5107]],[[20.21149,69.49514],[20.20618,69.49635],[20.21093,69.49778],[20.21267,69.49998]],[[20.22261,69.55552],[20.2259,69.55408]],[[20.22464,69.54895],[20.22541,69.54848],[20.22697,69.54867],[20.22892,69.54815],[20.23031,69.5467]],[[20.21406,69.50566],[20.21498,69.50607],[20.21422,69.50632]],[[20.26523,69.71325],[20.26585,69.71219],[20.28409,69.70869],[20.28658,69.70735],[20.28353,69.69918],[20.28076,69.69769],[20.27857,69.69515],[20.26772,69.68911]],[[20.2259,69.55408],[20.22875,69.55342],[20.22559,69.55092],[20.22472,69.54929]],[[20.21398,69.50535],[20.21406,69.50566]],[[20.21422,69.50632],[20.21436,69.50689]],[[20.21267,69.49998],[20.2151,69.50117],[20.21568,69.50225],[20.21847,69.50216],[20.21956,69.50604],[20.21702,69.50604],[20.21536,69.50531],[20.21398,69.50535]],[[20.2206,69.49599],[20.21672,69.49629],[20.21335,69.49587],[20.21149,69.49514]],[[20.26693,69.71615],[20.26892,69.71524],[20.26781,69.71406],[20.26528,69.71346]],[[20.22472,69.54929],[20.22464,69.54895]],[[20.25294,69.96319],[20.25448,69.96745]],[[20.29804,69.97308],[20.30328,69.96817],[20.30932,69.96658],[20.31136,69.96636],[20.31445,69.96659],[20.31499,69.96296]],[[20.25448,69.96745],[20.25229,69.96994],[20.25525,69.97395],[20.2616,69.97615],[20.26842,69.97566],[20.2718,69.97501],[20.27676,69.97608],[20.28031,69.97628],[20.2849,69.97714],[20.28929,69.9743],[20.29804,69.97308]],[[20.20146,69.45386],[20.19884,69.45357],[20.19747,69.45627],[20.19465,69.45649],[20.19416,69.45692],[20.19622,69.46043]],[[20.19622,69.46043],[20.19952,69.46272],[20.20384,69.46368]],[[20.18864,69.47136],[20.18699,69.47111],[20.18638,69.47142],[20.18616,69.4724],[20.1875,69.47349],[20.18977,69.47316],[20.18981,69.47178],[20.18864,69.47136]],[[20.19446,69.47833],[20.19473,69.47559],[20.19341,69.47472],[20.19202,69.46976],[20.19581,69.46689],[20.19856,69.46628]],[[20.17041,69.46712],[20.17343,69.47652],[20.17863,69.48165]],[[20.17863,69.48165],[20.18078,69.48213],[20.18726,69.48197],[20.18841,69.48249],[20.19151,69.48235],[20.19434,69.48156],[20.19345,69.48007],[20.19446,69.47833]],[[20.22261,69.55552],[20.21994,69.55889],[20.22244,69.56331]],[[20.23178,69.57803],[20.22419,69.57755],[20.21965,69.57572],[20.22105,69.57374],[20.2243,69.57308],[20.22596,69.56914],[20.22806,69.5675],[20.22244,69.56331]],[[20.25573,69.6842],[20.2507,69.68202],[20.25217,69.68055],[20.25678,69.67926]],[[20.18792,69.86073],[20.18878,69.85863],[20.19068,69.8577]],[[20.20101,69.87101],[20.19983,69.87225],[20.19578,69.87386],[20.19499,69.87474]],[[20.18313,69.86463],[20.18693,69.86221],[20.18792,69.86073]],[[20.20101,69.87101],[20.20417,69.86675],[20.20486,69.85823]],[[20.19084,69.8777],[20.19499,69.87474]],[[20.16741,69.88593],[20.17031,69.88162],[20.17325,69.88081],[20.17569,69.87868],[20.1764,69.87693],[20.17391,69.87364],[20.17578,69.87176]],[[20.15413,69.89471],[20.1626,69.89207],[20.16816,69.88864],[20.16857,69.88813],[20.16705,69.88745],[20.16741,69.88593]],[[20.15126,69.89821],[20.15188,69.89549],[20.15413,69.89471]],[[20.1516,69.90054],[20.15456,69.89907],[20.15427,69.89869],[20.15126,69.89821]],[[20.17826,69.90028],[20.17927,69.89851],[20.17869,69.89664],[20.17803,69.89588],[20.17387,69.89446],[20.17677,69.89329],[20.17598,69.8921],[20.1775,69.89121],[20.1743,69.89014],[20.17874,69.88923],[20.18473,69.88221],[20.18865,69.88077],[20.19084,69.8777]],[[20.17826,69.90028],[20.17662,69.90104],[20.17193,69.90131],[20.17167,69.90203],[20.17805,69.90299],[20.17823,69.90429],[20.1809,69.90498],[20.18287,69.90631]],[[20.15565,69.90779],[20.15331,69.90561],[20.15557,69.90379],[20.15392,69.90175],[20.1506,69.90172],[20.1516,69.90054]],[[20.18557,69.91381],[20.18287,69.90631]],[[20.16282,69.91711],[20.16119,69.91374],[20.15924,69.91258],[20.16018,69.91192],[20.16253,69.91171],[20.16254,69.90966],[20.1636,69.90878],[20.16161,69.90822],[20.15565,69.90779]],[[20.18746,69.91639],[20.18921,69.91947],[20.18792,69.92095],[20.18879,69.92264],[20.18648,69.92421],[20.18651,69.92517],[20.19036,69.92596],[20.19117,69.92649],[20.19154,69.92977]],[[20.13309,69.93816],[20.13721,69.93961],[20.14553,69.94121],[20.14964,69.94257],[20.15695,69.94417],[20.16258,69.93937],[20.16362,69.93618]],[[20.19154,69.92977],[20.19265,69.93142],[20.19417,69.93175],[20.19677,69.93357],[20.19723,69.93613],[20.19972,69.93895],[20.20547,69.94153],[20.20606,69.94276]],[[20.20606,69.94276],[20.20665,69.9443],[20.20894,69.94565],[20.21953,69.94801]],[[20.21953,69.94801],[20.22601,69.95094],[20.22771,69.95332],[20.23122,69.95368]],[[20.24423,69.9597],[20.23806,69.95732],[20.23361,69.95408]],[[20.32408,69.96003],[20.32754,69.96026]],[[20.23038,69.46533],[20.22543,69.46316],[20.22009,69.45981],[20.21614,69.45984],[20.21237,69.46065],[20.20792,69.4606],[20.20566,69.46004]],[[20.23304,69.47449],[20.23498,69.47425],[20.24161,69.47541],[20.24276,69.47506],[20.24257,69.4743],[20.23928,69.47226],[20.23867,69.4705],[20.23605,69.46807],[20.23038,69.46533]],[[20.23304,69.47449],[20.23835,69.47668],[20.2394,69.47879],[20.24445,69.48132],[20.24472,69.48459],[20.24619,69.48661],[20.24609,69.49138],[20.24894,69.49313]],[[20.24939,69.49498],[20.25313,69.49467],[20.24894,69.49313]],[[20.2206,69.49599],[20.227,69.49694],[20.23975,69.49668],[20.24334,69.49578],[20.24939,69.49498]],[[20.23043,69.50658],[20.2288,69.50623],[20.22501,69.5068],[20.22981,69.50838],[20.23286,69.50857],[20.23319,69.50816],[20.23043,69.50658]],[[20.35472,69.50653],[20.35186,69.50481],[20.34755,69.50026],[20.34493,69.49925],[20.34451,69.49703],[20.33788,69.49009],[20.3365,69.48421],[20.33194,69.47747],[20.32648,69.47155],[20.32615,69.46893],[20.32477,69.46757],[20.32411,69.46248]],[[20.21737,69.5107],[20.2186,69.51174],[20.22013,69.51195],[20.22626,69.51105],[20.22721,69.51355],[20.23199,69.51481]],[[20.23142,69.52174],[20.23368,69.52098],[20.23902,69.52185],[20.23996,69.52066],[20.2387,69.51656],[20.23694,69.51524],[20.23558,69.51487],[20.23199,69.51481]],[[20.23456,69.52427],[20.2358,69.52285],[20.23205,69.52246],[20.23142,69.52174]],[[20.22356,69.52509],[20.22583,69.52482],[20.2325,69.52624],[20.23431,69.52558],[20.23456,69.52427]],[[20.26839,69.53381],[20.26662,69.534],[20.26777,69.53491],[20.2706,69.5351],[20.27028,69.53394],[20.26839,69.53381]],[[20.27931,69.5348],[20.27651,69.53511],[20.2761,69.53566],[20.28056,69.53577],[20.28071,69.53509],[20.27931,69.5348]],[[20.25617,69.54099],[20.25794,69.5409]],[[20.22356,69.52509],[20.22135,69.52688],[20.22293,69.52787],[20.22519,69.52837],[20.22952,69.52839],[20.23041,69.52983],[20.22944,69.53164],[20.23616,69.53486],[20.23595,69.53535],[20.23204,69.53572],[20.2301,69.53715],[20.23024,69.53791],[20.24193,69.53728],[20.24819,69.53975]],[[20.28064,69.54042],[20.27732,69.53859],[20.27521,69.53849],[20.27454,69.54063],[20.2775,69.5404],[20.28017,69.54077],[20.28064,69.54042]],[[20.25794,69.5409],[20.26081,69.54138]],[[20.2434,69.545],[20.24504,69.5453],[20.2468,69.54754],[20.24978,69.54741],[20.25302,69.54799],[20.25684,69.54802],[20.26,69.54888],[20.26271,69.5491]],[[20.26271,69.5491],[20.27222,69.54864],[20.27519,69.54879],[20.27792,69.54949],[20.2788,69.54927],[20.27759,69.54665],[20.26862,69.54496],[20.26597,69.54282],[20.26081,69.54138]],[[20.25647,69.55512],[20.25452,69.55484],[20.2506,69.55538],[20.24811,69.55681],[20.2476,69.55822],[20.25065,69.56002],[20.25354,69.56046],[20.25507,69.5604],[20.25554,69.55928],[20.25969,69.55816],[20.25926,69.55582],[20.25647,69.55512]],[[20.24233,69.57816],[20.25276,69.57796],[20.2593,69.57853],[20.26837,69.58022],[20.26999,69.5817],[20.26836,69.58269]],[[20.24233,69.57816],[20.23558,69.57856],[20.23178,69.57803]],[[20.26884,69.5876],[20.2677,69.58433],[20.26807,69.58367],[20.26943,69.58359],[20.26836,69.58269]],[[20.29281,69.58558],[20.29396,69.58497],[20.29178,69.58404],[20.29136,69.58357],[20.29211,69.58335],[20.30016,69.58501],[20.3036,69.5869],[20.3067,69.58696]],[[20.29281,69.58558],[20.28823,69.58531],[20.28365,69.58594],[20.28202,69.58692],[20.28283,69.58821]],[[20.26884,69.5876],[20.27099,69.58903]],[[20.27099,69.58903],[20.27271,69.58951]],[[20.27271,69.58951],[20.2761,69.58972],[20.27909,69.59052],[20.28018,69.58878],[20.28283,69.58821]],[[20.32055,69.59754],[20.31938,69.59443],[20.31545,69.59311],[20.31403,69.59061],[20.31515,69.59],[20.3142,69.58773],[20.31237,69.58693],[20.30656,69.58585],[20.30596,69.58612],[20.30738,69.58665],[20.3067,69.58696]],[[20.34605,69.62504],[20.34883,69.62277],[20.34754,69.61575],[20.34177,69.61254],[20.34239,69.61164],[20.34086,69.60987],[20.3388,69.60898],[20.33388,69.60841],[20.33026,69.60737],[20.325,69.60433],[20.31917,69.60191],[20.3178,69.59892],[20.32055,69.59754]],[[20.34894,69.6283],[20.35003,69.62665],[20.34605,69.62504]],[[20.33307,69.63964],[20.33948,69.63938],[20.34474,69.63861],[20.34659,69.63766],[20.34951,69.63766],[20.35074,69.63529],[20.34926,69.63445],[20.34935,69.6332],[20.35092,69.63097],[20.34894,69.6283]],[[20.33307,69.63964],[20.33104,69.64031],[20.33037,69.64223]],[[20.2986,69.64895],[20.30011,69.64915],[20.30771,69.64852],[20.3095,69.64787],[20.31486,69.6479],[20.31719,69.64824],[20.32137,69.64799],[20.32409,69.64719],[20.32965,69.6434]],[[20.29028,69.65073],[20.2986,69.64895]],[[20.34653,69.65408],[20.34661,69.65309],[20.34099,69.65287],[20.33795,69.65382],[20.33502,69.65389],[20.33369,69.65461],[20.33495,69.65544],[20.34088,69.65584],[20.3456,69.65502],[20.34653,69.65408]],[[20.25678,69.67926],[20.25849,69.67951],[20.26271,69.68127],[20.26853,69.6788],[20.2704,69.67626],[20.26922,69.67334],[20.27291,69.66216],[20.27046,69.65937],[20.27228,69.65728],[20.27727,69.65644],[20.27896,69.65425],[20.28817,69.65169]],[[20.26772,69.68911],[20.26389,69.68711],[20.25929,69.68557]],[[20.28645,69.7181],[20.28606,69.71732],[20.28371,69.71621],[20.27322,69.71733],[20.27211,69.71648],[20.27042,69.71617],[20.26708,69.71632]],[[20.28896,69.72942],[20.28582,69.72099],[20.28645,69.7181]],[[20.29157,69.73338],[20.28896,69.72942]],[[20.3122,69.77774],[20.30993,69.77472],[20.31044,69.7737],[20.30432,69.76536],[20.30172,69.75912],[20.29851,69.75618],[20.29978,69.75337],[20.29808,69.75149],[20.29633,69.74174],[20.29157,69.73338]],[[20.3122,69.77774],[20.3152,69.78232],[20.31644,69.78653],[20.32198,69.78929],[20.32208,69.79162],[20.32363,69.79287]],[[20.34491,69.81284],[20.3432,69.81129],[20.33949,69.80953],[20.33613,69.80931],[20.33726,69.80686],[20.33244,69.8032],[20.33,69.79879],[20.32363,69.79287]],[[20.34965,69.81942],[20.34491,69.81284]],[[20.34089,69.94294],[20.34663,69.94094]],[[20.32834,69.95719],[20.32915,69.95434],[20.33081,69.95367],[20.33408,69.95363],[20.33566,69.9525],[20.33568,69.9516],[20.33421,69.95066],[20.33439,69.94946],[20.33888,69.94652],[20.33951,69.9438],[20.34089,69.94294]],[[20.32754,69.96026],[20.32872,69.96038],[20.33,69.9593],[20.32834,69.95719]],[[20.04986,69.58194],[20.06933,69.58182]],[[20.01319,69.58187],[20.02218,69.5818],[20.03714,69.5828],[20.03962,69.58272],[20.04231,69.58206],[20.04986,69.58194]],[[20.14308,69.58418],[20.14316,69.58373],[20.14672,69.58266],[20.14527,69.58202],[20.14316,69.58221]],[[20.06933,69.58182],[20.08129,69.5823],[20.08576,69.58329],[20.0905,69.5831],[20.09744,69.58362],[20.10354,69.58358],[20.11893,69.58504],[20.13638,69.58295],[20.1398,69.583],[20.14214,69.58248]],[[19.99654,69.58226],[20.01319,69.58187]],[[20.01477,69.58856],[20.02171,69.58803],[20.02818,69.58808],[20.03373,69.58698],[20.04145,69.58654],[20.0606,69.58641],[20.07354,69.58664],[20.09755,69.58798],[20.10193,69.58756],[20.10668,69.58914],[20.10806,69.58923],[20.11975,69.58801],[20.12412,69.58714],[20.12879,69.58692],[20.13365,69.58599],[20.14056,69.58561],[20.14272,69.58486]],[[19.99612,69.5902],[20.01477,69.58856]],[[20.01906,69.81173],[20.01511,69.80655],[20.00955,69.80379],[20.01095,69.80162],[20.00628,69.79574],[19.99847,69.79085]],[[20.01906,69.81173],[20.02065,69.81401]],[[20.07535,69.87467],[20.07769,69.87723],[20.07986,69.87843]],[[20.03453,69.83087],[20.03083,69.82583],[20.03,69.82322],[20.02065,69.81401]],[[20.03453,69.83087],[20.03668,69.8334]],[[20.03668,69.8334],[20.03877,69.83687],[20.04105,69.83812],[20.04177,69.83929]],[[20.04177,69.83929],[20.04279,69.84292],[20.04894,69.84796],[20.05667,69.85785]],[[20.07535,69.87467],[20.06074,69.86052],[20.05667,69.85785]],[[20.07986,69.87843],[20.08472,69.8811]],[[20.08472,69.8811],[20.09122,69.88604],[20.09561,69.88806],[20.09841,69.89018],[20.10162,69.89127],[20.10742,69.89705],[20.10752,69.903],[20.11289,69.9098]],[[20.11607,69.91847],[20.11289,69.9098]],[[20.11607,69.91847],[20.12426,69.92679],[20.12513,69.9288],[20.12473,69.93191],[20.1271,69.93442],[20.13309,69.93816]],[[20.08131,69.3798],[20.09438,69.38277]],[[20.01038,69.31933],[20.00654,69.31794],[19.99868,69.31298]],[[20.01038,69.31933],[20.00807,69.32146],[20.00923,69.3222],[20.0135,69.32284],[20.01377,69.32492],[20.01883,69.32711]],[[20.0429,69.33596],[20.042,69.33508],[20.03969,69.33481],[20.03094,69.3342],[20.02364,69.33424],[20.02581,69.33283],[20.02424,69.33169],[20.02451,69.33028],[20.02098,69.32914],[20.01883,69.32711]],[[20.0429,69.33596],[20.04088,69.33763]],[[20.04238,69.33959],[20.04713,69.34051],[20.05148,69.34036],[20.05406,69.34077],[20.0596,69.34585],[20.05975,69.34775],[20.06657,69.35106],[20.07737,69.35369],[20.08773,69.35462]],[[20.05232,69.37299],[20.04845,69.37196],[20.04488,69.3718],[20.04302,69.37131],[20.04182,69.36966],[20.03948,69.36843],[20.03267,69.36787],[20.02645,69.36658],[20.02275,69.36633],[20.01963,69.36356],[20.01403,69.3617],[20.00782,69.36076],[20.00191,69.35902],[19.994,69.35551]],[[20.08131,69.3798],[20.07085,69.37836],[20.06318,69.37668],[20.05768,69.37632],[20.05463,69.37551],[20.05326,69.37347]],[[20.16207,69.37742],[20.13922,69.37079],[20.13522,69.37017],[20.12316,69.36699],[20.12005,69.36518],[20.11054,69.36324],[20.099,69.36029],[20.09134,69.35513],[20.08773,69.35462]],[[20.16207,69.37742],[20.16817,69.37944],[20.17099,69.38114],[20.17504,69.38261],[20.17966,69.38353],[20.18504,69.386]],[[20.15619,69.42257],[20.15381,69.4153],[20.15544,69.41409],[20.15489,69.41126],[20.13989,69.39717],[20.13872,69.39643],[20.13401,69.39564],[20.13152,69.39441],[20.11962,69.39064],[20.11162,69.38888],[20.10726,69.38634],[20.1014,69.38399],[20.09438,69.38277]],[[20.15945,69.44307],[20.16439,69.44129],[20.1632,69.44027],[20.15538,69.43794],[20.15304,69.43434],[20.15412,69.43371],[20.15326,69.43265],[20.15454,69.43194],[20.15477,69.43078],[20.15765,69.42942],[20.15419,69.42797],[20.15719,69.42631],[20.15886,69.42436],[20.15619,69.42257]],[[20.17041,69.46712],[20.16889,69.4653],[20.17107,69.46299],[20.16952,69.46053],[20.16607,69.45912],[20.16337,69.45714],[20.1612,69.45147],[20.15716,69.44762],[20.15264,69.44564],[20.15323,69.4445],[20.15689,69.44328]],[[20.22115,69.37926],[20.23881,69.37901],[20.23899,69.3787],[20.23746,69.37859],[20.23393,69.37881],[20.23515,69.37746],[20.23909,69.37815],[20.24328,69.3776],[20.24491,69.37776],[20.24885,69.37709],[20.25291,69.37512],[20.25141,69.37701],[20.24594,69.3791],[20.24726,69.37937],[20.25269,69.37908],[20.25468,69.37966],[20.25595,69.37908],[20.25817,69.37898],[20.25883,69.37926],[20.25809,69.37995],[20.25095,69.38028],[20.24323,69.38161],[20.24459,69.38295],[20.24677,69.38336],[20.25479,69.38267],[20.25748,69.38296]],[[20.18504,69.386],[20.18858,69.38682],[20.19373,69.38656],[20.20033,69.38474],[20.2091,69.38159],[20.22115,69.37926]],[[20.26025,69.38932],[20.25776,69.38766],[20.2574,69.38585],[20.26155,69.38429]],[[20.26025,69.38932],[20.26443,69.3913],[20.26833,69.39505],[20.26869,69.39635]],[[20.26031,69.41944],[20.25566,69.41667],[20.25474,69.41479],[20.25976,69.40876],[20.26431,69.40485],[20.26699,69.40014],[20.26736,69.39679],[20.26869,69.39635]],[[20.20552,69.4598],[20.20667,69.45739],[20.20566,69.45621],[20.20146,69.45386]],[[20.20764,69.46506],[20.20788,69.466]],[[20.32411,69.46248],[20.32158,69.4599],[20.32269,69.45789],[20.31927,69.45668],[20.31451,69.45367],[20.30573,69.45027],[20.30466,69.44732],[20.30547,69.44571],[20.30387,69.44434],[20.3,69.44312],[20.2926,69.44205],[20.28744,69.44049],[20.28096,69.4372],[20.27787,69.43262],[20.27949,69.43029],[20.27534,69.4283],[20.2742,69.42665],[20.27523,69.42481],[20.26637,69.42212],[20.26031,69.41944]]]}}]}