{"type":"FeatureCollection","features":[{"type":"Feature","properties":{},"geometry":{"type":"MultiLineString","coordinates":[[[21.99767,69.94251],[22.01417,69.93901]],[[21.97988,69.94486],[21.97995,69.94483]],[[21.91007,69.94769],[21.91142,69.94752]],[[21.8065,69.95159],[21.80794,69.95168]],[[21.80794,69.95168],[21.80876,69.9515]],[[21.90641,69.94819],[21.91007,69.94769]],[[21.9165,69.95711],[21.92235,69.95516],[21.92297,69.95412]],[[21.94713,69.99121],[21.95271,69.99169]],[[21.95271,69.99169],[21.96208,69.99285],[21.97927,69.99254],[21.99163,69.99151],[22.00067,69.9891]],[[21.96095,69.8169],[21.96047,69.81666]],[[21.96397,69.82439],[21.96822,69.82399],[21.97602,69.8213],[22.00284,69.80864]],[[21.91772,69.84318],[21.92138,69.84316]],[[21.19406,69.87691],[21.19524,69.87579],[21.19461,69.87337]],[[21.27931,69.90016],[21.28221,69.90041],[21.28929,69.89945],[21.29628,69.89942],[21.30439,69.89825]],[[21.94631,69.8695],[21.95651,69.86904],[21.96229,69.86827]],[[21.94631,69.8695],[21.94009,69.86891],[21.93101,69.8708],[21.92771,69.8707]],[[21.91357,69.874],[21.91995,69.87247],[21.92384,69.87105],[21.92771,69.8707]],[[21.71252,69.88404],[21.73503,69.88131]],[[21.89831,69.88349],[21.90108,69.88259],[21.90277,69.87949]],[[21.30092,69.91597],[21.30231,69.91548]],[[21.2722,69.91722],[21.27785,69.91677],[21.28436,69.91681],[21.29085,69.91609],[21.2941,69.91633],[21.29985,69.9156],[21.30092,69.91597]],[[21.20579,69.92862],[21.21123,69.9268],[21.22984,69.92198],[21.24606,69.91904],[21.25697,69.91803],[21.26164,69.91804]],[[21.89117,69.90322],[21.89067,69.90129]],[[21.81653,69.89784],[21.81479,69.89816],[21.81116,69.90145],[21.80281,69.90665]],[[21.80193,69.91044],[21.7993,69.9097],[21.80281,69.90665]],[[21.56882,69.91926],[21.57321,69.91534]],[[21.80113,69.912],[21.8022,69.9113],[21.80193,69.91044]],[[21.7953,69.91294],[21.79994,69.91248],[21.80113,69.912]],[[21.73555,69.91829],[21.73572,69.91701],[21.73458,69.91582],[21.73218,69.91529],[21.7287,69.91606],[21.72707,69.91732],[21.72511,69.91784],[21.7201,69.91824],[21.71539,69.91789],[21.71018,69.91852]],[[21.69105,69.92032],[21.6868,69.91904],[21.68492,69.91889],[21.67656,69.91988],[21.66705,69.92197]],[[21.71018,69.91852],[21.7036,69.91916],[21.69731,69.92087],[21.69105,69.92032]],[[21.66705,69.92197],[21.65801,69.92354],[21.65293,69.9226],[21.64457,69.92395],[21.64068,69.92393],[21.63372,69.92463],[21.62535,69.92651],[21.62348,69.92733],[21.6238,69.92804]],[[21.81067,69.92114],[21.81596,69.91715],[21.82143,69.91171],[21.82089,69.91141],[21.81834,69.91165],[21.81741,69.91129],[21.81657,69.91044],[21.8171,69.90986]],[[21.88213,69.90733],[21.87554,69.90996],[21.87887,69.91184],[21.8794,69.91338],[21.87799,69.91481],[21.87533,69.91555],[21.87442,69.91673],[21.87697,69.91889],[21.87483,69.92101],[21.87678,69.92147]],[[21.6238,69.92804],[21.62614,69.92887],[21.63799,69.92961],[21.6485,69.93084]],[[21.7991,69.92459],[21.80157,69.92468],[21.80265,69.9255],[21.80392,69.9254],[21.81067,69.92114]],[[21.7953,69.91294],[21.79122,69.91407],[21.78598,69.91707],[21.78269,69.92011],[21.7804,69.92464],[21.78219,69.92628],[21.78459,69.92693],[21.78549,69.9265],[21.78642,69.92702],[21.78771,69.92695],[21.79122,69.92618],[21.79266,69.92709],[21.79666,69.92621],[21.7991,69.92459]],[[21.87678,69.92147],[21.8763,69.92385],[21.8665,69.92999],[21.86521,69.93285]],[[21.6485,69.93084],[21.65041,69.93196],[21.65278,69.93514],[21.65503,69.93601],[21.65889,69.9366],[21.65906,69.93745],[21.66144,69.93824],[21.66357,69.93975],[21.66844,69.94077],[21.67405,69.94385]],[[21.67405,69.94385],[21.67504,69.9443],[21.68303,69.94454]],[[21.68303,69.94454],[21.70062,69.94331],[21.70726,69.94424],[21.71745,69.9435],[21.71853,69.94315],[21.72381,69.94012],[21.72533,69.9383],[21.73012,69.93677],[21.72841,69.93488],[21.72902,69.93244],[21.72726,69.93172],[21.72751,69.9311],[21.72957,69.93055],[21.73296,69.93112],[21.73472,69.93009],[21.73402,69.92725],[21.73671,69.92499],[21.7356,69.92319],[21.73331,69.9216],[21.73555,69.91829]],[[21.86521,69.93285],[21.8623,69.93556],[21.86351,69.9385]],[[21.54606,69.9544],[21.55026,69.95408],[21.55346,69.95295],[21.56085,69.95246],[21.56594,69.95082],[21.56711,69.94979],[21.56407,69.9495],[21.56354,69.94779],[21.56948,69.94548],[21.57472,69.94158],[21.56888,69.93905],[21.5648,69.93831],[21.56238,69.93698],[21.56363,69.93123],[21.56164,69.92678],[21.56882,69.91926]],[[21.86351,69.9385],[21.86396,69.94012],[21.86728,69.94112],[21.86867,69.94253],[21.87195,69.94422],[21.87078,69.94534],[21.87139,69.946],[21.88295,69.94513],[21.89156,69.94608]],[[21.82434,69.9444],[21.82213,69.94431],[21.81989,69.94731],[21.82704,69.94906],[21.82967,69.94831],[21.83038,69.94633],[21.82434,69.9444]],[[21.21114,69.97347],[21.21167,69.97237],[21.20947,69.97005],[21.20958,69.96797],[21.21002,69.96728],[21.2132,69.96592],[21.21334,69.96527],[21.2107,69.96334],[21.20363,69.96131],[21.19717,69.9542],[21.19541,69.95131],[21.19941,69.94717],[21.20017,69.94442],[21.19761,69.94296],[21.19714,69.94154],[21.18748,69.9388],[21.18465,69.93712],[21.18448,69.93506],[21.18874,69.93297]],[[21.52821,69.96207],[21.52826,69.96144],[21.52563,69.96061],[21.52958,69.95623],[21.53186,69.95575],[21.53565,69.95578],[21.53685,69.95747],[21.53808,69.95789],[21.53965,69.95733],[21.53898,69.95672],[21.54008,69.95602],[21.54606,69.9544]],[[21.8065,69.95159],[21.80582,69.95051],[21.80388,69.94973],[21.8042,69.94669],[21.80224,69.94358],[21.80408,69.9438],[21.80615,69.9462]],[[21.89156,69.94608],[21.89257,69.94698],[21.89102,69.94831]],[[21.91323,69.94745],[21.91142,69.94752]],[[21.99767,69.94251],[21.98389,69.94361],[21.97995,69.94483]],[[21.80876,69.9515],[21.8098,69.95082],[21.81363,69.95052],[21.81447,69.95008],[21.81183,69.94809],[21.80615,69.9462]],[[21.89102,69.94831],[21.89017,69.94992],[21.89233,69.95071],[21.90641,69.94819]],[[21.9843,69.94738],[21.97648,69.94717],[21.97669,69.94639],[21.97988,69.94486]],[[21.91323,69.94745],[21.91325,69.94936],[21.92184,69.95162],[21.92297,69.95412]],[[21.53135,69.96872],[21.53436,69.96872],[21.53607,69.96801],[21.5326,69.96678],[21.5336,69.96584],[21.53565,69.96546],[21.53531,69.96514],[21.53093,69.9661],[21.52487,69.96927],[21.52785,69.9695],[21.53135,69.96872]],[[22.00182,69.94852],[21.99217,69.94726],[21.98763,69.94708],[21.9843,69.94738]],[[21.9165,69.95711],[21.91315,69.95774],[21.90206,69.95847],[21.89292,69.96045],[21.89239,69.96151],[21.8843,69.96444],[21.87815,69.96783],[21.8731,69.9723],[21.87228,69.9743]],[[21.75727,69.97719],[21.75521,69.97704],[21.74842,69.97848],[21.74777,69.98001],[21.75094,69.98036],[21.76022,69.97882],[21.76032,69.97813],[21.75727,69.97719]],[[21.23319,70.00133],[21.23129,69.99993],[21.2234,69.99767],[21.22367,69.99532],[21.22452,69.9946],[21.226,69.99456],[21.2261,69.99362],[21.22449,69.99286],[21.22314,69.99007],[21.22088,69.98896],[21.22015,69.98711],[21.21765,69.98571],[21.21685,69.98349],[21.21397,69.98196],[21.21172,69.979],[21.21502,69.97809],[21.21553,69.97747],[21.21204,69.97612],[21.20976,69.97672],[21.20817,69.97601],[21.20838,69.97562],[21.2107,69.97544],[21.21114,69.97347]],[[21.66963,69.99906],[21.67764,69.99589],[21.68313,69.99563],[21.68363,69.99506],[21.68252,69.9938],[21.67958,69.99315],[21.68506,69.99104],[21.68921,69.99108]],[[21.70801,69.99884],[21.70725,69.99774],[21.70922,69.99632],[21.70685,69.99483],[21.70071,69.99353],[21.69914,69.99175],[21.69363,69.99208],[21.68921,69.99108]],[[21.66503,70.0007],[21.66963,69.99906]],[[21.45634,70.00127],[21.45844,69.99933],[21.46748,69.99895],[21.471,69.99824],[21.47297,69.99727],[21.47746,69.99689],[21.47943,69.99497],[21.4834,69.99434],[21.49118,69.99157],[21.49609,69.99033],[21.5062,69.98631],[21.51726,69.98316],[21.52413,69.98051],[21.52477,69.97969],[21.52131,69.97679],[21.52167,69.97579],[21.52751,69.97196],[21.5258,69.97118],[21.52045,69.97169],[21.50912,69.97549],[21.50796,69.97632],[21.50472,69.97709],[21.50369,69.9769],[21.50552,69.97589],[21.50638,69.97403],[21.51294,69.97057],[21.51949,69.96517],[21.52821,69.96207]],[[21.71184,70.00028],[21.70801,69.99884]],[[21.94713,69.99121],[21.94085,69.99071],[21.93057,69.98899],[21.90725,69.98702],[21.89852,69.98522],[21.88192,69.98416],[21.87488,69.98184],[21.87129,69.97901],[21.87028,69.97745],[21.87228,69.9743]],[[21.99576,69.72823],[22.00681,69.72739]],[[21.99576,69.72823],[21.9705,69.73329],[21.96294,69.73564],[21.95882,69.73772],[21.96047,69.73918],[21.95911,69.74095],[21.96106,69.74128],[21.97394,69.73812],[21.98393,69.73628],[21.99816,69.73547]],[[22.00466,69.73548],[21.99816,69.73547]],[[21.14241,69.80903],[21.1403,69.80746],[21.14048,69.80509],[21.13485,69.80294]],[[21.12911,69.80855],[21.12859,69.80589],[21.13163,69.80468],[21.13141,69.80384],[21.13485,69.80294]],[[21.92132,69.78799],[21.92299,69.78772],[21.92606,69.786],[21.92747,69.78399],[21.92589,69.7801],[21.92642,69.77929],[21.93025,69.77769],[21.9375,69.77595],[21.94154,69.77435],[21.94688,69.77369],[21.9546,69.77128],[21.96221,69.76985],[21.96347,69.76869],[21.96636,69.76791],[21.9789,69.76613],[21.98631,69.76644],[21.99105,69.76733],[22.00174,69.77045]],[[21.12948,69.82551],[21.13156,69.82395],[21.1291,69.8214],[21.13141,69.82016],[21.13064,69.81887],[21.13298,69.81639],[21.13079,69.81443],[21.13287,69.8129],[21.12962,69.81113],[21.12911,69.80855]],[[21.12878,69.82607],[21.12948,69.82551]],[[21.99884,69.79195],[22.00159,69.7917]],[[22.00127,69.79006],[21.99549,69.79166],[21.99395,69.79064],[21.99201,69.79252],[21.9948,69.79269],[21.996,69.79342],[21.99388,69.79385],[21.99354,69.7943],[21.9989,69.79356],[21.99985,69.79307],[21.99884,69.79195]],[[21.9808,69.79307],[21.97717,69.79301],[21.97187,69.79438],[21.96161,69.79898],[21.96014,69.80105],[21.96396,69.80308],[21.97752,69.8032],[21.98188,69.80238],[21.98659,69.80044],[21.98995,69.79645],[21.99036,69.79452],[21.98913,69.79372],[21.9808,69.79307]],[[21.1537,69.83791],[21.15708,69.83668],[21.15376,69.83408],[21.14882,69.8332],[21.1484,69.83201],[21.14503,69.83111],[21.13876,69.83076],[21.13482,69.82954],[21.134,69.82826],[21.1358,69.82706],[21.13174,69.82742],[21.12961,69.82687],[21.12878,69.82607]],[[21.893,69.8116],[21.90327,69.80649],[21.9065,69.8039],[21.90681,69.80128],[21.91704,69.79388],[21.91817,69.78986],[21.9203,69.78808]],[[21.14662,69.84061],[21.14729,69.84003],[21.14903,69.83996],[21.15034,69.83937],[21.14952,69.83859],[21.15104,69.83809],[21.1537,69.83791]],[[21.20715,69.83849],[21.20315,69.8367],[21.20236,69.83539],[21.1996,69.83433],[21.19731,69.83413],[21.1939,69.83444],[21.19139,69.83311],[21.18729,69.83201],[21.18193,69.83182],[21.18429,69.82982],[21.18395,69.82899],[21.1803,69.826],[21.17424,69.82329],[21.16762,69.82197],[21.1631,69.82159],[21.15612,69.81989],[21.15255,69.81982],[21.14627,69.81457],[21.14545,69.80979],[21.14241,69.80903]],[[21.89071,69.81307],[21.893,69.8116]],[[21.93321,69.81948],[21.93492,69.81788],[21.93878,69.81712],[21.94028,69.81539],[21.94377,69.81483],[21.947,69.81366],[21.95472,69.81365],[21.9571,69.81434],[21.96047,69.81666]],[[21.87212,69.82336],[21.88588,69.81593],[21.88698,69.8143],[21.89071,69.81307]],[[21.96095,69.8169],[21.96264,69.81873],[21.96025,69.81982],[21.95917,69.82162]],[[21.22591,69.84972],[21.22467,69.84845],[21.21817,69.84615],[21.2174,69.84432],[21.21327,69.84209],[21.20573,69.84014],[21.20753,69.83888],[21.20715,69.83849]],[[21.95917,69.82162],[21.95892,69.82317],[21.96096,69.82447],[21.96397,69.82439]],[[21.93321,69.81948],[21.92659,69.8223],[21.92199,69.82512],[21.91112,69.82848]],[[21.22591,69.84972],[21.22423,69.85263],[21.22746,69.85404]],[[21.89963,69.83175],[21.90105,69.83022],[21.90327,69.82937],[21.91112,69.82848]],[[21.22123,69.86207],[21.22053,69.86088],[21.21887,69.86092],[21.21794,69.86056],[21.21777,69.85888],[21.21932,69.85821],[21.22337,69.8577],[21.22746,69.85404]],[[21.22123,69.86207],[21.22032,69.86422],[21.21705,69.86513]],[[21.1912,69.86963],[21.19185,69.86809],[21.19086,69.86719],[21.1919,69.86532],[21.1937,69.86541],[21.19526,69.86379],[21.19468,69.86225],[21.18967,69.86103],[21.18579,69.8576],[21.18069,69.85463],[21.15932,69.84726],[21.15555,69.84575],[21.1537,69.84424],[21.14839,69.8428],[21.14757,69.84225],[21.14846,69.84169],[21.14662,69.84061]],[[21.89963,69.83175],[21.89502,69.83386],[21.88897,69.83498],[21.88787,69.83587],[21.8889,69.83656],[21.88752,69.83699],[21.88911,69.84142],[21.89241,69.84221],[21.89711,69.84444]],[[21.92138,69.84316],[21.92922,69.84328],[21.93452,69.84186],[21.93757,69.84011],[21.94059,69.83938]],[[21.82463,69.84726],[21.83035,69.84767],[21.83222,69.84748],[21.83786,69.84449],[21.83974,69.84428],[21.84274,69.84315],[21.85381,69.84258],[21.86549,69.84362],[21.88047,69.84264],[21.87767,69.84162],[21.87852,69.8406],[21.87708,69.83974],[21.87078,69.83977],[21.86477,69.83901],[21.86362,69.83816],[21.86024,69.83804],[21.85898,69.83686],[21.85928,69.83605],[21.86793,69.83419],[21.86917,69.83324],[21.87018,69.83087],[21.86936,69.82891],[21.87117,69.82671],[21.87024,69.8251],[21.87212,69.82336]],[[21.94059,69.83938],[21.95061,69.83806],[21.95445,69.83843],[21.95774,69.83924],[21.96629,69.8389],[21.97541,69.8391],[21.97817,69.83993],[21.98102,69.83999],[21.98152,69.84055],[21.97711,69.84154],[21.97623,69.84271],[21.97718,69.84326],[21.9793,69.8432],[21.98332,69.84203],[21.98436,69.8413],[21.98882,69.84123],[21.99816,69.84223],[22.00271,69.84203]],[[21.90441,69.84627],[21.9161,69.84389],[21.91772,69.84318]],[[21.19461,69.87337],[21.19458,69.87256],[21.1912,69.86963]],[[21.89711,69.84444],[21.89352,69.8487],[21.89392,69.84951],[21.8957,69.84955],[21.89998,69.84867],[21.90441,69.84627]],[[21.05884,69.87407],[21.06717,69.87633],[21.06948,69.87798],[21.0753,69.87999],[21.08113,69.88097],[21.08788,69.88121],[21.09187,69.88023],[21.09539,69.87783],[21.10671,69.877],[21.10864,69.87732],[21.12382,69.87666],[21.12686,69.87878],[21.13009,69.87959]],[[21.13009,69.87959],[21.13361,69.879],[21.14063,69.87916],[21.14285,69.88005],[21.14607,69.88054],[21.1489,69.88014],[21.15307,69.88019]],[[21.15307,69.88019],[21.15717,69.88085],[21.16308,69.87974],[21.16708,69.88006],[21.17324,69.87893],[21.1831,69.87828],[21.18711,69.87615],[21.18873,69.87588],[21.19065,69.87628],[21.18979,69.87978],[21.19046,69.88011],[21.19406,69.87691]],[[21.19116,69.88409],[21.19176,69.88346],[21.19452,69.88294],[21.19921,69.88056],[21.20032,69.87698],[21.20454,69.8732],[21.20738,69.87178],[21.20812,69.86849],[21.21233,69.86529],[21.21356,69.86478],[21.21705,69.86513]],[[21.80777,69.86138],[21.80961,69.85974],[21.80688,69.85857],[21.80583,69.85722],[21.81114,69.85511],[21.81471,69.85204],[21.8222,69.8477],[21.82463,69.84726]],[[21.78177,69.87129],[21.79572,69.86641],[21.80777,69.86138]],[[22.00288,69.86238],[21.99886,69.8631],[21.99761,69.8637]],[[21.96229,69.86827],[21.96496,69.86758],[21.97298,69.86756],[21.98138,69.86684],[21.99606,69.86435],[21.99761,69.8637]],[[21.73503,69.88131],[21.74749,69.88104],[21.76041,69.88005],[21.77132,69.87548],[21.77273,69.87419],[21.78177,69.87129]],[[21.27931,69.90016],[21.27231,69.89944],[21.26683,69.89934]],[[21.19116,69.88409],[21.18549,69.89432],[21.18594,69.89589],[21.18674,69.89649],[21.19524,69.89775],[21.20492,69.90052],[21.20339,69.90139],[21.20091,69.90113],[21.19859,69.90151],[21.19717,69.90267],[21.19731,69.90354],[21.20118,69.90471],[21.21039,69.90396],[21.21168,69.90279],[21.20897,69.90222],[21.20926,69.90146],[21.21149,69.90135],[21.21639,69.90224],[21.21871,69.9009],[21.23184,69.89869],[21.25331,69.89974],[21.25883,69.89927],[21.26683,69.89934]],[[21.91357,69.874],[21.90867,69.87415],[21.90638,69.87521],[21.90176,69.8781],[21.90277,69.87949]],[[21.83252,69.9055],[21.83831,69.90321],[21.83893,69.90055],[21.84052,69.89994]],[[21.31833,69.90212],[21.31422,69.89943],[21.30439,69.89825]],[[21.65866,69.89568],[21.66859,69.89304],[21.67075,69.89173],[21.68032,69.89026],[21.68953,69.88744],[21.69792,69.88628],[21.70328,69.88507],[21.71252,69.88404]],[[21.31833,69.90212],[21.32183,69.90486],[21.32644,69.90571],[21.32186,69.90613],[21.32434,69.90755],[21.32502,69.9094]],[[21.89831,69.88349],[21.89111,69.88503],[21.88759,69.88734],[21.89175,69.89046],[21.89127,69.89196],[21.88896,69.89338]],[[21.30231,69.91548],[21.31756,69.91386],[21.31953,69.91334],[21.32483,69.91027],[21.32502,69.9094]],[[21.2722,69.91722],[21.26885,69.91731],[21.2633,69.91824],[21.26164,69.91804]],[[21.84052,69.89994],[21.84311,69.89858],[21.84296,69.89684],[21.84488,69.89468],[21.84385,69.89347],[21.83821,69.89154],[21.83771,69.88598],[21.83634,69.88509],[21.84214,69.88188],[21.83968,69.88201],[21.83194,69.88413],[21.82726,69.8874],[21.8266,69.89009],[21.82065,69.89278],[21.8193,69.89447],[21.81987,69.89721],[21.81653,69.89784]],[[21.89067,69.90129],[21.89,69.90003],[21.88553,69.89713],[21.88896,69.89338]],[[21.57321,69.91534],[21.58134,69.9117],[21.59564,69.90726],[21.60091,69.90657],[21.61124,69.90695],[21.62125,69.90585],[21.63655,69.90198],[21.63982,69.89957],[21.64231,69.89864],[21.64556,69.89836],[21.64849,69.89737],[21.65313,69.89691],[21.65866,69.89568]],[[21.8171,69.90986],[21.819,69.90872],[21.83252,69.9055]],[[21.89117,69.90322],[21.89147,69.90487],[21.88213,69.90733]],[[21.18874,69.93297],[21.19299,69.93171],[21.20141,69.93006],[21.20579,69.92862]],[[21.00743,69.78211],[21.00848,69.78175]],[[21.01262,69.78239],[21.00917,69.78375],[21.01164,69.78469],[21.01326,69.78422],[21.01275,69.78243]],[[21.01389,69.78649],[21.01175,69.78657],[21.01048,69.78766],[21.01081,69.78835],[21.01275,69.78894],[21.01657,69.78913],[21.01389,69.78649]],[[21.02997,69.79962],[21.03965,69.7957],[21.04973,69.79319]],[[21.04467,69.86043],[21.04123,69.86041]],[[21.05279,69.86915],[21.05617,69.86824],[21.05933,69.86875],[21.05921,69.86916]],[[21.04483,69.93848],[21.04121,69.93807]],[[20.99973,69.94321],[21.00256,69.9444],[21.0084,69.95023],[21.01656,69.95257],[21.02032,69.95266]],[[21.07836,69.95286],[21.07825,69.95128],[21.07649,69.95006],[21.07418,69.94927],[21.07141,69.949],[21.07047,69.94822],[21.07219,69.94707],[21.06856,69.94364],[21.07026,69.94307],[21.06974,69.94223],[21.06562,69.94098],[21.06138,69.94109],[21.05821,69.93991],[21.05517,69.93986],[21.04969,69.93781],[21.04717,69.93848],[21.04483,69.93848]],[[21.02032,69.95266],[21.02377,69.95346],[21.02556,69.95615],[21.0317,69.95686],[21.03406,69.95799],[21.03716,69.95781],[21.04151,69.95841],[21.04787,69.95801],[21.05531,69.96034],[21.05657,69.96039],[21.05909,69.9596],[21.06545,69.95993]],[[21.06545,69.95993],[21.06881,69.96013],[21.07369,69.95774],[21.07844,69.95766],[21.0785,69.95689],[21.08152,69.9561],[21.08217,69.95448],[21.07836,69.95286]],[[20.99843,69.98217],[21.00169,69.98218],[21.00352,69.98148],[21.01715,69.9834],[21.02308,69.9836],[21.02918,69.98331]],[[21.03297,69.99638],[21.02934,69.9964],[21.02901,69.99732],[21.03378,69.99914]],[[21.03683,70.0002],[21.03378,69.99914]],[[21.03403,70.00001],[21.03211,69.99969],[21.03111,70.00001]],[[21.03297,69.99638],[21.03654,69.99687],[21.03871,69.99657],[21.04537,69.9972],[21.05432,69.99973],[21.05728,70],[21.06024,69.99939],[21.06358,70.00065]],[[21.06775,70.0002],[21.06867,69.99732],[21.07105,69.99548],[21.06263,69.99176],[21.05713,69.99078],[21.05601,69.98961],[21.0524,69.98842],[21.05231,69.98693],[21.04684,69.98499],[21.03858,69.98307],[21.02918,69.98331]],[[20.99942,69.99746],[21.00439,69.99887],[21.01482,70],[21.01638,70.00115]],[[20.99852,69.78223],[21.00255,69.78405],[21.00743,69.78211]],[[21.04922,69.7929],[21.04973,69.79319]],[[21.04922,69.7929],[21.04635,69.79309],[21.0408,69.79084],[21.03471,69.79053],[21.03033,69.79114],[21.02738,69.79198],[21.02548,69.79508],[21.01293,69.79334],[21.01135,69.79236],[21.01702,69.79092],[21.01968,69.78954],[21.01978,69.78651],[21.02116,69.78504],[21.01567,69.78453],[21.01501,69.78268]],[[21.03293,69.83198],[21.02425,69.8316],[21.01442,69.82761],[21.00902,69.82618],[20.99808,69.8241]],[[20.99418,69.81125],[21.00792,69.80698],[21.01166,69.80479],[21.01751,69.80371],[21.02305,69.80186],[21.02579,69.80164],[21.02636,69.8003],[21.02997,69.79962]],[[21.05883,69.84365],[21.05874,69.83887],[21.05292,69.83463],[21.04718,69.83244],[21.04238,69.83138],[21.04039,69.83136],[21.03922,69.8322],[21.03695,69.83265],[21.03293,69.83198]],[[21.05883,69.84365],[21.06052,69.84542],[21.06035,69.84645]],[[21.06035,69.84645],[21.05818,69.84841],[21.05705,69.85193],[21.05518,69.85335],[21.05049,69.85461],[21.04622,69.85422],[21.04498,69.85456],[21.04576,69.85664],[21.04795,69.85884],[21.04676,69.85983],[21.04467,69.86043]],[[21.04123,69.86041],[21.04021,69.85986],[21.04034,69.85538],[21.0389,69.85511],[21.0329,69.85683],[21.03173,69.8585],[21.02949,69.85966],[21.0291,69.86238],[21.03338,69.86466],[21.03987,69.86678],[21.0436,69.86735],[21.04663,69.86969]],[[21.05921,69.86916],[21.05418,69.87178],[21.05483,69.87265],[21.05884,69.87407]],[[21.04663,69.86969],[21.04589,69.87127],[21.03891,69.87321],[21.0382,69.87444],[21.03884,69.87471],[21.04642,69.87496],[21.04778,69.87588],[21.04584,69.87693],[21.04636,69.87743],[21.04804,69.87707],[21.05042,69.87746],[21.05333,69.87674],[21.05285,69.87476],[21.04859,69.87245],[21.05046,69.8716],[21.05286,69.87163],[21.05346,69.87133],[21.05279,69.86915]],[[20.99971,69.92528],[21.0032,69.92611],[21.01085,69.92663],[21.01129,69.92808],[21.01367,69.9296]],[[21.03305,69.93387],[21.03111,69.9332],[21.02576,69.93313],[21.0202,69.93217],[21.01367,69.9296]],[[21.03501,69.93453],[21.03305,69.93387]],[[21.04121,69.93807],[21.03781,69.93539],[21.03501,69.93453]]]}}]}