{"type":"FeatureCollection","features":[{"type":"Feature","properties":{},"geometry":{"type":"MultiLineString","coordinates":[[[23.01459,69.92063],[23.01517,69.92262],[23.02219,69.92555],[23.02961,69.9258],[23.03214,69.92489]],[[23.04758,69.93008],[23.04256,69.92811],[23.03818,69.92558],[23.03683,69.92608],[23.03545,69.92607],[23.03427,69.925]],[[23.03138,69.93718],[23.02931,69.93618],[23.03061,69.93529],[23.03314,69.93495],[23.03261,69.93431],[23.02952,69.93422],[23.02574,69.93277],[23.02322,69.93254],[23.01742,69.92912],[23.01635,69.92641],[23.01173,69.9235],[22.99889,69.92047]],[[22.99753,69.91947],[23.001,69.91929],[23.00205,69.91876],[23.002,69.91768],[23.00484,69.91747],[23.00977,69.91593],[23.01142,69.916],[23.01534,69.91722],[23.01524,69.91792],[23.01283,69.91849],[23.01286,69.91941],[23.01459,69.92063]],[[23.04608,69.94299],[23.04865,69.94088],[23.04513,69.94038],[23.04081,69.9409],[23.03742,69.9407],[23.03747,69.9399],[23.03364,69.93827],[23.03432,69.93788],[23.03347,69.93731],[23.03138,69.93718]],[[23.04733,69.94458],[23.04608,69.94299]],[[23.12791,69.96444],[23.12835,69.96439]],[[23.26114,69.97989],[23.26118,69.97986]],[[23.41735,69.97252],[23.41478,69.97117],[23.41577,69.96956],[23.41439,69.96856]],[[23.32944,69.97669],[23.32949,69.97671]],[[23.41735,69.97252],[23.4192,69.97333]],[[23.11212,69.93036],[23.11525,69.93086]],[[23.09415,69.93375],[23.10085,69.932],[23.11212,69.93036]],[[23.04758,69.93008],[23.05256,69.93362],[23.06056,69.93699],[23.0587,69.93851],[23.05372,69.93988],[23.06226,69.93895]],[[23.1313,69.94073],[23.12609,69.93932],[23.12419,69.93808],[23.12329,69.93389],[23.12134,69.93173],[23.11984,69.93112],[23.11525,69.93086]],[[23.07798,69.94318],[23.06722,69.93941],[23.06226,69.93895]],[[23.1089,69.94176],[23.10915,69.94005],[23.10723,69.93764],[23.10273,69.93677],[23.10123,69.93686],[23.09974,69.93861],[23.09824,69.93868],[23.09392,69.93529],[23.09415,69.93375]],[[23.07798,69.94318],[23.08863,69.94601],[23.09418,69.94685],[23.10661,69.94677],[23.10922,69.94647],[23.10992,69.94568],[23.1089,69.94176]],[[23.1313,69.94073],[23.13573,69.94328],[23.14192,69.94542],[23.14912,69.94907],[23.15399,69.95],[23.15824,69.95157]],[[23.15824,69.95157],[23.16109,69.95295],[23.17142,69.95319],[23.17782,69.95034],[23.18543,69.94954],[23.19028,69.94994],[23.19171,69.95065],[23.19235,69.95496],[23.20051,69.95638],[23.2011,69.9571],[23.20392,69.95699]],[[23.04733,69.94458],[23.05003,69.94697],[23.05309,69.94807],[23.05844,69.94838],[23.06322,69.94767],[23.06525,69.94787],[23.07201,69.95078],[23.07812,69.95151],[23.08491,69.95318],[23.11041,69.96242],[23.11582,69.96308],[23.12073,69.96304],[23.12524,69.96441],[23.12791,69.96444]],[[23.13257,69.96563],[23.1346,69.96438],[23.1401,69.96268],[23.14171,69.96044],[23.13694,69.96115],[23.13434,69.96335],[23.12835,69.96439]],[[23.25131,69.97114],[23.24906,69.97043],[23.24379,69.97085],[23.23938,69.9705],[23.23678,69.97112],[23.23481,69.97017],[23.23505,69.96901],[23.23838,69.96747],[23.24162,69.96717],[23.24265,69.96597],[23.24199,69.96547],[23.23311,69.96319],[23.22141,69.96165],[23.21917,69.96085],[23.21947,69.95901],[23.21827,69.95834],[23.20993,69.9573],[23.20392,69.95699]],[[23.13476,69.98076],[23.13628,69.98064],[23.14147,69.97818],[23.14236,69.97462],[23.132,69.96637],[23.13257,69.96563]],[[23.3958,69.96658],[23.39325,69.96612]],[[23.39705,69.96679],[23.40247,69.96761],[23.40881,69.96755]],[[23.37806,69.96823],[23.37973,69.96835],[23.38002,69.96887],[23.38686,69.9694],[23.388,69.96888],[23.38716,69.96832],[23.3925,69.96815],[23.39008,69.96726],[23.38556,69.96756],[23.39025,69.96629]],[[23.37582,69.96945],[23.37926,69.96987]],[[23.39422,69.96993],[23.39226,69.97029],[23.39455,69.97074]],[[23.39455,69.97074],[23.39679,69.97102],[23.39708,69.97031],[23.40312,69.97045],[23.40397,69.97015],[23.39816,69.9697],[23.39422,69.96993]],[[23.26118,69.97986],[23.2618,69.97908],[23.26022,69.97845],[23.2533,69.97846],[23.25446,69.97741],[23.25679,69.97674],[23.25455,69.9756],[23.2542,69.97326],[23.25131,69.97114]],[[23.09546,69.98756],[23.09438,69.98514],[23.09809,69.98231],[23.09851,69.97779],[23.10399,69.97515],[23.10649,69.97502],[23.10944,69.9756],[23.12547,69.98089],[23.12751,69.98111],[23.13476,69.98076]],[[23.32944,69.97669],[23.32042,69.97607],[23.3096,69.9767],[23.30474,69.97785]],[[23.37926,69.96987],[23.38337,69.97017],[23.39363,69.97222],[23.39008,69.97382]],[[23.4157,69.9726],[23.41349,69.97167],[23.4101,69.97287]],[[23.30423,69.9786],[23.30474,69.97785]],[[23.32949,69.97671],[23.33488,69.98082],[23.33745,69.98143]],[[23.4101,69.97287],[23.40901,69.97365],[23.41279,69.97551],[23.41231,69.97772],[23.41776,69.9786],[23.42233,69.97782],[23.41931,69.97758],[23.4183,69.97708],[23.41717,69.97551],[23.41847,69.97438],[23.4157,69.9726]],[[23.33745,69.98143],[23.33738,69.98204],[23.33969,69.98338],[23.34416,69.98264],[23.3458,69.98303],[23.35564,69.98031],[23.36024,69.97986],[23.36292,69.98035],[23.36224,69.97959],[23.36567,69.97838],[23.36764,69.9782],[23.36899,69.97863],[23.37508,69.97803],[23.37887,69.9755],[23.38304,69.97457],[23.38597,69.97508],[23.39008,69.97382]],[[23.29176,69.9868],[23.29372,69.98586],[23.30304,69.98353],[23.30597,69.98164],[23.30423,69.9786]],[[23.38914,69.98191],[23.38858,69.9817],[23.38543,69.98203],[23.37412,69.98086],[23.36972,69.98145],[23.3852,69.98251],[23.3881,69.98245],[23.38914,69.98191]],[[23.26114,69.97989],[23.25555,69.98371],[23.25506,69.98495],[23.25699,69.98728],[23.25911,69.98827],[23.26137,69.98866]],[[23.26137,69.98866],[23.26584,69.9897],[23.27028,69.98983]],[[23.30485,69.98988],[23.30496,69.98932],[23.30847,69.98785],[23.30622,69.98671],[23.29596,69.98822],[23.29232,69.98766],[23.29176,69.9868]],[[23.4192,69.97333],[23.42246,69.97443],[23.42337,69.97575],[23.43072,69.97807],[23.45226,69.98316],[23.45414,69.98191],[23.45989,69.98066],[23.45727,69.97952]],[[23.27028,69.98983],[23.27951,69.98937],[23.28787,69.9923],[23.29529,69.99329],[23.29955,69.99296],[23.30211,69.99237],[23.30507,69.9911],[23.30485,69.98988]],[[23.1023,70.00158],[23.10242,69.99909],[23.09961,69.99733],[23.09973,69.99544],[23.09804,69.99427],[23.0985,69.99274],[23.09546,69.98756]],[[23.47729,70.00035],[23.47699,69.9991],[23.47927,69.9973],[23.48574,69.9949],[23.48671,69.99159],[23.47493,69.98168],[23.46546,69.9796],[23.46411,69.97999],[23.46214,69.97993],[23.46181,69.97919]]]}}]}