{"type":"FeatureCollection","features":[{"type":"Feature","properties":{},"geometry":{"type":"MultiLineString","coordinates":[[[30.10724,69.68637],[30.10764,69.68488]],[[30.11629,69.69872],[30.11767,69.69834],[30.1166,69.69772]],[[30.00286,69.72373],[29.99651,69.72196]],[[30.04522,69.75557],[30.04459,69.75501]],[[30.04522,69.75557],[30.04881,69.75464]],[[30.09894,69.75025],[30.09971,69.75214]],[[30.16084,69.79088],[30.1649,69.78945]],[[30.25554,69.87471],[30.25216,69.87426],[30.25053,69.87516]],[[30.10764,69.68488],[30.10939,69.67946]],[[30.10525,69.68903],[30.10714,69.68814],[30.10724,69.68637]],[[30.11594,69.69354],[30.11525,69.69307],[30.11431,69.69329],[30.11324,69.69305],[30.1132,69.6899],[30.11668,69.68476],[30.12076,69.68078],[30.11951,69.68023],[30.11573,69.68129],[30.11307,69.67948]],[[30.3571,69.67086],[30.35444,69.67156],[30.35254,69.67162],[30.34092,69.67101],[30.3408,69.669],[30.33552,69.66904],[30.32412,69.67008],[30.32268,69.6705],[30.32272,69.67114],[30.31757,69.67163],[30.31367,69.67068],[30.3132,69.66875],[30.30655,69.66628],[30.30311,69.66411],[30.2994,69.66336],[30.29303,69.66352],[30.29647,69.66558],[30.30663,69.66971],[30.31068,69.67076],[30.3132,69.67208],[30.31358,69.67343],[30.31529,69.6738],[30.31856,69.67405],[30.32302,69.67377],[30.33894,69.67627],[30.34084,69.67624],[30.34544,69.67533],[30.36082,69.67589]],[[30.1166,69.69772],[30.11443,69.69746],[30.1135,69.69647],[30.11619,69.6943],[30.11594,69.69354]],[[30.11353,69.70039],[30.11629,69.69872]],[[30.09429,69.7046],[30.09533,69.70134],[30.09826,69.69879],[30.09827,69.69733],[30.10201,69.69465],[30.10175,69.69342],[30.10525,69.68903]],[[30.11098,69.70313],[30.11207,69.7023],[30.11221,69.7007],[30.11353,69.70039]],[[29.99774,69.71637],[30.00016,69.71681],[30.00128,69.71778],[30.0036,69.7184],[30.00526,69.71839]],[[30.00526,69.71839],[30.00798,69.71954],[30.0106,69.71999],[30.00667,69.72067],[30.00756,69.72141],[30.02036,69.72262]],[[30.07403,69.71895],[30.0775,69.71842],[30.07944,69.71619],[30.08324,69.71413],[30.08722,69.70994],[30.09027,69.70859],[30.09356,69.7082],[30.09519,69.70755],[30.09429,69.7046]],[[30.01219,69.72809],[30.00286,69.72373]],[[30.11098,69.70313],[30.11064,69.70436],[30.11306,69.70516],[30.10849,69.70751],[30.11061,69.71057],[30.1162,69.71362],[30.11637,69.71467],[30.12336,69.71676],[30.12537,69.71659]],[[30.12537,69.71659],[30.12855,69.71641]],[[30.12801,69.7202],[30.13095,69.7174],[30.12968,69.71649],[30.12855,69.71641]],[[30.07767,69.72745],[30.07612,69.72728],[30.07486,69.72655],[30.07639,69.72569],[30.07309,69.72155],[30.07403,69.71895]],[[30.08114,69.72569],[30.08055,69.72665],[30.07767,69.72745]],[[30.09016,69.72752],[30.0923,69.72407],[30.09494,69.72326],[30.0841,69.72049],[30.08277,69.72087],[30.08327,69.72225],[30.08107,69.72372],[30.08114,69.72569]],[[30.02036,69.72262],[30.02486,69.72566],[30.02725,69.7265],[30.0307,69.72703],[30.03281,69.72867],[30.03734,69.72926],[30.04451,69.72933],[30.05471,69.73],[30.06044,69.72952],[30.06282,69.72966],[30.0649,69.7294],[30.06705,69.72786],[30.07133,69.72804],[30.0715,69.72881],[30.08295,69.72972]],[[30.08295,69.72972],[30.08883,69.72886],[30.09016,69.72752]],[[30.08694,69.73555],[30.08407,69.73554],[30.08299,69.73597],[30.08651,69.73637],[30.08874,69.73623],[30.08899,69.73591],[30.08694,69.73555]],[[30.03919,69.74154],[30.03497,69.73752],[30.02259,69.73306],[30.02124,69.7317],[30.01219,69.72809]],[[30.0334,69.75048],[30.03614,69.75053],[30.04249,69.74587],[30.04005,69.74409],[30.03919,69.74154]],[[30.10095,69.74619],[30.10589,69.73937],[30.10976,69.73828],[30.11182,69.73624],[30.11112,69.73426],[30.10807,69.73215],[30.11222,69.73084],[30.11632,69.73086],[30.12261,69.72995],[30.12092,69.7283],[30.12437,69.72671],[30.12548,69.72674],[30.12659,69.7276],[30.1288,69.72719],[30.13001,69.72534],[30.12646,69.72249],[30.12801,69.7202]],[[30.02719,69.75347],[30.02579,69.75305],[30.02791,69.75178],[30.03124,69.75065],[30.0334,69.75048]],[[30.04459,69.75501],[30.04433,69.75334],[30.04233,69.75276],[30.03645,69.75346],[30.02719,69.75347]],[[30.054,69.75418],[30.05278,69.754],[30.04881,69.75464]],[[30.09894,69.75025],[30.09899,69.74845],[30.10095,69.74619]],[[30.09971,69.75214],[30.09974,69.75257]],[[30.06052,69.75853],[30.06218,69.75613],[30.06105,69.7549],[30.0587,69.75427],[30.054,69.75418]],[[30.03966,69.77076],[30.04203,69.77121],[30.04135,69.77157]],[[30.09974,69.75257],[30.09832,69.75621],[30.099,69.75686],[30.11114,69.75794],[30.11588,69.7591],[30.11782,69.76042],[30.12032,69.76035],[30.12488,69.76118],[30.13995,69.76169]],[[30.03332,69.77264],[30.03846,69.77074],[30.03966,69.77076]],[[30.06642,69.77323],[30.07134,69.77284],[30.07562,69.77159],[30.07672,69.76948],[30.07629,69.76854],[30.07358,69.76748],[30.07053,69.76531],[30.06923,69.76322],[30.06052,69.75853]],[[30.06578,69.77387],[30.06642,69.77323]],[[30.13995,69.76169],[30.14149,69.76182],[30.14397,69.76279],[30.15441,69.76323],[30.15783,69.76525],[30.15607,69.76714],[30.15793,69.76738],[30.16209,69.76671]],[[29.99313,69.77005],[30.00142,69.77057],[30.0075,69.77175],[30.01874,69.77215],[30.02075,69.77349],[30.02555,69.77369],[30.02624,69.77407],[30.02534,69.77478],[30.01948,69.77514],[30.01992,69.77579],[30.01875,69.77661],[30.01496,69.77668],[30.01355,69.77711],[30.01556,69.77756],[30.01707,69.77898],[30.01973,69.77951],[30.02449,69.77978],[30.02734,69.78059],[30.02853,69.78056],[30.03003,69.77943],[30.03076,69.77692],[30.02693,69.77395],[30.02753,69.77355],[30.03189,69.77312],[30.03332,69.77264]],[[30.04135,69.77157],[30.04002,69.77168],[30.03886,69.77246],[30.0424,69.77408],[30.04155,69.77698],[30.04281,69.77815],[30.04717,69.77905],[30.05201,69.78104],[30.05884,69.78016],[30.06367,69.77729],[30.06671,69.77658],[30.06898,69.77507],[30.06578,69.77387]],[[30.1649,69.78945],[30.1698,69.78801],[30.17388,69.78595],[30.1741,69.78551],[30.1713,69.78401],[30.15128,69.7852],[30.14695,69.78475]],[[30.02027,69.80318],[30.01903,69.80005],[30.01323,69.79834],[30.00209,69.79681],[29.9869,69.79396]],[[30.14695,69.78475],[30.14343,69.78423],[30.14466,69.78378],[30.14656,69.78375],[30.14686,69.78333],[30.14368,69.78323],[30.14223,69.78277],[30.13492,69.78363],[30.12926,69.78304],[30.12697,69.78188],[30.12475,69.78155],[30.11799,69.78219],[30.11201,69.78173],[30.11097,69.78219],[30.1109,69.78383],[30.10767,69.78701],[30.10717,69.78869],[30.10982,69.7898],[30.11228,69.79008],[30.11744,69.78912],[30.11708,69.7882],[30.11979,69.788],[30.12114,69.78952],[30.12027,69.79445]],[[30.18423,69.78883],[30.18749,69.78694],[30.18564,69.78609],[30.18093,69.78571],[30.18141,69.78475],[30.18326,69.78391],[30.19247,69.78233],[30.19913,69.7795],[30.19896,69.7791],[30.19576,69.7787],[30.19373,69.77797],[30.1935,69.77745],[30.19559,69.77501],[30.19817,69.77411],[30.19975,69.77132],[30.19909,69.77003],[30.19675,69.76919],[30.19739,69.76775],[30.19645,69.76756],[30.19361,69.76793],[30.19557,69.76877],[30.19271,69.77007],[30.18884,69.77059],[30.18304,69.77073],[30.17944,69.77001],[30.17536,69.7675],[30.1688,69.76734],[30.16543,69.76629],[30.16209,69.76671]],[[30.17933,69.79016],[30.18423,69.78883]],[[30.02027,69.80318],[30.02019,69.8048],[30.02334,69.8062],[30.02561,69.80625],[30.02756,69.80564],[30.03319,69.80658],[30.04606,69.8096],[30.05143,69.80971],[30.05843,69.81152],[30.06162,69.81141]],[[30.12027,69.79445],[30.1147,69.79749],[30.11969,69.79827],[30.12564,69.7984],[30.12731,69.79967],[30.12651,69.80104],[30.12741,69.80168],[30.13138,69.80236],[30.13673,69.80193],[30.13796,69.80219],[30.13797,69.80449],[30.13997,69.80512],[30.14108,69.80385],[30.14081,69.80192],[30.1433,69.80094],[30.14572,69.80077],[30.14788,69.8001],[30.15,69.79672],[30.15839,69.79339],[30.16084,69.79088]],[[30.17933,69.79016],[30.17301,69.79246],[30.17275,69.79426],[30.17019,69.79711],[30.1619,69.80051],[30.16005,69.80314],[30.15548,69.80689]],[[30.04177,69.83082],[30.03978,69.83078],[30.03912,69.8312],[30.04018,69.83266],[30.04196,69.83175],[30.04177,69.83082]],[[30.07903,69.8352],[30.08759,69.82858],[30.08714,69.82751],[30.08881,69.82598],[30.08751,69.82441],[30.08829,69.82406],[30.09068,69.82429],[30.09401,69.82319],[30.09341,69.8226],[30.09549,69.82058],[30.09421,69.81965],[30.09382,69.81691],[30.0916,69.81551],[30.0816,69.81346],[30.07881,69.81187],[30.07332,69.81056],[30.06788,69.81045],[30.06162,69.81141]],[[29.99602,69.82249],[30.00281,69.82265],[30.0063,69.82031],[30.00525,69.81677],[30.01049,69.81594],[30.01283,69.81446],[30.01655,69.81446],[30.01933,69.81606],[30.01885,69.81702],[30.02033,69.81957],[30.0255,69.81844],[30.03022,69.81875],[30.02706,69.82202],[30.03055,69.82327],[30.03137,69.82404],[30.02889,69.82532],[30.03029,69.82679],[30.03587,69.82861],[30.0393,69.82861],[30.04575,69.82965],[30.04733,69.83011],[30.0491,69.83158],[30.05245,69.83187],[30.05495,69.83292],[30.05674,69.83296],[30.05773,69.83256],[30.0647,69.83363],[30.06847,69.83362],[30.07204,69.83297],[30.07346,69.83314],[30.07379,69.83403],[30.07036,69.83644],[30.07146,69.83683],[30.07424,69.83664],[30.07461,69.83743],[30.07685,69.83682],[30.07903,69.8352]],[[30.01899,69.84934],[30.01992,69.8478],[30.01746,69.84347],[30.01416,69.84408],[30.00968,69.84414],[30.0067,69.84321],[30.01059,69.83649],[30.00922,69.8345],[30.01023,69.83346],[30.00849,69.8315],[30.00595,69.83151],[30.00425,69.83272],[30.00298,69.83913],[30.00018,69.83974],[29.99046,69.83929]],[[29.9995,69.83577],[30.00061,69.83552],[29.99882,69.83418]],[[30.1427,69.83855],[30.14985,69.83616],[30.15988,69.83132],[30.16351,69.82039],[30.16417,69.81991],[30.16713,69.82044],[30.16833,69.81995],[30.16732,69.81863],[30.16139,69.81633],[30.16242,69.81494],[30.15623,69.81315],[30.15675,69.81109],[30.15337,69.80981],[30.15548,69.80689]],[[30.02201,69.85149],[30.01866,69.85193],[30.01502,69.85352],[30.01552,69.85437],[30.01953,69.8542],[30.022,69.85349],[30.02309,69.85226],[30.02201,69.85149]],[[30.23316,69.83485],[30.23326,69.83404],[30.23471,69.83368],[30.23972,69.83484],[30.24232,69.83505]],[[29.99562,69.87472],[30.00114,69.87103],[29.998,69.86963]],[[29.99306,69.86366],[30.00006,69.8621],[30.00311,69.86068],[30.00142,69.86038],[29.99255,69.8611]],[[29.99367,69.85463],[30.00075,69.85384],[30.01065,69.85329],[30.01749,69.85043],[30.01899,69.84934]],[[30.24232,69.83505],[30.24477,69.83528],[30.24884,69.83684],[30.2544,69.83802],[30.26417,69.84114],[30.2668,69.84071],[30.27289,69.84128],[30.27766,69.84069],[30.27625,69.83866],[30.27687,69.83823],[30.27232,69.83641],[30.27401,69.83567],[30.27639,69.83595],[30.29498,69.84099],[30.30013,69.84107],[30.3068,69.84196],[30.30861,69.84158],[30.31198,69.8417],[30.31338,69.84252],[30.3157,69.84204],[30.31839,69.84059],[30.31936,69.83834],[30.32095,69.838],[30.32321,69.83814],[30.33036,69.83989],[30.33309,69.84189],[30.33991,69.84324],[30.34512,69.8452],[30.34907,69.8456],[30.35516,69.8472]],[[30.05827,69.87993],[30.05655,69.88004],[30.05684,69.88056],[30.0599,69.8822],[30.0599,69.88074],[30.05827,69.87993]],[[30.0287,69.88453],[30.02885,69.88374],[30.02464,69.88161],[30.02301,69.88144],[30.02006,69.88179],[30.01886,69.88359],[30.01725,69.88431],[30.01964,69.88555],[30.02195,69.88502],[30.02607,69.88583],[30.0287,69.88453]],[[30.08167,69.87999],[30.08018,69.87654],[30.0771,69.87558],[30.0773,69.87081],[30.07432,69.86897],[30.07475,69.86845],[30.07632,69.86847],[30.07658,69.86815],[30.07497,69.86722],[30.06471,69.86378],[30.06574,69.86335],[30.06645,69.86116],[30.0661,69.86073],[30.06479,69.86062],[30.06481,69.86017],[30.06612,69.85969],[30.06714,69.85988],[30.06811,69.86389],[30.07003,69.86435],[30.07836,69.86503],[30.08041,69.86438],[30.08045,69.86248],[30.08126,69.86228],[30.08778,69.86182],[30.08869,69.86138],[30.09318,69.86305],[30.09562,69.86291],[30.09563,69.86053],[30.09428,69.85923],[30.08988,69.85821],[30.08583,69.85842],[30.08211,69.85497],[30.07438,69.85404],[30.07292,69.85443],[30.07174,69.85432],[30.07084,69.85346],[30.06933,69.85392],[30.06918,69.85489],[30.06691,69.85526],[30.06485,69.85637],[30.05819,69.85677],[30.05691,69.85626],[30.05875,69.85379],[30.05474,69.85413],[30.05323,69.85623],[30.05213,69.85658],[30.04949,69.85626],[30.04716,69.85461],[30.04579,69.8544],[30.03865,69.85738],[30.03397,69.86214],[30.03166,69.86269],[30.03269,69.86572],[30.03433,69.86609],[30.0377,69.86467],[30.042,69.86359],[30.04331,69.86377],[30.04336,69.86428],[30.03176,69.87357],[30.03273,69.87603],[30.03135,69.87649],[30.03383,69.87784],[30.03206,69.87825],[30.02731,69.87674],[30.02574,69.87685],[30.02345,69.87785],[30.02505,69.87882],[30.02462,69.88053],[30.03282,69.88366],[30.04009,69.88509],[30.04112,69.88406],[30.04274,69.88406],[30.04351,69.88331],[30.04322,69.88198],[30.04031,69.88006],[30.04221,69.878],[30.04702,69.87845],[30.04936,69.88064],[30.05125,69.88133],[30.05386,69.87949],[30.0544,69.87672],[30.05551,69.87601],[30.05736,69.878],[30.05943,69.87839],[30.06139,69.88035],[30.06511,69.88182],[30.06629,69.88144],[30.06581,69.877],[30.06724,69.87714],[30.06753,69.87837],[30.07098,69.88175],[30.07249,69.8821],[30.0746,69.88186],[30.07782,69.88035],[30.07985,69.8834],[30.081,69.88275],[30.08006,69.88105],[30.08167,69.87999]],[[30.08882,69.88378],[30.08732,69.88383],[30.08606,69.88572],[30.08714,69.88584],[30.08862,69.88537],[30.08785,69.88435],[30.08882,69.88378]],[[30.17416,69.87862],[30.17272,69.87875],[30.17254,69.87971],[30.17462,69.88079],[30.17599,69.87964],[30.17416,69.87862]],[[30.19739,69.87983],[30.19692,69.87955],[30.18578,69.87952],[30.1789,69.87761],[30.17655,69.87832],[30.17456,69.87842],[30.1701,69.87654],[30.16725,69.87732],[30.16598,69.87721],[30.16465,69.87504],[30.16016,69.87345],[30.15673,69.87297],[30.15426,69.87317],[30.15067,69.87287],[30.14829,69.87174],[30.14703,69.86977],[30.14327,69.86711],[30.14131,69.86478],[30.14495,69.8612],[30.14443,69.86076],[30.14139,69.86017],[30.14172,69.8562],[30.1388,69.85468],[30.13364,69.85381],[30.13018,69.85248],[30.13045,69.85153],[30.13274,69.8508],[30.13532,69.84783],[30.13703,69.8472],[30.13684,69.84308],[30.13902,69.84176],[30.14128,69.83891],[30.1427,69.83855]],[[30.2381,69.87625],[30.23811,69.87498],[30.23652,69.8748],[30.23529,69.87563],[30.23373,69.87565],[30.22996,69.87437],[30.22794,69.87415],[30.22662,69.87302],[30.22426,69.87353],[30.22286,69.87472],[30.2196,69.87483],[30.21951,69.87566],[30.21803,69.87644],[30.21116,69.87862]],[[30.31617,69.86935],[30.31321,69.86901],[30.3079,69.8697],[30.30642,69.86944],[30.3059,69.86879],[30.30171,69.86969],[30.29609,69.86973],[30.29552,69.87018],[30.29664,69.87108]],[[30.32527,69.86855],[30.32568,69.86779],[30.33553,69.86598],[30.33599,69.86524],[30.33304,69.86352],[30.32383,69.86012],[30.32034,69.85771],[30.31381,69.856],[30.31298,69.8542],[30.30747,69.85311],[30.29651,69.85397],[30.29377,69.85163],[30.27562,69.84824],[30.27459,69.84676],[30.26985,69.84571],[30.26707,69.84558],[30.26464,69.8445],[30.23327,69.84075],[30.2315,69.83842],[30.23316,69.83485]],[[30.31617,69.86935],[30.31987,69.8698],[30.32527,69.86855]],[[30.19739,69.87983],[30.19762,69.88052],[30.20292,69.88054],[30.20757,69.87991],[30.21116,69.87862]],[[30.24426,69.87792],[30.24919,69.87656],[30.25053,69.87516]],[[30.2381,69.87625],[30.23802,69.87778],[30.23929,69.87851],[30.24426,69.87792]],[[30.25554,69.87471],[30.26068,69.87693],[30.26038,69.8782],[30.26406,69.87892],[30.26667,69.88128],[30.26942,69.88143],[30.275,69.88001],[30.28369,69.88],[30.28598,69.87929],[30.29026,69.87898],[30.29864,69.87937],[30.3036,69.87784],[30.30529,69.87635],[30.3101,69.87485],[30.30638,69.87306],[30.29838,69.87325],[30.29664,69.87108]],[[30.37541,69.67966],[30.36701,69.67676],[30.36082,69.67589]],[[30.43266,69.67451],[30.43096,69.67467]],[[30.67118,69.79135],[30.66498,69.79142],[30.66234,69.79215]],[[30.71088,69.78773],[30.71112,69.78775]],[[30.83978,69.77591],[30.83993,69.77599]],[[30.82711,69.77885],[30.82928,69.77776],[30.82949,69.77686]],[[30.82232,69.78069],[30.82711,69.77885]],[[30.6652,69.79903],[30.66171,69.79961],[30.6633,69.80033],[30.66599,69.80013],[30.6652,69.79903]],[[30.82208,69.78779],[30.8222,69.78774]],[[30.68406,69.80772],[30.6814,69.80785],[30.67993,69.80885],[30.68005,69.80962],[30.68485,69.80812],[30.68406,69.80772]],[[30.3571,69.67086],[30.36178,69.67101],[30.36579,69.67033],[30.36639,69.66925],[30.36516,69.66783],[30.36761,69.6666],[30.37192,69.66564],[30.38007,69.66589],[30.38392,69.66713]],[[30.41761,69.67587],[30.41195,69.67353],[30.40725,69.67372],[30.40005,69.67297],[30.39771,69.6742],[30.3934,69.6741],[30.38568,69.66761]],[[30.41761,69.67587],[30.42405,69.6762],[30.43096,69.67467]],[[30.44706,69.67824],[30.44269,69.67657],[30.44018,69.67661],[30.43266,69.67451]],[[30.42102,69.69497],[30.42354,69.69298],[30.42262,69.69007],[30.41824,69.69],[30.40884,69.68843],[30.40268,69.68611],[30.38913,69.68481],[30.38181,69.68207],[30.37899,69.68052],[30.37541,69.67966]],[[30.41793,69.69928],[30.41994,69.6981],[30.42102,69.69497]],[[30.41825,69.70085],[30.41738,69.70017],[30.41793,69.69928]],[[30.41313,69.70692],[30.41595,69.70567],[30.4194,69.70231],[30.41825,69.70085]],[[30.41329,69.71321],[30.4129,69.70981],[30.41084,69.70793],[30.41313,69.70692]],[[30.41596,69.72213],[30.41483,69.71972],[30.41664,69.7178],[30.41385,69.71513],[30.41329,69.71321]],[[30.43387,69.72052],[30.43651,69.71885],[30.43714,69.71608],[30.44036,69.71258],[30.44106,69.71223],[30.44281,69.71242],[30.44558,69.71201],[30.44794,69.70916],[30.44733,69.70801],[30.4458,69.70733],[30.44169,69.70709],[30.43656,69.70568],[30.43584,69.70508],[30.4361,69.70393],[30.44164,69.70085],[30.44486,69.69606],[30.44431,69.69534],[30.44188,69.69497],[30.44021,69.69402],[30.44028,69.69133],[30.44267,69.68952],[30.44552,69.68834],[30.45595,69.68605],[30.45202,69.68143],[30.45245,69.68049],[30.45038,69.67991],[30.44779,69.67988],[30.4472,69.67923]],[[30.4354,69.72682],[30.43618,69.72858],[30.44029,69.73053]],[[30.40763,69.727],[30.41196,69.72627],[30.41345,69.72565],[30.41596,69.72213]],[[30.43387,69.72052],[30.43308,69.72289],[30.4354,69.72682]],[[30.40728,69.72989],[30.4052,69.72788],[30.40763,69.727]],[[30.40799,69.73932],[30.40932,69.73732],[30.40802,69.73514],[30.40923,69.73287],[30.40902,69.7313],[30.40728,69.72989]],[[30.40512,69.74114],[30.40799,69.73932]],[[30.41031,69.74712],[30.40503,69.74215],[30.40512,69.74114]],[[30.45047,69.7417],[30.44938,69.74122],[30.44738,69.74117],[30.43591,69.74252],[30.43523,69.74344],[30.43717,69.7453],[30.43373,69.74619],[30.43322,69.74673],[30.43772,69.74657],[30.44184,69.74507],[30.44303,69.7441],[30.44964,69.74281],[30.45047,69.7417]],[[30.44029,69.73053],[30.44162,69.73294],[30.44019,69.73512],[30.44187,69.73673],[30.452,69.73655],[30.45288,69.7357],[30.45207,69.73467],[30.45416,69.73363],[30.45695,69.73454],[30.46092,69.7342],[30.4587,69.7359],[30.4602,69.73668],[30.46219,69.73613],[30.46303,69.73432],[30.46458,69.73373],[30.46648,69.73503],[30.4625,69.7367],[30.46185,69.73805],[30.45921,69.73882],[30.45943,69.73961],[30.46298,69.74013],[30.46511,69.74301],[30.46437,69.74447],[30.46111,69.7455],[30.45947,69.74686],[30.45688,69.75043],[30.45566,69.75111],[30.45167,69.75162],[30.44872,69.75253],[30.44763,69.75344],[30.44108,69.75511],[30.4365,69.75845]],[[30.40672,69.76766],[30.40773,69.76616],[30.40437,69.76404],[30.40696,69.76211],[30.40704,69.75989],[30.4104,69.75582],[30.40708,69.75342],[30.40542,69.75043],[30.40684,69.74951],[30.41009,69.74926],[30.41159,69.74858],[30.41031,69.74712]],[[30.4122,69.76858],[30.40809,69.76823],[30.40672,69.76766]],[[30.43458,69.76658],[30.4351,69.76465],[30.43173,69.76162],[30.43317,69.76],[30.4365,69.75845]],[[30.38408,69.78156],[30.37935,69.78275],[30.38125,69.78105],[30.38565,69.77959]],[[30.40919,69.77373],[30.40834,69.77299],[30.41097,69.77146],[30.4115,69.77003],[30.41353,69.76922],[30.4122,69.76858]],[[30.38565,69.77959],[30.38759,69.77952],[30.39249,69.78026],[30.39484,69.7814],[30.3948,69.78282],[30.39611,69.7838],[30.39787,69.78412],[30.39966,69.78375],[30.40282,69.78243],[30.40443,69.78031],[30.40871,69.77776],[30.41075,69.77423],[30.40919,69.77373]],[[30.43913,69.78098],[30.44083,69.77791],[30.43618,69.77605],[30.43534,69.7727],[30.43695,69.77046],[30.43137,69.76903],[30.43458,69.76658]],[[30.71974,69.76481],[30.71881,69.76282],[30.71553,69.76191],[30.70444,69.76245],[30.69865,69.76315],[30.69364,69.76212],[30.69159,69.76214]],[[30.71974,69.76481],[30.71958,69.76581],[30.71612,69.76806]],[[30.68977,69.77212],[30.68832,69.76985],[30.68305,69.7662],[30.68297,69.76499],[30.68378,69.76408],[30.68609,69.7633],[30.69159,69.76214]],[[30.69021,69.77297],[30.68977,69.77212]],[[30.74866,69.77699],[30.74404,69.77728],[30.73584,69.77476],[30.72779,69.77368],[30.71945,69.7712],[30.71334,69.7707],[30.7138,69.76949],[30.71612,69.76806]],[[30.74866,69.77699],[30.75125,69.77736],[30.75223,69.77835]],[[30.74114,69.78215],[30.73722,69.78123],[30.73861,69.78319],[30.74001,69.78338],[30.74087,69.78311],[30.74114,69.78215]],[[30.83978,69.77591],[30.83868,69.77601]],[[30.38404,69.81722],[30.38563,69.81551],[30.3856,69.81295],[30.38962,69.81351],[30.39184,69.81181],[30.39147,69.81075],[30.38788,69.80911],[30.38692,69.80755],[30.389,69.80609],[30.38781,69.80497],[30.39359,69.80184],[30.3944,69.80076],[30.39352,69.80032],[30.38776,69.7999],[30.38716,69.79857],[30.38802,69.79581],[30.38582,69.79573],[30.3837,69.79487],[30.3875,69.79101],[30.38966,69.78983],[30.38878,69.78875],[30.38877,69.78342],[30.38523,69.78157],[30.38408,69.78156]],[[30.42721,69.81336],[30.42851,69.81166],[30.42724,69.80792],[30.42851,69.80505],[30.43034,69.80408],[30.4305,69.80108],[30.42875,69.80065],[30.42769,69.80081],[30.42505,69.80536],[30.42227,69.80715],[30.42243,69.80865],[30.41906,69.80906],[30.41731,69.8089],[30.4169,69.80799],[30.42037,69.80691],[30.41856,69.80584],[30.41927,69.80319],[30.41849,69.80152],[30.42103,69.79966],[30.42132,69.79745],[30.42466,69.79577],[30.42501,69.79375],[30.43257,69.79232],[30.43261,69.79065],[30.43163,69.78997],[30.43351,69.78855],[30.43539,69.78554],[30.43911,69.7839],[30.43913,69.78098]],[[30.71088,69.78773],[30.70647,69.78745],[30.70052,69.78798],[30.69035,69.7868],[30.68644,69.78571],[30.68437,69.78428],[30.68374,69.78247],[30.68497,69.78173],[30.68856,69.78084],[30.68918,69.77752],[30.69023,69.77634],[30.69236,69.77543],[30.69021,69.77297]],[[30.76634,69.78265],[30.76216,69.78019],[30.75352,69.77932],[30.75223,69.77835]],[[30.83078,69.77674],[30.82986,69.77629],[30.82949,69.77686]],[[30.83723,69.77807],[30.83868,69.77601]],[[30.83078,69.77674],[30.83231,69.77851],[30.8365,69.77849],[30.83723,69.77807]],[[30.46688,69.81794],[30.46754,69.81882]],[[30.7457,69.78684],[30.74162,69.78658],[30.74319,69.78954],[30.74119,69.79024],[30.74371,69.79115],[30.74721,69.7885],[30.74729,69.78779],[30.7457,69.78684]],[[30.42721,69.81336],[30.42789,69.81492],[30.43044,69.81476],[30.43898,69.81519],[30.44482,69.81744],[30.44759,69.81717],[30.45287,69.81818],[30.45341,69.8177],[30.45044,69.81566],[30.45136,69.81538],[30.4545,69.81658],[30.45725,69.81612],[30.45989,69.81739],[30.46307,69.81694],[30.46649,69.81742]],[[30.46688,69.81794],[30.46649,69.81742]],[[30.44457,69.81765],[30.44332,69.81783],[30.44371,69.8183],[30.44663,69.8195],[30.44941,69.81956],[30.44457,69.81765]],[[30.82232,69.78069],[30.82015,69.78295],[30.82141,69.78579],[30.82341,69.78682]],[[30.76037,69.79171],[30.75863,69.79152],[30.75685,69.79182],[30.75598,69.7928],[30.75761,69.79354],[30.76328,69.79402],[30.76329,69.79304],[30.76037,69.79171]],[[30.76634,69.78265],[30.77074,69.78546],[30.77672,69.78695],[30.77921,69.78651],[30.78217,69.78796],[30.78874,69.78814],[30.79137,69.78859],[30.79211,69.79047],[30.7936,69.79166],[30.79541,69.79219],[30.81248,69.78844],[30.81626,69.78784],[30.82208,69.78779]],[[30.59544,69.81126],[30.60115,69.80904],[30.60384,69.80661],[30.60277,69.80395],[30.60067,69.8036],[30.59481,69.80438],[30.59007,69.80417]],[[30.72225,69.80232],[30.72662,69.80187],[30.72673,69.79962],[30.72872,69.79929],[30.73092,69.7998],[30.73292,69.79974],[30.733,69.79881],[30.72843,69.79653],[30.72958,69.79567],[30.72856,69.79464],[30.7256,69.79448],[30.72526,69.79286],[30.72115,69.79115],[30.71829,69.7918],[30.71729,69.79148],[30.72051,69.78915],[30.72038,69.78745],[30.71854,69.78718],[30.7151,69.78787],[30.71112,69.78775]],[[30.67118,69.79135],[30.67263,69.79228],[30.67673,69.79196],[30.67981,69.79129],[30.68272,69.79152],[30.68392,69.79202],[30.67667,69.79548],[30.67006,69.79671],[30.66852,69.79791],[30.66914,69.79835],[30.67824,69.79814],[30.6821,69.79637],[30.68637,69.79558],[30.6877,69.79567],[30.68945,69.79649],[30.69258,69.79683],[30.69639,69.79619],[30.69838,69.79675],[30.69794,69.79739],[30.69571,69.79814],[30.69612,69.7991],[30.69505,69.79973],[30.69313,69.79976],[30.69011,69.79914],[30.6882,69.79929],[30.683,69.79796],[30.67748,69.79926],[30.67352,69.80091],[30.67481,69.80202],[30.67961,69.80256],[30.68283,69.80242],[30.68735,69.80151],[30.68907,69.80177],[30.6903,69.80235],[30.69043,69.80386],[30.68833,69.8048],[30.68917,69.80593],[30.691,69.80644],[30.69298,69.80664],[30.69841,69.80599],[30.69554,69.80375],[30.69733,69.80267],[30.69937,69.80285],[30.70645,69.80206],[30.70876,69.80305],[30.71086,69.80274],[30.71288,69.80315],[30.71964,69.80278],[30.72225,69.80232]],[[30.46754,69.81882],[30.4701,69.81907],[30.4764,69.8213],[30.48166,69.82156],[30.49982,69.82422],[30.50605,69.82408],[30.50815,69.82367],[30.51051,69.82219],[30.51016,69.82022],[30.5166,69.8199],[30.51942,69.81832],[30.5228,69.8181],[30.52755,69.81643],[30.53065,69.81672],[30.53178,69.81606],[30.5307,69.81543],[30.52296,69.81406],[30.5179,69.81384],[30.51359,69.81222],[30.51174,69.81093],[30.50501,69.81058],[30.50147,69.80865],[30.50222,69.80754],[30.50528,69.80786],[30.51001,69.80973],[30.51189,69.80943],[30.51679,69.80959],[30.52418,69.81073],[30.52764,69.81083],[30.53029,69.81254],[30.53406,69.81308],[30.53533,69.81293],[30.53574,69.81216],[30.54066,69.81231],[30.54709,69.81454],[30.55331,69.81477],[30.55628,69.81541],[30.55923,69.81469],[30.56582,69.81139],[30.57575,69.81119],[30.57566,69.81208],[30.57652,69.81219],[30.57959,69.81064],[30.57948,69.81],[30.57784,69.80932],[30.57983,69.8076],[30.58492,69.80701],[30.58583,69.80576],[30.59007,69.80417]],[[30.59544,69.81126],[30.58367,69.81442],[30.58234,69.81545],[30.58316,69.81602],[30.58015,69.81732],[30.5798,69.81813],[30.58179,69.81865],[30.58508,69.8184],[30.58744,69.81702],[30.59349,69.81755],[30.59636,69.81671],[30.59705,69.81548],[30.59842,69.81519]],[[30.59842,69.81519],[30.60202,69.81538],[30.60438,69.81395],[30.61689,69.81425],[30.61877,69.81394],[30.62057,69.81281],[30.62548,69.81247],[30.62795,69.81297],[30.63158,69.81079],[30.63456,69.81078],[30.64134,69.80733],[30.64526,69.80636],[30.64671,69.80649],[30.65104,69.80841],[30.6538,69.80822],[30.65881,69.80915],[30.66047,69.81035],[30.66749,69.81162],[30.67295,69.81188],[30.67681,69.81155],[30.67743,69.80989],[30.67892,69.80939],[30.67833,69.80816],[30.67263,69.8063],[30.66816,69.80572],[30.66539,69.80462],[30.65892,69.80482],[30.65581,69.80391],[30.65309,69.80412],[30.65196,69.80363],[30.65363,69.80248],[30.64882,69.80099],[30.6474,69.79982],[30.65569,69.79614],[30.66064,69.79455],[30.66213,69.79375],[30.66234,69.79215]],[[30.63743,69.8155],[30.64239,69.81479],[30.64237,69.81259],[30.64593,69.81193],[30.64556,69.8115],[30.64185,69.81168],[30.63471,69.81376],[30.63347,69.81562],[30.63743,69.8155]],[[30.35516,69.8472],[30.35883,69.84737],[30.36263,69.84578],[30.36327,69.84465],[30.36514,69.84428],[30.36599,69.845],[30.36773,69.84508],[30.36983,69.84464],[30.37114,69.84363],[30.37256,69.83846],[30.37409,69.83834],[30.37548,69.83719],[30.37576,69.8345],[30.37846,69.83407],[30.37857,69.83317],[30.3804,69.83307],[30.38141,69.8325],[30.38205,69.8317],[30.38077,69.8294],[30.38339,69.82746],[30.38577,69.82654],[30.38546,69.82352],[30.38785,69.82253],[30.38743,69.82138],[30.38134,69.81938],[30.38404,69.81722]]]}}]}