{"type":"FeatureCollection","features":[{"type":"Feature","properties":{},"geometry":{"type":"MultiLineString","coordinates":[[[19.14907,70.11273],[19.14791,70.11245]],[[19.01473,70.12401],[19.01825,70.12389],[19.0202,70.12335],[19.01715,70.12303],[19.01566,70.12326],[19.01309,70.12399],[19.01246,70.12472],[19.01319,70.12516],[19.01583,70.12475],[19.01473,70.12401]],[[18.99843,70.12688],[19.00197,70.12314]],[[19.07721,70.1251],[19.07699,70.12596],[19.07322,70.1273]],[[19.06516,70.13108],[19.06948,70.12841],[19.07322,70.1273]],[[19.09097,70.15125],[19.09288,70.15072]],[[19.02984,70.16494],[19.03338,70.16501]],[[19.00184,70.17172],[19.00081,70.17134],[18.99961,70.17177]],[[19.04944,70.17065],[19.04726,70.17009],[19.04593,70.17073]],[[19.10789,70.16932],[19.1078,70.16516]],[[19.09844,70.17875],[19.09948,70.17825]],[[19.1391,70.19711],[19.13729,70.19749]],[[19.10391,70.20625],[19.12311,70.20784],[19.15034,70.20491],[19.15589,70.20486],[19.16181,70.2028],[19.16603,70.19828]],[[19.06822,70.06064],[19.07557,70.06292]],[[19.0268,70.05364],[19.02463,70.05401],[19.02463,70.05479],[19.02707,70.05613],[19.02887,70.0551],[19.0268,70.05364]],[[19.03305,70.05091],[19.02997,70.05052],[19.02856,70.05069],[19.03097,70.05316],[19.03549,70.05483],[19.03624,70.05622],[19.02789,70.05957],[19.02745,70.06076],[19.02844,70.06105],[19.03381,70.06082],[19.03858,70.06149],[19.0412,70.06223],[19.04076,70.06359],[19.0389,70.06439],[19.032,70.06534],[19.02457,70.06559],[19.02376,70.06659],[19.03066,70.07014],[19.03906,70.07318],[19.03952,70.07504],[19.04375,70.07694],[19.04401,70.07815],[19.04704,70.0788],[19.04852,70.07872],[19.04831,70.07724],[19.05182,70.07523],[19.0503,70.07405],[19.04873,70.06641],[19.05045,70.06482],[19.04827,70.06095],[19.04917,70.06003],[19.05093,70.05921],[19.05669,70.05819],[19.05913,70.05814],[19.06219,70.05942],[19.06822,70.06064]],[[19.09829,70.0797],[19.09395,70.0778],[19.0907,70.07416],[19.08422,70.07156],[19.08141,70.06898],[19.07972,70.06854],[19.07791,70.06681],[19.07893,70.06493],[19.07557,70.06292]],[[19.15207,70.07845],[19.14946,70.07667],[19.14914,70.0754],[19.14767,70.07475],[19.14496,70.07442],[19.14219,70.07457],[19.14125,70.07502],[19.14154,70.0787]],[[19.09829,70.0797],[19.10258,70.07987],[19.10688,70.08062]],[[19.12397,70.0823],[19.13167,70.08258]],[[19.13167,70.08258],[19.13448,70.08299],[19.13883,70.0828],[19.14143,70.08037],[19.14154,70.0787]],[[19.10688,70.08062],[19.11436,70.08304],[19.11793,70.08358],[19.11963,70.08294],[19.12397,70.0823]],[[19.17152,70.1146],[19.15946,70.11358],[19.1537,70.11356],[19.14907,70.11273]],[[19.02947,70.09035],[19.02641,70.0912],[19.03264,70.0917],[19.03265,70.0913],[19.02947,70.09035]],[[19.15207,70.07845],[19.15152,70.07911],[19.15538,70.08064],[19.15864,70.08326],[19.16521,70.08638],[19.17079,70.0871],[19.1809,70.0895],[19.183,70.09043],[19.18804,70.08991]],[[18.99858,70.08821],[19.0032,70.08521],[19.00131,70.08467],[18.99698,70.08454]],[[19.00787,70.09854],[19.00428,70.09708],[19.00435,70.0963],[18.99564,70.095]],[[19.01451,70.09728],[19.01348,70.09717],[19.01211,70.09761],[19.01061,70.09921],[19.01429,70.09916],[19.01506,70.0986],[19.01451,70.09728]],[[19.04671,70.10444],[19.04338,70.10372],[19.04273,70.10285],[19.0417,70.10283],[19.0419,70.10375],[19.04342,70.10431],[19.04686,70.10754],[19.04885,70.10732],[19.04881,70.10472],[19.04671,70.10444]],[[19.01519,70.11062],[19.01569,70.10967],[19.01727,70.10916],[19.01755,70.10781],[19.01956,70.10837],[19.02119,70.10742],[19.02089,70.10473],[19.02629,70.10451],[19.02424,70.10315],[19.02461,70.10281],[19.02662,70.10253],[19.03172,70.10282],[19.03547,70.10261],[19.04082,70.10136],[19.04083,70.10094],[19.03778,70.09987],[19.03746,70.09917],[19.03297,70.09883],[19.03236,70.09781],[19.03415,70.09731],[19.03405,70.09682],[19.02963,70.09536],[19.02833,70.09672],[19.02648,70.09756],[19.02563,70.09745],[19.02639,70.09388],[19.03135,70.09427],[19.03527,70.09274],[19.03539,70.09181],[19.03311,70.09208],[19.03284,70.09288],[19.0314,70.09338],[19.02704,70.09269],[19.02043,70.09361],[19.02046,70.09429],[19.02469,70.09563],[19.02151,70.09647],[19.01832,70.09671],[19.01714,70.09723],[19.02016,70.10112],[19.01812,70.10137],[19.01686,70.10064],[19.01149,70.09983],[19.00787,70.09854]],[[19.04256,70.11078],[19.03884,70.11072],[19.03697,70.11157],[19.03936,70.11387],[19.04163,70.11444],[19.04303,70.11341],[19.04158,70.1124],[19.04382,70.11166],[19.04256,70.11078]],[[19.18063,70.111],[19.17955,70.11098],[19.17691,70.11207],[19.17644,70.1126],[19.17765,70.11314],[19.18248,70.11258],[19.18063,70.111]],[[19.01729,70.11942],[19.01858,70.11911],[19.01845,70.11774],[19.02122,70.11797],[19.02328,70.11632],[19.02913,70.11429],[19.02548,70.1132],[19.02651,70.11277],[19.02485,70.11195],[19.02268,70.11232],[19.02132,70.11314],[19.02418,70.11446],[19.02245,70.11491],[19.01928,70.11483],[19.01718,70.1167],[19.01419,70.11795],[19.01205,70.11822],[19.01296,70.11892],[19.01083,70.11951],[19.01111,70.12034],[19.01227,70.12045],[19.01467,70.11967],[19.01729,70.11942]],[[19.14791,70.11245],[19.14487,70.11155],[19.13303,70.11135],[19.12036,70.1099],[19.11491,70.10986],[19.09632,70.11448],[19.09545,70.11716],[19.09047,70.11939],[19.08679,70.11994]],[[19.00197,70.12314],[19.00632,70.12082],[19.00444,70.11897],[19.00944,70.11701],[19.00947,70.11595],[19.01158,70.11434],[19.0107,70.11267],[19.01675,70.11192],[19.01519,70.11062]],[[19.07721,70.1251],[19.07532,70.12449],[19.07587,70.12387],[19.07793,70.12353],[19.08679,70.11994]],[[19.19493,70.12238],[19.19453,70.11953],[19.19644,70.11693],[19.19237,70.11713],[19.18931,70.11604],[19.1873,70.1173],[19.1845,70.11608],[19.18218,70.11701],[19.17982,70.1169],[19.17152,70.1146]],[[19.06516,70.13108],[19.06189,70.13317],[19.05052,70.13753],[19.04367,70.13938],[19.03568,70.14025],[19.03269,70.14116],[19.02955,70.14294],[19.02631,70.14365]],[[19.0805,70.15522],[19.08449,70.15335],[19.09097,70.15125]],[[19.02984,70.16494],[19.02608,70.16507],[19.01978,70.16144],[19.01623,70.16072],[19.01472,70.16094],[19.01418,70.16153],[19.01184,70.16126],[19.01129,70.16069],[19.00684,70.1614],[19.00417,70.16122],[19.00447,70.16077],[19.00959,70.16016],[19.0103,70.15937],[19.00847,70.15909],[19.00565,70.15962],[19.00512,70.15884],[19.00746,70.15828],[19.00479,70.15703],[19.00258,70.15663],[18.99892,70.15652]],[[18.99946,70.14909],[19.00668,70.14812],[19.01204,70.14467],[19.01991,70.14343],[19.02631,70.14365]],[[19.09288,70.15072],[19.09957,70.14955],[19.10652,70.14965],[19.10805,70.15007],[19.10509,70.15253],[19.10059,70.15318],[19.09992,70.15619],[19.10481,70.15905],[19.1078,70.16516]],[[19.08172,70.16576],[19.0841,70.16398],[19.08002,70.1587],[19.0805,70.15522]],[[19.01553,70.17142],[19.01371,70.16955],[19.01214,70.16905],[19.00823,70.16824],[19.00522,70.16975],[19.00381,70.16726],[19.00247,70.16727],[19.00257,70.16808],[19.00149,70.16831],[18.99883,70.16683]],[[19.01996,70.17132],[19.01796,70.17053],[19.01685,70.17139]],[[19.04057,70.17085],[19.04141,70.17031],[19.04302,70.1703],[19.04307,70.16904],[19.04013,70.16705],[19.03338,70.16501]],[[19.07218,70.17014],[19.07979,70.16619],[19.08172,70.16576]],[[19.01553,70.17142],[19.01633,70.17184],[19.01685,70.17139]],[[19.04944,70.17065],[19.06339,70.17142],[19.06833,70.17113],[19.07218,70.17014]],[[19.04057,70.17085],[19.04054,70.17139],[19.04385,70.17244],[19.04525,70.17221],[19.04593,70.17073]],[[18.99943,70.17478],[19.00047,70.17374],[18.99961,70.17177]],[[19.00184,70.17172],[19.0066,70.17196],[19.00781,70.17288],[19.01065,70.17203],[19.01156,70.17216],[19.01227,70.17273],[19.0101,70.17364],[19.00887,70.1749],[19.00712,70.17461],[19.00302,70.17505],[19.00238,70.17557],[19.00747,70.17581],[19.00614,70.17683],[19.00696,70.17873],[19.00861,70.17861],[19.01095,70.17725],[19.0127,70.178],[19.01183,70.17849],[19.01252,70.17916],[19.01601,70.17975],[19.01604,70.17877],[19.01405,70.17801],[19.01641,70.17769],[19.01771,70.17792],[19.01821,70.17759],[19.01602,70.17549],[19.01625,70.17446],[19.02022,70.1742],[19.02217,70.17576],[19.02503,70.17466],[19.02284,70.17317],[19.01927,70.1731],[19.01667,70.17391],[19.0154,70.17351],[19.01587,70.17239],[19.01794,70.17257],[19.01996,70.17132]],[[19.10789,70.16932],[19.10569,70.17108],[19.10363,70.17548],[19.09948,70.17825]],[[19.02176,70.17685],[19.02093,70.17667],[19.01923,70.17714],[19.02131,70.17878],[19.0185,70.18057],[19.02124,70.18187],[19.02334,70.18204],[19.02436,70.18177],[19.02601,70.17876],[19.02176,70.17685]],[[19.09844,70.17875],[19.09417,70.17993],[19.08981,70.18294],[19.0889,70.1842],[19.08924,70.18675]],[[19.00607,70.19017],[19.00686,70.18904],[19.0086,70.18849],[19.00613,70.18846],[19.00561,70.18776],[19.00253,70.18791],[19.00066,70.18931],[19.00115,70.19],[19.00299,70.19011],[19.00383,70.19096],[19.00626,70.19058],[19.00607,70.19017]],[[19.08924,70.18675],[19.0908,70.18914],[19.09447,70.19196],[19.10152,70.19428]],[[19.1391,70.19711],[19.14745,70.19605]],[[19.13301,70.19741],[19.13066,70.19759],[19.1294,70.19804],[19.12944,70.19869],[19.12834,70.19876],[19.12704,70.19832],[19.12725,70.19673],[19.1126,70.1953],[19.10797,70.19551],[19.10152,70.19428]],[[19.14745,70.19605],[19.15203,70.19661],[19.15579,70.19627],[19.16135,70.19735],[19.16367,70.19678],[19.16603,70.19828]],[[19.00828,70.20959],[19.00526,70.20964],[19.00676,70.21086],[19.00913,70.21021],[19.00828,70.20959]],[[19.01435,70.21188],[19.00914,70.2118],[19.00851,70.21153],[19.00719,70.21187],[19.00905,70.21186],[19.01029,70.21249],[19.01251,70.21263],[19.01435,70.21188]],[[19.01599,70.21314],[19.01382,70.21325],[19.01025,70.21414],[19.01056,70.21556],[19.0119,70.21551],[19.01616,70.21407],[19.01599,70.21314]],[[19.10089,70.21441],[19.09534,70.21254],[19.09575,70.21139],[19.09447,70.21035],[19.09717,70.20727],[19.10032,70.20584],[19.10391,70.20625]],[[19.10089,70.21441],[19.10591,70.21631]],[[19.10781,70.2258],[19.11298,70.22492],[19.11581,70.22398],[19.11942,70.22183],[19.12148,70.21875],[19.12062,70.21808],[19.11414,70.21703],[19.10591,70.21631]],[[19.00105,70.23169],[18.99899,70.23156]],[[18.99931,70.23381],[19.00107,70.23263],[19.00105,70.23169]],[[19.10781,70.2258],[19.10541,70.22664],[19.10086,70.23002],[19.09383,70.23244],[19.09008,70.23299],[19.08483,70.2366],[19.0834,70.23893],[19.0859,70.24066],[19.09113,70.24137],[19.09741,70.24328],[19.10005,70.24364],[19.10825,70.2429],[19.10994,70.24414],[19.11144,70.24401]],[[19.16735,70.2578],[19.16291,70.25766],[19.16136,70.25708],[19.16498,70.25504],[19.16433,70.25433],[19.16166,70.25371],[19.1582,70.25361],[19.15668,70.25304],[19.15699,70.25089],[19.16191,70.24673],[19.15694,70.2449],[19.15565,70.24481],[19.15377,70.24536],[19.15269,70.24505],[19.15175,70.24275],[19.15623,70.24157],[19.15856,70.24039],[19.15862,70.23992],[19.15523,70.23861],[19.14966,70.23789],[19.14211,70.24327],[19.1331,70.24624],[19.13171,70.24633],[19.12769,70.2454],[19.12684,70.24477],[19.12839,70.23979],[19.1279,70.23848],[19.12598,70.23762],[19.12047,70.23748],[19.11779,70.23982],[19.11529,70.24098],[19.11389,70.24323],[19.11144,70.24401]],[[19.18929,70.25729],[19.19006,70.2559],[19.1938,70.25513],[19.1946,70.25457],[19.19351,70.25212],[19.18872,70.25251],[19.18347,70.25454],[19.18415,70.25576],[19.18208,70.25644],[19.18076,70.25607],[19.18134,70.25525],[19.17756,70.25559],[19.17448,70.25764]],[[19.16735,70.2578],[19.17023,70.25922],[19.1722,70.25934],[19.17372,70.25895],[19.17448,70.25764]],[[19.13534,70.26778],[19.13641,70.26718],[19.13765,70.26732],[19.1386,70.267],[19.13837,70.26591],[19.13655,70.265],[19.13497,70.26556],[19.13431,70.26772],[19.13534,70.26778]],[[19.16885,70.26574],[19.17024,70.26392],[19.16893,70.26352],[19.16525,70.26386],[19.16374,70.26454],[19.15698,70.26436],[19.15606,70.26516],[19.15704,70.2655],[19.16011,70.26531],[19.16393,70.26585],[19.16115,70.26814],[19.162,70.26914],[19.16764,70.26701],[19.16885,70.26574]],[[19.17484,70.26567],[19.17134,70.26647],[19.16995,70.26764],[19.17199,70.26895],[19.17421,70.26746],[19.17484,70.26567]],[[19.19301,70.27062],[19.195,70.27001],[19.19609,70.26759],[19.19458,70.26762],[19.1913,70.2663],[19.18561,70.26495],[19.18182,70.26463],[19.17858,70.26552],[19.17732,70.26744],[19.17793,70.26789],[19.17953,70.26732],[19.18123,70.26753],[19.18259,70.26828],[19.18138,70.27016],[19.18215,70.27102],[19.18402,70.27104],[19.18638,70.26889],[19.18603,70.26756],[19.18866,70.26692],[19.19086,70.26728],[19.18828,70.26825],[19.18834,70.26906],[19.19057,70.26909],[19.19399,70.26784],[19.1948,70.26791],[19.19424,70.26896],[19.19249,70.26922],[19.1912,70.26999],[19.19208,70.2714],[19.19301,70.27062]],[[19.16175,70.27433],[19.15999,70.27434],[19.1599,70.27467],[19.16326,70.27603],[19.16516,70.27471],[19.16175,70.27433]],[[19.06517,70.00983],[19.06556,70.00783]],[[19.05614,70.01131],[19.05323,70.01133],[19.05179,70.01289],[19.05359,70.01288],[19.05614,70.01131]],[[19.0756,70.03529],[19.08046,70.03452]],[[19.03898,70.04891],[19.03305,70.05091]],[[19.06452,70.00649],[19.06552,70.00607],[19.06677,70.00616],[19.06584,70.00704]],[[19.06517,70.00983],[19.06415,70.01101],[19.06061,70.01243],[19.06028,70.0136],[19.05778,70.01562],[19.06279,70.01878],[19.06716,70.02]],[[19.09096,70.0171],[19.08805,70.01702],[19.0832,70.01876],[19.07966,70.01926],[19.07252,70.0201],[19.06716,70.02]],[[19.08046,70.03452],[19.08491,70.03326],[19.08788,70.03162],[19.08572,70.02785],[19.08701,70.02579],[19.08549,70.02468],[19.08708,70.02464],[19.08817,70.02413],[19.09171,70.01804]],[[19.00798,70.03683],[19.01114,70.03578],[19.01661,70.03258],[19.02008,70.03205],[19.02967,70.03151],[19.03282,70.03088],[19.03555,70.02964],[19.03996,70.02875],[19.04099,70.02763],[19.03857,70.02254],[19.04052,70.02027],[19.03968,70.01735],[19.04166,70.01611],[19.04273,70.01384],[19.04508,70.01296],[19.04513,70.01209],[19.04378,70.0118],[19.04459,70.01076],[19.04903,70.01043],[19.05083,70.00953],[19.05423,70.00974],[19.0561,70.00855],[19.06452,70.00649]],[[19.07056,70.03737],[19.0756,70.03529]],[[18.99786,70.0404],[19.00316,70.03801],[19.00798,70.03683]],[[19.07056,70.03737],[19.06738,70.03889],[19.06168,70.04058],[19.05225,70.04206],[19.0493,70.04292]],[[19.0493,70.04292],[19.04589,70.04354],[19.04472,70.04416],[19.04352,70.0466],[19.04013,70.04873],[19.03898,70.04891]],[[19.20397,70.08943],[19.21032,70.09012]],[[19.71813,70.06437],[19.71551,70.06558]],[[19.98607,70.05708],[19.99441,70.05981],[19.99732,70.06222]],[[19.36966,70.08133],[19.38028,70.07705],[19.38044,70.07575],[19.38259,70.07441],[19.38056,70.07299]],[[20.00057,70.06487],[19.99732,70.06222]],[[19.36408,70.08345],[19.36966,70.08133]],[[19.99976,70.07237],[19.99448,70.07295],[19.99307,70.07217],[19.98626,70.07213]],[[19.71477,70.10941],[19.71475,70.10918]],[[19.22374,70.14412],[19.22411,70.14397]],[[19.23076,70.16273],[19.22784,70.15942]],[[19.67561,70.13695],[19.67399,70.1381]],[[19.23318,70.16453],[19.23076,70.16273]],[[19.88922,70.1626],[19.88668,70.16457],[19.88839,70.16647],[19.88755,70.17059],[19.88876,70.17147],[19.89127,70.17124]],[[19.89212,70.17483],[19.8922,70.17516]],[[19.60017,70.2023],[19.604,70.20052],[19.60564,70.19791],[19.61003,70.19588]],[[19.23895,70.21825],[19.23887,70.21787]],[[19.50787,70.23461],[19.50903,70.23437],[19.50772,70.2339]],[[19.3,70.25007],[19.29896,70.25007],[19.3,70.25007]],[[19.49572,70.24766],[19.49283,70.24708],[19.49334,70.24862],[19.49506,70.24922],[19.49665,70.24854],[19.49572,70.24766]],[[19.49748,70.24984],[19.49678,70.24986]],[[19.18929,70.25729],[19.18997,70.2575],[19.19052,70.25726]],[[19.28656,70.26084],[19.28512,70.26094],[19.28459,70.26143],[19.28451,70.26357],[19.28676,70.26161],[19.28656,70.26084]],[[19.69566,70.25719],[19.69365,70.25705],[19.68983,70.25891],[19.69046,70.25932],[19.69251,70.25903],[19.69289,70.25837],[19.69607,70.25762],[19.69566,70.25719]],[[19.68788,70.25861],[19.68556,70.25863],[19.68606,70.26034],[19.68796,70.26022],[19.68859,70.25968],[19.68739,70.25921],[19.68788,70.25861]],[[19.20729,70.27351],[19.2064,70.2735],[19.20547,70.27468],[19.20747,70.27559],[19.20729,70.27351]],[[19.20575,70.06227],[19.20711,70.0624]],[[19.21529,70.06183],[19.2117,70.06234],[19.20711,70.0624]],[[19.28451,70.06126],[19.28256,70.05833],[19.27827,70.05644]],[[19.38042,70.06047],[19.3788,70.05992],[19.37995,70.05945],[19.38342,70.05923],[19.38326,70.05881],[19.37614,70.05787],[19.3757,70.05739]],[[19.21529,70.06183],[19.21854,70.06204],[19.22138,70.06279],[19.2228,70.06506],[19.22631,70.06588],[19.2284,70.0677]],[[19.73543,70.05883],[19.74483,70.05644],[19.75636,70.05542],[19.7621,70.05614]],[[19.73312,70.0591],[19.73543,70.05883]],[[19.20575,70.06227],[19.20253,70.06267],[19.20116,70.06332],[19.20304,70.06781],[19.20101,70.06858],[19.20964,70.07486]],[[19.21329,70.07702],[19.20964,70.07486]],[[19.25971,70.07591],[19.252,70.07431],[19.23701,70.07271],[19.23503,70.07209],[19.2284,70.0677]],[[19.30706,70.07478],[19.30265,70.07421],[19.29862,70.07177],[19.29506,70.0708],[19.29346,70.06848],[19.28548,70.06292],[19.28451,70.06126]],[[19.3757,70.05739],[19.37788,70.05642],[19.37714,70.05572],[19.36552,70.05395],[19.35968,70.05508],[19.34524,70.06009],[19.34023,70.06093],[19.34193,70.06205],[19.35137,70.06201],[19.35278,70.0622],[19.35396,70.06298],[19.3575,70.06301],[19.35512,70.06413],[19.35591,70.06581],[19.35469,70.06627],[19.35293,70.06615],[19.35223,70.06673],[19.35362,70.06763],[19.35088,70.07037],[19.35335,70.07365]],[[19.38056,70.07299],[19.38037,70.07074],[19.38177,70.06984],[19.38968,70.06807],[19.3921,70.06489],[19.38956,70.06367],[19.39035,70.06325],[19.39333,70.06308],[19.39268,70.06263],[19.39036,70.06252],[19.38042,70.06047]],[[19.71813,70.06437],[19.72121,70.06207],[19.72479,70.06085],[19.73312,70.0591]],[[19.29958,70.08002],[19.2992,70.07779],[19.30284,70.07701],[19.304,70.07593],[19.30791,70.07521],[19.30706,70.07478]],[[19.25971,70.07591],[19.26201,70.07649],[19.26942,70.07715],[19.27752,70.07958],[19.28156,70.08033],[19.28774,70.08284],[19.29593,70.0831],[19.30083,70.08445],[19.304,70.08347],[19.3017,70.08149],[19.29912,70.08103],[19.29958,70.08002]],[[19.35335,70.07365],[19.35372,70.07495],[19.35118,70.07913],[19.35429,70.08286],[19.36128,70.08416],[19.36408,70.08345]],[[19.18804,70.08991],[19.20397,70.08943]],[[19.21278,70.09034],[19.21452,70.09009],[19.21811,70.08856],[19.22231,70.08395],[19.22467,70.08254],[19.22497,70.08151],[19.22104,70.07926],[19.21679,70.07833],[19.21329,70.07702]],[[19.21032,70.09012],[19.21278,70.09034]],[[19.99976,70.07237],[20.00145,70.07214]],[[19.9887,70.07407],[19.98521,70.07291],[19.98626,70.07213]],[[19.9887,70.07407],[19.99545,70.07542],[19.99704,70.07665]],[[19.34903,70.11137],[19.35034,70.11062],[19.34887,70.11059]],[[19.99704,70.07665],[19.99908,70.07985],[20.00048,70.08044]],[[20.00048,70.08044],[19.99577,70.08234],[19.99356,70.08496]],[[19.99615,70.08552],[19.99806,70.08355],[20.0024,70.0833]],[[19.56619,70.09822],[19.55078,70.0951],[19.54075,70.09665],[19.53335,70.09828],[19.51677,70.09834],[19.51095,70.09676],[19.50867,70.09552],[19.5011,70.09374],[19.49862,70.09386],[19.48952,70.09544],[19.47767,70.09585]],[[19.34887,70.11059],[19.34425,70.11112],[19.34759,70.11167],[19.34903,70.11137]],[[19.57556,70.10919],[19.57526,70.10525],[19.56799,70.09893],[19.56619,70.09822]],[[19.7146,70.1072],[19.71566,70.10584],[19.71735,70.10545],[19.71745,70.10433],[19.7159,70.10288],[19.71375,70.10204],[19.70557,70.10086],[19.69692,70.10231],[19.69091,70.10234],[19.68892,70.10189],[19.68646,70.10048],[19.68377,70.09732],[19.68554,70.09535],[19.69124,70.09282],[19.70156,70.09117],[19.70261,70.09054],[19.70422,70.08849],[19.70449,70.0846],[19.70634,70.08365],[19.70744,70.08001],[19.70898,70.0796],[19.70947,70.07864],[19.70886,70.07572],[19.70709,70.07335],[19.70725,70.07103],[19.71087,70.06996],[19.7123,70.06622],[19.71551,70.06558]],[[19.71475,70.10918],[19.7146,70.1072]],[[19.35083,70.11865],[19.35586,70.11532],[19.35648,70.11394],[19.35482,70.11222],[19.35818,70.11145],[19.36447,70.11289],[19.3711,70.11242],[19.37582,70.11275],[19.38259,70.11159],[19.39642,70.11043],[19.40378,70.10865],[19.40806,70.10642],[19.4212,70.10408],[19.42663,70.10067],[19.43485,70.10048],[19.44447,70.09948],[19.44963,70.0995],[19.45449,70.09859],[19.46298,70.09844],[19.47767,70.09585]],[[19.57726,70.11299],[19.57556,70.10919]],[[19.35059,70.1188],[19.35083,70.11865]],[[19.19493,70.12238],[19.19491,70.12385],[19.19813,70.12617],[19.1989,70.12772],[19.20222,70.12941],[19.20471,70.12989],[19.2093,70.12947],[19.22088,70.13015]],[[19.22902,70.1357],[19.23051,70.13476],[19.23016,70.13304],[19.22618,70.13119],[19.22088,70.13015]],[[19.23719,70.16631],[19.23318,70.16453]],[[19.22374,70.14412],[19.2205,70.14662]],[[19.22411,70.14397],[19.22819,70.14318],[19.23258,70.14346],[19.23479,70.14271],[19.22812,70.13888],[19.22702,70.13717],[19.22902,70.1357]],[[19.48713,70.13951],[19.49313,70.13899],[19.50134,70.13563],[19.51388,70.13243],[19.5216,70.13163],[19.52211,70.13018],[19.52428,70.12919],[19.53321,70.12799],[19.53932,70.12508],[19.54601,70.12447],[19.55132,70.12329],[19.55385,70.12219],[19.55641,70.1192],[19.56419,70.11608],[19.56694,70.11554],[19.56908,70.1157],[19.57239,70.11532],[19.57386,70.1158],[19.57456,70.11687],[19.57769,70.11658],[19.57863,70.11601],[19.57862,70.11445],[19.57726,70.11299]],[[19.67561,70.13695],[19.68701,70.13292],[19.69072,70.13232],[19.69795,70.13201],[19.69991,70.13134],[19.70487,70.1253],[19.70229,70.12035],[19.70327,70.11971],[19.70592,70.11934],[19.71129,70.11664],[19.71442,70.11153],[19.71477,70.10941]],[[19.2205,70.14662],[19.22005,70.14771],[19.22504,70.1505]],[[19.22574,70.15392],[19.22803,70.15355],[19.22856,70.15275],[19.22504,70.1505]],[[19.22574,70.15392],[19.22254,70.15554]],[[19.97978,70.13092],[19.97551,70.13254],[19.9635,70.13293],[19.96531,70.13347],[19.96871,70.13374],[19.97436,70.1336],[19.97814,70.13472],[19.97747,70.13586],[19.97404,70.13647],[19.9697,70.13645],[19.96574,70.13594],[19.95473,70.13618],[19.95643,70.13462],[19.95993,70.13396],[19.96108,70.13289],[19.95988,70.13251],[19.95447,70.13223]],[[19.35059,70.1188],[19.34687,70.12057],[19.34281,70.12126],[19.34063,70.1221],[19.33797,70.12205],[19.33485,70.12291],[19.3347,70.12408],[19.33042,70.12726],[19.33323,70.12982],[19.33374,70.13129],[19.33255,70.13388],[19.34091,70.14003],[19.34462,70.14588],[19.34877,70.14829],[19.35032,70.15038],[19.35805,70.1542]],[[19.22254,70.15554],[19.22666,70.15842]],[[19.9593,70.13836],[19.95746,70.13813],[19.95637,70.13836],[19.95867,70.13974],[19.96039,70.13937],[19.95916,70.13891],[19.9593,70.13836]],[[19.22784,70.15942],[19.22666,70.15842]],[[19.38791,70.16268],[19.38248,70.15922],[19.37883,70.15887],[19.37709,70.15912],[19.37573,70.15996],[19.37316,70.15981],[19.36103,70.15565],[19.35805,70.1542]],[[19.43066,70.16163],[19.43371,70.16093],[19.43799,70.1584],[19.44162,70.15746],[19.44718,70.15375],[19.44837,70.15191],[19.45073,70.15073],[19.46449,70.14821],[19.46591,70.1473],[19.46459,70.14589],[19.46554,70.14455],[19.47157,70.14298],[19.47566,70.14313],[19.48011,70.14112],[19.48713,70.13951]],[[19.66887,70.15557],[19.66455,70.15364],[19.66057,70.15446],[19.65668,70.1543],[19.6514,70.15004],[19.65668,70.14816],[19.65784,70.14657],[19.66679,70.14382],[19.67399,70.1381]],[[19.95305,70.13278],[19.95004,70.13537],[19.94749,70.13624],[19.9485,70.13703],[19.94542,70.13705],[19.94788,70.13845],[19.94625,70.13946],[19.94265,70.14091],[19.94032,70.14123],[19.93328,70.14438],[19.93003,70.14701],[19.92851,70.14707],[19.92754,70.14645],[19.92628,70.14638],[19.9214,70.14795],[19.92026,70.14883]],[[19.96443,70.14761],[19.9641,70.1469],[19.96626,70.14554],[19.97197,70.14476],[19.97248,70.14395],[19.9744,70.14371],[19.97358,70.14114],[19.97073,70.14163],[19.9681,70.14151],[19.96853,70.13987],[19.97137,70.13917],[19.96885,70.13841],[19.96865,70.13777],[19.97028,70.13725],[19.97732,70.13743],[19.97632,70.13939],[19.97456,70.13944],[19.97411,70.14056],[19.97839,70.13942],[19.9789,70.13734],[19.98095,70.13564],[19.98084,70.13261]],[[19.99802,70.14667],[19.99733,70.14588],[19.99372,70.14487],[19.9946,70.14242],[19.99208,70.14118],[19.99198,70.14058],[19.99495,70.13961],[20.00295,70.14064]],[[20.005,70.13095],[19.99679,70.13149],[19.99473,70.13249],[19.99767,70.13304],[19.99815,70.13377],[19.99396,70.13426],[19.99006,70.13423],[19.98414,70.13331],[19.98995,70.13201],[19.99374,70.13005],[20.00245,70.13001]],[[20.00347,70.12901],[19.99956,70.12816],[19.99568,70.12783],[19.99241,70.12831],[19.9875,70.12821],[19.98451,70.12932],[19.97743,70.12867],[19.97603,70.12907],[19.97191,70.12928],[19.97032,70.12896],[19.96999,70.12778],[19.95893,70.1284],[19.95836,70.12772],[19.96838,70.12501],[19.97317,70.12515],[19.97702,70.12366],[19.98072,70.12384],[19.98418,70.12238],[19.98778,70.12223],[19.9898,70.12258],[19.99079,70.12172],[19.99199,70.12279],[19.99551,70.1227],[19.99905,70.12309],[20.00047,70.12228]],[[20.00047,70.12228],[19.99986,70.12045],[20.00438,70.1201]],[[19.38791,70.16268],[19.3932,70.16547],[19.40552,70.16705],[19.41644,70.1655],[19.4215,70.1638],[19.43066,70.16163]],[[19.96443,70.14761],[19.96364,70.14841],[19.96142,70.14883],[19.96163,70.14926],[19.96569,70.15009],[19.97067,70.15183],[19.97515,70.15256],[19.98901,70.15134],[19.99484,70.14974],[19.99802,70.14667]],[[19.76553,70.15839],[19.77266,70.15811],[19.77444,70.15843],[19.77649,70.15805],[19.77636,70.1566],[19.77942,70.15538],[19.78442,70.15593],[19.79105,70.1578],[19.79658,70.15855]],[[19.75699,70.16326],[19.76156,70.15895],[19.76553,70.15839]],[[19.88922,70.1626],[19.89179,70.16179],[19.89676,70.16168],[19.89858,70.16113],[19.90296,70.16096],[19.90644,70.16139],[19.90913,70.16054],[19.91342,70.16002],[19.91288,70.15843],[19.91386,70.15797],[19.91453,70.15526],[19.92026,70.14883]],[[19.75616,70.16821],[19.75699,70.16326]],[[19.2458,70.18743],[19.24685,70.18612],[19.25073,70.18465],[19.25861,70.18474],[19.25884,70.18129],[19.25402,70.17523],[19.24384,70.17047],[19.24013,70.16923],[19.23719,70.16631]],[[19.89212,70.17483],[19.89481,70.17338],[19.89509,70.17252],[19.89489,70.17216],[19.89326,70.17202],[19.89251,70.17114],[19.89127,70.17124]],[[19.62952,70.18506],[19.63603,70.18289],[19.64476,70.1791],[19.6485,70.17642],[19.65194,70.17218],[19.65476,70.1712],[19.65995,70.16753],[19.66094,70.16646],[19.66032,70.16519],[19.6699,70.16188],[19.67166,70.15823],[19.66887,70.15557]],[[20.00467,70.15526],[19.99852,70.15534],[19.9888,70.15737],[19.98326,70.15621],[19.97214,70.15578],[19.97003,70.15606],[19.96874,70.15717],[19.95038,70.16154],[19.94404,70.16197],[19.94119,70.16329],[19.94089,70.165],[19.94184,70.16602],[19.94908,70.16794],[19.95262,70.1733],[19.96552,70.17764],[19.97247,70.1788],[19.9759,70.18028],[19.98058,70.1807],[19.98551,70.18261],[19.98928,70.18238],[19.99049,70.18156],[19.99171,70.17799],[19.99003,70.17699],[19.99323,70.17382],[19.99859,70.17323],[20.00331,70.17316]],[[19.61452,70.19317],[19.61675,70.19083],[19.62444,70.18629],[19.62682,70.18542],[19.62952,70.18506]],[[19.61452,70.19317],[19.61003,70.19588]],[[19.23707,70.20916],[19.24368,70.20653],[19.2457,70.20507],[19.24423,70.19935],[19.24697,70.19183],[19.24551,70.18893],[19.2458,70.18743]],[[19.23168,70.21137],[19.23707,70.20916]],[[19.75081,70.19837],[19.75017,70.19619],[19.75212,70.1918],[19.74906,70.1811],[19.74968,70.17607],[19.75616,70.16821]],[[19.82729,70.19632],[19.82389,70.19043],[19.82472,70.185],[19.8239,70.18101],[19.82039,70.17568],[19.81487,70.17271],[19.80763,70.17138],[19.80703,70.16988],[19.79835,70.16851],[19.80196,70.16768],[19.80154,70.1658],[19.80274,70.16509],[19.80166,70.16344],[19.79966,70.16249],[19.80138,70.16224],[19.80492,70.16254],[19.8016,70.16139],[19.8031,70.16089],[19.80265,70.16035],[19.79836,70.15886]],[[19.90011,70.19435],[19.90696,70.19217],[19.9084,70.19246],[19.91016,70.19187],[19.91039,70.19118],[19.90859,70.18942],[19.91072,70.1861],[19.91412,70.18484],[19.9192,70.18431],[19.92338,70.18263],[19.92467,70.17946],[19.92175,70.17612],[19.92166,70.17396],[19.91967,70.17284],[19.91482,70.17396],[19.91068,70.17605],[19.90833,70.17652],[19.90433,70.17646],[19.90201,70.17594],[19.89775,70.17669],[19.89412,70.17617],[19.8922,70.17516]],[[19.89698,70.19527],[19.90011,70.19435]],[[19.20091,70.21646],[19.19663,70.21543],[19.20064,70.21496],[19.20186,70.21528]],[[19.58875,70.20698],[19.59004,70.20616],[19.58872,70.20564],[19.58918,70.20532],[19.59039,70.20518],[19.59182,70.20571],[19.59302,70.20563],[19.59574,70.20449],[19.59478,70.20372],[19.60017,70.2023]],[[19.58875,70.20698],[19.58042,70.2072],[19.5761,70.20848]],[[19.20186,70.21528],[19.20697,70.21606],[19.2091,70.21704],[19.21084,70.21708],[19.21389,70.21655],[19.21242,70.21484],[19.21511,70.21433],[19.21573,70.21602],[19.21792,70.21554],[19.22093,70.21701],[19.22496,70.21768],[19.22364,70.21638],[19.21907,70.21445],[19.21921,70.21356],[19.23168,70.21137]],[[19.20091,70.21646],[19.20505,70.21796],[19.20975,70.21848],[19.21757,70.21812],[19.22671,70.21878],[19.23005,70.21844],[19.23171,70.21769],[19.23887,70.21787]],[[19.23895,70.21825],[19.23685,70.2211],[19.23996,70.22319]],[[19.82729,70.19632],[19.831,70.19959],[19.82892,70.2031],[19.83129,70.20613],[19.83034,70.20919],[19.83257,70.21092],[19.83519,70.21096],[19.83882,70.20989],[19.84193,70.20625],[19.84607,70.2049],[19.84837,70.203],[19.85378,70.20121],[19.85798,70.20047],[19.86039,70.1987],[19.8627,70.19834],[19.86461,70.19856],[19.87317,70.19712],[19.87792,70.19734],[19.88408,70.19647],[19.88916,70.19629],[19.89019,70.19661],[19.89698,70.19527]],[[19.49027,70.2241],[19.48679,70.22409],[19.48551,70.22521],[19.48599,70.22561],[19.4895,70.22573],[19.49027,70.2241]],[[19.24198,70.23299],[19.24698,70.23177],[19.2427,70.2286],[19.24233,70.22541],[19.23996,70.22319]],[[19.50645,70.22812],[19.50998,70.222],[19.51081,70.22149],[19.51701,70.22069],[19.5148,70.21981],[19.51412,70.21844],[19.51499,70.21794],[19.51764,70.21795],[19.52051,70.21564],[19.52598,70.2154],[19.52934,70.21467],[19.53235,70.21478],[19.53865,70.2131],[19.54336,70.21279],[19.55052,70.21155],[19.55313,70.21065],[19.56814,70.20961],[19.5761,70.20848]],[[19.66869,70.22566],[19.67229,70.22342],[19.67476,70.22281],[19.6778,70.22307],[19.67857,70.22432],[19.68069,70.2248]],[[19.48632,70.229],[19.48326,70.22919],[19.48255,70.22998],[19.4833,70.2306],[19.48588,70.23088],[19.48712,70.23061],[19.48632,70.229]],[[19.50645,70.22812],[19.50613,70.23117],[19.50495,70.23198],[19.5033,70.2321],[19.50394,70.23343],[19.50772,70.2339]],[[19.68069,70.2248],[19.6837,70.22529],[19.68601,70.22772],[19.68499,70.22845],[19.68236,70.22911],[19.6817,70.23124]],[[19.50787,70.23461],[19.50596,70.2352],[19.50698,70.23767],[19.50887,70.23916]],[[19.6817,70.23124],[19.6792,70.23308],[19.67965,70.23424],[19.68056,70.2345],[19.68266,70.23421],[19.68606,70.23442],[19.68694,70.2353],[19.68957,70.2355],[19.69129,70.23469],[19.69367,70.23435],[19.69612,70.23457],[19.70186,70.23353],[19.70799,70.23304],[19.71623,70.23147],[19.72426,70.22904],[19.72838,70.2283],[19.73074,70.2284],[19.7307,70.22591],[19.72773,70.22273],[19.72878,70.22083],[19.72734,70.21983],[19.73031,70.2179],[19.73866,70.21534],[19.74242,70.21157],[19.74702,70.20922],[19.75206,70.20009],[19.75081,70.19837]],[[19.4878,70.2429],[19.48632,70.24293],[19.48617,70.24369],[19.48797,70.245],[19.48877,70.24388],[19.4878,70.2429]],[[19.29918,70.25015],[19.29688,70.2504],[19.29713,70.25141],[19.30066,70.25195],[19.30112,70.25109],[19.29918,70.25015]],[[19.49789,70.24238],[19.49636,70.24221],[19.49353,70.24285],[19.49652,70.24717],[19.49801,70.24742],[19.49934,70.24871],[19.50165,70.24928],[19.50339,70.24887],[19.50362,70.24772],[19.50273,70.24725],[19.5034,70.24604],[19.50288,70.24515],[19.50137,70.24478],[19.49789,70.24238]],[[19.51649,70.24937],[19.51899,70.25447],[19.52105,70.25497],[19.53144,70.25231],[19.53922,70.25156],[19.54098,70.25091],[19.54301,70.2487]],[[19.19339,70.2572],[19.19393,70.25662],[19.1929,70.25637],[19.19052,70.25726]],[[19.2055,70.25691],[19.20973,70.25287],[19.21185,70.25195],[19.2166,70.25145],[19.21882,70.2501],[19.21979,70.24902],[19.21663,70.2463],[19.21846,70.24506],[19.22303,70.24441],[19.22655,70.24279],[19.22675,70.24129],[19.22554,70.23978],[19.23097,70.23818],[19.23091,70.23696],[19.233,70.23543],[19.23888,70.23355],[19.24198,70.23299]],[[19.30013,70.25468],[19.29679,70.25309],[19.29215,70.25487]],[[19.51649,70.24937],[19.51388,70.24859],[19.51414,70.24625],[19.51254,70.24442],[19.51284,70.24027],[19.50887,70.23916]],[[19.56641,70.2481],[19.56565,70.24721],[19.56107,70.24572],[19.56113,70.24474],[19.56766,70.24224],[19.57547,70.24106],[19.57719,70.23952],[19.56618,70.24081],[19.55921,70.24271],[19.55285,70.24341],[19.54301,70.2487]],[[19.66545,70.24556],[19.66538,70.24343],[19.66747,70.23971],[19.66342,70.23695],[19.66457,70.23385],[19.66858,70.23065],[19.66757,70.22704],[19.66869,70.22566]],[[19.71048,70.24438],[19.71095,70.24004],[19.71305,70.2381],[19.71887,70.23676],[19.73024,70.23502],[19.73452,70.2332],[19.73703,70.23124],[19.73987,70.22697],[19.73745,70.22407],[19.73904,70.22324],[19.74163,70.22366],[19.74357,70.22515],[19.75799,70.22585],[19.76037,70.22637],[19.7685,70.23245],[19.77154,70.23672],[19.77431,70.23809]],[[19.77841,70.24259],[19.77431,70.23809]],[[19.49678,70.24986],[19.49677,70.25043],[19.49968,70.2515],[19.49951,70.25021],[19.49748,70.24984]],[[19.77614,70.24596],[19.77841,70.24259]],[[19.29215,70.25487],[19.2891,70.25564],[19.28916,70.25643],[19.2907,70.25688],[19.29349,70.25663],[19.29724,70.25806],[19.2998,70.25791],[19.30284,70.25692],[19.30282,70.25615],[19.30013,70.25468]],[[19.19339,70.2572],[19.1928,70.2583],[19.19784,70.25927],[19.1992,70.26102],[19.19799,70.2618],[19.19992,70.26232],[19.20393,70.25972],[19.2055,70.25691]],[[19.29182,70.25901],[19.2907,70.25871],[19.2881,70.25913],[19.28788,70.25959],[19.29063,70.26088],[19.29386,70.26106],[19.29311,70.25954],[19.29182,70.25901]],[[19.20259,70.27119],[19.20267,70.26912],[19.20093,70.27019],[19.20007,70.27018],[19.2019,70.26774],[19.20151,70.26733],[19.19987,70.26735],[19.19751,70.26917],[19.1972,70.2707],[19.19809,70.27141],[19.20023,70.27108],[19.2001,70.27255],[19.20105,70.27299],[19.20259,70.27119]],[[19.69877,70.25775],[19.69745,70.25781],[19.69699,70.25947],[19.69712,70.26102],[19.69798,70.26128],[19.69994,70.26],[19.70115,70.25795],[19.69877,70.25775]],[[19.18856,70.27426],[19.18992,70.2735],[19.19208,70.27334],[19.19207,70.27203],[19.19034,70.27196],[19.18834,70.27261],[19.18764,70.27413],[19.18856,70.27426]],[[19.68924,70.26223],[19.69324,70.26218],[19.69379,70.26162],[19.69034,70.26138],[19.68954,70.26094],[19.68775,70.26119],[19.68765,70.26074],[19.6866,70.26092],[19.68509,70.26151],[19.68465,70.26345],[19.68587,70.26394],[19.68924,70.26223]],[[19.71048,70.24438],[19.70982,70.24651],[19.71332,70.24906],[19.7168,70.24902],[19.72281,70.24976],[19.72568,70.25049],[19.72682,70.25617],[19.73242,70.26099],[19.73598,70.26173],[19.75934,70.26315],[19.76225,70.26286],[19.77135,70.26039],[19.77361,70.25866],[19.77512,70.25655],[19.77449,70.25414],[19.77606,70.25282],[19.77504,70.24847],[19.77614,70.24596]],[[19.21993,70.27371],[19.21836,70.272],[19.21669,70.27213],[19.21607,70.27129],[19.21407,70.27148],[19.21362,70.27563],[19.21461,70.27567],[19.21665,70.27338],[19.21815,70.27735],[19.21995,70.27624],[19.21993,70.27371]],[[19.20631,70.27556],[19.20545,70.2756],[19.20467,70.27682],[19.20993,70.27985],[19.21016,70.27853],[19.20631,70.27556]],[[19.24098,70.27849],[19.24002,70.27822],[19.23941,70.27844],[19.23984,70.28022],[19.24097,70.28067],[19.24239,70.27941],[19.24098,70.27849]],[[19.24499,70.27915],[19.24386,70.27936],[19.24466,70.28092],[19.24583,70.28165],[19.24726,70.28167],[19.24733,70.28027],[19.24499,70.27915]],[[19.18859,70.28121],[19.18704,70.28124],[19.18618,70.2818],[19.1879,70.2834],[19.18979,70.28175],[19.18859,70.28121]],[[19.19332,70.28219],[19.19384,70.28168],[19.19503,70.28233],[19.19671,70.28217],[19.19718,70.28041],[19.19624,70.28003],[19.19457,70.28024],[19.19291,70.27966],[19.19052,70.28258],[19.19154,70.28349],[19.19298,70.28322],[19.19332,70.28219]],[[19.64935,70.27295],[19.65144,70.27093],[19.66203,70.2645],[19.66258,70.26249],[19.66535,70.26051],[19.66161,70.2588],[19.66317,70.25725],[19.66449,70.25292],[19.66669,70.25105],[19.66545,70.24556]],[[19.19527,70.28556],[19.19553,70.28379],[19.19403,70.2837],[19.1932,70.28416],[19.18922,70.28418],[19.18955,70.28497],[19.19077,70.28525],[19.19314,70.28471],[19.19313,70.28587],[19.19527,70.28556]],[[19.56641,70.2481],[19.56381,70.2505],[19.56135,70.25101],[19.55752,70.25099],[19.55492,70.25139],[19.54984,70.25395],[19.54489,70.25458],[19.54484,70.25523],[19.54748,70.25644],[19.54977,70.25564],[19.5558,70.25589],[19.55684,70.25623],[19.5573,70.25743],[19.55939,70.25743],[19.55816,70.26075],[19.56108,70.26138],[19.5663,70.26367],[19.56466,70.2647],[19.56481,70.26553],[19.57069,70.26745],[19.57494,70.27063],[19.57544,70.27424],[19.57402,70.2752],[19.57427,70.27731],[19.57895,70.27967],[19.57925,70.28095],[19.58164,70.28173],[19.5832,70.28469],[19.58456,70.28493],[19.58502,70.28436],[19.58728,70.28438],[19.59176,70.2836],[19.59336,70.28405],[19.60211,70.28487],[19.6069,70.28395],[19.6123,70.28475],[19.6209,70.28329],[19.62246,70.28354],[19.62199,70.2844],[19.62383,70.28521],[19.62637,70.28521],[19.62806,70.28613],[19.63329,70.28584],[19.63711,70.28379],[19.64115,70.28412],[19.64147,70.28251],[19.64432,70.28255],[19.64658,70.2816],[19.64877,70.27804],[19.64835,70.27529],[19.64935,70.27295]],[[19.77204,70.28118],[19.76693,70.28098],[19.76626,70.28224],[19.76994,70.283],[19.77146,70.28499],[19.77435,70.2853],[19.7793,70.28324],[19.77744,70.28222],[19.77346,70.28177],[19.77204,70.28118]],[[19.76543,70.29552],[19.77114,70.29553],[19.77108,70.29476],[19.77217,70.29443],[19.77596,70.29523],[19.77805,70.29376],[19.78134,70.29396],[19.78412,70.29299],[19.78412,70.29208],[19.78024,70.28983],[19.7808,70.28954],[19.78302,70.28954],[19.78132,70.28778],[19.77829,70.28788],[19.77677,70.28856],[19.7724,70.28873],[19.77043,70.2898],[19.77221,70.29087],[19.76348,70.29173],[19.76253,70.29467],[19.75936,70.29526],[19.75627,70.29535],[19.75481,70.29575],[19.75467,70.29636],[19.76116,70.29805],[19.76404,70.29797],[19.76822,70.29734],[19.76543,70.29552]],[[19.38395,70],[19.38614,69.99901]],[[19.59249,70.02158],[19.59321,70.02198]],[[19.86039,70.00871],[19.8587,70.00916],[19.86073,70.01195]],[[19.91436,70.01411],[19.91439,70.01326],[19.91939,70.01207],[19.92524,70.01221],[19.93048,70.01288]],[[19.30678,70.02985],[19.30781,70.0301],[19.30886,70.0298]],[[19.85518,70.01989],[19.85567,70.01996]],[[19.49607,70.04899],[19.49987,70.04921]],[[19.44888,70.04934],[19.45289,70.05243],[19.454,70.05254],[19.45818,70.05106]],[[19.86334,70.05274],[19.85942,70.05372]],[[19.32667,70.00432],[19.33537,69.9993]],[[19.39451,70.02771],[19.3939,70.02578],[19.39885,70.02263]],[[19.38395,70],[19.38087,70.00265],[19.38057,70.00438]],[[19.55708,69.9969],[19.55702,70.0016],[19.56033,70.00696],[19.56188,70.00812]],[[19.37844,70.00838],[19.37705,70.00716],[19.38046,70.00571],[19.38057,70.00438]],[[19.97376,70.00189],[19.96803,69.99949]],[[19.75055,69.99709],[19.77396,70.00733],[19.77812,70.00734],[19.78082,70.00623],[19.78421,70.00575],[19.79654,70.00549],[19.79868,70.00483],[19.79938,70.00399],[19.80288,70.00324],[19.81616,70.00302],[19.82901,70.00129],[19.83763,69.99903]],[[19.37844,70.00838],[19.37689,70.00885],[19.37708,70.01025],[19.38088,70.01226],[19.38127,70.01333],[19.3827,70.0137],[19.38565,70.01318],[19.38779,70.01423],[19.38373,70.01756],[19.38893,70.01718],[19.39421,70.01788]],[[19.90082,69.9984],[19.89123,70.00184],[19.88081,70.00362],[19.8632,70.00838],[19.86039,70.00871]],[[19.62882,70.01607],[19.63174,70.01409],[19.64265,70.00876],[19.65006,70.00631],[19.65784,70.0023],[19.66748,70.00025],[19.6728,69.99794]],[[19.39885,70.02263],[19.39776,70.0193],[19.39421,70.01788]],[[19.94091,70.00876],[19.94468,70.00756],[19.9544,70.0069],[19.95784,70.00702]],[[19.95784,70.00702],[19.9671,70.00888],[19.9705,70.00905],[19.97501,70.00871],[19.97729,70.00458],[19.9764,70.00316],[19.97376,70.00189]],[[19.56188,70.00812],[19.57293,70.01263],[19.57369,70.01497],[19.5779,70.01609],[19.57904,70.017],[19.58272,70.01742],[19.58573,70.01828],[19.58646,70.01918],[19.59249,70.02158]],[[19.93048,70.01288],[19.93216,70.01271],[19.93326,70.01211],[19.93322,70.01064],[19.93568,70.0105],[19.93828,70.01119],[19.94073,70.01033],[19.94172,70.0095],[19.94091,70.00876]],[[19.86073,70.01195],[19.86033,70.01283],[19.85453,70.01506]],[[19.85332,70.01578],[19.85202,70.0181],[19.8529,70.01942],[19.85518,70.01989]],[[19.28966,70.03026],[19.29241,70.02847],[19.29698,70.02668],[19.29809,70.02427],[19.29995,70.02366],[19.30347,70.02352],[19.30475,70.02304],[19.30402,70.02033],[19.30015,70.01774],[19.29639,70.0167],[19.29688,70.01571],[19.31058,70.01249],[19.31957,70.01217],[19.32178,70.01025],[19.32243,70.00769],[19.3251,70.00499],[19.32667,70.00432]],[[19.30886,70.0298],[19.31036,70.02832],[19.3079,70.02731],[19.30616,70.02852],[19.30678,70.02985]],[[19.53388,70.02421],[19.53282,70.02234],[19.53346,70.01844],[19.53785,70.01295],[19.53957,70.00656],[19.54208,70.00393],[19.54357,70.00081],[19.53978,69.99463]],[[19.59386,70.02267],[19.59321,70.02198]],[[19.60268,70.02244],[19.60771,70.01949],[19.62235,70.01848],[19.62882,70.01607]],[[19.85332,70.01578],[19.85453,70.01506]],[[19.59386,70.02267],[19.59397,70.0241],[19.59862,70.02449],[19.60268,70.02244]],[[19.30942,70.03042],[19.30632,70.03087],[19.30759,70.03193],[19.30934,70.03132],[19.30942,70.03042]],[[19.39451,70.02771],[19.39708,70.02892],[19.39599,70.0303],[19.39423,70.03094],[19.39378,70.03314],[19.39606,70.03355],[19.4,70.03326],[19.40537,70.03347]],[[19.85567,70.01996],[19.8579,70.02002],[19.86257,70.02105],[19.86877,70.02078],[19.87557,70.02104],[19.88423,70.02311],[19.88902,70.02145],[19.89186,70.02149],[19.89604,70.02222],[19.90094,70.02059],[19.90328,70.02012],[19.90633,70.02013],[19.908,70.01963],[19.90679,70.01711],[19.91361,70.01506],[19.91436,70.01411]],[[19.40161,70.03696],[19.39958,70.03627],[19.39772,70.03648],[19.39657,70.03808],[19.39845,70.03912],[19.4004,70.0389],[19.40161,70.03696]],[[19.40537,70.03347],[19.40951,70.03356],[19.41012,70.03581],[19.41242,70.03741],[19.41233,70.03919]],[[19.43359,70.03992],[19.4346,70.03999],[19.43444,70.04134],[19.44085,70.04495],[19.44482,70.04618],[19.44636,70.04795],[19.44888,70.04934]],[[19.41233,70.03919],[19.41078,70.04093],[19.4119,70.04187],[19.41327,70.04211],[19.42162,70.042],[19.42753,70.04119],[19.43133,70.04201],[19.43324,70.04139],[19.43359,70.03992]],[[19.53626,70.04292],[19.54017,70.03745],[19.54032,70.03422],[19.53923,70.0311],[19.53706,70.0292],[19.53603,70.02677],[19.53405,70.02564],[19.53388,70.02421]],[[19.46736,70.04804],[19.47231,70.04797]],[[19.49987,70.04921],[19.5031,70.04978],[19.50704,70.04969],[19.51493,70.04729],[19.52323,70.04592],[19.53363,70.04485],[19.53626,70.04292]],[[19.45818,70.05106],[19.46009,70.04937],[19.46736,70.04804]],[[19.27827,70.05644],[19.27736,70.05528],[19.2789,70.05018],[19.27684,70.04905],[19.27655,70.04784],[19.28122,70.04424],[19.28143,70.04169],[19.27054,70.03759],[19.26964,70.03544],[19.2706,70.03467],[19.27479,70.03351],[19.28432,70.03246],[19.29154,70.03083],[19.29169,70.0305],[19.28966,70.03026]],[[19.47231,70.04797],[19.47662,70.04866],[19.48439,70.05077],[19.48896,70.05318],[19.49265,70.05003],[19.49607,70.04899]],[[19.77421,70.05576],[19.78154,70.05553],[19.78595,70.05396],[19.79494,70.05309],[19.80159,70.05329],[19.80504,70.0542],[19.80853,70.05429]],[[19.80853,70.05429],[19.82086,70.05305],[19.82549,70.05303],[19.83874,70.0542],[19.85133,70.05414],[19.85236,70.05364],[19.8534,70.05414],[19.85584,70.0541],[19.85942,70.05372]],[[19.95275,70.05244],[19.94991,70.05247],[19.94242,70.05106],[19.93589,70.05191],[19.92456,70.05141],[19.91492,70.05003],[19.9112,70.0488],[19.90279,70.0478],[19.89413,70.04726],[19.8868,70.04726],[19.883,70.04675],[19.87584,70.04939],[19.86836,70.05036],[19.86749,70.05149],[19.86334,70.05274]],[[19.98607,70.05708],[19.96608,70.05214],[19.95275,70.05244]],[[19.7621,70.05614],[19.77421,70.05576]]]}}]}