{"type":"FeatureCollection","features":[{"type":"Feature","properties":{},"geometry":{"type":"MultiLineString","coordinates":[[[18.66861,70.06768],[18.67042,70.07038],[18.67623,70.07129],[18.67649,70.07251],[18.68003,70.07206],[18.68238,70.0723]],[[18.81046,70.08607],[18.81402,70.08242],[18.81578,70.08177]],[[18.84406,70.08535],[18.8428,70.08388],[18.84348,70.08285],[18.84107,70.08018],[18.83954,70.07904],[18.83791,70.07868],[18.83668,70.07682],[18.83463,70.07626]],[[18.99843,70.12688],[19.00197,70.12314]],[[18.95147,70.12793],[18.95214,70.12817],[18.95302,70.12789]],[[18.95642,70.12846],[18.9589,70.12776]],[[19.00081,70.17134],[18.99961,70.17177]],[[18.89044,70.18366],[18.88759,70.18425],[18.88656,70.18556],[18.88824,70.18651],[18.89006,70.18551],[18.89044,70.18366]],[[18.62296,70.05434],[18.62185,70.05436],[18.62029,70.05545],[18.62177,70.0563],[18.62323,70.05603],[18.62296,70.05434]],[[18.66913,70.06114],[18.67109,70.06221],[18.66836,70.06545],[18.66861,70.06768]],[[18.66127,70.05544],[18.66231,70.05706],[18.66157,70.05781],[18.66342,70.05866],[18.66389,70.05979],[18.66665,70.06105],[18.66913,70.06114]],[[18.79818,70.06157],[18.80098,70.05885],[18.80102,70.05722],[18.80018,70.05643],[18.79647,70.05591],[18.79663,70.05494]],[[18.79253,70.06923],[18.79094,70.06398],[18.79398,70.0626],[18.79713,70.06261],[18.79818,70.06157]],[[18.81357,70.05533],[18.81404,70.05873],[18.81626,70.06179],[18.81556,70.0634],[18.81645,70.06603]],[[18.69903,70.07476],[18.69085,70.07532],[18.68566,70.07513],[18.68367,70.07443],[18.68423,70.07264],[18.68238,70.0723]],[[18.69903,70.07476],[18.70278,70.07504],[18.70935,70.07459],[18.71466,70.0754]],[[18.83463,70.07626],[18.83338,70.07598],[18.83222,70.07458],[18.83338,70.0731],[18.82997,70.07406],[18.82708,70.07405],[18.82365,70.07369],[18.81826,70.07186],[18.81563,70.07026],[18.81533,70.0694],[18.81645,70.06603]],[[18.70407,70.08831],[18.70157,70.08685],[18.7023,70.08594],[18.71145,70.0844],[18.717,70.08419],[18.71916,70.08364],[18.71798,70.07866],[18.71466,70.0754]],[[18.79687,70.08636],[18.79824,70.08354],[18.79733,70.07699],[18.79689,70.07568],[18.79505,70.07503],[18.7949,70.07145],[18.79253,70.06923]],[[18.83,70.08566],[18.82744,70.08331],[18.82743,70.08159],[18.82289,70.08079],[18.82213,70.0797],[18.81849,70.08041],[18.81578,70.08177]],[[18.97304,70.08253],[18.97413,70.08097],[18.97691,70.0814],[18.98318,70.07915],[18.9823,70.07731],[18.98393,70.07526],[18.98276,70.07474],[18.97829,70.07431],[18.97616,70.07296],[18.97216,70.07204],[18.96566,70.06945],[18.95873,70.06788],[18.95833,70.06689],[18.95169,70.06664],[18.95073,70.0663],[18.95109,70.06448],[18.94972,70.06138],[18.95042,70.05905],[18.94589,70.05733],[18.94474,70.05591],[18.94238,70.05473]],[[18.84406,70.08535],[18.84624,70.08608],[18.85059,70.08541],[18.85413,70.08596]],[[18.85413,70.08596],[18.8566,70.08661],[18.85798,70.08785],[18.86069,70.08873],[18.86792,70.09257]],[[18.94942,70.09175],[18.9506,70.0917],[18.95209,70.0904],[18.95266,70.0887],[18.95565,70.08878],[18.95678,70.08835],[18.95685,70.08653],[18.96144,70.08485],[18.9661,70.08422],[18.97211,70.08387],[18.97394,70.08591],[18.97067,70.0868],[18.9693,70.08788],[18.9712,70.08846],[18.97555,70.08833],[18.97747,70.08556],[18.97542,70.08539],[18.97522,70.08323],[18.97307,70.08288],[18.97304,70.08253]],[[18.97635,70.09199],[18.97242,70.09302],[18.97192,70.09357],[18.9757,70.09306],[18.97635,70.09199]],[[18.55616,70.10398],[18.55624,70.10443]],[[18.92049,70.08843],[18.92307,70.08818],[18.92615,70.08913],[18.92805,70.08913],[18.92725,70.09051],[18.92497,70.09092],[18.92549,70.09358],[18.92449,70.09483],[18.9224,70.09504],[18.92095,70.09668],[18.92164,70.09725],[18.9273,70.09545],[18.93091,70.09505],[18.93497,70.09606],[18.93643,70.09552],[18.93724,70.09301],[18.9388,70.09267],[18.94282,70.09274],[18.94766,70.09136],[18.94942,70.09175]],[[18.99117,70.09257],[18.98878,70.09015],[18.98975,70.08873],[18.99328,70.08719],[18.99858,70.08821],[19.0032,70.08521]],[[19.00131,70.08467],[18.99698,70.08454],[18.99555,70.08366],[18.99288,70.08329],[18.98466,70.08526],[18.97989,70.08883],[18.98108,70.08914],[18.98348,70.08845],[18.98472,70.08915],[18.97782,70.09226],[18.97777,70.09305],[18.97885,70.09304],[18.98072,70.09185],[18.98185,70.09193],[18.98321,70.09267],[18.98305,70.09478],[18.9843,70.09594]],[[18.84725,70.09918],[18.84643,70.09807],[18.84823,70.09368],[18.84556,70.09106],[18.83,70.08566]],[[18.95034,70.0966],[18.94951,70.097],[18.95043,70.09707]],[[18.9748,70.09471],[18.97233,70.09467],[18.97098,70.09544],[18.9719,70.09581],[18.97154,70.09707],[18.97323,70.09737],[18.97474,70.09733],[18.97612,70.09622],[18.97603,70.09569],[18.97462,70.0956],[18.9748,70.09471]],[[18.55624,70.10443],[18.56306,70.10598],[18.56564,70.1059],[18.56198,70.10514],[18.56065,70.10417],[18.55879,70.10384],[18.55616,70.10398]],[[18.95043,70.09707],[18.95431,70.09663],[18.95589,70.09782],[18.96337,70.09765],[18.97022,70.09501],[18.97195,70.09182],[18.96769,70.09199],[18.96377,70.09122],[18.95915,70.09202],[18.95721,70.09421],[18.95505,70.09463],[18.95034,70.0966]],[[18.5035,70.10749],[18.50907,70.10732],[18.51335,70.10654],[18.51845,70.1063],[18.52041,70.10497],[18.51799,70.10284],[18.51119,70.10088],[18.50467,70.09966],[18.49909,70.0975],[18.49778,70.09792],[18.49699,70.09949],[18.49528,70.09964],[18.4937,70.09888],[18.49096,70.10066],[18.48987,70.09836],[18.48867,70.09727],[18.48777,70.09723],[18.48915,70.10054],[18.48593,70.09981],[18.48422,70.10051],[18.48496,70.10322],[18.48721,70.10454],[18.48839,70.10459],[18.4898,70.1034],[18.49204,70.10294],[18.49347,70.10414],[18.49651,70.10483],[18.50161,70.10523],[18.50003,70.10595],[18.50205,70.10735],[18.5035,70.10749]],[[19.00435,70.0963],[18.99564,70.095],[18.99586,70.09384],[18.99356,70.0937],[18.99117,70.09257]],[[18.86792,70.09257],[18.86878,70.09399],[18.86777,70.09636],[18.87751,70.09965],[18.88017,70.1015]],[[18.85099,70.10341],[18.84725,70.09918]],[[18.5521,70.11012],[18.55518,70.10987],[18.54685,70.10903],[18.54433,70.10934],[18.5445,70.10984],[18.54701,70.11056],[18.55573,70.11096],[18.5521,70.11012]],[[18.91226,70.10438],[18.9134,70.1005],[18.90981,70.09567],[18.9095,70.09178],[18.91252,70.09015],[18.91629,70.08961],[18.92049,70.08843]],[[18.9843,70.09594],[18.98596,70.09658],[18.9794,70.09838],[18.97809,70.09841],[18.97703,70.09751],[18.97405,70.09852],[18.97428,70.09943],[18.97565,70.09953],[18.97661,70.09914],[18.97601,70.10005],[18.97789,70.09951],[18.98028,70.0995],[18.98275,70.09982],[18.98315,70.10048],[18.97157,70.10436]],[[18.89089,70.10845],[18.8925,70.10759],[18.8943,70.10732]],[[18.88017,70.1015],[18.87957,70.10319],[18.88378,70.10477],[18.88194,70.10704],[18.88385,70.10841],[18.88591,70.10917],[18.89089,70.10845]],[[18.84901,70.11084],[18.84995,70.11034],[18.85281,70.11026],[18.85571,70.10896],[18.85504,70.1073],[18.85099,70.10341]],[[18.84819,70.11357],[18.84788,70.11146],[18.84901,70.11084]],[[18.8943,70.10732],[18.90035,70.10929],[18.90315,70.11257],[18.9053,70.11285],[18.90764,70.11487],[18.90915,70.11483],[18.91052,70.11424],[18.91211,70.1121],[18.91085,70.11041],[18.91339,70.10676],[18.91226,70.10438]],[[18.70407,70.08831],[18.7056,70.08892],[18.71352,70.08948],[18.71684,70.09091],[18.71881,70.09263],[18.70804,70.09868],[18.70266,70.10101],[18.70194,70.10237],[18.70269,70.10374],[18.69789,70.10809],[18.69692,70.10988],[18.6991,70.11091],[18.69969,70.11335],[18.70575,70.11631],[18.7077,70.11796],[18.71213,70.11974],[18.72528,70.12042],[18.72908,70.12022],[18.73397,70.11774],[18.73279,70.11727],[18.73323,70.11676],[18.7379,70.11535],[18.74535,70.11383],[18.75242,70.11162],[18.75694,70.11167],[18.75969,70.11125],[18.76141,70.11059],[18.76384,70.10839],[18.76732,70.10699],[18.77385,70.1058],[18.77784,70.10553],[18.78071,70.10634],[18.78139,70.10827],[18.78238,70.1083],[18.7855,70.1053],[18.78615,70.10332],[18.78908,70.1015],[18.78861,70.10079],[18.78619,70.10072],[18.78531,70.09841],[18.79002,70.09626],[18.78943,70.09461],[18.79187,70.09263],[18.79229,70.09108],[18.79733,70.09015],[18.79687,70.08636]],[[18.77019,70.12302],[18.7704,70.12254],[18.77168,70.12273],[18.77301,70.1221],[18.77334,70.12126],[18.77053,70.12108],[18.77021,70.12021],[18.76717,70.11998],[18.76591,70.12107],[18.76793,70.12133],[18.76689,70.12246],[18.76791,70.12309],[18.76411,70.12429],[18.76353,70.12511],[18.76501,70.12498],[18.77019,70.12302]],[[18.97157,70.10436],[18.96505,70.10458],[18.96453,70.10641],[18.96158,70.10844],[18.96223,70.10866],[18.96764,70.10769],[18.96841,70.10784],[18.9678,70.10906],[18.96471,70.11104],[18.96467,70.11233],[18.9616,70.11322],[18.95793,70.11534],[18.95969,70.11586],[18.95953,70.11641],[18.95687,70.11717],[18.95993,70.11794],[18.9612,70.12035],[18.95961,70.12133],[18.956,70.12207],[18.95608,70.12248],[18.95895,70.12264],[18.95582,70.12532]],[[18.64782,70.13319],[18.64853,70.13202],[18.64589,70.13246],[18.64665,70.13112],[18.64448,70.13106],[18.64425,70.13281],[18.64697,70.13363],[18.64782,70.13319]],[[18.79327,70.13135],[18.79977,70.1268],[18.80356,70.12221],[18.80329,70.11982],[18.80047,70.11827],[18.79879,70.11797],[18.79872,70.11648],[18.79994,70.11574],[18.80226,70.11595],[18.80416,70.11566],[18.80838,70.11353],[18.80779,70.11255],[18.80453,70.1116],[18.80439,70.11024],[18.80338,70.10975],[18.80221,70.10976],[18.79915,70.111],[18.79817,70.11089],[18.79702,70.11013],[18.79733,70.10814],[18.8053,70.105],[18.80693,70.10549],[18.81062,70.10414],[18.81256,70.10219],[18.81627,70.1007],[18.81853,70.09793],[18.81478,70.09676],[18.81786,70.09357],[18.81547,70.09224],[18.81342,70.092],[18.81195,70.09256],[18.81053,70.0916],[18.8139,70.09019],[18.81463,70.08931],[18.81362,70.08869],[18.81564,70.0874],[18.81439,70.08708],[18.81089,70.08727],[18.81046,70.08607]],[[18.84728,70.1302],[18.84533,70.12904],[18.84515,70.12756],[18.84682,70.12372],[18.84942,70.12099],[18.84556,70.11784],[18.84706,70.11536],[18.84656,70.11457],[18.84819,70.11357]],[[18.95147,70.12793],[18.95301,70.12581],[18.95582,70.12532]],[[18.95302,70.12789],[18.95612,70.12686]],[[18.9589,70.12776],[18.95984,70.12691],[18.95612,70.12686]],[[18.95642,70.12846],[18.95401,70.12945],[18.95664,70.12961]],[[18.8251,70.1323],[18.83416,70.13171],[18.84069,70.13232],[18.84464,70.13195],[18.84768,70.13152],[18.84728,70.1302]],[[18.95664,70.12961],[18.97168,70.12925],[18.97503,70.13008],[18.97905,70.13029],[18.98687,70.12895],[18.99679,70.12785],[18.99843,70.12688]],[[18.79327,70.13135],[18.79387,70.1335],[18.80326,70.13443],[18.80818,70.13442],[18.81814,70.13362],[18.8251,70.1323]],[[18.70678,70.14219],[18.70561,70.14134],[18.7021,70.14165],[18.70122,70.14133],[18.69907,70.14224],[18.70017,70.14848],[18.70246,70.14832],[18.70472,70.14693],[18.70636,70.14665],[18.70758,70.14356],[18.70678,70.14219]],[[18.71078,70.14363],[18.71241,70.14301],[18.7128,70.14208],[18.71111,70.14165],[18.70984,70.14193],[18.70914,70.14276],[18.71006,70.14478],[18.71115,70.14419],[18.71078,70.14363]],[[18.88439,70.14494],[18.88535,70.14374],[18.88346,70.14287],[18.88468,70.14213],[18.88245,70.1419],[18.87746,70.14292],[18.86615,70.14188],[18.86096,70.143],[18.85834,70.14596],[18.8551,70.14662],[18.83963,70.1486],[18.83111,70.14875],[18.8296,70.1484],[18.82925,70.14756],[18.82791,70.14752]],[[18.65847,70.14976],[18.65657,70.14697],[18.65951,70.14548],[18.65988,70.14323],[18.65794,70.14293],[18.65692,70.14148],[18.65455,70.1405],[18.65212,70.14085],[18.6505,70.1401],[18.64814,70.14075],[18.64689,70.14165],[18.64822,70.14513],[18.65089,70.14539],[18.6487,70.14748],[18.64994,70.1488],[18.65174,70.14875],[18.65204,70.14983],[18.65519,70.14992],[18.65563,70.15487],[18.65707,70.15415],[18.65847,70.14976]],[[18.71497,70.15204],[18.71562,70.14759],[18.7146,70.14677],[18.71242,70.14818],[18.71228,70.15135],[18.71088,70.15161],[18.71001,70.15269],[18.71126,70.15279],[18.71375,70.15171],[18.71384,70.15217],[18.71059,70.15369],[18.71048,70.15511],[18.715,70.15282],[18.71497,70.15204]],[[18.73505,70.15212],[18.73222,70.15247],[18.73187,70.15324],[18.73436,70.15511],[18.73572,70.15405],[18.73505,70.15212]],[[18.7804,70.15196],[18.77852,70.15155],[18.77598,70.15292],[18.77548,70.15442],[18.77871,70.15399],[18.7804,70.15196]],[[18.65236,70.16419],[18.64969,70.16367],[18.64889,70.16289],[18.64796,70.16302],[18.64761,70.16408],[18.64571,70.1633],[18.64491,70.16341],[18.64579,70.16473],[18.64874,70.16497],[18.64966,70.16565],[18.65287,70.16538],[18.65236,70.16419]],[[18.9588,70.16055],[18.95605,70.16031],[18.95566,70.16268],[18.96021,70.16124],[18.96035,70.16076],[18.9588,70.16055]],[[19.00258,70.15663],[18.99892,70.15652],[18.99433,70.15774],[18.98908,70.15778],[18.98839,70.15658],[18.98601,70.15545],[18.98395,70.1551],[18.98169,70.15541],[18.98015,70.15511],[18.97822,70.15297],[18.98069,70.15094],[18.98502,70.15004],[18.98905,70.15088],[18.99264,70.15084],[18.99946,70.14909],[19.00668,70.14812]],[[18.9628,70.16174],[18.96034,70.16371],[18.96069,70.16421],[18.9585,70.16493],[18.95786,70.16684],[18.96354,70.1656]],[[18.96381,70.16701],[18.965,70.16612],[18.96354,70.1656]],[[18.82432,70.1756],[18.81843,70.17479],[18.81178,70.17301],[18.81022,70.16863],[18.80787,70.16802],[18.80584,70.16842],[18.80407,70.16822],[18.80244,70.16575],[18.79926,70.16558],[18.79349,70.16729],[18.79124,70.16655],[18.79155,70.16472],[18.78645,70.16413],[18.78427,70.16471],[18.78315,70.16584],[18.78063,70.16608],[18.77957,70.16584],[18.77898,70.16293],[18.77722,70.16172],[18.77721,70.1607],[18.78082,70.15643],[18.78145,70.15434],[18.7806,70.15342],[18.78241,70.15172],[18.78372,70.15154],[18.78417,70.14998],[18.7821,70.1501],[18.77662,70.1481],[18.77658,70.14704],[18.778,70.14571],[18.78078,70.14675],[18.78209,70.14686],[18.78318,70.14633],[18.7833,70.14829],[18.78538,70.14877],[18.7898,70.14642],[18.79168,70.14629],[18.79298,70.14666],[18.79134,70.14756],[18.79285,70.14879],[18.80124,70.14911],[18.8046,70.14846],[18.80894,70.14827],[18.81205,70.14894],[18.8167,70.14919],[18.82791,70.14752]],[[18.88409,70.17432],[18.8851,70.17315],[18.88763,70.17264],[18.88944,70.17386],[18.89042,70.17358],[18.89075,70.17065],[18.8872,70.17083],[18.88918,70.16863],[18.88998,70.16609],[18.88846,70.16472],[18.88003,70.16205],[18.87903,70.16133],[18.87952,70.16051],[18.88041,70.16022],[18.88481,70.16128],[18.88618,70.16122],[18.88652,70.1624],[18.88808,70.16254],[18.89425,70.15841],[18.89229,70.15756],[18.88632,70.16072],[18.88205,70.15896],[18.88361,70.15668],[18.8847,70.15629],[18.88887,70.15633],[18.8882,70.15787],[18.88897,70.15819],[18.8916,70.15731],[18.89113,70.15619],[18.89261,70.15474],[18.89077,70.15354],[18.89423,70.15119],[18.89172,70.14888],[18.89219,70.14792],[18.89094,70.14781],[18.89033,70.14872],[18.88878,70.14878],[18.8889,70.14596],[18.88598,70.14559]],[[18.94958,70.17288],[18.95147,70.17214],[18.95665,70.17166],[18.95914,70.17054],[18.95878,70.16996],[18.96224,70.16732],[18.96381,70.16701]],[[18.9907,70.17197],[18.99168,70.17015],[18.98875,70.17018],[18.99065,70.16946],[18.99039,70.16779],[18.98693,70.16748],[18.98473,70.1645],[18.98249,70.16324],[18.97709,70.16183],[18.96549,70.16045],[18.9628,70.16174]],[[19.00149,70.16831],[18.99883,70.16683],[18.99806,70.16865],[18.99439,70.17001],[18.99593,70.17186]],[[18.99593,70.17186],[18.99838,70.17198],[18.99529,70.17324],[18.99668,70.17505],[18.99943,70.17478],[19.00047,70.17374]],[[19.00047,70.17374],[18.99961,70.17177]],[[18.99673,70.17597],[18.99517,70.1762],[18.99515,70.17726],[18.9984,70.1777],[18.99902,70.17679],[18.99673,70.17597]],[[18.89895,70.18489],[18.89348,70.18597],[18.89336,70.18642],[18.89822,70.18614],[18.89895,70.18489]],[[18.94958,70.17288],[18.94985,70.17354],[18.95229,70.17402],[18.94958,70.1762],[18.94725,70.17958],[18.94776,70.1801],[18.94884,70.1805],[18.95382,70.18074],[18.95961,70.17965],[18.96138,70.17883],[18.96372,70.1802],[18.96167,70.18087],[18.95525,70.18098],[18.94909,70.18198],[18.94925,70.18343],[18.95084,70.18362],[18.95251,70.18323],[18.95297,70.18368],[18.94999,70.18537],[18.94937,70.18666],[18.94761,70.18678],[18.94781,70.1876],[18.94898,70.1878],[18.95245,70.18687],[18.9569,70.18669],[18.95988,70.18793],[18.96408,70.18532],[18.96724,70.18486]],[[18.96783,70.18794],[18.96956,70.18408],[18.96724,70.18486]],[[18.96783,70.18794],[18.96692,70.18837],[18.96805,70.18907]],[[18.96816,70.18967],[18.97056,70.18935],[18.96805,70.18907]],[[18.88842,70.1917],[18.89072,70.19142],[18.89174,70.1902],[18.89595,70.19118],[18.89927,70.19082],[18.9007,70.19003],[18.90056,70.18871],[18.89771,70.18762],[18.89432,70.18743],[18.89208,70.18681],[18.88998,70.18689],[18.89068,70.18591],[18.89242,70.1858],[18.89425,70.18511],[18.8925,70.18413],[18.89396,70.18319],[18.89391,70.18181],[18.89711,70.1806],[18.89844,70.17886],[18.89711,70.17821],[18.89387,70.17901],[18.89438,70.17789],[18.89169,70.17774],[18.89249,70.17617],[18.88438,70.17543],[18.88409,70.17432]],[[18.82432,70.1756],[18.82506,70.17669],[18.82292,70.17951],[18.8238,70.18399],[18.82589,70.18433],[18.82676,70.18498],[18.82615,70.18596],[18.8289,70.18739],[18.8273,70.18872],[18.82863,70.18998],[18.83247,70.19208],[18.83637,70.19305]],[[18.83637,70.19305],[18.83977,70.19384],[18.84752,70.19421],[18.85059,70.19374],[18.85172,70.19282],[18.8545,70.19218],[18.85922,70.19218],[18.8599,70.19151],[18.86335,70.19079],[18.8652,70.19097],[18.86759,70.19205],[18.87001,70.19151],[18.87265,70.19368],[18.87663,70.19398],[18.87712,70.19226],[18.87336,70.19169],[18.87128,70.18825],[18.87166,70.18754],[18.87295,70.18731],[18.88146,70.18807],[18.8818,70.18925],[18.88531,70.18928],[18.88629,70.19005]],[[18.89305,70.19375],[18.89899,70.19349],[18.89968,70.19299],[18.89794,70.19148],[18.89357,70.19177],[18.89111,70.19265],[18.89117,70.19337],[18.89305,70.19375]],[[18.96878,70.19287],[18.97222,70.1908],[18.97414,70.19064],[18.97318,70.19185],[18.97632,70.19275],[18.97888,70.19236],[18.97799,70.19153],[18.97599,70.19142],[18.97759,70.19099],[18.98142,70.19149],[18.98071,70.19284],[18.98495,70.19252],[18.98377,70.189],[18.98804,70.18736],[18.98793,70.18584],[18.99094,70.183],[18.99343,70.1832],[18.99431,70.18251],[18.99413,70.18173],[18.99173,70.1803],[18.99221,70.17922],[18.99115,70.17796],[18.98938,70.17758],[18.99098,70.176],[18.98866,70.17409],[18.9907,70.17197]],[[18.96816,70.18967],[18.96697,70.18992],[18.96456,70.19279],[18.9654,70.19329],[18.96878,70.19287]],[[18.95437,70.1936],[18.95641,70.19343],[18.95719,70.1927],[18.95171,70.19314],[18.95273,70.19367],[18.95437,70.1936]],[[18.89252,70.19576],[18.88876,70.19599],[18.88788,70.1969],[18.8906,70.19729],[18.89253,70.19645],[18.89252,70.19576]],[[18.62875,70.20536],[18.62557,70.20496],[18.62581,70.2062],[18.62836,70.20638],[18.62885,70.20617],[18.62748,70.20574],[18.62875,70.20536]],[[18.88822,70.20024],[18.88747,70.1984],[18.8851,70.19802],[18.87809,70.19887],[18.87704,70.19854],[18.87469,70.19876],[18.87291,70.19973],[18.8734,70.20054],[18.8765,70.20135],[18.87791,70.19963],[18.87997,70.20063],[18.88397,70.20024],[18.88671,70.20128],[18.88822,70.20024]],[[18.86758,70.20227],[18.86993,70.20253],[18.87288,70.20206],[18.87328,70.20146],[18.87081,70.20049],[18.86622,70.2008],[18.8656,70.20116],[18.86793,70.20188],[18.86559,70.20205],[18.86562,70.20263],[18.86735,70.2027],[18.86758,70.20227]],[[18.98468,70.19971],[18.98506,70.19876],[18.98288,70.19845],[18.98215,70.19962],[18.97899,70.19926],[18.97748,70.19991],[18.9782,70.20052],[18.98225,70.20048],[18.98425,70.20031],[18.98468,70.19971]],[[18.99448,70.20844],[18.9925,70.20868],[18.99296,70.20983],[18.99537,70.20959],[18.99448,70.20844]],[[19.00105,70.23169],[18.99899,70.23156],[18.99666,70.23224],[18.99724,70.23326],[18.99931,70.23381],[19.00107,70.23263]],[[18.54196,70.02088],[18.54103,70.02104],[18.5421,70.02168]],[[18.8396,70.03838],[18.83727,70.03836],[18.83599,70.0393],[18.83712,70.03981],[18.83953,70.03972],[18.8396,70.03838]],[[18.98214,70.03741],[18.98421,70.03813]],[[18.8206,70.04094],[18.82269,70.04173],[18.82822,70.04184],[18.83367,70.04066]],[[18.98421,70.03813],[18.98954,70.04028],[18.99349,70.04057]],[[18.80762,69.99933],[18.80856,70.00003]],[[18.73604,70.00157],[18.73765,70.00075],[18.73957,70.00115],[18.73961,70.0015]],[[18.73961,70.0015],[18.73894,70.00303],[18.74117,70.00576],[18.74114,70.00998]],[[18.72607,70.00178],[18.72669,70.00216],[18.72918,70.00211],[18.73131,70.00266],[18.73483,70.00242],[18.73604,70.00157]],[[18.72662,70.00084],[18.72607,70.00178]],[[18.66536,70.00304],[18.66769,70.00359],[18.66463,70.0047],[18.6606,70.00498],[18.65865,70.0067],[18.6589,70.0085],[18.66585,70.01007],[18.66885,70.01024],[18.67135,70.00994]],[[18.67016,70.00318],[18.66922,70.00296]],[[18.67016,70.00318],[18.67354,70.00332],[18.67727,70.0028]],[[18.80856,70.00003],[18.8105,70.00297]],[[18.67135,70.00994],[18.67477,70.00943],[18.68071,70.00923]],[[18.67167,70.01171],[18.67658,70.01152],[18.68068,70.01024],[18.68071,70.00923]],[[18.67167,70.01171],[18.66671,70.0117],[18.66578,70.0121],[18.66671,70.01289],[18.67205,70.01391]],[[18.54145,70.01786],[18.54012,70.01808],[18.53964,70.01877],[18.54172,70.01942]],[[18.54172,70.01942],[18.54509,70.01962],[18.54537,70.01849],[18.54354,70.01778],[18.54145,70.01786]],[[18.5427,70.02519],[18.54435,70.02468],[18.54953,70.02466],[18.54472,70.02327],[18.54411,70.02234],[18.54556,70.02215],[18.5453,70.02182],[18.5421,70.02168]],[[18.67205,70.01391],[18.67589,70.01433],[18.68059,70.01568],[18.68074,70.01622],[18.67928,70.01633],[18.67886,70.0168],[18.67995,70.01893],[18.67897,70.01954],[18.67919,70.0214],[18.68237,70.02287]],[[18.53327,70.02688],[18.53442,70.02641],[18.5314,70.02449],[18.53069,70.02549],[18.53327,70.02688]],[[18.53327,70.02688],[18.53723,70.02734],[18.53509,70.02573],[18.5344,70.02336],[18.5374,70.02435],[18.53991,70.02698],[18.54165,70.02679],[18.54114,70.02558],[18.5427,70.02519]],[[18.57986,70.02526],[18.58387,70.02478],[18.58416,70.02418],[18.57879,70.02254],[18.57659,70.02238],[18.57427,70.02366],[18.57932,70.02697],[18.58073,70.02652],[18.57929,70.02576],[18.57986,70.02526]],[[18.65851,70.02421],[18.65785,70.02391],[18.65579,70.02421],[18.654,70.02389],[18.6529,70.02465],[18.65234,70.02761],[18.65584,70.02705],[18.65785,70.02612],[18.65851,70.02421]],[[18.66849,70.0289],[18.67075,70.02672],[18.67428,70.02654]],[[18.94748,70.02179],[18.94485,70.02189],[18.94677,70.02323],[18.9444,70.02356],[18.94367,70.02466],[18.94361,70.02615],[18.94559,70.02689],[18.94821,70.02629],[18.94772,70.02466],[18.9497,70.02362],[18.94919,70.0223],[18.94748,70.02179]],[[18.9614,70.02095],[18.95789,70.01972],[18.95577,70.01815],[18.95179,70.01882],[18.94296,70.01639],[18.94058,70.0162],[18.93927,70.01645],[18.93943,70.01745],[18.94238,70.01884],[18.94079,70.02064],[18.94303,70.02411],[18.94089,70.02596],[18.93726,70.02772]],[[18.70431,70.03327],[18.70851,70.03237],[18.70941,70.03102],[18.71082,70.03047],[18.71642,70.03009],[18.71661,70.02927],[18.71337,70.02851],[18.70454,70.0276],[18.6945,70.02538],[18.68519,70.02431],[18.68331,70.02375],[18.68237,70.02287]],[[18.67428,70.02654],[18.68113,70.02699],[18.68548,70.02832],[18.68853,70.02844],[18.69146,70.02798],[18.69137,70.03015],[18.69686,70.03173],[18.69947,70.03198],[18.7017,70.03314],[18.70431,70.03327]],[[18.8105,70.00297],[18.81238,70.00464],[18.80981,70.0079],[18.81165,70.00878],[18.81243,70.01086],[18.81436,70.01176],[18.81609,70.01172],[18.81781,70.0102],[18.82156,70.01023],[18.82297,70.01052],[18.82441,70.01278],[18.83685,70.01227],[18.84301,70.01368],[18.84428,70.01627],[18.84881,70.01635],[18.84922,70.01728],[18.84531,70.01812],[18.83847,70.02297],[18.83826,70.02366],[18.83955,70.02437],[18.8486,70.02516],[18.85298,70.02592],[18.85688,70.02588],[18.86523,70.02688],[18.87216,70.02923],[18.87461,70.02964],[18.88907,70.03003],[18.89463,70.03055],[18.90291,70.03006],[18.90721,70.03024],[18.92297,70.02922],[18.93049,70.02943],[18.93726,70.02772]],[[18.74114,70.00998],[18.74264,70.0119],[18.74519,70.01235],[18.74874,70.01203],[18.75243,70.01063],[18.75369,70.0108],[18.75542,70.01267],[18.75274,70.01616],[18.75944,70.01748],[18.75683,70.01941],[18.76002,70.02181],[18.76069,70.02421],[18.76566,70.02582],[18.76558,70.02728],[18.76954,70.02756],[18.77153,70.02689],[18.77328,70.02711],[18.77371,70.02498],[18.77094,70.02434],[18.77071,70.02366],[18.7758,70.02232],[18.77743,70.02269],[18.78127,70.02251],[18.78029,70.02485],[18.78672,70.02655],[18.78774,70.02817],[18.79143,70.02832],[18.79683,70.03163],[18.80047,70.03209],[18.80478,70.03182],[18.80519,70.03254],[18.80683,70.03296]],[[18.66849,70.0289],[18.65998,70.03149],[18.65847,70.03144],[18.65796,70.03084],[18.65598,70.03056],[18.65399,70.03105],[18.6517,70.03354],[18.65293,70.03461],[18.65135,70.03676]],[[18.83119,70.03627],[18.82904,70.0365],[18.82955,70.03703],[18.83139,70.03755],[18.83357,70.03747],[18.83346,70.03697],[18.83119,70.03627]],[[18.6418,70.03518],[18.64458,70.03326],[18.64455,70.032],[18.64414,70.03076],[18.64064,70.02968],[18.63934,70.03069],[18.64085,70.03164],[18.63849,70.03278],[18.63832,70.03462],[18.63454,70.03489],[18.6326,70.0346],[18.6317,70.03616],[18.63224,70.03912],[18.63419,70.04213],[18.63632,70.04256],[18.63966,70.04173],[18.64035,70.04026],[18.63887,70.03913],[18.6418,70.03518]],[[18.63081,70.04154],[18.62816,70.04105],[18.62735,70.04134],[18.62893,70.04357],[18.63055,70.04411],[18.63182,70.04386],[18.63234,70.04295],[18.63081,70.04154]],[[18.52535,70.04703],[18.52566,70.04524],[18.52721,70.04409],[18.52481,70.04278],[18.5268,70.04148],[18.5273,70.04024],[18.52432,70.03889],[18.5202,70.03962],[18.5175,70.03939],[18.51645,70.03838],[18.51686,70.03732],[18.51378,70.03745],[18.51395,70.03683],[18.51574,70.03652],[18.51399,70.0356],[18.52018,70.03518],[18.51762,70.03451],[18.51905,70.03408],[18.52078,70.03422],[18.5206,70.03282],[18.52562,70.03145],[18.52505,70.03122],[18.51842,70.03177],[18.51931,70.03008],[18.52603,70.02955],[18.52456,70.02873],[18.52485,70.02786],[18.52076,70.02733],[18.51999,70.02645],[18.52593,70.02553],[18.5309,70.02674],[18.53327,70.02688]],[[18.56976,70.04615],[18.56797,70.04537],[18.56758,70.04619]],[[18.57058,70.04613],[18.57087,70.04516],[18.56935,70.04452],[18.5677,70.0446],[18.56714,70.04427],[18.57028,70.04296],[18.56959,70.04085],[18.57364,70.04042],[18.57587,70.042],[18.58081,70.04179],[18.58077,70.04055],[18.57815,70.03786],[18.57693,70.03727],[18.57509,70.03752],[18.57509,70.03883],[18.57305,70.03911],[18.56803,70.03885],[18.56498,70.03823],[18.56265,70.03659],[18.56309,70.03528],[18.5623,70.03491],[18.56052,70.03506],[18.55943,70.03473],[18.56028,70.03326],[18.56357,70.03306],[18.56499,70.03258],[18.56402,70.03205],[18.56164,70.03277],[18.56047,70.0326],[18.5605,70.03123],[18.55924,70.03072],[18.55984,70.03032],[18.55635,70.02835],[18.55628,70.027],[18.55459,70.02567],[18.55239,70.02508],[18.55188,70.02329],[18.55294,70.02404],[18.55385,70.02393],[18.5528,70.02139],[18.55109,70.02157],[18.55074,70.0224],[18.54919,70.02185],[18.54741,70.02201],[18.54541,70.02083],[18.54196,70.02088]],[[18.65681,70.04438],[18.65663,70.04364],[18.65387,70.04348],[18.653,70.04232],[18.65461,70.04053],[18.65219,70.04024],[18.65072,70.03922],[18.65135,70.03676]],[[18.8206,70.04094],[18.81901,70.03903],[18.8193,70.0378],[18.8177,70.03703],[18.81269,70.03611],[18.81181,70.03364],[18.80683,70.03296]],[[18.83908,70.04055],[18.83577,70.03986],[18.83424,70.04004],[18.83367,70.04066]],[[18.98214,70.03741],[18.97603,70.03537],[18.97349,70.03369],[18.96836,70.02732],[18.96691,70.02338],[18.96522,70.02209],[18.9614,70.02095]],[[18.56976,70.04615],[18.57058,70.04613]],[[18.99349,70.04057],[18.99786,70.0404],[19.00316,70.03801]],[[18.52535,70.04703],[18.52592,70.0494],[18.5238,70.04986],[18.523,70.0508],[18.52528,70.05239],[18.53053,70.05281],[18.53366,70.05197],[18.53791,70.05217],[18.54499,70.05186],[18.54651,70.05209],[18.54749,70.05334]],[[18.54749,70.05334],[18.5513,70.053],[18.55451,70.05204],[18.55636,70.05269],[18.55719,70.051],[18.55957,70.05235],[18.55945,70.05057],[18.5622,70.05263],[18.5634,70.05261],[18.56262,70.04898],[18.56557,70.04878],[18.5681,70.05009],[18.56978,70.04966],[18.56758,70.04619]],[[18.63189,70.05223],[18.63562,70.05203],[18.63325,70.04856],[18.62994,70.04911],[18.62891,70.04999],[18.62964,70.05152],[18.63189,70.05223]],[[18.65681,70.04438],[18.65601,70.04547],[18.65254,70.04736],[18.6518,70.04932],[18.65576,70.05015],[18.65883,70.05148],[18.66127,70.05544]],[[18.83908,70.04055],[18.84472,70.04081],[18.84729,70.04243],[18.85261,70.04408],[18.85769,70.04325],[18.86399,70.04391],[18.86577,70.04327],[18.8673,70.04322],[18.86941,70.04408],[18.87784,70.04403],[18.88334,70.04528],[18.88677,70.04553],[18.89215,70.04509],[18.89442,70.04442],[18.89635,70.04312],[18.90026,70.04261],[18.9083,70.04454],[18.91491,70.04522],[18.92373,70.04708],[18.93766,70.05398],[18.94238,70.05473]],[[18.62058,70.05253],[18.61786,70.05214],[18.61917,70.05289],[18.61759,70.05362],[18.61789,70.05427],[18.61916,70.0548],[18.62199,70.05396],[18.62058,70.05253]],[[18.80824,70.05392],[18.81068,70.05398]],[[18.79663,70.05494],[18.79808,70.05455],[18.80376,70.05466],[18.80824,70.05392]],[[18.81357,70.05533],[18.81291,70.05449],[18.81068,70.05398]],[[18.50354,69.99965],[18.50216,70.00005],[18.50503,70.00051],[18.50742,70.00015],[18.50805,69.99961]],[[18.48083,70.003],[18.47753,70.00147],[18.47657,70.00146],[18.47656,70.00255],[18.47867,70.00305]],[[18.47867,70.00305],[18.48083,70.003]],[[18.51759,70.00408],[18.51624,70.00365],[18.50981,70.00303],[18.50377,70.0042],[18.51467,70.00438],[18.51759,70.00408]],[[18.72662,70.00084],[18.72879,69.9994]],[[18.53894,70.00311],[18.53611,70.00317],[18.53363,70.00407],[18.53458,70.00438],[18.53817,70.004],[18.53664,70.00503],[18.53935,70.00552]],[[18.53935,70.00552],[18.54027,70.00542],[18.54059,70.00467],[18.53894,70.00311]],[[18.67727,70.0028],[18.67903,70.00135],[18.67679,70.00028],[18.67929,69.99901]],[[18.66922,70.00296],[18.66547,70.00248],[18.66447,70.00284],[18.66536,70.00304]]]}}]}