{"type":"FeatureCollection","features":[{"type":"Feature","properties":{},"geometry":{"type":"MultiLineString","coordinates":[[[26.99912,70.47325],[27.00026,70.47487],[27.00424,70.47601],[27.00757,70.47618],[27.01228,70.47716]],[[27.01228,70.47716],[27.01403,70.47806],[27.01901,70.47913]],[[27.09094,70.46415],[27.08885,70.46362],[27.08609,70.46399],[27.08553,70.46545],[27.08406,70.46599],[27.08427,70.46697],[27.07358,70.47046],[27.07432,70.47084],[27.07962,70.47044],[27.08362,70.47348],[27.08308,70.4741],[27.07822,70.47515],[27.07586,70.47503],[27.07002,70.47703],[27.06278,70.47768],[27.05998,70.47883]],[[27.01901,70.47913],[27.02415,70.48007],[27.0278,70.48003],[27.03007,70.48045],[27.03052,70.48168],[27.02785,70.48303],[27.03287,70.48384],[27.03691,70.48335],[27.03911,70.48124],[27.04237,70.48081],[27.04516,70.4793],[27.04906,70.47938],[27.05126,70.48008],[27.05438,70.48044],[27.05866,70.47965],[27.05998,70.47883]],[[27.04339,70.48916],[27.04087,70.48886],[27.0385,70.48925],[27.03726,70.49102]],[[27.06761,70.48491],[27.07229,70.48339],[27.07688,70.4834],[27.07931,70.4842],[27.07988,70.48544],[27.08157,70.48625],[27.09208,70.48447],[27.09723,70.48258],[27.09894,70.4814],[27.1016,70.48106],[27.1028,70.48051],[27.10235,70.47553],[27.09999,70.47321],[27.09576,70.47144],[27.09629,70.47046],[27.0946,70.46923],[27.0966,70.46682],[27.09014,70.46519],[27.09036,70.46489]],[[27.06324,70.48928],[27.06341,70.48917]],[[27.05714,70.48969],[27.06104,70.4897],[27.06324,70.48928]],[[27.03726,70.49102],[27.03746,70.49261],[27.03606,70.49388],[27.03568,70.49608],[27.03135,70.49751],[27.02269,70.49934],[27.02311,70.50061],[27.02453,70.50137],[27.02893,70.50125],[27.03184,70.50318],[27.03217,70.50494],[27.03092,70.50636]],[[27.01828,70.50849],[27.02736,70.50811],[27.03092,70.50636]],[[26.99655,70.50948],[27.01316,70.50921],[27.01828,70.50849]],[[27.01141,70.55507],[26.99459,70.55242]],[[27.01141,70.55507],[27.014,70.55563],[27.01573,70.5572]],[[27.00689,70.5615],[27.00827,70.56028],[27.0142,70.55916],[27.0158,70.55848],[27.01573,70.5572]],[[27.00689,70.5615],[27.00793,70.56545],[27.0098,70.56711],[27.00751,70.5699],[27.00383,70.57166],[26.99744,70.5724]],[[27.24149,70.58578],[27.24293,70.58534],[27.24505,70.58537]],[[27.24505,70.58537],[27.24553,70.58578],[27.24811,70.58604],[27.25382,70.58519],[27.25879,70.58537],[27.26672,70.58652],[27.27076,70.58619]],[[27.27773,70.58656],[27.27279,70.58587],[27.27076,70.58619]],[[27.27773,70.58656],[27.2803,70.58767],[27.2805,70.58828]],[[27.2805,70.58828],[27.28027,70.58867],[27.27216,70.59007],[27.26913,70.59018],[27.26444,70.58942],[27.25382,70.59023],[27.2517,70.59096],[27.25154,70.59208]],[[27.24149,70.58578],[27.24078,70.58611],[27.24184,70.58659],[27.23736,70.58735],[27.22945,70.58949],[27.22228,70.59209],[27.21701,70.59495],[27.21468,70.59543]],[[27.20893,70.5969],[27.21169,70.59651],[27.21468,70.59543]],[[27.12329,70.60376],[27.13469,70.60259],[27.16652,70.60071],[27.17215,70.59979],[27.17753,70.59984],[27.18474,70.60109],[27.19173,70.60028],[27.19534,70.59911],[27.19987,70.59867],[27.20303,70.59748],[27.20893,70.5969]],[[27.24148,70.60254],[27.24078,70.6008],[27.24232,70.59851],[27.24936,70.59548],[27.25154,70.59208]],[[27.21767,70.61113],[27.22345,70.61023],[27.23098,70.60823]],[[27.24148,70.60254],[27.2361,70.60366],[27.23583,70.60659],[27.23098,70.60823]],[[26.99482,70.6019],[27.00678,70.60589],[27.00553,70.60701],[27.00732,70.60806],[27.00949,70.60829],[27.01894,70.6067],[27.02476,70.60708],[27.02993,70.60828],[27.03419,70.60868],[27.03593,70.60969],[27.03557,70.61092],[27.03672,70.61157],[27.04119,70.61197],[27.04143,70.61289],[27.04028,70.61379],[27.03279,70.61473],[27.02706,70.61644],[27.02539,70.61738],[27.02588,70.61832],[27.03485,70.62077],[27.04236,70.6215],[27.04706,70.62236],[27.05537,70.62161],[27.0548,70.62011],[27.0558,70.61972],[27.06396,70.61971],[27.06787,70.62022],[27.07303,70.61971],[27.07441,70.61891],[27.074,70.61823],[27.06929,70.61739],[27.06359,70.61524],[27.05415,70.61363],[27.05381,70.61263],[27.0566,70.61128],[27.06017,70.61103],[27.06495,70.61224],[27.06747,70.6137],[27.07395,70.61455],[27.07729,70.61374],[27.0787,70.61249],[27.08076,70.61188]],[[27.2117,70.61253],[27.21767,70.61113]],[[27.09344,70.62125],[27.08845,70.62138],[27.09294,70.62224],[27.09457,70.62163],[27.09344,70.62125]],[[27.09726,70.63899],[27.09701,70.63909]],[[27.09726,70.63899],[27.10149,70.63639],[27.1062,70.63546]],[[27.63748,70.6206],[27.63874,70.62087]],[[27.69308,70.62878],[27.69173,70.62862]],[[27.1112,70.66856],[27.11437,70.67074],[27.11729,70.67179]],[[27.17278,70.66823],[27.17722,70.6677],[27.18373,70.6659],[27.19038,70.665],[27.20361,70.66459],[27.20468,70.66486]],[[27.12789,70.67147],[27.12992,70.67042],[27.14464,70.66631]],[[27.11729,70.67179],[27.11938,70.67297],[27.12461,70.6732],[27.12789,70.67147]],[[27.14323,70.67184],[27.15019,70.66843],[27.15988,70.66583],[27.16527,70.66493]],[[27.20537,70.66545],[27.20498,70.66729],[27.20367,70.66806],[27.19207,70.6699],[27.18219,70.67216]],[[27.14323,70.67184],[27.14175,70.67363],[27.1363,70.67635]],[[27.12294,70.68101],[27.12997,70.68055],[27.13162,70.67936],[27.13193,70.67757],[27.1363,70.67635]],[[27.12546,70.68513],[27.13194,70.68503],[27.14429,70.68156],[27.14702,70.68157],[27.14912,70.68097],[27.15038,70.67984],[27.15012,70.6785],[27.15363,70.67519],[27.15633,70.67371],[27.16909,70.67018],[27.17278,70.66823]],[[27.12294,70.68101],[27.11033,70.68147],[27.10194,70.68093],[27.09224,70.68114],[27.08659,70.68285],[27.0853,70.68375],[27.08553,70.68496],[27.08779,70.68665],[27.09568,70.68772],[27.10246,70.68809],[27.10986,70.68807],[27.11457,70.68761],[27.12228,70.68527],[27.12546,70.68513]],[[27.16202,70.68785],[27.1639,70.6873],[27.16454,70.68635],[27.16048,70.68229],[27.15828,70.68116],[27.15515,70.68082],[27.15366,70.67892],[27.15536,70.67733],[27.15942,70.67539],[27.16273,70.67465],[27.17006,70.67344],[27.18219,70.67216]],[[27.14836,70.6907],[27.16202,70.68785]],[[27.13148,70.69495],[27.13426,70.69462],[27.13832,70.69252],[27.14836,70.6907]],[[27.26081,70.75024],[27.2617,70.74971]],[[27.32928,70.74512],[27.32861,70.74631]],[[27.29354,70.73371],[27.29803,70.729]],[[27.29345,70.73392],[27.29354,70.73371]],[[27.31742,70.73319],[27.31261,70.73316],[27.30249,70.72878],[27.29987,70.72864],[27.29803,70.729]],[[27.2774,70.74223],[27.28177,70.73965],[27.29163,70.73804],[27.29345,70.73392]],[[27.087,70.71581],[27.08669,70.71838],[27.09058,70.72214],[27.09897,70.72522],[27.09994,70.72598],[27.09986,70.72686],[27.09813,70.7271],[27.09739,70.72768],[27.10053,70.73201],[27.10141,70.73485],[27.10817,70.74173],[27.11017,70.74688],[27.10861,70.74979],[27.11164,70.75397],[27.1097,70.7547],[27.11089,70.7556],[27.11506,70.75547],[27.11823,70.75452],[27.11741,70.7535],[27.11919,70.7527],[27.12703,70.75076],[27.13524,70.74962],[27.15442,70.74887],[27.15711,70.7493],[27.16495,70.74938]],[[27.23217,70.7517],[27.23645,70.75174],[27.25129,70.75083],[27.25563,70.75135],[27.25969,70.75077],[27.26081,70.75024]],[[27.18626,70.77829],[27.18285,70.77835]],[[27.25182,70.75328],[27.24635,70.75374],[27.24537,70.75414],[27.24854,70.75591],[27.25164,70.7556],[27.25182,70.75328]],[[27.34123,70.75083],[27.33345,70.75216],[27.32966,70.7522],[27.32719,70.74996],[27.32396,70.74827],[27.32861,70.74631]],[[27.30727,70.75572],[27.30499,70.75656],[27.30796,70.75684]],[[27.30796,70.75684],[27.31179,70.75673],[27.31442,70.75599],[27.31208,70.75547],[27.30727,70.75572]],[[27.35535,70.75383],[27.35251,70.75206],[27.34982,70.75116],[27.34526,70.75064],[27.34123,70.75083]],[[27.31032,70.76061],[27.3141,70.76012],[27.3321,70.75938]],[[27.3321,70.75938],[27.34402,70.75852],[27.3477,70.757],[27.35377,70.75603],[27.35544,70.7553],[27.35535,70.75383]],[[27.31032,70.76061],[27.30724,70.76318],[27.29425,70.76364]],[[27.19076,70.77826],[27.18626,70.77829]],[[27.20829,70.79896],[27.2083,70.7979],[27.21117,70.79578],[27.21216,70.79192],[27.20736,70.78905],[27.20415,70.78261],[27.19781,70.77754],[27.19076,70.77826]],[[27.28011,70.79411],[27.27604,70.79161],[27.27853,70.77718],[27.28189,70.7741],[27.2819,70.77325],[27.27929,70.76846],[27.27238,70.76778],[27.27003,70.7654],[27.27187,70.76462],[27.28631,70.76341],[27.29425,70.76364]],[[27.1987,70.80394],[27.20287,70.80385],[27.20761,70.80213],[27.20829,70.79896]],[[27.17985,70.80087],[27.18367,70.80187],[27.1848,70.80289],[27.19055,70.80463],[27.1987,70.80394]],[[27.49971,70.87049],[27.4993,70.87052]],[[27.50432,70.80695],[27.50729,70.80645]],[[27.70971,70.80103],[27.71571,70.80066],[27.71771,70.80018],[27.70802,70.8004]],[[27.42972,70.81968],[27.44068,70.81659],[27.44796,70.81561],[27.4501,70.81482],[27.45455,70.81481]],[[27.28011,70.79411],[27.28379,70.79483],[27.28546,70.79651],[27.28932,70.79732],[27.29415,70.79716],[27.29483,70.79779],[27.29315,70.79802],[27.29323,70.79847],[27.29638,70.79995],[27.29646,70.80177],[27.29814,70.80235],[27.29754,70.80328],[27.29371,70.80348],[27.29035,70.80474],[27.2865,70.80487],[27.28325,70.80542],[27.28007,70.80694],[27.28451,70.80915],[27.28091,70.81379],[27.28244,70.81665],[27.28363,70.81726],[27.2821,70.82313],[27.28381,70.82532],[27.28201,70.82595],[27.28189,70.82727],[27.28244,70.82841],[27.2843,70.82923],[27.28375,70.82992],[27.28522,70.83245],[27.2897,70.83385],[27.29586,70.83374],[27.3074,70.83448],[27.31378,70.83412],[27.32196,70.83438],[27.32617,70.83388],[27.33217,70.83386],[27.33839,70.83297],[27.34259,70.83276],[27.34894,70.83325],[27.3554,70.83248]],[[27.37217,70.83353],[27.37631,70.83355],[27.38079,70.83294]],[[27.50405,70.87019],[27.50293,70.87027]],[[27.4808,70.87109],[27.46352,70.87165],[27.45978,70.87217],[27.45877,70.8733]],[[27.49971,70.87049],[27.50003,70.87047]],[[27.44361,70.88202],[27.43948,70.88124],[27.4373,70.88215],[27.43161,70.8817],[27.4308,70.88192],[27.43563,70.88301],[27.44373,70.88365],[27.44506,70.88307],[27.44361,70.88202]],[[27.34005,70.89498],[27.33663,70.89465]],[[27.33663,70.89465],[27.33581,70.8933],[27.32613,70.89238],[27.32011,70.8914],[27.30629,70.89254],[27.29999,70.89616],[27.29641,70.89702],[27.29222,70.89624],[27.27714,70.89543],[27.26618,70.89302],[27.25514,70.89445]],[[27.38775,70.88371],[27.38419,70.88334],[27.3788,70.87996],[27.37644,70.87969],[27.37513,70.88003],[27.37129,70.8799],[27.3697,70.88097],[27.36995,70.88178],[27.38047,70.88503],[27.38548,70.88748],[27.38743,70.88768],[27.38864,70.89028],[27.39336,70.89256]],[[27.35053,70.89579],[27.34576,70.89476],[27.34005,70.89498]],[[27.12951,70.91659],[27.1318,70.91529],[27.13517,70.91537],[27.13707,70.91502],[27.14338,70.91554],[27.14873,70.914],[27.15584,70.91375],[27.15974,70.91201],[27.15943,70.90984],[27.16122,70.90922],[27.16197,70.90788],[27.16348,70.90752],[27.16184,70.90597],[27.16273,70.90497],[27.16655,70.9036],[27.17233,70.9023],[27.17623,70.90186],[27.1826,70.9],[27.18684,70.89931],[27.19057,70.89967],[27.19263,70.8995],[27.20207,70.89718],[27.20372,70.89743],[27.20962,70.89664],[27.21487,70.89649],[27.22682,70.89731],[27.22793,70.89756],[27.22589,70.89897],[27.22644,70.90033],[27.23144,70.90233],[27.23438,70.90414],[27.23675,70.90421],[27.23831,70.90383],[27.24026,70.90116],[27.24416,70.8987],[27.24548,70.89592],[27.24695,70.89503],[27.24949,70.89454],[27.25514,70.89445]],[[27.36832,70.90342],[27.35744,70.89835],[27.35053,70.89579]],[[27.37689,70.90626],[27.37559,70.90532],[27.36832,70.90342]],[[27.38277,70.90904],[27.38004,70.90818],[27.37689,70.90626]],[[27.39038,70.9112],[27.38277,70.90904]],[[27.40897,70.91716],[27.4151,70.91736],[27.41859,70.91707],[27.42059,70.91601],[27.42286,70.91591],[27.42549,70.9152],[27.4268,70.91431],[27.42579,70.91322],[27.41818,70.9103],[27.41965,70.90927],[27.41674,70.90824],[27.41587,70.90722],[27.41857,70.90642],[27.41772,70.90499],[27.40886,70.90003],[27.40105,70.8976],[27.39548,70.89329],[27.39336,70.89256]],[[27.40897,70.91716],[27.40685,70.91764],[27.40701,70.91814],[27.41121,70.92068]],[[27.40556,70.92261],[27.40582,70.92147],[27.40269,70.91907],[27.39786,70.91701],[27.39782,70.91628],[27.39476,70.91475],[27.39038,70.9112]],[[27.4145,70.922],[27.41121,70.92068]],[[27.41383,70.92481],[27.41425,70.92488]],[[27.40556,70.92261],[27.4102,70.92413],[27.41383,70.92481]],[[27.41425,70.92488],[27.41885,70.92511],[27.41995,70.92457],[27.41932,70.92346],[27.4145,70.922]],[[27.28725,70.9514],[27.29,70.94991]],[[27.35025,70.94588],[27.35335,70.94593],[27.35519,70.94657],[27.35527,70.94711],[27.35218,70.9486]],[[27.2779,70.95537],[27.28184,70.95273],[27.28725,70.9514]],[[27.50527,70.95471],[27.50539,70.95414],[27.50671,70.95417]],[[27.30479,70.97334],[27.30825,70.97275],[27.30914,70.97154],[27.30852,70.97051],[27.30481,70.96967],[27.30377,70.9672],[27.3068,70.96537],[27.3066,70.96415],[27.31135,70.96186],[27.31646,70.95683],[27.32308,70.95465],[27.33938,70.95278],[27.35218,70.9486]],[[27.53728,70.95676],[27.53958,70.95601],[27.54365,70.95555]],[[27.50671,70.95417],[27.51304,70.95576],[27.51531,70.95585],[27.52311,70.95901],[27.5302,70.95816],[27.53728,70.95676]],[[27.30222,70.97526],[27.30479,70.97334]],[[27.50692,70.97433],[27.50652,70.97235],[27.5084,70.97025],[27.50898,70.96704],[27.5142,70.96192],[27.51412,70.96088]],[[27.50567,70.98147],[27.50625,70.97673],[27.50827,70.97646],[27.50891,70.97585],[27.50692,70.97433]],[[27.50232,70.99042],[27.50735,70.98403],[27.50567,70.98147]],[[27.50267,70.99094],[27.50232,70.99042]],[[27.2636,71.00026],[27.26748,70.99597],[27.2738,70.99514],[27.27535,70.99236],[27.27779,70.99063],[27.28038,70.99],[27.28454,70.9897],[27.28676,70.98871],[27.28856,70.98848],[27.29211,70.98535],[27.29543,70.98495],[27.29851,70.98238],[27.30367,70.98076],[27.30336,70.97951],[27.29981,70.97701],[27.30222,70.97526]],[[27.63874,70.62087],[27.64255,70.62196],[27.65072,70.62166],[27.65645,70.62042],[27.65831,70.61847],[27.65997,70.61793],[27.67054,70.61755]],[[27.63543,70.62144],[27.63089,70.62442],[27.63878,70.62475]],[[27.73721,70.61804],[27.72705,70.6183],[27.72067,70.61799],[27.71542,70.61832],[27.70891,70.61772],[27.68842,70.61702],[27.67607,70.61581],[27.67379,70.61625]],[[27.73721,70.61804],[27.74238,70.61873],[27.74647,70.61881],[27.75063,70.61963]],[[27.69173,70.62862],[27.68281,70.62611],[27.67086,70.62542],[27.65975,70.62318],[27.65338,70.62316],[27.6496,70.62439],[27.64568,70.62473],[27.63878,70.62475]],[[27.77208,70.62294],[27.76988,70.62181],[27.75472,70.62052],[27.75063,70.61963]],[[27.77208,70.62294],[27.77598,70.62398]],[[27.72692,70.62939],[27.72029,70.62901],[27.71326,70.62931],[27.70681,70.62873],[27.69796,70.62852],[27.69308,70.62878]],[[27.72692,70.62939],[27.73428,70.63067],[27.7378,70.63236],[27.74602,70.63435],[27.7566,70.63784],[27.76987,70.63909],[27.77459,70.63918],[27.78037,70.6388],[27.78503,70.63801]],[[27.82659,70.64692],[27.82318,70.64398],[27.81921,70.64272],[27.80871,70.64102],[27.79775,70.63848],[27.79352,70.63807],[27.78503,70.63801]],[[27.77457,70.75993],[27.76462,70.75465],[27.75444,70.75248],[27.75438,70.75185]],[[27.80339,70.7579],[27.79597,70.75455],[27.79326,70.75362],[27.78584,70.75223],[27.78189,70.75098],[27.77765,70.74872],[27.7685,70.74595],[27.76212,70.74529],[27.75766,70.74625],[27.75448,70.74796],[27.75509,70.75019]],[[27.78176,70.76391],[27.78177,70.76293],[27.77457,70.75993]],[[27.50313,70.80748],[27.50432,70.80695]],[[27.7479,70.79444],[27.7564,70.79261],[27.77037,70.79139],[27.77662,70.7903],[27.7849,70.78945],[27.80542,70.78918],[27.8197,70.7881],[27.8241,70.78732],[27.82573,70.78605],[27.83365,70.7834],[27.83336,70.78259],[27.83017,70.78174],[27.82598,70.77919],[27.81494,70.77569],[27.81327,70.77459],[27.81279,70.77281],[27.80753,70.76944],[27.7993,70.76866],[27.78271,70.76525]],[[27.50729,70.80645],[27.50915,70.80825],[27.51181,70.80908],[27.51565,70.80933],[27.52121,70.81033],[27.53053,70.81012],[27.5547,70.80694],[27.56462,70.80762],[27.56922,70.80682],[27.57746,70.80626],[27.58172,70.8064],[27.59373,70.80459],[27.60163,70.8047],[27.61536,70.80428]],[[27.66049,70.80267],[27.63858,70.80391],[27.62945,70.80395],[27.62171,70.80447],[27.61536,70.80428]],[[27.48865,70.81525],[27.49053,70.81399],[27.4904,70.81208],[27.49447,70.81045],[27.50001,70.80903],[27.50313,70.80748]],[[27.70802,70.8004],[27.67654,70.80271],[27.66283,70.80284]],[[27.45455,70.81481],[27.46423,70.81397],[27.46736,70.81443],[27.47,70.81539],[27.48449,70.81688]],[[27.48449,70.81688],[27.48865,70.81525]],[[27.65319,70.80668],[27.66736,70.80559],[27.67126,70.80472],[27.6798,70.80368],[27.70971,70.80103]],[[27.65319,70.80668],[27.64523,70.80793]],[[27.7479,70.79444],[27.7425,70.79628],[27.73319,70.79828],[27.73255,70.8007],[27.73367,70.80152],[27.73926,70.80161],[27.74169,70.80246],[27.75331,70.80277]],[[27.6207,70.8126],[27.63163,70.80947],[27.64523,70.80793]],[[27.52221,70.82325],[27.52845,70.82206],[27.53368,70.82023],[27.54115,70.81902],[27.55116,70.81921],[27.57502,70.81796],[27.58269,70.81815],[27.60087,70.81527],[27.61229,70.81422],[27.6207,70.8126]],[[27.86469,70.79929],[27.86247,70.79802],[27.86097,70.79779],[27.84088,70.79818],[27.83223,70.8004],[27.8245,70.80024],[27.81414,70.80099],[27.81009,70.79898],[27.7999,70.79757],[27.79501,70.79598],[27.7899,70.79556],[27.78286,70.79755],[27.77677,70.79815],[27.77046,70.79941],[27.7664,70.8009],[27.75331,70.80277]],[[27.4917,70.82821],[27.50757,70.8259],[27.52221,70.82325]],[[27.4917,70.82821],[27.48127,70.82945],[27.47964,70.83088],[27.47441,70.8322],[27.47232,70.83533],[27.46796,70.83653],[27.46066,70.83769],[27.45598,70.83939],[27.45154,70.84167],[27.45181,70.84232],[27.46416,70.84252],[27.4659,70.84277],[27.46619,70.84337],[27.46216,70.84447],[27.45554,70.84459],[27.45198,70.84582],[27.45244,70.84613],[27.45865,70.8465],[27.4625,70.84587],[27.4689,70.84567],[27.47551,70.84771],[27.48106,70.84831],[27.48454,70.84844],[27.49325,70.84771],[27.49741,70.848],[27.5022,70.84919],[27.5052,70.84938]],[[27.50606,70.85073],[27.50738,70.85061],[27.5076,70.84999],[27.50679,70.84948],[27.5052,70.84938]],[[27.50606,70.85073],[27.50062,70.85148],[27.50465,70.85293],[27.50742,70.85286]],[[27.51037,70.85297],[27.50742,70.85286]],[[27.49539,70.86081],[27.49033,70.86127],[27.49301,70.86193],[27.4933,70.86243],[27.50106,70.86233],[27.50318,70.86285],[27.50592,70.86292],[27.50783,70.86214],[27.50271,70.86086],[27.49539,70.86081]],[[27.52723,70.86706],[27.53154,70.86482],[27.53135,70.86366],[27.52354,70.86224],[27.51799,70.86178],[27.51478,70.86094],[27.51235,70.85955],[27.51505,70.85812],[27.51495,70.85679],[27.5123,70.85518],[27.51397,70.85429],[27.5128,70.85333],[27.51037,70.85297]],[[27.51686,70.86763],[27.52509,70.86742],[27.52723,70.86706]],[[27.50003,70.87047],[27.50028,70.86974],[27.49869,70.86914],[27.48811,70.86903],[27.48654,70.86926],[27.48494,70.87026],[27.4808,70.87109]],[[27.50664,70.87001],[27.50794,70.86953],[27.50712,70.86872],[27.50822,70.86814],[27.51235,70.86754],[27.51686,70.86763]],[[27.50405,70.87019],[27.50664,70.87001]],[[27.4993,70.87052],[27.49888,70.8709],[27.50003,70.87141],[27.50332,70.87173],[27.50375,70.87134],[27.50205,70.87056],[27.50293,70.87027]],[[27.54916,70.95848],[27.54809,70.95755],[27.55094,70.95645],[27.54883,70.95558],[27.54365,70.95555]],[[27.54916,70.95848],[27.5557,70.96144],[27.56005,70.96169]],[[27.56005,70.96169],[27.56487,70.96269],[27.5666,70.96372],[27.56389,70.9658],[27.55937,70.96627],[27.55696,70.96707],[27.55353,70.97117]],[[27.06341,70.48917],[27.06286,70.48784],[27.0594,70.48705],[27.05643,70.48733],[27.05657,70.48631],[27.05333,70.48622],[27.05168,70.4855],[27.05655,70.48485],[27.06133,70.48525],[27.06662,70.48519],[27.06761,70.48491]],[[27.05714,70.48969],[27.05485,70.48932],[27.04933,70.4898],[27.04339,70.48916]],[[27.08174,70.61169],[27.08999,70.60965],[27.09243,70.608],[27.09557,70.60715],[27.10505,70.60644],[27.12329,70.60376]],[[27.08076,70.61188],[27.08174,70.61169]],[[27.18502,70.61795],[27.18276,70.61627],[27.20278,70.61449],[27.2117,70.61253]],[[27.14899,70.63035],[27.17867,70.6218],[27.18471,70.61872],[27.18502,70.61795]],[[27.13648,70.63242],[27.14043,70.63219],[27.14899,70.63035]],[[27.13648,70.63242],[27.13131,70.63261],[27.11239,70.63123],[27.10754,70.63263],[27.10767,70.63464],[27.1062,70.63546]],[[27.1112,70.66856],[27.11152,70.66717],[27.10684,70.66559],[27.09154,70.66545],[27.08266,70.66389],[27.07759,70.6621],[27.07671,70.65251],[27.0748,70.6491],[27.0767,70.6476],[27.07687,70.64493],[27.08396,70.64185],[27.09347,70.64013],[27.09701,70.63909]],[[27.14464,70.66631],[27.14834,70.66533]],[[27.16527,70.66493],[27.16458,70.66415],[27.16258,70.6636],[27.15575,70.66412],[27.14834,70.66533]],[[27.087,70.71581],[27.08674,70.71413],[27.08261,70.7103],[27.08357,70.70927],[27.08284,70.70859],[27.08006,70.70776],[27.07239,70.70841],[27.0706,70.70834],[27.06963,70.70784],[27.06671,70.70495],[27.06936,70.70146],[27.07724,70.6992],[27.0809,70.69864],[27.0827,70.69786],[27.08558,70.69772],[27.08917,70.69845],[27.09482,70.69856],[27.10273,70.69713],[27.11065,70.69739],[27.11721,70.69611],[27.12305,70.69591],[27.13148,70.69495]],[[27.23217,70.7517],[27.21918,70.74957],[27.21331,70.74974],[27.20779,70.74937],[27.18556,70.75029],[27.1745,70.74954],[27.17031,70.74985],[27.16495,70.74938]],[[27.2617,70.74971],[27.2774,70.74223]],[[27.32928,70.74512],[27.32839,70.74271],[27.33038,70.7389],[27.32992,70.73756],[27.32423,70.73433],[27.31742,70.73319]],[[27.17985,70.80087],[27.17671,70.79953],[27.17772,70.79889],[27.17397,70.79825],[27.17358,70.79741],[27.17162,70.79748],[27.17029,70.79687],[27.16968,70.79625],[27.17063,70.79582],[27.16831,70.79526],[27.16497,70.79247],[27.16258,70.78871],[27.15888,70.78642],[27.1571,70.78394],[27.16836,70.77982],[27.18285,70.77835]],[[27.37217,70.83353],[27.36667,70.83315],[27.36282,70.83342],[27.3554,70.83248]],[[27.38079,70.83294],[27.39122,70.83089],[27.40834,70.82623],[27.41604,70.82531],[27.42588,70.82167],[27.42972,70.81968]],[[27.38775,70.88371],[27.38971,70.88354],[27.39128,70.88263],[27.39607,70.88165],[27.40217,70.88195],[27.41356,70.88152],[27.41583,70.8817],[27.41773,70.88252],[27.41747,70.88292],[27.41506,70.88325],[27.4141,70.88408],[27.41534,70.88492],[27.41814,70.88543],[27.43325,70.8857],[27.43798,70.88555],[27.44346,70.88474],[27.45353,70.88557],[27.45978,70.88544],[27.47519,70.88746]],[[27.47519,70.88746],[27.47713,70.88659],[27.47465,70.88609],[27.47459,70.88549],[27.47936,70.88533],[27.47989,70.88416],[27.47645,70.88327],[27.46861,70.88222],[27.46163,70.87957],[27.4655,70.87889],[27.4688,70.87919],[27.46999,70.87848],[27.46754,70.87736],[27.46004,70.87535],[27.45841,70.87424],[27.45877,70.8733]],[[27.12275,70.9416],[27.12315,70.94062],[27.12606,70.939],[27.12551,70.93857],[27.12264,70.93781],[27.11904,70.93782],[27.11579,70.9371],[27.10865,70.9369],[27.10207,70.93335],[27.10129,70.93106],[27.10158,70.93055],[27.10736,70.92904],[27.1086,70.92829],[27.10912,70.92577],[27.11237,70.92427],[27.11228,70.9227],[27.11421,70.92158],[27.1147,70.91957],[27.11365,70.9186],[27.11573,70.91726],[27.12951,70.91659]],[[27.35025,70.94588],[27.345,70.94653],[27.34113,70.94594],[27.33746,70.94608],[27.33254,70.94777],[27.33403,70.94886],[27.33702,70.9482],[27.33743,70.94873],[27.33194,70.95001],[27.32397,70.94731],[27.31589,70.94675],[27.31638,70.94559],[27.31296,70.94501],[27.30719,70.94612],[27.30285,70.94611],[27.29729,70.9467],[27.29,70.94991]],[[27.12275,70.9416],[27.12442,70.94595],[27.12738,70.94766],[27.12252,70.95213],[27.12219,70.95459],[27.12471,70.95601],[27.13189,70.95644],[27.13333,70.95681],[27.13287,70.95754],[27.13116,70.95771],[27.13231,70.96029],[27.13567,70.96113],[27.13424,70.96234],[27.13749,70.96298],[27.13693,70.96402],[27.13493,70.96469],[27.13604,70.96676],[27.14037,70.96832],[27.15003,70.96829],[27.15197,70.96891],[27.14986,70.97136],[27.14829,70.97173],[27.14747,70.97395],[27.14502,70.97472],[27.14546,70.97668],[27.14361,70.9775],[27.14538,70.97834],[27.14332,70.97989],[27.14571,70.9802],[27.14324,70.98098],[27.14307,70.9815],[27.1441,70.98211],[27.14715,70.98231],[27.14779,70.9813],[27.15171,70.98069],[27.15894,70.98084],[27.16052,70.98132],[27.16732,70.98001],[27.16849,70.97916]],[[27.16849,70.97916],[27.17303,70.97845],[27.17906,70.97917],[27.18367,70.97884],[27.18568,70.97999],[27.18894,70.98034],[27.19194,70.9794],[27.1942,70.97935],[27.19567,70.97893],[27.19913,70.97576],[27.21442,70.97168],[27.21688,70.97049],[27.221,70.96947],[27.23239,70.96812],[27.23546,70.96835],[27.2388,70.96778],[27.24142,70.96681],[27.24092,70.96634],[27.24413,70.96424],[27.24731,70.96344],[27.24906,70.96343],[27.24903,70.96201],[27.25007,70.96145],[27.25344,70.9607],[27.26085,70.96029],[27.2659,70.95788],[27.2779,70.95537]],[[27.51412,70.96088],[27.51829,70.95973],[27.51826,70.95858],[27.51707,70.95808],[27.51048,70.95718],[27.50965,70.95623],[27.50619,70.95538],[27.50527,70.95471]],[[27.51264,71.00422],[27.50524,70.9927],[27.50267,70.99094]],[[27.56032,71.00341],[27.55844,70.99968],[27.56171,70.99834],[27.56519,70.99578],[27.56532,70.99073],[27.56266,70.98493],[27.55875,70.98083],[27.55692,70.97592],[27.55351,70.97252],[27.55353,70.97117]],[[27.92683,70.47528],[27.92578,70.47472]],[[27.87931,70.49927],[27.8597,70.49648]],[[27.93184,70.52003],[27.94023,70.52415]],[[27.94023,70.52415],[27.94317,70.52527],[27.94845,70.52618]],[[27.92138,70.64191],[27.9265,70.64357]],[[27.979,70.65387],[27.97331,70.65261]],[[27.85136,70.66918],[27.85078,70.66855]],[[27.8747,70.6741],[27.87103,70.67337]],[[27.8747,70.6741],[27.88242,70.67579]],[[27.87587,70.43259],[27.87574,70.43095],[27.87772,70.42829],[27.87654,70.42701],[27.87381,70.42643],[27.86726,70.42711],[27.86269,70.42686],[27.86095,70.42733],[27.86233,70.42801],[27.86105,70.42959],[27.85582,70.43003],[27.85448,70.43413]],[[27.83254,70.45762],[27.83275,70.45553],[27.83564,70.45439],[27.83496,70.45288],[27.83225,70.4507],[27.82247,70.44595],[27.8272,70.44435],[27.83169,70.4438],[27.83619,70.44387],[27.84121,70.44327],[27.84998,70.44373],[27.85237,70.44345],[27.85642,70.44122],[27.856,70.44091],[27.8537,70.44095],[27.85631,70.43913],[27.85583,70.43765],[27.85305,70.43745],[27.8523,70.43608],[27.85448,70.43413]],[[27.8339,70.46062],[27.83254,70.45762]],[[27.84142,70.47233],[27.83676,70.46672],[27.83703,70.46518],[27.8339,70.46062]],[[27.84265,70.4767],[27.84309,70.47546],[27.84142,70.47233]],[[27.82034,70.48232],[27.81928,70.48167],[27.82117,70.48081]],[[27.83609,70.48119],[27.82876,70.47941],[27.82566,70.47949],[27.82117,70.48081]],[[27.85175,70.48006],[27.85002,70.47919],[27.84344,70.47786],[27.84265,70.4767]],[[27.88769,70.47747],[27.87908,70.46863],[27.87668,70.46439],[27.87261,70.46171],[27.87164,70.45933],[27.8697,70.45845],[27.87344,70.45661],[27.87162,70.45376],[27.87254,70.44937],[27.8713,70.44785],[27.87135,70.44549],[27.87398,70.44379],[27.87162,70.44168],[27.87223,70.44055],[27.87453,70.43976],[27.87286,70.43747],[27.87504,70.43545],[27.87587,70.43259]],[[27.9411,70.47361],[27.9376,70.472],[27.9365,70.46982],[27.93023,70.4676],[27.93168,70.46616],[27.93077,70.46409],[27.92507,70.46155],[27.9186,70.45986],[27.91746,70.45908],[27.91091,70.45912],[27.90994,70.45996],[27.91317,70.4614],[27.92152,70.46935],[27.92215,70.47288],[27.92578,70.47472]],[[27.9411,70.47361],[27.94509,70.47551]],[[27.83609,70.48119],[27.8388,70.48251],[27.84429,70.48331],[27.84923,70.48452],[27.85455,70.48453],[27.85585,70.48422],[27.85604,70.48366],[27.85175,70.48006]],[[27.88769,70.47747],[27.8919,70.48085],[27.89701,70.4825],[27.90264,70.48292]],[[27.93189,70.48234],[27.9278,70.47999],[27.92885,70.47821],[27.92683,70.47528]],[[27.82034,70.48232],[27.82023,70.48331],[27.81705,70.48402],[27.81254,70.48689],[27.81422,70.48775],[27.82398,70.48953],[27.82468,70.49131],[27.82804,70.49151]],[[27.94509,70.47551],[27.94691,70.47585],[27.94983,70.47781],[27.95682,70.48],[27.95549,70.48095],[27.95572,70.48167],[27.95881,70.48212]],[[27.93942,70.48468],[27.93644,70.48277],[27.93297,70.48268],[27.93189,70.48234]],[[27.8597,70.49648],[27.83496,70.49153],[27.83172,70.49109],[27.82804,70.49151]],[[27.98892,70.47953],[27.99552,70.48011],[27.99804,70.48068],[28.00342,70.48087]],[[27.93942,70.48468],[27.94485,70.48564],[27.95473,70.48915],[27.9565,70.48997],[27.95656,70.49146],[27.9629,70.49329],[27.96619,70.4935]],[[27.95881,70.48212],[27.9629,70.4821],[27.96814,70.48269],[27.96933,70.4839],[27.96913,70.48518],[27.96476,70.48708],[27.96486,70.48804],[27.96893,70.48907],[27.97528,70.48944],[27.9807,70.4914],[27.98077,70.49245],[27.9786,70.4925],[27.9768,70.49306],[27.97793,70.49402],[27.98349,70.49374],[27.9854,70.49274],[27.98274,70.49019],[27.98298,70.48914],[27.98693,70.48748],[27.99109,70.48692],[27.99168,70.48571],[27.99041,70.48521],[27.98625,70.48472],[27.98004,70.48448],[27.97795,70.48293],[27.98208,70.48283],[27.98001,70.48216],[27.98007,70.48149],[27.98605,70.48132],[27.98892,70.47953]],[[27.89154,70.50364],[27.88978,70.50316],[27.88662,70.50114],[27.87931,70.49927]],[[27.90264,70.48292],[27.90761,70.48462],[27.91213,70.48542],[27.91462,70.4869],[27.92045,70.48833],[27.92404,70.48982],[27.9355,70.49125],[27.93839,70.49207],[27.94226,70.49385],[27.94559,70.49671],[27.95047,70.49915],[27.97003,70.49941]],[[27.89618,70.50626],[27.89475,70.50476],[27.89154,70.50364]],[[27.97003,70.49941],[27.97689,70.50031],[27.99087,70.50349],[27.99752,70.50398],[27.99629,70.50194],[27.99328,70.50054],[27.98225,70.49913],[27.97165,70.49443],[27.96619,70.4935]],[[27.90394,70.51332],[27.89854,70.51284],[27.89437,70.51166],[27.89555,70.50939],[27.89817,70.50876],[27.89618,70.50626]],[[27.91622,70.51559],[27.90394,70.51332]],[[27.92924,70.51895],[27.92515,70.51757],[27.91622,70.51559]],[[27.93184,70.52003],[27.92924,70.51895]],[[27.94845,70.52618],[27.97087,70.52978],[27.97281,70.52973],[27.97505,70.52872],[27.98008,70.53005],[27.98636,70.53363],[27.99358,70.53558]],[[28.00377,70.53863],[27.99358,70.53558]],[[27.77598,70.62398],[27.77979,70.62539],[27.79157,70.6249],[27.80295,70.62615],[27.81127,70.6279],[27.81189,70.62881],[27.81405,70.6292],[27.82018,70.62887],[27.82283,70.62978],[27.82645,70.63015],[27.82963,70.62931],[27.8352,70.62899],[27.83676,70.62963],[27.86104,70.63412],[27.87748,70.6344],[27.88464,70.63576],[27.8979,70.63673],[27.90962,70.63898],[27.92138,70.64191]],[[27.83925,70.65026],[27.82685,70.64732],[27.82659,70.64692]],[[27.9265,70.64357],[27.93505,70.64564]],[[27.97331,70.65261],[27.96163,70.65103],[27.95484,70.6495],[27.94281,70.64757],[27.93505,70.64564]],[[27.88225,70.66082],[27.88423,70.65863],[27.87692,70.65548],[27.87016,70.65437],[27.85776,70.65324],[27.83925,70.65026]],[[27.85078,70.66855],[27.85255,70.66696],[27.85675,70.66477],[27.85888,70.66422],[27.86409,70.66369],[27.87386,70.66398],[27.87608,70.66359],[27.87683,70.6627],[27.88208,70.66138],[27.88225,70.66082]],[[27.979,70.65387],[27.99187,70.65727],[28.00507,70.65953]],[[27.87706,70.66995],[27.87217,70.66988],[27.87064,70.67017],[27.86968,70.67071],[27.87038,70.6716],[27.87479,70.67246],[27.87669,70.67236],[27.87888,70.67151],[27.87833,70.67022],[27.87706,70.66995]],[[27.87103,70.67337],[27.85136,70.66918]],[[27.88242,70.67579],[27.88686,70.6766],[27.89487,70.67666],[27.89778,70.67728],[27.91165,70.67852],[27.91738,70.6798],[27.92549,70.68313],[27.93493,70.68478],[27.93838,70.68492]],[[27.93776,70.67368],[27.94131,70.67332],[27.94103,70.67289],[27.93438,70.67118],[27.93787,70.67093],[27.93728,70.67016],[27.91952,70.66545],[27.913,70.66542],[27.90895,70.66489],[27.9027,70.66494],[27.89434,70.66436],[27.89031,70.66466],[27.88894,70.66625],[27.88532,70.66665],[27.88985,70.66716],[27.89155,70.66862],[27.89382,70.66931],[27.90588,70.67019],[27.91319,70.67228],[27.92348,70.67344],[27.92613,70.67425],[27.93155,70.67439],[27.93463,70.6751],[27.93716,70.67516],[27.93877,70.67479],[27.93776,70.67368]],[[27.93838,70.68492],[27.95321,70.6844]],[[27.99423,70.69304],[27.9894,70.69271],[27.98586,70.69136],[27.9728,70.69326],[27.9726,70.69299],[27.97831,70.69173],[27.98165,70.69038],[27.98466,70.68907],[27.98405,70.68839],[27.97547,70.68737],[27.96589,70.68518],[27.95321,70.6844]],[[28.00139,70.69326],[27.99423,70.69304]],[[28.00188,70.74187],[27.99879,70.74321],[27.99853,70.74397]],[[28.00032,70.74588],[27.99853,70.74397]],[[27.78271,70.76525],[27.78176,70.76391]],[[27.80339,70.7579],[27.80678,70.75931],[27.8157,70.76112],[27.82047,70.76168],[27.82733,70.76164],[27.83466,70.76277],[27.84051,70.76566],[27.84143,70.7685],[27.84354,70.76999],[27.84747,70.77038],[27.85417,70.77028],[27.85698,70.77138],[27.86259,70.77245],[27.86446,70.77369],[27.86777,70.77387],[27.87022,70.77344],[27.87326,70.77375]],[[27.87326,70.77375],[27.89,70.7745],[27.89644,70.77425],[27.90109,70.77545],[27.91065,70.77474],[27.92057,70.77485],[27.92904,70.77423],[27.93471,70.77437],[27.96455,70.77111],[27.96774,70.77029],[27.97116,70.7684],[27.97817,70.76763],[27.99276,70.76494],[28.00601,70.76456]],[[27.86469,70.79929],[27.86756,70.80129],[27.86435,70.80399],[27.86621,70.80441],[27.87318,70.80446],[27.88378,70.80356],[27.88531,70.80313],[27.8841,70.80069],[27.885,70.79994],[27.88885,70.79902],[27.8907,70.80034]],[[27.8907,70.80034],[27.89412,70.80046],[27.89846,70.79976],[27.90228,70.79989],[27.91587,70.79843],[27.91788,70.79803],[27.9211,70.79614],[27.92547,70.79571],[27.93414,70.79576],[27.93461,70.7963],[27.9367,70.79649],[27.93578,70.79716],[27.93139,70.79793],[27.9306,70.79891],[27.93219,70.8],[27.94215,70.79973],[27.94813,70.80139],[27.95138,70.8015],[27.95662,70.80104],[27.96045,70.80218],[27.96106,70.80344],[27.95803,70.80533],[27.95734,70.807],[27.95964,70.80798],[27.96616,70.80899],[27.96541,70.80975],[27.96094,70.81114],[27.96207,70.81415],[27.96411,70.81455],[27.96898,70.81434],[27.96918,70.81505],[27.97133,70.81594],[27.98495,70.81626],[27.99797,70.81846],[28.00369,70.82031]]]}}]}