{"type":"FeatureCollection","features":[{"type":"Feature","properties":{},"geometry":{"type":"MultiLineString","coordinates":[[[20.90353,70.00366],[20.90336,70.00306]],[[20.87268,70.01581],[20.87366,70.0142]],[[20.86917,70.01888],[20.87268,70.01581]],[[20.61767,70.03826],[20.61391,70.0371],[20.5941,70.0341],[20.57164,70.03301],[20.55971,70.0319],[20.54858,70.0325],[20.53647,70.03371],[20.53712,70.03643],[20.53551,70.03946],[20.536,70.04082]],[[20.84746,70.03085],[20.85306,70.02843],[20.8581,70.02468],[20.86527,70.02241],[20.86917,70.01888]],[[20.68063,70.04483],[20.69699,70.04477]],[[20.68063,70.04483],[20.66808,70.04586]],[[20.66021,70.04683],[20.66808,70.04586]],[[20.74029,70.04579],[20.73264,70.04374],[20.72497,70.04299],[20.69699,70.04477]],[[20.74029,70.04579],[20.75619,70.04814]],[[20.49551,70.05739],[20.49486,70.05612],[20.49568,70.05339]],[[20.39245,70.06123],[20.39119,70.06228]],[[20.406,70.05709],[20.39749,70.05824],[20.39245,70.06123]],[[20.75619,70.04814],[20.78516,70.05098]],[[20.39119,70.06228],[20.38151,70.06705]],[[20.80084,70.0559],[20.80046,70.05473],[20.79728,70.05267],[20.79076,70.05134],[20.78516,70.05098]],[[20.63239,70.05342],[20.63432,70.05688],[20.6387,70.06129]],[[20.5069,70.06815],[20.5195,70.06327],[20.5219,70.06289],[20.52484,70.06333]],[[20.37413,70.0736],[20.37002,70.07876],[20.37082,70.08111]],[[20.82369,70.06985],[20.81639,70.07392]],[[20.57104,70.07851],[20.56716,70.08242]],[[20.56412,70.08446],[20.56716,70.08242]],[[20.56301,70.08498],[20.56412,70.08446]],[[20.77799,70.07813],[20.79078,70.07113]],[[20.88664,70.07458],[20.87463,70.0692],[20.86064,70.06642]],[[20.79441,70.08409],[20.79644,70.08267],[20.79855,70.08201]],[[20.535,70.09775],[20.53607,70.0919],[20.53863,70.08799],[20.54154,70.08565]],[[20.74878,70.10007],[20.74819,70.09717],[20.74971,70.0935],[20.75187,70.09174],[20.75682,70.09029]],[[20.54517,70.1116],[20.54598,70.11134],[20.54558,70.11055],[20.54741,70.10736]],[[20.54185,70.11266],[20.54517,70.1116]],[[20.38559,70.13541],[20.38544,70.13368]],[[20.75534,70.12388],[20.75419,70.12108],[20.7548,70.12067],[20.75358,70.11972],[20.75432,70.1177],[20.75315,70.11423],[20.75194,70.11334],[20.75249,70.11126],[20.74878,70.10007]],[[20.89113,70.1208],[20.88938,70.1195]],[[20.75683,70.12761],[20.7576,70.126],[20.75522,70.12451],[20.75534,70.12388]],[[20.88115,70.12771],[20.8838,70.12742],[20.8831,70.12579],[20.88703,70.12286],[20.88925,70.12227],[20.89113,70.1208]],[[20.38723,70.14926],[20.38911,70.15],[20.38944,70.15162]],[[20.86202,70.13901],[20.86776,70.13759],[20.87134,70.1372],[20.87913,70.13211],[20.87964,70.12937],[20.88115,70.12771]],[[20.7788,70.14911],[20.77157,70.14274],[20.76982,70.13869],[20.76663,70.13749],[20.76387,70.13534],[20.75683,70.12761]],[[20.78195,70.15199],[20.7788,70.14911]],[[20.42358,70.18023],[20.42615,70.17918]],[[20.42358,70.18023],[20.42372,70.18074]],[[20.48364,70.19267],[20.48576,70.19264]],[[20.37493,70.14401],[20.37649,70.14498],[20.38132,70.14525],[20.38157,70.14653],[20.38366,70.14811],[20.3859,70.14918],[20.38723,70.14926]],[[20.38559,70.13541],[20.38532,70.137],[20.38252,70.13886],[20.38036,70.13952],[20.37668,70.13991],[20.37434,70.14089],[20.37884,70.14152],[20.37678,70.14254],[20.37464,70.14291]],[[20.37464,70.14291],[20.37493,70.14401]],[[20.89843,69.99809],[20.90114,70.00167]],[[20.90114,70.00167],[20.90336,70.00306]],[[20.96731,69.99815],[20.97779,70.00044],[20.98247,70.00187],[20.98322,70.00149],[20.98215,69.99948]],[[20.87366,70.0142],[20.87818,70.0109],[20.89805,70.00637],[20.90179,70.00496],[20.90353,70.00366]],[[20.92427,70.006],[20.92022,70.00773],[20.91669,70.0101],[20.91771,70.01256],[20.91468,70.0134],[20.915,70.01635]],[[20.76512,70.03354],[20.74917,70.03107],[20.74609,70.02977],[20.72612,70.02442],[20.7198,70.02151],[20.71199,70.01274],[20.71452,70.00443],[20.72999,69.99205]],[[20.915,70.01635],[20.91573,70.01819],[20.91385,70.01893],[20.92094,70.0212],[20.92133,70.02261],[20.92948,70.02574],[20.92912,70.02694],[20.93132,70.02748],[20.93489,70.02712],[20.94073,70.02776]],[[21.00283,70.02567],[20.99747,70.02277],[20.99264,70.01895],[20.98754,70.01662],[20.98651,70.01532],[20.96778,70.00937],[20.96007,70.00835],[20.95476,70.00716],[20.94281,70.00594],[20.937,70.00488],[20.93312,70.00466],[20.93165,70.00417],[20.92709,70.00571],[20.92427,70.006]],[[20.76512,70.03354],[20.77784,70.03554]],[[20.77784,70.03554],[20.78132,70.03722]],[[20.97363,70.02844],[20.97541,70.02917],[20.97528,70.03003],[20.97691,70.03054],[20.98163,70.02974],[20.98622,70.02977],[20.98438,70.02835],[20.98531,70.02798],[20.9914,70.02918],[20.99227,70.0298],[20.9973,70.03045],[21.0028,70.03038]],[[20.80312,70.03739],[20.82933,70.03514],[20.84348,70.03252],[20.84746,70.03085]],[[20.78132,70.03722],[20.78635,70.0388],[20.78956,70.03917],[20.79583,70.03887],[20.80312,70.03739]],[[20.99384,70.03634],[20.99047,70.036],[20.99089,70.0354],[20.98789,70.03528],[20.98563,70.03587],[20.9839,70.03568],[20.9838,70.03511],[20.98133,70.03518],[20.97441,70.0307],[20.96937,70.02998],[20.96591,70.02861],[20.96806,70.02755],[20.97136,70.02774],[20.97363,70.02844]],[[20.66021,70.04683],[20.65531,70.04726],[20.65258,70.04816]],[[20.41082,70.05647],[20.42029,70.05333],[20.4272,70.05209],[20.43587,70.04795],[20.44827,70.04599],[20.45585,70.04627],[20.46779,70.0453],[20.47152,70.04536],[20.48142,70.04668],[20.49484,70.04763],[20.49799,70.0483],[20.49945,70.05043],[20.49568,70.05339]],[[20.41082,70.05647],[20.406,70.05709]],[[20.63239,70.05342],[20.63344,70.05265],[20.63123,70.0499],[20.63307,70.04765],[20.62971,70.04396],[20.62441,70.04232],[20.62143,70.03973],[20.61767,70.03826]],[[20.6387,70.06129],[20.64773,70.06122],[20.64814,70.06147],[20.64669,70.0621],[20.64791,70.06272],[20.64984,70.06263],[20.64868,70.06014],[20.64753,70.05967],[20.64854,70.05882],[20.6478,70.05628],[20.64899,70.05249],[20.65095,70.04921],[20.65258,70.04816]],[[20.536,70.04082],[20.54444,70.04857],[20.54945,70.05213],[20.55217,70.05747],[20.56502,70.0671]],[[20.37413,70.0736],[20.37444,70.07259],[20.37243,70.07184],[20.37256,70.07099],[20.37619,70.06919],[20.37876,70.06872],[20.38151,70.06705]],[[20.49551,70.05739],[20.49631,70.05837],[20.49575,70.06021],[20.49311,70.06267],[20.49431,70.06441],[20.49073,70.06491],[20.48974,70.06711],[20.49044,70.06821],[20.49365,70.06918],[20.49064,70.06961],[20.49072,70.07009],[20.49149,70.07021],[20.49357,70.06961],[20.50064,70.07002],[20.5069,70.06815]],[[20.99416,70.05718],[20.99401,70.05616],[20.9977,70.05398],[21.00507,70.05358]],[[21.00831,70.04006],[20.99789,70.03661],[20.99489,70.03606],[20.99384,70.03634]],[[20.98521,70.06076],[20.99097,70.06139],[20.99654,70.06257],[20.99646,70.05846],[20.99416,70.05718]],[[20.94073,70.02776],[20.94573,70.03028],[20.94446,70.03157],[20.94619,70.03457],[20.94524,70.03599],[20.94633,70.03714],[20.95152,70.03952],[20.95653,70.04028],[20.95793,70.04161],[20.96288,70.04343],[20.96163,70.04481],[20.96214,70.04546],[20.96456,70.04584],[20.96563,70.04643],[20.9646,70.04992],[20.96708,70.05389],[20.97029,70.0566],[20.97097,70.05878],[20.97322,70.05955],[20.97557,70.05962],[20.97828,70.06026],[20.97936,70.06068],[20.97918,70.06157],[20.98521,70.06076]],[[20.86064,70.06642],[20.85261,70.06554],[20.83737,70.0653],[20.82607,70.06844],[20.82369,70.06985]],[[20.79078,70.07113],[20.79539,70.06708],[20.80131,70.05902],[20.80084,70.0559]],[[20.57104,70.07851],[20.57256,70.0754],[20.56502,70.0671]],[[20.37563,70.09073],[20.37493,70.08714],[20.36762,70.08546],[20.36554,70.0844],[20.37082,70.08111]],[[20.54154,70.08565],[20.54577,70.08079],[20.54781,70.07962],[20.54571,70.07569],[20.53958,70.07043],[20.52689,70.0639],[20.52484,70.06333]],[[20.81639,70.07392],[20.80789,70.07716]],[[20.76767,70.0825],[20.77799,70.07813]],[[20.80789,70.07716],[20.79855,70.08201]],[[20.98143,70.07526],[20.97856,70.07506],[20.9774,70.07537],[20.97762,70.07603],[20.98237,70.07636],[20.98313,70.07595],[20.98143,70.07526]],[[20.55462,70.09023],[20.5605,70.08598],[20.56301,70.08498]],[[20.55002,70.0922],[20.55335,70.09119],[20.55462,70.09023]],[[20.37429,70.09873],[20.37418,70.09309],[20.37563,70.09073]],[[20.75682,70.09029],[20.75929,70.08966],[20.76019,70.08886],[20.75983,70.08677],[20.76767,70.0825]],[[20.55002,70.0922],[20.54634,70.09483],[20.54969,70.09534],[20.55039,70.09592],[20.5483,70.09939]],[[20.54741,70.10736],[20.54797,70.10353],[20.5468,70.10229],[20.5483,70.09939]],[[20.535,70.09775],[20.53695,70.10146],[20.53806,70.1076],[20.53999,70.11078],[20.54009,70.11394],[20.541,70.11304]],[[20.79441,70.08409],[20.78615,70.08784],[20.78137,70.09141],[20.77681,70.10029],[20.77522,70.10111],[20.7755,70.1033],[20.77385,70.10541],[20.77338,70.10812]],[[20.90842,70.10965],[20.90845,70.10905],[20.91099,70.10855],[20.91266,70.10698],[20.91683,70.10554],[20.92056,70.10536],[20.92314,70.10434],[20.92451,70.10248],[20.92694,70.10138],[20.92858,70.09956],[20.92841,70.09714],[20.92405,70.09332],[20.91916,70.09108],[20.91454,70.08749],[20.90935,70.08474],[20.90065,70.08151],[20.89018,70.07672],[20.88664,70.07458]],[[20.90228,70.11235],[20.90472,70.11197],[20.90776,70.11253],[20.90842,70.10965]],[[20.38544,70.13368],[20.38506,70.133],[20.38256,70.13215],[20.38136,70.13062],[20.38164,70.12736],[20.37762,70.1233],[20.37672,70.11998],[20.37772,70.11856],[20.37769,70.11514],[20.37645,70.10664],[20.37271,70.10285],[20.3731,70.09975],[20.37429,70.09873]],[[20.78349,70.12297],[20.77468,70.11853],[20.76872,70.11227],[20.76855,70.1114],[20.77221,70.11022],[20.77338,70.10812]],[[20.88938,70.1195],[20.88956,70.11844],[20.89141,70.11729],[20.89441,70.11674],[20.90121,70.11673],[20.90306,70.11615],[20.90042,70.11393],[20.90228,70.11235]],[[20.78349,70.12297],[20.79148,70.1274],[20.7989,70.13252],[20.81085,70.14268]],[[20.38944,70.15162],[20.38912,70.1521],[20.3862,70.15236],[20.38243,70.15465],[20.38569,70.156],[20.38988,70.15639],[20.3955,70.15638],[20.39717,70.15693]],[[20.39717,70.15693],[20.40306,70.161]],[[20.81085,70.14268],[20.81565,70.14592],[20.81741,70.14805],[20.82478,70.15203],[20.83299,70.15524],[20.84042,70.15624],[20.84443,70.15551],[20.84392,70.15255],[20.84969,70.14956],[20.85224,70.14678],[20.85516,70.14489],[20.85541,70.14333],[20.85956,70.13987],[20.86202,70.13901]],[[20.42615,70.17918],[20.42594,70.17882],[20.42319,70.17873]],[[20.40306,70.161],[20.40368,70.16228],[20.40145,70.16345],[20.40374,70.16446],[20.40963,70.16498],[20.40943,70.16625],[20.41152,70.16842],[20.41054,70.16929],[20.41294,70.17024],[20.41393,70.17128],[20.41075,70.17263],[20.41291,70.17401],[20.41295,70.17566],[20.40908,70.17709],[20.41437,70.17844],[20.42319,70.17873]],[[20.78939,70.16779],[20.78855,70.16385],[20.78621,70.16154],[20.78663,70.16017],[20.78356,70.15774],[20.78421,70.15428],[20.78195,70.15199]],[[20.42372,70.18074],[20.43004,70.18232],[20.43436,70.18237],[20.43583,70.18273],[20.43934,70.18624],[20.4516,70.18756],[20.45682,70.18902],[20.46448,70.19021],[20.46796,70.19186],[20.48057,70.19348],[20.48364,70.19267]],[[20.48576,70.19264],[20.49069,70.19324],[20.49431,70.1931],[20.49756,70.19158],[20.50123,70.19086],[20.50286,70.19122],[20.50964,70.1914],[20.51672,70.19391]],[[20.51188,70.19771],[20.51008,70.19744],[20.509,70.19769],[20.51418,70.19911],[20.51751,70.19909],[20.51313,70.19843],[20.51188,70.19771]],[[20.53109,70.22096],[20.52935,70.21877],[20.5247,70.21673],[20.51771,70.21094],[20.51721,70.20861],[20.51855,70.20786],[20.52349,70.2005],[20.52289,70.19956],[20.51901,70.19912],[20.52081,70.19867],[20.52073,70.1977],[20.51806,70.19656],[20.51769,70.19566]],[[20.80002,70.21246],[20.80321,70.21131],[20.80516,70.20924],[20.80483,70.20836],[20.80231,70.2073],[20.80282,70.20614],[20.80506,70.20589],[20.80595,70.2054],[20.80451,70.20406],[20.80638,70.20307],[20.80903,70.20303],[20.80997,70.20184],[20.80745,70.19749],[20.80934,70.19584],[20.81075,70.19061],[20.80882,70.18645],[20.79995,70.17973],[20.79613,70.17494],[20.79562,70.17301],[20.79202,70.17079],[20.78939,70.16779]],[[20.53109,70.22096],[20.5368,70.22295],[20.53803,70.22415],[20.53934,70.22442],[20.55702,70.22583],[20.56313,70.22546],[20.56875,70.22673]],[[20.56875,70.22673],[20.57332,70.22745],[20.57547,70.22857],[20.58895,70.22865],[20.5948,70.2304],[20.5977,70.23052],[20.60441,70.23165],[20.6115,70.2321],[20.61609,70.23209],[20.61888,70.2313],[20.62944,70.23046],[20.63849,70.23019],[20.64356,70.2292],[20.64682,70.22937],[20.65897,70.2317],[20.66287,70.23158]],[[20.66394,70.23144],[20.67254,70.23053],[20.678,70.23096],[20.68318,70.23277],[20.68943,70.23615],[20.69488,70.23702],[20.70456,70.23712]],[[20.70456,70.23712],[20.70704,70.23669],[20.71224,70.23697],[20.71401,70.23628],[20.72378,70.23487],[20.73337,70.23254],[20.73835,70.23233],[20.7426,70.23031],[20.74432,70.23],[20.75013,70.23045],[20.75242,70.23188],[20.75475,70.23227],[20.75856,70.23104],[20.75836,70.22966],[20.7553,70.22695],[20.75668,70.22427],[20.75811,70.22418],[20.76048,70.22301],[20.75885,70.2205],[20.76079,70.21894],[20.76256,70.21845],[20.76731,70.21821],[20.77312,70.21873],[20.77587,70.21747],[20.7794,70.21683],[20.78169,70.21542],[20.794,70.21579],[20.79871,70.21435],[20.79846,70.2128],[20.80002,70.21246]],[[20.18604,70.16076],[20.18458,70.16101],[20.18461,70.16163],[20.18618,70.16325],[20.18776,70.16345],[20.18911,70.16238],[20.18634,70.16149],[20.18604,70.16076]],[[20.17301,70.16658],[20.17115,70.16648],[20.17024,70.16682],[20.17113,70.16901],[20.17303,70.16859],[20.17428,70.16769],[20.17301,70.16658]],[[20.16644,70.16575],[20.16437,70.16527],[20.16616,70.16396],[20.16566,70.16154],[20.16851,70.15791],[20.17176,70.156],[20.17386,70.15564],[20.17655,70.15578],[20.17742,70.15504],[20.17658,70.15423],[20.17551,70.15476],[20.17357,70.15449],[20.17269,70.15317],[20.1692,70.15388],[20.16762,70.15384],[20.16639,70.15246],[20.16309,70.15341],[20.16148,70.15488],[20.1572,70.15651],[20.15818,70.15734],[20.1557,70.15978],[20.15529,70.16226],[20.15636,70.16605],[20.16017,70.16993],[20.16105,70.17303],[20.16239,70.17349],[20.16428,70.17298],[20.16367,70.17134],[20.16523,70.16881],[20.16404,70.16766],[20.16644,70.16575]],[[20.23911,70.22973],[20.22835,70.2242],[20.2258,70.22177],[20.2243,70.21887],[20.22059,70.21591],[20.21778,70.21522],[20.20825,70.21937],[20.20657,70.22085],[20.20372,70.22724],[20.20191,70.22868],[20.2021,70.23081]],[[20.1938,70.27603],[20.1934,70.27478],[20.19496,70.27238],[20.19378,70.27178],[20.19645,70.27128],[20.19752,70.26827],[20.19675,70.26701],[20.19347,70.26618],[20.19345,70.26552],[20.19496,70.26524],[20.19403,70.26384],[20.19559,70.2621],[20.1974,70.26176],[20.19942,70.26065],[20.2007,70.25833],[20.1985,70.25574],[20.20073,70.24859],[20.19906,70.24281],[20.20109,70.23975],[20.20075,70.23695],[20.20261,70.23563],[20.2,70.23306],[20.19999,70.23232],[20.2021,70.23081]],[[20.24193,70.27463],[20.2443,70.27344],[20.25042,70.27253],[20.25399,70.2712],[20.25787,70.27052],[20.26895,70.26529],[20.27167,70.26483],[20.28205,70.26518],[20.28868,70.26498],[20.29077,70.26457],[20.29426,70.26225],[20.28958,70.26038],[20.28821,70.25911],[20.28668,70.25185],[20.28263,70.25032],[20.27981,70.24841],[20.26827,70.24535],[20.26689,70.24471],[20.26645,70.2436],[20.25947,70.24061],[20.24699,70.23695],[20.2455,70.23587],[20.24593,70.23357],[20.23981,70.23057],[20.23911,70.22973]],[[20.18503,70.28586],[20.18792,70.28335],[20.18833,70.27942],[20.19354,70.27763],[20.1938,70.27603]],[[20.1914,70.31101],[20.19379,70.30998],[20.19788,70.30911],[20.20437,70.30282],[20.21779,70.29833],[20.22128,70.29605],[20.22386,70.29224],[20.22848,70.28988],[20.23281,70.28523],[20.23421,70.28447],[20.23705,70.28387],[20.23854,70.28289],[20.23873,70.28014],[20.24193,70.27463]],[[20.18503,70.28586],[20.17223,70.28924],[20.17138,70.2915],[20.16851,70.29243],[20.16777,70.29381],[20.16544,70.29449],[20.16489,70.29532],[20.16843,70.29716],[20.16781,70.29834],[20.1717,70.29844],[20.17315,70.29902],[20.17184,70.29965],[20.172,70.30287],[20.1664,70.30783],[20.16736,70.30838],[20.1755,70.31019],[20.1891,70.31123],[20.1914,70.31101]],[[20.15516,70.31599],[20.15323,70.31614],[20.15221,70.31675],[20.15309,70.31765],[20.15594,70.31694],[20.15516,70.31599]],[[20.00057,70.06487],[19.99732,70.06222]],[[20.01149,70.08425],[20.00807,70.08432],[20.0024,70.0833]],[[20.04752,70.08712],[20.03703,70.08602]],[[20.04238,70.12133],[20.04068,70.12166],[20.04103,70.12341],[20.04224,70.12328],[20.04238,70.12133]],[[20.01926,70.15288],[20.02634,70.14754],[20.03211,70.14572]],[[20.02463,70.17494],[20.02305,70.17683],[20.02352,70.17794],[20.02539,70.17805]],[[19.99976,70.07237],[20.00145,70.07214],[20.00106,70.07161],[20.00194,70.07125],[20.00748,70.07044],[20.00057,70.06487]],[[20.03703,70.08602],[20.02222,70.0842],[20.01474,70.084],[20.01149,70.08425]],[[19.99908,70.07985],[20.00048,70.08044],[19.99577,70.08234]],[[19.99806,70.08355],[20.0024,70.0833]],[[20.12194,70.09819],[20.11784,70.09741],[20.11144,70.09697],[20.10626,70.09553],[20.10338,70.09527],[20.09832,70.09609],[20.0916,70.09591],[20.08899,70.09506],[20.08726,70.09369],[20.08685,70.09303],[20.08864,70.09205],[20.08871,70.09127],[20.08616,70.08933],[20.0809,70.08914],[20.07711,70.08992],[20.07009,70.09056],[20.06163,70.08967],[20.0521,70.08726],[20.04752,70.08712]],[[20.01097,70.11875],[20.01466,70.11807],[20.01614,70.11817],[20.01797,70.11973],[20.01974,70.12027],[20.02317,70.12043],[20.02627,70.12134],[20.02897,70.12058],[20.02979,70.11864],[20.03557,70.11808],[20.0418,70.11795],[20.05207,70.12004],[20.05661,70.11827],[20.05414,70.11752],[20.05484,70.11698],[20.05874,70.11687],[20.06186,70.11545],[20.06552,70.1163],[20.07055,70.1161],[20.0713,70.11508],[20.07358,70.11464],[20.07643,70.11336],[20.07541,70.11074],[20.07917,70.10986],[20.07895,70.10937],[20.07479,70.10833],[20.07681,70.10684],[20.08617,70.10826],[20.08871,70.10828],[20.09219,70.10774],[20.10607,70.10676],[20.11261,70.10806],[20.11874,70.10864],[20.12093,70.10783],[20.12187,70.10679],[20.12148,70.10489],[20.12361,70.104],[20.12315,70.10323],[20.12128,70.10246],[20.11881,70.1022],[20.11874,70.10184],[20.12055,70.10129],[20.12274,70.10179],[20.12701,70.10144],[20.12517,70.1001],[20.12521,70.09916],[20.12194,70.09819]],[[19.99495,70.13961],[20.00295,70.14064],[20.00532,70.14005],[20.0063,70.13908],[20.00553,70.1373],[20.00694,70.13578],[20.0054,70.1342],[20.00844,70.1335],[20.00832,70.13163],[20.0068,70.13104],[20.005,70.13095],[19.99679,70.13149]],[[19.99374,70.13005],[20.00245,70.13001],[20.00347,70.12901],[19.99956,70.12816]],[[19.99905,70.12309],[20.00047,70.12228],[19.99986,70.12045]],[[19.99986,70.12045],[20.00438,70.1201],[20.00819,70.11851],[20.01097,70.11875]],[[20.0453,70.14535],[20.04126,70.14398],[20.03858,70.14401],[20.03211,70.14572]],[[20.02352,70.17042],[20.02835,70.16915],[20.03446,70.16971],[20.04121,70.16821],[20.04769,70.16453],[20.05697,70.16233],[20.06107,70.15995],[20.06263,70.15731],[20.05888,70.15274],[20.0576,70.1519],[20.05036,70.15124],[20.04729,70.15001],[20.04789,70.14637],[20.0453,70.14535]],[[20.02539,70.17805],[20.02787,70.17783],[20.02921,70.17713],[20.02974,70.17488],[20.02707,70.17428],[20.02463,70.17494]],[[20.01926,70.15288],[20.01257,70.15354],[20.00467,70.15526],[19.99852,70.15534]],[[19.99859,70.17323],[20.00331,70.17316],[20.01218,70.17411],[20.01443,70.17371],[20.02352,70.17042]]]}}]}