{"type":"FeatureCollection","features":[{"type":"Feature","properties":{},"geometry":{"type":"MultiLineString","coordinates":[[[24.98676,70.11733],[24.9857,70.11739]],[[24.99026,70.11714],[24.99159,70.11647],[24.98983,70.11571]],[[24.9197,70.12116],[24.9199,70.12109]],[[24.9279,70.16421],[24.92572,70.16252],[24.92101,70.15541],[24.91752,70.15437],[24.91881,70.15384],[24.91852,70.1531],[24.91508,70.15225],[24.90546,70.15328],[24.90269,70.15416],[24.90161,70.15359]],[[24.99112,70.16245],[24.98968,70.16209],[24.98903,70.16257]],[[24.98903,70.16257],[24.98856,70.16318],[24.99028,70.16366],[24.99191,70.16303],[24.99112,70.16245]],[[24.9383,70.16829],[24.94295,70.16915]],[[24.92393,70.18406],[24.92519,70.18313]],[[24.99668,70.05409],[25.0018,70.05335]],[[24.99668,70.05409],[24.99217,70.05434],[24.98676,70.05571],[24.98504,70.05805],[24.98517,70.05991],[24.98691,70.06237]],[[24.99088,70.06675],[24.99008,70.06462],[24.98691,70.06237]],[[24.99051,70.07175],[24.99452,70.06969],[24.99088,70.06675]],[[24.92842,70.07953],[24.92766,70.08062],[24.9283,70.08215],[24.93188,70.08247],[24.93881,70.08139],[24.94619,70.08214],[24.94986,70.08187],[24.95001,70.08154],[24.94657,70.08157],[24.94523,70.08101],[24.94916,70.08046],[24.95193,70.08061],[24.95375,70.081],[24.9542,70.08168],[24.95672,70.08194],[24.95747,70.08164],[24.95658,70.08031],[24.95841,70.08011],[24.95992,70.08077],[24.96517,70.08032],[24.96489,70.07968],[24.96831,70.07944],[24.97055,70.08268],[24.97352,70.07786],[24.98163,70.07597],[24.98892,70.07527],[24.99174,70.07444],[24.9898,70.07316],[24.99051,70.07175]],[[24.9135,70.08704],[24.91446,70.08362],[24.91676,70.08175],[24.91836,70.08172],[24.92321,70.0789],[24.92457,70.07867]],[[24.91306,70.09915],[24.91239,70.09638],[24.9135,70.08704]],[[25.00098,70.09396],[24.98993,70.09428],[24.98733,70.09819],[24.98537,70.09894],[24.97871,70.10015],[24.97867,70.101],[24.98159,70.10221],[24.98286,70.1035],[24.98233,70.1057],[24.98082,70.10615],[24.97892,70.10603],[24.9778,70.10672],[24.98264,70.10639],[24.98807,70.10788],[24.98902,70.10956],[24.98717,70.11125],[24.98624,70.1143],[24.98983,70.11571]],[[24.98676,70.11733],[24.98864,70.11752],[24.99026,70.11714]],[[24.9199,70.12109],[24.9216,70.11883],[24.91923,70.11664],[24.92186,70.11531],[24.92084,70.11428],[24.92376,70.11386],[24.92602,70.11405],[24.92645,70.1137],[24.92577,70.11292],[24.92211,70.11284],[24.91963,70.11099],[24.91788,70.10856],[24.91917,70.10642],[24.9212,70.10586],[24.91959,70.1051],[24.92054,70.10447],[24.91514,70.10205],[24.91306,70.09915]],[[24.99507,70.14678],[24.99303,70.14678],[24.99374,70.14792],[24.99728,70.14844],[24.99723,70.14727],[24.99507,70.14678]],[[24.90161,70.15359],[24.9025,70.15178],[24.90607,70.1511],[24.90724,70.15024],[24.90632,70.1498],[24.90381,70.15002],[24.90346,70.14928],[24.90562,70.14822],[24.90949,70.14837],[24.91288,70.14496],[24.9128,70.1438],[24.91116,70.14316],[24.91153,70.14165],[24.9144,70.14068],[24.91488,70.13759],[24.9178,70.13473],[24.91676,70.12662],[24.91778,70.12299],[24.9197,70.12116]],[[24.9857,70.11739],[24.9818,70.11972],[24.98483,70.12238],[24.98438,70.12586],[24.98853,70.12881],[24.99163,70.12735],[24.99461,70.12677],[24.99923,70.12825],[25.00174,70.12965]],[[25.00063,70.13086],[24.99789,70.13183],[24.99801,70.13459],[25.00421,70.13763]],[[24.92866,70.16596],[24.9279,70.16421]],[[25.00616,70.15983],[24.99826,70.15766],[25.00072,70.15677]],[[25.00072,70.15677],[24.99885,70.15437],[24.99778,70.154],[24.99039,70.15445],[24.98861,70.15883],[24.99066,70.15982],[24.98942,70.1605],[24.98983,70.16114],[24.9906,70.16161],[24.99368,70.16203],[24.99473,70.16099],[24.99993,70.16018],[25.0017,70.16076]],[[24.92866,70.16596],[24.93177,70.16708],[24.9383,70.16829]],[[24.94801,70.17956],[24.95847,70.17507],[24.95974,70.17333],[24.9577,70.17235],[24.94295,70.16915]],[[24.98538,70.17254],[24.98426,70.17233],[24.9831,70.17279],[24.98222,70.17511],[24.98278,70.17607],[24.98533,70.17727],[24.98714,70.17756],[24.98819,70.17519],[24.98538,70.17254]],[[24.93042,70.18004],[24.93118,70.17993],[24.93858,70.18172]],[[24.93858,70.18172],[24.94201,70.18145],[24.94801,70.17956]],[[24.92639,70.18313],[24.92875,70.18411],[24.93316,70.18281],[24.93137,70.1814],[24.92752,70.18097],[24.92785,70.18043],[24.93042,70.18004]],[[24.98321,70.18666],[24.98162,70.1869],[24.98156,70.1875],[24.98472,70.18926],[24.98321,70.18666]],[[24.91794,70.1979],[24.91947,70.19637],[24.92196,70.19528],[24.93062,70.19427],[24.92843,70.1937],[24.92501,70.19375],[24.92504,70.19304],[24.92171,70.19147],[24.9239,70.19128],[24.92648,70.18952],[24.92848,70.18965],[24.93024,70.18903],[24.9258,70.1878],[24.92757,70.18757],[24.92811,70.18656],[24.93155,70.18744],[24.9311,70.18663],[24.93313,70.18609],[24.93158,70.18514],[24.92393,70.18406]],[[24.98231,70.19293],[24.97919,70.19396],[24.9808,70.19518],[24.98417,70.19627],[24.98551,70.1956],[24.98512,70.19483],[24.98231,70.19293]],[[24.9365,70.21088],[24.93736,70.20958],[24.94157,70.20831],[24.94093,70.20634],[24.93925,70.20546],[24.93524,70.20475],[24.92599,70.20403],[24.92004,70.20306],[24.91797,70.20315],[24.91794,70.1979]],[[25.00189,70.2037],[24.99861,70.20264],[24.99584,70.20248],[24.99441,70.20302],[24.98785,70.20206],[24.98146,70.20581],[24.9817,70.20835]],[[24.9817,70.20835],[24.98221,70.21071],[24.98751,70.21207]],[[24.98751,70.21207],[24.99026,70.21222],[24.99274,70.2143]],[[24.93056,70.21899],[24.93107,70.2186]],[[24.93107,70.2186],[24.94154,70.2197],[24.93984,70.21818],[24.94081,70.21718],[24.93813,70.21543],[24.93806,70.21292],[24.9365,70.21088]],[[24.99274,70.2143],[24.99387,70.21612],[24.99522,70.21669],[24.99902,70.21719],[25.00119,70.2164]],[[25.00119,70.2164],[24.99973,70.21417],[25.00071,70.21371]],[[24.98782,70.22207],[24.98627,70.22215],[24.98491,70.22337],[24.98548,70.2237],[24.98746,70.22374],[24.9884,70.22318],[24.98782,70.22207]],[[24.93056,70.21899],[24.94016,70.22301],[24.94333,70.22587],[24.94234,70.22706]],[[24.93748,70.2301],[24.94149,70.22944],[24.94248,70.22888],[24.94234,70.22706]],[[25.0013,70.2236],[24.99321,70.2217],[24.99121,70.22236],[24.99251,70.22299],[24.99114,70.22615],[24.99333,70.22724],[24.99441,70.22888],[24.99787,70.22904],[24.99972,70.23122],[25.00399,70.23268]],[[24.93748,70.2301],[24.93598,70.23085],[24.93815,70.23167],[24.94344,70.23265],[24.95264,70.23519],[24.96054,70.23648],[24.96713,70.23879],[24.97786,70.24076]],[[25.00422,70.24744],[24.99737,70.24586],[24.9948,70.24457],[24.99163,70.24422],[24.989,70.24302],[24.97786,70.24076]],[[24.32709,70.44886],[24.32643,70.44767]],[[24.32709,70.44886],[24.32612,70.45155],[24.32157,70.45502]],[[24.31469,70.45993],[24.31821,70.45807],[24.32157,70.45502]],[[24.28772,70.49046],[24.29008,70.49036]],[[24.2826,70.49192],[24.28603,70.49063],[24.28772,70.49046]],[[24.2826,70.49192],[24.27665,70.49429],[24.27286,70.49696],[24.26702,70.49954],[24.26448,70.50172]],[[24.61746,70.61303],[24.62713,70.61302]],[[24.6313,70.61307],[24.63944,70.61359]],[[24.54423,70.65537],[24.54338,70.65523],[24.53974,70.65603],[24.53921,70.65702],[24.54423,70.65537]],[[24.57726,70.68562],[24.57401,70.68563],[24.57178,70.68642],[24.5745,70.68661],[24.57753,70.6863],[24.57823,70.68597],[24.57726,70.68562]],[[24.65763,70.69612],[24.66414,70.69533]],[[24.30355,70.44806],[24.30842,70.44742]],[[24.30842,70.44742],[24.31668,70.44719],[24.31418,70.44837],[24.30975,70.44876],[24.31389,70.44964],[24.32258,70.44849]],[[24.32258,70.44849],[24.32341,70.44969],[24.31657,70.45053],[24.31979,70.45131],[24.32139,70.45237],[24.32425,70.44987],[24.32449,70.4478]],[[24.27291,70.45829],[24.27775,70.45645],[24.27989,70.45486],[24.28597,70.45333],[24.29285,70.45229],[24.30355,70.44806]],[[24.26799,70.46047],[24.27291,70.45829]],[[24.27117,70.46817],[24.26997,70.46684],[24.27156,70.46524],[24.26765,70.4623],[24.26799,70.46047]],[[24.27445,70.47305],[24.27534,70.46972],[24.27474,70.46907],[24.27117,70.46817]],[[24.31505,70.47095],[24.31741,70.46918],[24.31725,70.46677],[24.31139,70.46392],[24.31047,70.46251],[24.31071,70.46182],[24.31469,70.45993]],[[24.26114,70.4784],[24.26028,70.47939],[24.26344,70.48006],[24.27084,70.47789],[24.27311,70.4768],[24.27486,70.47399],[24.27445,70.47305]],[[24.21949,70.47967],[24.21814,70.4791],[24.23113,70.47979],[24.23782,70.48104],[24.24337,70.48123],[24.25859,70.47843],[24.25963,70.47773],[24.26121,70.47796],[24.26114,70.4784]],[[24.31505,70.47095],[24.31287,70.473],[24.30923,70.47928]],[[24.16723,70.48628],[24.1732,70.48676],[24.18114,70.48568],[24.18898,70.48607],[24.19857,70.4857],[24.20372,70.48646],[24.20731,70.48649],[24.22735,70.48524],[24.22772,70.48466],[24.22111,70.48437],[24.22361,70.48222],[24.21949,70.47967]],[[24.25011,70.48341],[24.24643,70.48367],[24.24496,70.48441],[24.2458,70.48504],[24.24808,70.48546],[24.2515,70.48503],[24.25276,70.48415],[24.25011,70.48341]],[[24.29008,70.49036],[24.29438,70.48926],[24.29586,70.48637],[24.30256,70.48341],[24.30923,70.47928]],[[24.18432,70.52295],[24.18802,70.52129],[24.19917,70.51823],[24.20566,70.51725],[24.21175,70.51724],[24.22113,70.51641],[24.24026,70.51146],[24.24787,70.50994],[24.25582,70.50657],[24.25749,70.50423],[24.26448,70.50172]],[[24.16831,70.52583],[24.17858,70.5245],[24.18432,70.52295]],[[24.16791,70.58157],[24.17137,70.58318],[24.1719,70.58398]],[[24.1719,70.58398],[24.169,70.58691],[24.17149,70.58809],[24.17518,70.5882],[24.17963,70.58947],[24.18161,70.59088],[24.18184,70.59194],[24.18981,70.59513]],[[24.18981,70.59513],[24.19388,70.59593],[24.19971,70.59884]],[[24.19971,70.59884],[24.2011,70.59957],[24.19798,70.60051],[24.19826,70.60143],[24.20078,70.60259],[24.20361,70.6029]],[[24.23306,70.61105],[24.23372,70.6076],[24.23579,70.60668],[24.23747,70.60297],[24.23398,70.59846],[24.23063,70.59805],[24.22683,70.59836],[24.22173,70.59955],[24.21621,70.60171],[24.20714,70.60367],[24.20505,70.60378],[24.20468,70.60305],[24.20361,70.6029]],[[24.61248,70.61368],[24.61746,70.61303]],[[24.60142,70.61844],[24.6077,70.61474],[24.61248,70.61368]],[[24.63944,70.61359],[24.65097,70.61587],[24.65807,70.61836]],[[24.58327,70.62772],[24.58529,70.62731],[24.58904,70.62728],[24.59265,70.62616],[24.59349,70.62441],[24.59518,70.62388],[24.59786,70.62371],[24.59812,70.62219],[24.60142,70.61844]],[[24.56441,70.63918],[24.57104,70.63281],[24.578,70.63033],[24.58327,70.62772]],[[24.24174,70.6559],[24.24032,70.65432],[24.24077,70.65157],[24.238,70.64944],[24.23987,70.64802],[24.23653,70.64589],[24.23548,70.64122],[24.23272,70.64005],[24.2292,70.63741],[24.23128,70.63593],[24.2368,70.63435],[24.23725,70.63336],[24.23206,70.6309],[24.23013,70.62899],[24.23266,70.62779],[24.23229,70.62689],[24.23394,70.62469],[24.23288,70.61948],[24.23106,70.61629],[24.23107,70.61351],[24.23306,70.61105]],[[24.69634,70.63218],[24.69489,70.63078],[24.69192,70.62962],[24.69291,70.62785],[24.69186,70.62692],[24.68877,70.62605],[24.685,70.62563],[24.68335,70.62575],[24.68122,70.6267],[24.67736,70.62559],[24.67336,70.62559],[24.66702,70.62272],[24.66633,70.62073],[24.65919,70.61888]],[[24.5036,70.66052],[24.50929,70.66082],[24.51713,70.65919],[24.51936,70.65792],[24.52726,70.65613],[24.53124,70.65407],[24.53567,70.65271],[24.54451,70.65215],[24.5486,70.64974],[24.55279,70.64933],[24.56198,70.64691],[24.56755,70.64348],[24.56662,70.64191],[24.56353,70.64108],[24.56441,70.63918]],[[24.65138,70.66381],[24.65582,70.66103],[24.65793,70.6607],[24.65878,70.66009],[24.65497,70.65782],[24.65958,70.65441],[24.66969,70.65251],[24.6857,70.6463],[24.68223,70.64453],[24.68153,70.64263],[24.68319,70.64081],[24.68007,70.64045],[24.67937,70.63965],[24.68209,70.63742],[24.68596,70.63611],[24.6909,70.63542],[24.69342,70.63465],[24.69613,70.63305],[24.69634,70.63218]],[[24.64301,70.66596],[24.64717,70.66596]],[[24.64717,70.66596],[24.64976,70.66561],[24.65138,70.66381]],[[24.37879,70.68586],[24.3806,70.68566],[24.38002,70.68409],[24.38124,70.68286],[24.38274,70.68258],[24.3879,70.68435],[24.39076,70.68399],[24.39531,70.68498],[24.39772,70.68618],[24.40167,70.68651],[24.4042,70.68568],[24.40513,70.68291],[24.40303,70.6805],[24.40686,70.67965],[24.42487,70.68177],[24.4365,70.68104],[24.43965,70.68108],[24.44024,70.68158],[24.44304,70.68179],[24.44774,70.68138],[24.44814,70.68167],[24.44573,70.68244],[24.44795,70.6831],[24.44511,70.68339],[24.44661,70.68378],[24.45094,70.68373],[24.46169,70.68277],[24.46704,70.67903],[24.47487,70.67696],[24.47639,70.67557],[24.47469,70.67343],[24.47066,70.67274],[24.46987,70.6722],[24.47008,70.67043],[24.47168,70.66892],[24.4683,70.6673],[24.46905,70.66626],[24.47325,70.66563],[24.48062,70.66571],[24.49024,70.66482],[24.49539,70.66383],[24.49769,70.66397],[24.50084,70.66326],[24.50063,70.66119],[24.5036,70.66052]],[[24.36209,70.69504],[24.3566,70.69509],[24.35061,70.69354],[24.34647,70.69186],[24.34559,70.69073],[24.34618,70.69004],[24.34926,70.68997],[24.34953,70.68959],[24.34693,70.68952],[24.34429,70.68896],[24.34588,70.68826],[24.34338,70.6869],[24.33759,70.68668],[24.33493,70.68615],[24.3311,70.68396],[24.3226,70.68106],[24.32064,70.68107],[24.31878,70.6816],[24.31765,70.68272],[24.3195,70.68454],[24.32361,70.68634],[24.31972,70.68672],[24.3171,70.68632],[24.3161,70.68649],[24.31627,70.68863],[24.31397,70.68891],[24.31172,70.68839],[24.31113,70.6877],[24.30635,70.68681],[24.29792,70.68619],[24.29772,70.68516],[24.29609,70.68427],[24.29921,70.68333],[24.29602,70.68257],[24.30033,70.6818],[24.30005,70.68128],[24.28715,70.68051],[24.28328,70.67986],[24.28073,70.67915],[24.28052,70.678],[24.27473,70.67695],[24.27353,70.67613],[24.27276,70.67249],[24.27342,70.67163],[24.27759,70.66946],[24.27945,70.6662],[24.28674,70.66278],[24.2835,70.66018],[24.28143,70.65946],[24.26872,70.65989],[24.2606,70.66081],[24.25278,70.66112],[24.24812,70.66089],[24.24127,70.65922],[24.24067,70.65785],[24.24174,70.6559]],[[24.36555,70.69486],[24.36239,70.69289],[24.3542,70.69015],[24.35333,70.68822],[24.3481,70.68475],[24.34782,70.68332],[24.35122,70.68266],[24.35786,70.68371],[24.36224,70.68475],[24.36472,70.68693],[24.36941,70.68551],[24.37879,70.68586]],[[24.61594,70.68179],[24.61584,70.68105],[24.62221,70.67541],[24.62568,70.67424],[24.62651,70.67319],[24.62566,70.67217],[24.63463,70.66839],[24.63816,70.66772],[24.64301,70.66596]],[[24.36209,70.69504],[24.36268,70.69551],[24.35878,70.69593],[24.35829,70.69631],[24.36134,70.69712],[24.36759,70.69654],[24.36725,70.69538],[24.36555,70.69486]],[[24.66437,70.69395],[24.65687,70.69457]],[[24.61594,70.68179],[24.61436,70.68325],[24.60525,70.68586],[24.60044,70.68619],[24.59615,70.6857],[24.59263,70.68587],[24.59316,70.6865],[24.59051,70.6882],[24.60137,70.68866],[24.59708,70.69127],[24.59393,70.69205],[24.59545,70.69275],[24.59431,70.69376],[24.61027,70.69392],[24.61138,70.69448],[24.61049,70.69509],[24.61119,70.69562],[24.61499,70.69677],[24.62379,70.69556],[24.63027,70.6952],[24.63364,70.69449],[24.64163,70.69582],[24.644,70.6955],[24.64539,70.69483],[24.6489,70.69442],[24.65271,70.69482],[24.65687,70.69457]],[[24.66414,70.69533],[24.67225,70.69453],[24.673,70.6939],[24.67234,70.69334],[24.66437,70.69395]],[[24.59731,70.69975],[24.59438,70.70033],[24.59646,70.70159],[24.59767,70.70172],[24.60048,70.70128],[24.6007,70.70061],[24.59966,70.69995],[24.59731,70.69975]],[[24.53212,70.72016],[24.5457,70.71793],[24.55965,70.71778],[24.56743,70.71721],[24.56971,70.7166],[24.57008,70.71554],[24.56731,70.71475],[24.56567,70.71208],[24.55966,70.71193],[24.5547,70.71254],[24.54671,70.71247],[24.5447,70.71222],[24.54466,70.71166],[24.54225,70.71096],[24.54103,70.71002],[24.54164,70.70883],[24.54721,70.70652],[24.55005,70.70588],[24.5561,70.70495],[24.56053,70.70498],[24.57156,70.70647],[24.57377,70.70621],[24.57608,70.70519],[24.57805,70.70539],[24.58048,70.70626],[24.57833,70.70828],[24.57947,70.70958],[24.575,70.71169],[24.5803,70.7133],[24.58386,70.71366],[24.58947,70.71253],[24.59287,70.71113],[24.59886,70.70966],[24.6031,70.70808],[24.60362,70.70725],[24.60749,70.7069],[24.61811,70.70458],[24.62704,70.70404],[24.63017,70.70345],[24.6322,70.70251],[24.63266,70.70008],[24.63591,70.69869],[24.64285,70.69775],[24.65261,70.69792],[24.65763,70.69612]],[[24.53101,70.73159],[24.52957,70.73048],[24.52298,70.73068],[24.51625,70.72919],[24.51296,70.72881],[24.51086,70.72903],[24.5085,70.72855],[24.51914,70.72614],[24.52117,70.72442],[24.52363,70.72361],[24.52644,70.72078],[24.53212,70.72016]],[[24.40876,70.7493],[24.41302,70.74923],[24.41513,70.74805],[24.41849,70.74759],[24.43266,70.74662],[24.43945,70.7457],[24.45726,70.7453],[24.46709,70.7456],[24.48756,70.74695],[24.49195,70.74693],[24.49698,70.7458],[24.50269,70.74595],[24.5076,70.74691],[24.50994,70.7482],[24.51212,70.74838],[24.51356,70.74794],[24.51619,70.74815],[24.5213,70.75043],[24.53028,70.74979],[24.53527,70.74893],[24.53651,70.74808],[24.53316,70.74703],[24.53043,70.74473],[24.528,70.74389],[24.52981,70.74368],[24.53145,70.74398],[24.53421,70.74351],[24.53757,70.74476],[24.53791,70.74557],[24.53944,70.74544],[24.54063,70.74473],[24.53754,70.74256],[24.53478,70.74227],[24.53107,70.74276],[24.52876,70.74246],[24.52339,70.74042],[24.52368,70.73989],[24.52757,70.73926],[24.52883,70.73821],[24.52781,70.7374],[24.52455,70.73672],[24.52386,70.73614],[24.52417,70.73559],[24.53106,70.73332],[24.53101,70.73159]],[[24.28018,70.76796],[24.29239,70.76748],[24.29828,70.7678],[24.29996,70.76733],[24.30757,70.76672],[24.31468,70.76688],[24.31578,70.76616],[24.31299,70.76501],[24.31274,70.7636],[24.30874,70.76276],[24.30886,70.76216],[24.31033,70.76191],[24.317,70.76171],[24.32125,70.762],[24.32154,70.76286],[24.31983,70.7641],[24.32272,70.76504],[24.32658,70.76546],[24.32779,70.76471],[24.33552,70.7651],[24.33598,70.76482],[24.3343,70.76444],[24.33462,70.76415],[24.34971,70.76407],[24.37194,70.76226],[24.37246,70.76078],[24.37121,70.75989],[24.36716,70.75904],[24.36019,70.75933],[24.35269,70.75778],[24.35358,70.75757],[24.35775,70.75798],[24.35805,70.75764],[24.34817,70.75644],[24.34865,70.75576],[24.35648,70.75438],[24.35548,70.75271],[24.34938,70.75173],[24.35003,70.75084],[24.35175,70.75083],[24.35414,70.75166],[24.35645,70.75123],[24.36137,70.75156],[24.36603,70.75129],[24.36768,70.75094],[24.36927,70.74932],[24.37438,70.74914],[24.37781,70.7486],[24.39649,70.74958],[24.40876,70.7493]],[[24.11078,70.61729],[24.11078,70.61724]],[[24.15276,70.79626],[24.15511,70.79465]],[[24.16309,70.79575],[24.16347,70.7949],[24.15511,70.79465]],[[24.02562,70.99158],[24.02628,70.99118],[24.02537,70.9907],[24.03006,70.98999],[24.03237,70.98891]],[[24.15137,70.48861],[24.15575,70.48739],[24.16116,70.48653],[24.16449,70.48615],[24.16723,70.48628]],[[24.11216,70.49207],[24.13101,70.49142],[24.15137,70.48861]],[[24.08618,70.49798],[24.08912,70.49748],[24.09871,70.49344],[24.1026,70.49272],[24.11216,70.49207]],[[24.06788,70.50141],[24.07481,70.49955],[24.08618,70.49798]],[[24.05507,70.50683],[24.06788,70.50141]],[[24.05232,70.50844],[24.05507,70.50683]],[[23.9978,70.50916],[24.01213,70.51109],[24.02269,70.51133],[24.02656,70.51237]],[[24.02656,70.51237],[24.02948,70.51262],[24.03734,70.51195],[24.04258,70.51254],[24.04706,70.51204],[24.05232,70.50844]],[[24.0035,70.53206],[24.00201,70.52961],[23.99641,70.52575]],[[24.0035,70.53206],[24.00546,70.53607],[24.0037,70.5392],[23.99957,70.54056]],[[23.99919,70.54863],[24.00423,70.55107],[24.0121,70.55199],[24.01475,70.5527],[24.02153,70.55606],[24.02753,70.55792],[24.02859,70.56075],[24.03903,70.56599],[24.04192,70.56657],[24.05127,70.56731]],[[24.06766,70.57412],[24.06059,70.5711],[24.05606,70.56843],[24.05127,70.56731]],[[24.14974,70.56999],[24.14353,70.56783],[24.14008,70.56825],[24.13927,70.56686],[24.13578,70.56652],[24.12921,70.56375],[24.12558,70.56332],[24.12017,70.56168],[24.11295,70.55669],[24.10788,70.55492],[24.10389,70.55419],[24.10463,70.55267],[24.10234,70.54929],[24.09329,70.54431],[24.09055,70.54097],[24.09217,70.53992],[24.09381,70.53671],[24.09736,70.53452],[24.102,70.53452],[24.10468,70.53363],[24.10683,70.53342],[24.11024,70.53378],[24.10986,70.53494],[24.11062,70.53521],[24.11383,70.53509],[24.11647,70.53411],[24.11849,70.53151],[24.12097,70.53088],[24.12195,70.53105],[24.12367,70.53323],[24.12099,70.5343],[24.1205,70.53522],[24.12157,70.53564],[24.1226,70.53416],[24.12402,70.53384],[24.13391,70.53336],[24.13725,70.53279],[24.14785,70.52843],[24.1514,70.5275],[24.16831,70.52583]],[[24.14974,70.56999],[24.15775,70.57086],[24.16136,70.57172],[24.16212,70.57519],[24.16317,70.57639],[24.16631,70.57761],[24.16791,70.58157]],[[24.11078,70.61724],[24.11231,70.61548],[24.119,70.61543],[24.12162,70.61469],[24.12689,70.61431],[24.12734,70.61229],[24.13103,70.6102],[24.13086,70.60859],[24.12807,70.6069],[24.12728,70.60545],[24.12873,70.6041],[24.1283,70.60201],[24.12222,70.59802],[24.12114,70.59579],[24.11449,70.59246],[24.11367,70.59045],[24.10926,70.58787],[24.10949,70.58662],[24.10543,70.58546],[24.10262,70.58502],[24.10006,70.58515],[24.09633,70.58419],[24.08805,70.58081],[24.07508,70.57742],[24.06766,70.57412]],[[24.08724,70.64669],[24.09023,70.64713],[24.09386,70.6483],[24.10284,70.64836],[24.10623,70.6456],[24.10996,70.64462],[24.11093,70.64253],[24.11424,70.64216],[24.11245,70.63885],[24.10163,70.63379],[24.10164,70.63234],[24.09598,70.63128],[24.09506,70.6304],[24.09681,70.62875],[24.10117,70.62766],[24.10695,70.62741],[24.11903,70.62795],[24.12088,70.6285],[24.12233,70.6283],[24.12047,70.62654],[24.12064,70.62472],[24.12327,70.62366],[24.12314,70.62298],[24.12602,70.62237],[24.12577,70.62165],[24.12029,70.62086],[24.11221,70.61876]],[[24.07855,70.66413],[24.07957,70.66234],[24.0835,70.66143],[24.0854,70.65996],[24.08527,70.65852],[24.08776,70.65724],[24.08726,70.65583],[24.08289,70.65455],[24.07508,70.65344],[24.07018,70.65201],[24.04462,70.64816],[24.04148,70.64755],[24.04119,70.64702],[24.04499,70.64565],[24.0483,70.64541],[24.05414,70.64585],[24.07082,70.64582],[24.07649,70.64697],[24.08405,70.64653],[24.08724,70.64669]],[[23.99928,70.69068],[24.01486,70.6925],[24.02017,70.69235],[24.03324,70.68853],[24.03532,70.68675],[24.04035,70.68586],[24.04458,70.68445],[24.04631,70.68183],[24.05511,70.67933],[24.05935,70.6764],[24.06435,70.67398],[24.07132,70.66801],[24.07751,70.66537],[24.07855,70.66413]],[[24.15659,70.79787],[24.15903,70.79673],[24.16309,70.79575]],[[24.15276,70.79626],[24.15241,70.79724],[24.15659,70.79787]],[[24.10001,70.82183],[24.09757,70.82127],[24.09656,70.82022],[24.09252,70.81865],[24.08517,70.81773],[24.08326,70.81798],[24.0797,70.81766],[24.07834,70.81947],[24.07318,70.81908],[24.0686,70.8203],[24.06982,70.82102],[24.07475,70.82212],[24.0757,70.82293],[24.07356,70.82307],[24.07401,70.82371],[24.07814,70.8246],[24.07826,70.82515],[24.08332,70.82664],[24.08894,70.82742],[24.09421,70.82577],[24.09372,70.82456],[24.09537,70.8235],[24.09946,70.82299],[24.10088,70.82244],[24.10001,70.82183]],[[24.16733,70.79553],[24.16763,70.79552]],[[23.99129,70.91906],[24.00533,70.91688],[24.01368,70.91461],[24.01668,70.91453],[24.02248,70.91531],[24.02781,70.91526],[24.04167,70.91366],[24.0497,70.91335],[24.05479,70.91402],[24.05974,70.91422],[24.06865,70.91608],[24.07309,70.91584]],[[24.07935,70.92941],[24.0828,70.92884],[24.08809,70.92866],[24.09116,70.92787],[24.0858,70.92605],[24.08447,70.92447],[24.07956,70.92349],[24.08055,70.92163],[24.07698,70.92165],[24.07759,70.92084],[24.08267,70.9186],[24.08194,70.9176],[24.07757,70.91629],[24.07309,70.91584]],[[24.07935,70.92941],[24.07825,70.9302],[24.08001,70.93083]],[[24.09185,70.93515],[24.09158,70.93389],[24.08259,70.93244],[24.08001,70.93083]],[[24.15027,70.93225],[24.14701,70.93148],[24.1459,70.92934],[24.14321,70.92883],[24.14222,70.92803],[24.13963,70.92801],[24.13653,70.92823],[24.12856,70.93],[24.11955,70.93112],[24.11748,70.9319],[24.11324,70.93231],[24.1101,70.93358],[24.10695,70.93357],[24.10422,70.93397],[24.10317,70.93459]],[[24.09185,70.93515],[24.09463,70.9361],[24.09826,70.93626],[24.10163,70.93578],[24.10317,70.93459]],[[24.09862,70.97102],[24.10431,70.97181],[24.10903,70.97148],[24.11579,70.97159],[24.11654,70.97085],[24.11874,70.97038],[24.1264,70.96969],[24.13485,70.97207],[24.14422,70.97331],[24.14408,70.97132],[24.13943,70.9689],[24.14014,70.96771],[24.14198,70.96687],[24.14401,70.96677],[24.14746,70.96795],[24.16136,70.96935],[24.16527,70.96939],[24.17126,70.96817],[24.17895,70.96915],[24.18263,70.96924],[24.18913,70.96845],[24.19066,70.9678],[24.19356,70.96741],[24.19985,70.96749],[24.20461,70.96709],[24.21202,70.96481],[24.21262,70.963],[24.21731,70.96125],[24.21928,70.96098],[24.2198,70.96151],[24.22263,70.96172],[24.22727,70.96085],[24.22715,70.9595],[24.22167,70.95869],[24.21349,70.95642],[24.20716,70.956],[24.19682,70.9569],[24.19315,70.95681],[24.19348,70.95606],[24.19073,70.95479],[24.18096,70.95202],[24.18265,70.95093],[24.18817,70.9512],[24.20212,70.95107],[24.2168,70.95003],[24.21762,70.94906],[24.21605,70.94637],[24.21315,70.94526],[24.20415,70.94402],[24.19763,70.94177],[24.19243,70.94129],[24.1802,70.94215],[24.16783,70.94096],[24.16365,70.94005],[24.14982,70.94091],[24.14481,70.94029],[24.13783,70.94056],[24.13532,70.94013],[24.13408,70.93869],[24.13587,70.93715],[24.13871,70.93683],[24.14921,70.93683],[24.1525,70.93451],[24.15901,70.93494],[24.15695,70.93351],[24.15027,70.93225]],[[24.00826,70.98453],[24.00799,70.98417],[24.01012,70.98348],[24.00886,70.9819],[24.00497,70.97979],[23.99941,70.97828]],[[24.0661,70.9817],[24.0698,70.97947],[24.0505,70.97417],[24.04916,70.97309],[24.04947,70.97241],[24.05074,70.97215],[24.04974,70.97151],[24.04599,70.97076],[24.04297,70.97061],[24.04093,70.9698],[24.03857,70.96618],[24.04291,70.96357],[24.04569,70.96272],[24.04714,70.96287],[24.04717,70.96533],[24.04952,70.96627],[24.05297,70.96568],[24.05298,70.96428],[24.0623,70.96603],[24.06356,70.96447],[24.06553,70.96437],[24.07001,70.9671],[24.06949,70.96761],[24.07125,70.96876],[24.0727,70.96897],[24.07496,70.96808],[24.08205,70.96759],[24.08971,70.96817],[24.09491,70.96901],[24.09862,70.97102]],[[24.02898,70.98711],[24.02242,70.98639],[24.02031,70.98566],[24.01624,70.98565],[24.01193,70.98612],[24.00826,70.98453]],[[23.99832,70.98601],[24.0006,70.98603],[24.00804,70.98877],[24.01813,70.98943],[24.02562,70.99158]],[[24.12468,70.99042],[24.12275,70.99065],[24.12423,70.99154],[24.12138,70.99233],[24.12212,70.99291],[24.13031,70.99179],[24.12468,70.99042]],[[24.0661,70.9817],[24.06236,70.98429],[24.06143,70.98618],[24.05712,70.98803],[24.05883,70.98935],[24.06187,70.98971],[24.0747,70.98853],[24.09449,70.98984],[24.10208,70.99156],[24.10291,70.99266],[24.10546,70.99328],[24.10482,70.99364],[24.10239,70.99354],[24.09929,70.99206],[24.09875,70.99263],[24.09998,70.99378],[24.1019,70.99426],[24.10376,70.99598],[24.11095,70.99755]],[[24.15475,71.00062],[24.15731,70.99874],[24.15869,70.99847],[24.16138,70.99908],[24.16336,71.00034]],[[24.18678,71.00088],[24.18582,70.99882],[24.18703,70.99818],[24.19504,70.99789],[24.20061,70.99887],[24.20313,70.99855],[24.20415,70.99761],[24.20956,70.99782],[24.21148,70.99726],[24.20696,70.99501],[24.20107,70.99462],[24.19753,70.99353],[24.18899,70.99323],[24.18286,70.9941],[24.17866,70.99421],[24.17725,70.99386],[24.17717,70.99334],[24.1724,70.9933],[24.16652,70.99383],[24.1665,70.99447],[24.16492,70.99486],[24.16038,70.99426],[24.15758,70.99444],[24.15745,70.99508],[24.1601,70.99519],[24.16161,70.99571],[24.16122,70.99686],[24.15496,70.99927],[24.15101,70.99913],[24.14857,71.0006]],[[24.14068,71.00046],[24.13952,70.99929],[24.1371,70.99995],[24.13514,70.99944],[24.13553,70.99871],[24.14198,70.99772],[24.14244,70.99697],[24.13786,70.99682],[24.13683,70.99776],[24.13442,70.99804],[24.13078,70.99761],[24.12999,70.99674],[24.12533,70.99665],[24.12115,70.99703],[24.11969,70.99672],[24.11764,70.99536],[24.12006,70.99404],[24.12017,70.99319],[24.11834,70.99348],[24.11827,70.99434],[24.11703,70.99469],[24.11531,70.99468],[24.11551,70.99384],[24.11298,70.99458],[24.11589,70.99557],[24.11668,70.99692],[24.11599,70.99757],[24.11426,70.99798],[24.11095,70.99755]],[[24.56717,70.79294],[24.5674,70.79342]],[[24.18263,70.854],[24.18301,70.85481]],[[24.34747,70.87702],[24.32863,70.8709]],[[24.68168,70.86252],[24.68199,70.86254]],[[24.76806,70.99112],[24.77007,70.99144],[24.77293,70.99087]],[[24.1756,70.79512],[24.17375,70.79413],[24.17204,70.79402],[24.16763,70.79552]],[[24.18354,70.79472],[24.18392,70.79403],[24.18236,70.79319],[24.17566,70.79189],[24.16842,70.79128],[24.16676,70.79187],[24.1651,70.79361],[24.16733,70.79553]],[[24.2501,70.79136],[24.24791,70.79047],[24.24696,70.78859],[24.24397,70.78809],[24.24999,70.78669],[24.25119,70.78557],[24.24829,70.78544],[24.24528,70.78452],[24.24718,70.78268],[24.24613,70.78151],[24.24385,70.78059],[24.24521,70.77989],[24.245,70.77932],[24.24211,70.77866],[24.24224,70.77757],[24.24928,70.7755],[24.25485,70.77282],[24.26303,70.77082],[24.27045,70.77],[24.28018,70.76796]],[[24.1756,70.79512],[24.17894,70.79579],[24.18354,70.79472]],[[24.56717,70.79294],[24.56959,70.79209],[24.56978,70.79019],[24.57122,70.78949],[24.57859,70.78718],[24.58762,70.78682],[24.59135,70.78582],[24.59262,70.78438],[24.59777,70.78476],[24.60577,70.78742]],[[24.56865,70.79601],[24.56981,70.79454],[24.5674,70.79342]],[[24.58793,70.79895],[24.58381,70.79954],[24.581,70.80101],[24.5782,70.80329],[24.57926,70.80441],[24.58708,70.80478],[24.58963,70.80448],[24.59191,70.8035],[24.59169,70.80102],[24.59302,70.79999],[24.58793,70.79895]],[[24.44345,70.82215],[24.44981,70.8208],[24.44843,70.81949],[24.44969,70.81901],[24.45441,70.81934],[24.45799,70.82009],[24.47319,70.81804],[24.48099,70.81735],[24.48435,70.8165],[24.48694,70.81479],[24.49099,70.81461],[24.49287,70.81414],[24.49541,70.81217],[24.50074,70.81221],[24.50294,70.81273],[24.5041,70.81389],[24.51052,70.81268],[24.51287,70.81165],[24.51528,70.81146],[24.51565,70.80933],[24.51988,70.80641],[24.54487,70.79872],[24.54959,70.79679],[24.5518,70.79641],[24.55907,70.79625],[24.56093,70.79804],[24.56234,70.79823],[24.56758,70.79729],[24.56865,70.79601]],[[24.23762,70.83729],[24.23811,70.83685],[24.23654,70.83599],[24.24146,70.83422],[24.24375,70.83191],[24.25034,70.83123],[24.24932,70.82998],[24.25956,70.82581],[24.26467,70.82462],[24.26681,70.82366],[24.26624,70.82287],[24.26069,70.82265],[24.26104,70.81944],[24.26449,70.81698],[24.26874,70.81545],[24.26822,70.81474],[24.27184,70.81452],[24.27461,70.81341],[24.2732,70.81248],[24.27046,70.81237],[24.26985,70.81196],[24.27217,70.81062],[24.27121,70.80998],[24.27346,70.80852],[24.27299,70.80741],[24.27074,70.80629],[24.26761,70.80598],[24.26354,70.804],[24.25606,70.80188],[24.25719,70.79918],[24.25047,70.79612],[24.2501,70.79136]],[[24.42682,70.82764],[24.42624,70.82685],[24.43204,70.82504],[24.43457,70.82323],[24.44345,70.82215]],[[24.62082,70.81753],[24.62436,70.81437],[24.62344,70.81064],[24.62454,70.80923],[24.62627,70.80848],[24.62378,70.80728],[24.62489,70.80528],[24.62159,70.8029],[24.62518,70.79938],[24.62407,70.79701],[24.62554,70.79484],[24.62443,70.79402],[24.61861,70.79207],[24.60717,70.79026],[24.60712,70.7882]],[[24.58175,70.82304],[24.58915,70.82261],[24.5945,70.82175],[24.59552,70.82131],[24.59482,70.82032],[24.60041,70.82029],[24.60156,70.82056],[24.60147,70.82109],[24.60354,70.82136],[24.61281,70.82077],[24.61595,70.81992],[24.62082,70.81753]],[[24.58175,70.82304],[24.57797,70.82353],[24.57609,70.82419],[24.56997,70.82391],[24.56748,70.82442],[24.56738,70.82479],[24.57541,70.8303],[24.58482,70.82938]],[[24.56974,70.82892],[24.56673,70.82908],[24.56506,70.83033],[24.565,70.83121],[24.56631,70.8319],[24.56501,70.83369],[24.56629,70.834],[24.56883,70.83284],[24.57158,70.83255],[24.57238,70.83152],[24.57153,70.82914],[24.56974,70.82892]],[[24.58809,70.83611],[24.58954,70.83612],[24.59142,70.83525],[24.59135,70.83455],[24.58924,70.83365],[24.59019,70.83185],[24.59427,70.83012],[24.59064,70.82928],[24.58482,70.82938]],[[24.18416,70.85729],[24.18613,70.85645],[24.18301,70.85481]],[[24.18416,70.85729],[24.18359,70.85979],[24.18084,70.86049],[24.18473,70.86249],[24.18667,70.86267]],[[24.3228,70.85858],[24.32595,70.85717],[24.32462,70.85553],[24.32627,70.85505],[24.32826,70.85544],[24.33365,70.85415],[24.33697,70.85401],[24.34022,70.85257],[24.34618,70.85183],[24.34725,70.85006],[24.34567,70.84975],[24.33839,70.85149],[24.32866,70.85179],[24.32559,70.8528],[24.32436,70.85463],[24.322,70.85482],[24.32087,70.85449]],[[24.23762,70.83729],[24.23808,70.83781],[24.2412,70.83866],[24.24102,70.84168],[24.24733,70.84367],[24.24737,70.84448],[24.25289,70.84547],[24.25382,70.84649],[24.26014,70.8487],[24.29179,70.85768],[24.30555,70.85998],[24.30888,70.85913],[24.30881,70.85736],[24.31289,70.85434],[24.31839,70.85398],[24.32087,70.85449]],[[24.3228,70.85858],[24.32002,70.85957],[24.31352,70.85915],[24.31196,70.85944],[24.31124,70.86052],[24.31451,70.86112],[24.31503,70.86232],[24.3148,70.86348],[24.31223,70.86451],[24.31464,70.86619],[24.32863,70.8709]],[[24.24701,70.88211],[24.24412,70.87797],[24.24065,70.87688],[24.23448,70.87674],[24.2299,70.8773],[24.23242,70.87825],[24.22822,70.8786],[24.22558,70.87974],[24.22998,70.88121],[24.23019,70.88234],[24.23283,70.88282]],[[24.28636,70.88012],[24.28257,70.87846],[24.28344,70.87779],[24.27863,70.87682],[24.2597,70.87439],[24.2478,70.8718],[24.21648,70.86901],[24.21401,70.86836],[24.21156,70.86662],[24.19646,70.86458],[24.18667,70.86267]],[[24.29265,70.8798],[24.28977,70.87923],[24.28758,70.87826],[24.2876,70.87745],[24.28405,70.87553],[24.27844,70.87401],[24.27527,70.8726],[24.2644,70.8697],[24.26243,70.86824],[24.22194,70.85774],[24.20902,70.85515],[24.19903,70.85381],[24.19301,70.85239],[24.19069,70.85225],[24.18578,70.85292],[24.1854,70.8539],[24.18263,70.854]],[[24.36013,70.87637],[24.36528,70.87522],[24.37033,70.87113],[24.37008,70.86904],[24.37502,70.86819],[24.38686,70.86945],[24.38919,70.86931],[24.38895,70.86742],[24.3975,70.86535],[24.39914,70.8645],[24.39782,70.86115],[24.39236,70.85875],[24.38709,70.85344],[24.38746,70.85251],[24.39039,70.85093],[24.38885,70.8495],[24.3896,70.84685],[24.39329,70.84646],[24.39607,70.84545],[24.39861,70.84534],[24.4031,70.84626],[24.40588,70.84731],[24.41172,70.84802],[24.41362,70.84766],[24.41465,70.84642],[24.41624,70.84651],[24.41786,70.84726],[24.42283,70.84714],[24.42998,70.84777],[24.43108,70.8475],[24.43157,70.84516],[24.43558,70.84402],[24.43624,70.8433],[24.4436,70.84262],[24.4425,70.84214],[24.44376,70.84101],[24.44127,70.8397],[24.43568,70.83893],[24.42587,70.83666],[24.4281,70.83485],[24.42968,70.8344],[24.43358,70.83464],[24.43605,70.83597],[24.43841,70.83638],[24.43958,70.83623],[24.44058,70.83528],[24.43477,70.83419],[24.43267,70.83328],[24.43286,70.83227],[24.42948,70.83097],[24.43059,70.82856],[24.42682,70.82764]],[[24.55986,70.86606],[24.55849,70.86494],[24.55777,70.8624],[24.56031,70.86079],[24.56303,70.86018],[24.56647,70.85696],[24.57411,70.85181],[24.57566,70.84839],[24.57522,70.84571],[24.5762,70.84543],[24.57972,70.84561],[24.58302,70.84422],[24.58208,70.84091],[24.57848,70.83909],[24.57965,70.83757],[24.58375,70.83644],[24.58809,70.83611]],[[24.34747,70.87702],[24.35155,70.87742],[24.36013,70.87637]],[[24.28636,70.88012],[24.29392,70.88233],[24.29842,70.88434],[24.30401,70.88522],[24.30518,70.88506],[24.3072,70.8841],[24.30657,70.88363],[24.29964,70.88118],[24.29265,70.8798]],[[24.23283,70.88282],[24.23715,70.88397],[24.2352,70.88512],[24.23716,70.88665],[24.23971,70.88751],[24.24602,70.8885],[24.24348,70.88912],[24.24459,70.88988],[24.24722,70.8903],[24.25128,70.88846],[24.25471,70.88824],[24.25658,70.8875],[24.24701,70.88211]],[[24.55986,70.86606],[24.56064,70.86694],[24.5596,70.86776],[24.5698,70.86721],[24.57797,70.86599],[24.5879,70.86741],[24.58908,70.86814],[24.58771,70.87125],[24.5907,70.87248],[24.59506,70.87248],[24.59773,70.87162],[24.60508,70.87102]],[[24.60508,70.87102],[24.60882,70.87091],[24.62547,70.8731],[24.63075,70.87223],[24.63249,70.87132],[24.64276,70.86964],[24.6545,70.87065],[24.6585,70.87041],[24.66459,70.86932],[24.67038,70.86878],[24.67309,70.86656],[24.67758,70.86542],[24.67586,70.86455],[24.67633,70.8637],[24.68168,70.86252]],[[24.61501,70.89136],[24.63025,70.88918],[24.64347,70.88871],[24.6623,70.88625],[24.6702,70.88453],[24.67128,70.88268],[24.67012,70.88129],[24.68007,70.87977],[24.6916,70.87659],[24.70079,70.87515],[24.70518,70.87373],[24.7079,70.87109],[24.70146,70.87072],[24.69569,70.86907],[24.69159,70.86918],[24.67899,70.86706],[24.67884,70.86561],[24.6837,70.86434],[24.68349,70.86281],[24.68199,70.86254]],[[24.88416,70.87603],[24.88404,70.8774],[24.88499,70.87768]],[[24.94597,70.87175],[24.94732,70.87281],[24.9494,70.87315],[24.95973,70.872],[24.96751,70.87284],[24.97094,70.87165],[24.97695,70.87053],[24.98454,70.86949],[24.98974,70.86955],[24.99207,70.8701],[24.99469,70.87269],[24.99911,70.87488],[25.00026,70.87608]],[[24.88416,70.87603],[24.88504,70.87515],[24.888,70.87465],[24.89623,70.87588],[24.90233,70.87612],[24.90496,70.87561],[24.90706,70.87636],[24.90696,70.87772],[24.91211,70.87842],[24.91417,70.87938],[24.92442,70.8788],[24.92954,70.88031],[24.93391,70.88085],[24.93846,70.88017],[24.94026,70.87776],[24.94382,70.87583],[24.94186,70.87416],[24.93619,70.87405],[24.93557,70.87319],[24.93934,70.8719],[24.94445,70.87147]],[[24.58789,70.90993],[24.58193,70.90952],[24.58162,70.90867],[24.56978,70.90893],[24.56453,70.90802],[24.56334,70.90727],[24.55902,70.90637],[24.54891,70.90565],[24.54811,70.90479],[24.54893,70.90311],[24.55055,70.90217],[24.54921,70.90075],[24.55495,70.90009],[24.5593,70.89863],[24.57701,70.89696],[24.60583,70.89227],[24.61501,70.89136]],[[24.93388,70.89151],[24.9249,70.88742],[24.91931,70.88404],[24.91576,70.88312],[24.9066,70.88234],[24.88499,70.87768]],[[24.49222,70.92365],[24.49799,70.92249],[24.5008,70.92039],[24.50372,70.92022],[24.50448,70.91941],[24.50691,70.91888],[24.51232,70.91861],[24.51321,70.91797],[24.51204,70.9173],[24.5082,70.91644],[24.50274,70.91625],[24.50061,70.91678],[24.49964,70.91776],[24.49586,70.91834],[24.49626,70.91901],[24.49779,70.9194],[24.49688,70.91988],[24.48999,70.91905]],[[24.48999,70.91905],[24.48419,70.91783],[24.4786,70.92015],[24.47644,70.92022],[24.47075,70.91934],[24.46417,70.92038],[24.46323,70.92098],[24.46477,70.92172],[24.47152,70.9222],[24.47238,70.9232],[24.4778,70.9241],[24.48476,70.92376],[24.48769,70.92423],[24.49222,70.92365]],[[24.43012,70.93061],[24.43277,70.93006],[24.43223,70.92836],[24.43629,70.92858],[24.43712,70.92779],[24.43645,70.92591],[24.43842,70.92488],[24.4411,70.92452],[24.44141,70.92336],[24.44335,70.92298],[24.4386,70.92172],[24.43787,70.92263],[24.43513,70.9221],[24.42893,70.92194],[24.42623,70.92222],[24.4238,70.92291],[24.42319,70.9249],[24.41771,70.92542],[24.42031,70.92779],[24.41838,70.92825],[24.42122,70.92978],[24.41877,70.93035],[24.43078,70.93351],[24.43192,70.93295],[24.43012,70.93061]],[[24.91305,70.93339],[24.91938,70.93404],[24.92067,70.93386],[24.92096,70.93214],[24.91918,70.9314],[24.92697,70.9298],[24.93716,70.92635],[24.94149,70.92581],[24.94427,70.92363],[24.94686,70.92323],[24.94852,70.92201],[24.95191,70.92143],[24.95239,70.92028],[24.94929,70.91904],[24.94416,70.9202],[24.94031,70.92013],[24.93684,70.91952],[24.9304,70.91751],[24.92599,70.91698],[24.92267,70.91738],[24.9172,70.91948],[24.91268,70.92042],[24.90739,70.92218]],[[24.91305,70.93339],[24.91169,70.93353],[24.91345,70.93417]],[[24.58641,70.95534],[24.57724,70.95565],[24.57479,70.95519],[24.56688,70.95497],[24.55825,70.95536],[24.5526,70.95477],[24.54841,70.95475],[24.54458,70.95392],[24.54367,70.95331],[24.54278,70.95208],[24.54409,70.95031],[24.54193,70.94927],[24.54542,70.94851],[24.54621,70.94745],[24.54795,70.9471],[24.54825,70.94516],[24.55185,70.94496],[24.55258,70.94443],[24.54711,70.94082],[24.5465,70.93894],[24.5447,70.93846],[24.54545,70.9363],[24.5495,70.93279],[24.54601,70.93131],[24.54698,70.93061],[24.55168,70.92984],[24.55237,70.92913],[24.55107,70.92763],[24.54766,70.92626],[24.54639,70.925],[24.55633,70.9227],[24.55733,70.9206],[24.55998,70.91976],[24.56794,70.91966],[24.57672,70.919],[24.57985,70.91906],[24.58931,70.92039],[24.59274,70.92053],[24.59427,70.92023],[24.59954,70.92043],[24.60496,70.92012],[24.60617,70.91977],[24.60457,70.91896],[24.60566,70.91868],[24.6116,70.9188],[24.61673,70.91962],[24.61847,70.91906],[24.61866,70.91867],[24.61239,70.91615],[24.60578,70.91551],[24.60326,70.91491],[24.60422,70.91458],[24.60747,70.91474],[24.60781,70.91392],[24.59973,70.91216],[24.59059,70.91147],[24.58989,70.91043],[24.58789,70.90993]],[[24.81937,70.94304],[24.82008,70.94131],[24.82696,70.9375],[24.82957,70.93682],[24.83043,70.93616],[24.82998,70.93424],[24.83894,70.92892],[24.83076,70.92589],[24.83127,70.92508],[24.8432,70.9239],[24.85556,70.92406],[24.85609,70.92382],[24.84192,70.92207],[24.83308,70.92151],[24.82737,70.92175],[24.82489,70.92153],[24.81748,70.92228],[24.81084,70.92187],[24.80812,70.92253],[24.80102,70.9224],[24.79893,70.9217],[24.80266,70.92182],[24.80288,70.9213],[24.79992,70.92088],[24.79407,70.91875],[24.79363,70.9178],[24.80135,70.9151],[24.81606,70.91441],[24.82402,70.91637],[24.83366,70.91696],[24.83593,70.91695],[24.84085,70.91572],[24.84741,70.91561],[24.85062,70.9178],[24.85794,70.91871],[24.86724,70.92133],[24.87107,70.92188],[24.87396,70.92388],[24.86875,70.92448],[24.8686,70.92479],[24.8725,70.92543],[24.87853,70.92736],[24.88672,70.92891],[24.89094,70.92903],[24.89869,70.93037],[24.89944,70.92968],[24.89624,70.92824],[24.89604,70.92623],[24.89925,70.92448],[24.90502,70.92319],[24.90739,70.92218]],[[24.92849,70.93717],[24.92779,70.9358],[24.92204,70.93424],[24.91981,70.93485],[24.92218,70.93578],[24.92153,70.93604],[24.91345,70.93417]],[[25.001,70.92009],[24.99427,70.91747],[24.99254,70.916],[24.9892,70.91475],[24.98367,70.91326],[24.97309,70.90897],[24.96571,70.9077],[24.96596,70.90537],[24.95931,70.90256],[24.95759,70.90069],[24.9541,70.89904],[24.94988,70.89574],[24.94513,70.89405],[24.93388,70.89151]],[[24.78234,70.94952],[24.7876,70.94622],[24.7924,70.94548],[24.7959,70.94564],[24.80704,70.94756],[24.81307,70.94705],[24.81601,70.94585],[24.81937,70.94304]],[[24.58641,70.95534],[24.60575,70.95729],[24.61084,70.95683],[24.61559,70.95695],[24.624,70.95774],[24.62943,70.95895],[24.638,70.95898],[24.64867,70.96]],[[24.64904,70.96075],[24.65012,70.96034],[24.64867,70.96]],[[24.64904,70.96075],[24.64288,70.961],[24.62327,70.96291],[24.61736,70.964],[24.61002,70.96329],[24.6054,70.96335],[24.59793,70.96229],[24.59111,70.96307],[24.58634,70.96234],[24.58332,70.96088],[24.57553,70.96087],[24.56643,70.96241],[24.566,70.96296],[24.5679,70.96452],[24.56664,70.96538],[24.55313,70.96584],[24.54105,70.96543],[24.53577,70.96718],[24.53586,70.96915],[24.5426,70.97288],[24.54987,70.97507],[24.56122,70.97707],[24.5754,70.97765],[24.57896,70.9797],[24.58301,70.98027],[24.59285,70.98117],[24.59718,70.98115],[24.60468,70.98223],[24.60465,70.98328],[24.6073,70.98585],[24.61815,70.98803],[24.62269,70.98953],[24.62389,70.9906],[24.62076,70.99048],[24.62027,70.99097],[24.62505,70.99243],[24.63442,70.9933],[24.64723,70.99375],[24.66474,70.9926]],[[24.92849,70.93717],[24.93553,70.94004],[24.93565,70.94089],[24.93935,70.94329],[24.93965,70.94447],[24.94301,70.94614],[24.94658,70.94997],[24.94984,70.95182],[24.95401,70.95782],[24.95781,70.95951],[24.9606,70.96165],[24.96158,70.9648],[24.95679,70.96864],[24.95705,70.9702],[24.95504,70.97242],[24.95636,70.97472],[24.95853,70.9751],[24.96848,70.97489],[24.97636,70.97355],[24.98005,70.97354],[24.98539,70.97399],[24.98527,70.97507],[24.98673,70.97583],[24.99045,70.97632],[24.99142,70.97618],[24.99349,70.97389],[25.0092,70.97338]],[[24.6661,70.99533],[24.66673,70.99494],[24.67483,70.99502]],[[24.64216,70.99545],[24.65362,70.99482],[24.65733,70.99486],[24.65993,70.99559],[24.66213,70.99572],[24.66513,70.99582],[24.6661,70.99533]],[[24.59453,71.00024],[24.6058,70.99835],[24.61587,70.99491],[24.62091,70.99455],[24.6268,70.99527],[24.62989,70.995],[24.64216,70.99545]],[[24.68989,70.99525],[24.6857,70.99471],[24.67483,70.99502]],[[24.76806,70.99112],[24.76631,70.98986],[24.76458,70.98984],[24.76261,70.99037],[24.75815,70.98989],[24.74524,70.99033],[24.73685,70.98889],[24.73216,70.98502],[24.73319,70.98286],[24.7296,70.9807],[24.72788,70.98033],[24.72519,70.98066],[24.72207,70.98228],[24.71748,70.98339],[24.71497,70.9835],[24.71168,70.98306],[24.70454,70.98076],[24.69595,70.97486],[24.69029,70.97251],[24.68909,70.97143],[24.68339,70.97011],[24.68071,70.9689],[24.67872,70.96749],[24.67642,70.96352],[24.67434,70.96269],[24.67131,70.96305],[24.67014,70.96369],[24.67002,70.96528],[24.67301,70.9695],[24.67007,70.97086],[24.66972,70.97178],[24.68057,70.97928],[24.68217,70.98127],[24.68191,70.98262],[24.67974,70.98398],[24.67354,70.98501],[24.67318,70.98557],[24.67659,70.98702],[24.69027,70.98924],[24.69469,70.99083],[24.68529,70.99239],[24.66474,70.9926]],[[24.77293,70.99087],[24.77442,70.98995],[24.77383,70.98816],[24.76889,70.98382],[24.77045,70.98233],[24.77252,70.98157],[24.77254,70.98072],[24.77121,70.97912],[24.76484,70.97535],[24.76483,70.97427],[24.76097,70.97253],[24.75961,70.96856],[24.76049,70.96768],[24.76247,70.96708],[24.75884,70.96598],[24.75825,70.96505],[24.76259,70.96265],[24.76749,70.96196],[24.77384,70.9618],[24.77728,70.96105],[24.7797,70.95906],[24.78634,70.9582],[24.786,70.95776],[24.77763,70.95677],[24.77784,70.95594],[24.78014,70.95502],[24.77869,70.95457],[24.77883,70.95398],[24.78141,70.95267],[24.78068,70.95214],[24.77664,70.95153],[24.77654,70.95111],[24.77723,70.95062],[24.78234,70.94952]],[[24.70779,71.00003],[24.71101,70.99943],[24.71087,70.99908],[24.70844,70.99832],[24.70463,70.99808],[24.69172,70.99962],[24.69104,70.99917],[24.69293,70.9973],[24.69175,70.99594],[24.68989,70.99525]],[[25.0014,70.99975],[24.99869,70.99908],[24.97795,70.99671],[24.9685,70.99646],[24.96055,70.99791],[24.95936,70.9987],[24.95344,71.0003]]]}}]}