{"type":"FeatureCollection","features":[{"type":"Feature","properties":{},"geometry":{"type":"MultiLineString","coordinates":[[[29.84268,70.06241],[29.85059,70.06276],[29.85448,70.06205],[29.85687,70.06085],[29.85906,70.0607],[29.86264,70.06107],[29.86601,70.06081],[29.86789,70.06028],[29.87743,70.05979],[29.88387,70.06063],[29.89393,70.06078],[29.89812,70.06028],[29.91085,70.06126],[29.91908,70.0626],[29.9312,70.06292],[29.94381,70.06575],[29.95243,70.06514],[29.96459,70.06538],[29.9701,70.06596],[29.9727,70.06692],[29.97379,70.06802],[29.98127,70.0674]],[[30.00382,70.06791],[29.99752,70.06828],[29.99675,70.0678],[29.99165,70.0678],[29.98483,70.06717],[29.98127,70.0674]],[[30.00313,70.53888],[29.99932,70.53779],[29.99736,70.53673],[29.99894,70.53631],[30.00158,70.5365]],[[29.83962,70.6474],[29.84729,70.65077],[29.85211,70.6541],[29.85207,70.65556],[29.86102,70.65893],[29.86426,70.66194],[29.87103,70.66509],[29.87619,70.66851],[29.88129,70.67054],[29.8828,70.67183],[29.88294,70.67364],[29.88712,70.6747]],[[29.91797,70.68695],[29.91476,70.68611],[29.90951,70.68618],[29.90717,70.68581],[29.90502,70.68414],[29.90067,70.68375],[29.89976,70.68245],[29.90089,70.68182],[29.89292,70.67798],[29.89041,70.67535],[29.88712,70.6747]],[[29.91797,70.68695],[29.92329,70.68861],[29.92342,70.68923],[29.92807,70.69132],[29.93256,70.69217],[29.93802,70.69468],[29.93838,70.69668],[29.9409,70.69737],[29.94309,70.69918],[29.94268,70.70058],[29.94057,70.70121],[29.94028,70.70178],[29.94341,70.7021],[29.94359,70.70417],[29.94466,70.70468],[29.94923,70.70517],[29.95398,70.70472],[29.95473,70.70578],[29.95713,70.7062],[29.95892,70.70581],[29.9605,70.70453],[29.96441,70.70426],[29.96754,70.70342],[29.96941,70.70492],[29.97339,70.70577],[29.97239,70.70667],[29.97293,70.70744],[29.97779,70.70841],[29.98035,70.70825],[29.98814,70.70667],[29.99174,70.70643],[29.99434,70.70668],[29.99845,70.70782],[30.00191,70.70719]],[[29.31063,70.65892],[29.31382,70.66007],[29.31763,70.66221],[29.31764,70.66303],[29.32604,70.6673]],[[29.45402,70.00138],[29.45698,70.00117]],[[29.38411,70.0084],[29.38317,70.00867],[29.38489,70.01004],[29.38824,70.01037],[29.38872,70.00976],[29.38499,70.00914],[29.38411,70.0084]],[[29.36373,70.10006],[29.37485,70.10016],[29.39386,70.09756]],[[29.20885,70.11522],[29.20547,70.11458]],[[29.43454,70.09687],[29.43161,70.09507],[29.42663,70.09446],[29.41738,70.09419],[29.40067,70.09604],[29.39386,70.09756]],[[29.20885,70.11522],[29.21229,70.1155]],[[29.20547,70.11458],[29.19878,70.11417],[29.19475,70.11441],[29.18832,70.11577],[29.17184,70.12118],[29.16718,70.12218],[29.161,70.1228]],[[29.46512,70.10011],[29.47098,70.09919],[29.47784,70.09721],[29.48504,70.09685]],[[29.75696,70.07394],[29.76018,70.07436],[29.76442,70.07409],[29.77224,70.07425],[29.78199,70.07304],[29.7864,70.07315],[29.7919,70.07125]],[[29.45311,70.10093],[29.45829,70.10087],[29.46512,70.10011]],[[29.13303,70.12744],[29.15007,70.1231],[29.161,70.1228]],[[29.55192,70.09365],[29.57044,70.09287]],[[29.31814,70.1156],[29.31397,70.11665]],[[29.31596,70.11697],[29.32584,70.1153],[29.33112,70.11621],[29.33075,70.11702],[29.32696,70.11803],[29.33001,70.11782],[29.33233,70.11683],[29.3324,70.11584],[29.33041,70.1149],[29.33093,70.1139]],[[29.68701,70.61396],[29.68513,70.61373],[29.68187,70.61431]],[[29.68139,70.61442],[29.68187,70.61431]],[[29.24889,70.65764],[29.24669,70.65738],[29.24575,70.65684],[29.24818,70.6565]],[[29.32632,70.66768],[29.32619,70.66791]],[[29.29261,70.6707],[29.28936,70.6705],[29.2885,70.67126],[29.29282,70.67153],[29.29372,70.67139],[29.29261,70.6707]],[[29.35798,70.73542],[29.35634,70.73584],[29.35778,70.7363],[29.36178,70.73615],[29.35798,70.73542]],[[29.15458,70.85135],[29.15367,70.85147],[29.15379,70.85236],[29.1563,70.85291],[29.15876,70.85269],[29.15458,70.85135]],[[29.05029,70.87528],[29.05215,70.87456],[29.05773,70.87415]],[[29.04067,70.87488],[29.04738,70.87473],[29.05029,70.87528]],[[29.1322,70.00923],[29.13605,70.00971],[29.14214,70.00958],[29.15062,70.00829],[29.15725,70.00858],[29.15897,70.00932]],[[29.11802,70.01683],[29.11612,70.01438],[29.1188,70.01246],[29.12538,70.01107],[29.12921,70.00965],[29.1322,70.00923]],[[29.16174,70.01329],[29.15921,70.01157],[29.16049,70.01074],[29.15897,70.00932]],[[29.11802,70.01683],[29.1218,70.01902],[29.12711,70.02016],[29.13086,70.0205]],[[29.13086,70.0205],[29.1383,70.02143],[29.13883,70.02383],[29.14256,70.0242]],[[29.16174,70.01329],[29.16591,70.0159],[29.16859,70.01686],[29.17281,70.01793],[29.18188,70.01891],[29.19483,70.01672],[29.19952,70.01518],[29.20632,70.01515],[29.21096,70.01216],[29.21335,70.01169],[29.22176,70.01161],[29.22834,70.01225],[29.23072,70.01296],[29.23504,70.01619],[29.24022,70.01776],[29.24672,70.01586],[29.25171,70.01534],[29.26193,70.01191],[29.26784,70.01126]],[[29.45698,70.00117],[29.46038,70.00214],[29.46393,70.00196],[29.46428,70.00124],[29.46618,70.00089],[29.47289,70.00166],[29.47701,70.00147],[29.47858,70.00225],[29.48045,70.00248],[29.48865,70.00048],[29.49177,70.0013],[29.49856,70.00087],[29.50329,69.99919]],[[29.39924,70.00713],[29.40175,70.00693],[29.41121,70.00741],[29.4205,70.00641],[29.42546,70.00501],[29.43014,70.00453],[29.43286,70.00477],[29.43347,70.00643],[29.43531,70.00742],[29.43744,70.00772],[29.43904,70.00693],[29.44441,70.00568],[29.44702,70.00432],[29.44594,70.00391],[29.44309,70.00397],[29.44092,70.00515],[29.43984,70.00523],[29.43864,70.0039],[29.44214,70.00335],[29.44485,70.00335],[29.44616,70.00248],[29.45402,70.00138]],[[29.26784,70.01126],[29.27691,70.01157],[29.27945,70.01135],[29.2826,70.01198],[29.28411,70.01317],[29.28673,70.01274],[29.29391,70.01429],[29.29448,70.01567],[29.29777,70.01678],[29.30093,70.0171],[29.30403,70.01636],[29.30713,70.01678],[29.30928,70.01797],[29.30848,70.01907],[29.30624,70.01984],[29.30685,70.02063],[29.3119,70.02196],[29.31491,70.0219],[29.3191,70.02079],[29.31896,70.01874],[29.31997,70.01786],[29.32265,70.01775],[29.32585,70.01665],[29.32797,70.01641],[29.33111,70.01452],[29.33454,70.01389],[29.33497,70.01507],[29.33815,70.01646],[29.34243,70.0164],[29.34531,70.01457],[29.34727,70.01469],[29.34895,70.01436],[29.3459,70.0132],[29.34701,70.0122],[29.34983,70.01125],[29.35708,70.01151],[29.36665,70.00974],[29.37334,70.00769],[29.37761,70.0056],[29.38041,70.00563],[29.38408,70.00636],[29.3848,70.00803],[29.38882,70.00825],[29.39096,70.00908],[29.39391,70.00882],[29.39924,70.00713]],[[29.32111,70.02172],[29.31346,70.02279],[29.31355,70.02369],[29.31729,70.02457],[29.31722,70.02545],[29.32211,70.02763],[29.32792,70.02787],[29.33104,70.02655],[29.33304,70.02464],[29.32613,70.02371],[29.32452,70.02206],[29.32111,70.02172]],[[29.15744,70.04565],[29.16124,70.04436],[29.1609,70.04243],[29.16451,70.04173],[29.16799,70.04191],[29.16981,70.04122],[29.16994,70.04066],[29.1674,70.03962],[29.16807,70.03899],[29.17323,70.0382],[29.17532,70.03646],[29.17885,70.03588],[29.18101,70.03477],[29.17397,70.03107],[29.17268,70.02928],[29.16959,70.02788],[29.1636,70.02655],[29.15554,70.02642],[29.14256,70.0242]],[[28.99902,70.06111],[29.00301,70.06102],[29.00865,70.06147],[29.01159,70.06244],[29.01685,70.06139],[29.02544,70.05862],[29.03178,70.05838]],[[29.03178,70.05838],[29.03637,70.05759],[29.0404,70.05746],[29.05251,70.05376],[29.05419,70.05374],[29.05578,70.05424],[29.06926,70.05281],[29.07705,70.05476],[29.07741,70.05516],[29.08257,70.05569],[29.08839,70.05706],[29.09039,70.05807],[29.08966,70.06101],[29.0933,70.06139],[29.09704,70.05893],[29.10428,70.05861],[29.10841,70.05959],[29.11143,70.0589],[29.11157,70.05786],[29.10869,70.05786],[29.10765,70.05634],[29.10464,70.05613],[29.10383,70.05516],[29.10597,70.0524],[29.1049,70.04991],[29.11006,70.04784],[29.1049,70.04631],[29.10716,70.04569],[29.10584,70.04456],[29.1085,70.04381],[29.11053,70.04359],[29.11163,70.04393],[29.11363,70.04612],[29.11634,70.04705],[29.12087,70.04711],[29.12266,70.04761],[29.12446,70.04662],[29.12701,70.04633],[29.12852,70.04779],[29.1298,70.04801],[29.13586,70.04629],[29.14179,70.04767],[29.1493,70.04563],[29.15199,70.04567],[29.1542,70.0462],[29.15744,70.04565]],[[29.63705,70.07439],[29.63094,70.075],[29.62824,70.07652],[29.62808,70.07805],[29.62927,70.07894],[29.64115,70.07602],[29.63974,70.07505],[29.63705,70.07439]],[[29.74417,70.0695],[29.74807,70.06888],[29.75201,70.06705],[29.75376,70.06674],[29.76098,70.06807],[29.77127,70.06805],[29.76945,70.06571],[29.7718,70.06441],[29.76658,70.06327],[29.76233,70.06332],[29.75826,70.06429],[29.74953,70.06459],[29.74076,70.06553],[29.73302,70.06675],[29.7298,70.06817]],[[29.7298,70.06817],[29.72578,70.07013],[29.72283,70.07059],[29.71738,70.07069],[29.71699,70.0715],[29.71911,70.07208],[29.72737,70.07188],[29.73331,70.07106],[29.73445,70.07121],[29.74417,70.0695]],[[29.36373,70.10006],[29.35363,70.10044],[29.34279,70.10242],[29.33461,70.10325],[29.33403,70.10363],[29.33615,70.10453],[29.33463,70.10639]],[[29.75696,70.07394],[29.75719,70.0716],[29.75415,70.07012],[29.75203,70.06993],[29.74685,70.07074],[29.74668,70.07366],[29.74576,70.07416],[29.74132,70.07482]],[[28.99111,70.131],[29.00839,70.12894],[29.01291,70.12761],[29.01171,70.12722],[29.01043,70.12765],[29.00945,70.1268],[29.01295,70.12512],[29.01436,70.12378],[29.01786,70.12256],[29.02108,70.12237],[29.0463,70.12527],[29.05019,70.12511],[29.0581,70.12397],[29.06951,70.12339],[29.07587,70.12475],[29.07766,70.1248]],[[29.7919,70.07125],[29.79444,70.0701],[29.80209,70.06899],[29.80505,70.06781],[29.81424,70.06617],[29.81976,70.06365],[29.8214,70.06197],[29.82731,70.06215],[29.82994,70.0613],[29.83443,70.0623],[29.84268,70.06241]],[[29.71884,70.07763],[29.74132,70.07482]],[[29.5106,70.09509],[29.50368,70.09601],[29.49368,70.09601],[29.48789,70.09683],[29.48504,70.09685]],[[29.70019,70.07991],[29.71884,70.07763]],[[29.33463,70.10639],[29.33126,70.10766],[29.32806,70.10807],[29.32854,70.11035],[29.32989,70.11098]],[[29.43454,70.09687],[29.44239,70.09883],[29.44596,70.10015],[29.45311,70.10093]],[[29.24465,70.11792],[29.23961,70.11848],[29.23412,70.11848],[29.22274,70.11593],[29.21229,70.1155]],[[29.65169,70.08512],[29.65784,70.08332],[29.66851,70.08173],[29.67302,70.08172],[29.67983,70.08245],[29.68862,70.08172],[29.70019,70.07991]],[[29.55192,70.09365],[29.5413,70.09405],[29.53403,70.09279],[29.52906,70.09386],[29.52262,70.09353],[29.52009,70.09434],[29.51476,70.09426],[29.5106,70.09509]],[[29.24465,70.11792],[29.24668,70.11761],[29.26015,70.11804],[29.28294,70.11638]],[[29.57044,70.09287],[29.58726,70.09173],[29.59002,70.09124],[29.5929,70.0901]],[[29.07766,70.1248],[29.08316,70.12473],[29.08688,70.12551],[29.08751,70.1286],[29.09193,70.1303],[29.10273,70.12974],[29.1089,70.13085],[29.11501,70.1311],[29.12323,70.12984],[29.13303,70.12744]],[[29.5929,70.0901],[29.5974,70.0889],[29.5991,70.09017],[29.60395,70.09116]],[[29.32989,70.11098],[29.33093,70.1139]],[[29.32725,70.11135],[29.32503,70.1097],[29.31861,70.11253],[29.30407,70.11597],[29.29951,70.11668],[29.29083,70.11599],[29.28294,70.11638]],[[29.60395,70.09116],[29.60784,70.09122],[29.63264,70.08748],[29.64301,70.08712],[29.6491,70.08608],[29.65169,70.08512]],[[29.31814,70.1156],[29.32263,70.1138],[29.32742,70.11315],[29.32819,70.11242],[29.32725,70.11135]],[[29.68139,70.61442],[29.67756,70.61531],[29.68006,70.61671]],[[29.68006,70.61671],[29.68313,70.61799],[29.68805,70.61786],[29.68696,70.61714],[29.6878,70.61443],[29.68701,70.61396]],[[29.24818,70.6565],[29.25061,70.65633],[29.2512,70.65575],[29.25262,70.65614],[29.25387,70.656],[29.25385,70.65556],[29.2521,70.65537],[29.25285,70.65471],[29.25746,70.65474],[29.26188,70.65408],[29.26619,70.65491],[29.27121,70.65233],[29.2698,70.65164],[29.27431,70.65169],[29.27618,70.65192],[29.27643,70.65465],[29.27988,70.65566],[29.29284,70.65464],[29.30236,70.65578],[29.31063,70.65892]],[[29.71087,70.62494],[29.70531,70.62727],[29.70705,70.62786]],[[29.70459,70.62959],[29.69979,70.62865],[29.7002,70.62739],[29.69774,70.62683],[29.69692,70.62621],[29.69887,70.62508],[29.70192,70.62445],[29.70001,70.62284],[29.68954,70.62179],[29.68707,70.62096],[29.68663,70.6199],[29.68956,70.61793],[29.69756,70.61888],[29.70148,70.61858],[29.70622,70.61871]],[[29.70459,70.62959],[29.70782,70.62863],[29.70705,70.62786]],[[29.72539,70.63589],[29.72457,70.63516],[29.72524,70.6348],[29.72837,70.6357],[29.72969,70.63535],[29.71879,70.63292],[29.71703,70.63102],[29.71881,70.63098],[29.73066,70.63435],[29.7333,70.63451],[29.73367,70.63428],[29.73179,70.63367],[29.73166,70.63254],[29.72878,70.63068],[29.72579,70.6298],[29.71846,70.62907],[29.71764,70.62859],[29.71768,70.62637],[29.71339,70.625],[29.71087,70.62494]],[[29.26516,70.67681],[29.26531,70.67629],[29.26874,70.67579],[29.26467,70.67329],[29.26081,70.67281],[29.25241,70.67296],[29.24709,70.67155],[29.24886,70.6708],[29.245,70.67032],[29.24632,70.66955],[29.25978,70.66702],[29.2621,70.66884],[29.26863,70.66977],[29.27099,70.66978],[29.27855,70.66872],[29.28032,70.66776],[29.28652,70.66814],[29.29599,70.66723],[29.29472,70.66603],[29.2992,70.66466],[29.29443,70.66259],[29.29155,70.66212],[29.27262,70.66227],[29.26647,70.6613],[29.26265,70.66139],[29.25826,70.66028],[29.25733,70.65861],[29.25199,70.65807]],[[29.32619,70.66791],[29.32353,70.66909],[29.32382,70.66982],[29.32643,70.67009],[29.32981,70.67248]],[[29.26867,70.6776],[29.266,70.67731],[29.26516,70.67681]],[[29.28771,70.67553],[29.28494,70.67626],[29.28595,70.67686],[29.29133,70.67673],[29.28937,70.67573],[29.28771,70.67553]],[[29.7448,70.64331],[29.74516,70.6419],[29.74146,70.64054],[29.7419,70.63984],[29.74389,70.63919],[29.74102,70.63541],[29.73078,70.63772],[29.72837,70.63762],[29.72539,70.63589]],[[29.74818,70.64474],[29.7448,70.64331]],[[29.32481,70.68927],[29.31954,70.68835],[29.31613,70.68697],[29.31631,70.68621],[29.31888,70.68533],[29.31886,70.68468],[29.31351,70.68381],[29.30792,70.68343],[29.29968,70.68199],[29.29737,70.68146],[29.29678,70.68055],[29.29454,70.68058],[29.294,70.68132],[29.29023,70.68177],[29.28623,70.68036],[29.26867,70.6776]],[[29.36491,70.68606],[29.36259,70.68528],[29.35774,70.68489],[29.35602,70.68371],[29.34722,70.68332],[29.34549,70.68279],[29.34231,70.68128],[29.34174,70.68028],[29.34375,70.67737],[29.34328,70.67604],[29.32981,70.67248]],[[29.77434,70.6528],[29.76605,70.65117],[29.76252,70.65008],[29.75506,70.6458],[29.74818,70.64474]],[[29.83962,70.6474],[29.83332,70.64289],[29.82786,70.63991],[29.81442,70.63686],[29.81169,70.63546],[29.80688,70.63478],[29.806,70.63394],[29.80247,70.63395],[29.80122,70.63492],[29.79868,70.6347],[29.79713,70.63382],[29.79885,70.63276],[29.79627,70.63169],[29.78885,70.63154],[29.78345,70.63054],[29.7758,70.63034],[29.76895,70.63095],[29.76641,70.63058],[29.76437,70.6295],[29.75549,70.62903],[29.74426,70.62781],[29.73707,70.62628],[29.72626,70.62235],[29.71414,70.61942],[29.71152,70.61843],[29.70956,70.61829],[29.70622,70.61871]],[[29.32481,70.68927],[29.32802,70.68967],[29.34535,70.69381]],[[29.35192,70.7028],[29.36324,70.70319],[29.37148,70.70191],[29.37718,70.70042],[29.37814,70.6995],[29.37686,70.69828],[29.36827,70.69941],[29.36278,70.69886],[29.36185,70.69841],[29.36324,70.69763],[29.35698,70.69677],[29.35382,70.69588],[29.34829,70.69593],[29.35028,70.69469],[29.34535,70.69381]],[[29.36491,70.68606],[29.36635,70.6871],[29.37032,70.68676],[29.37815,70.68906],[29.38228,70.68982],[29.38476,70.69081],[29.38747,70.69257],[29.38813,70.69438],[29.38328,70.69691],[29.38373,70.69857],[29.38498,70.699],[29.38803,70.69857],[29.38918,70.6968],[29.39421,70.6951],[29.39861,70.69159],[29.40319,70.69074],[29.41323,70.68989],[29.41946,70.69117],[29.42541,70.69385],[29.43944,70.69841],[29.44541,70.70087],[29.45328,70.70273],[29.45978,70.70242],[29.46902,70.70291],[29.47228,70.70257],[29.47469,70.70128],[29.47656,70.70101],[29.48637,70.70196],[29.49009,70.70165]],[[29.35192,70.7028],[29.34436,70.70213],[29.33249,70.70029],[29.32036,70.70054],[29.31632,70.70231],[29.31634,70.70287],[29.3185,70.70319],[29.3178,70.7037],[29.30722,70.70508],[29.30549,70.70561],[29.30545,70.70616],[29.2948,70.70565],[29.29334,70.70648],[29.29377,70.70715],[29.28568,70.70971],[29.28548,70.71068],[29.28832,70.71149],[29.2946,70.71218],[29.29706,70.71375],[29.296,70.71486],[29.30419,70.71803],[29.31048,70.71942],[29.31785,70.72009],[29.31982,70.71936],[29.31709,70.7185],[29.3228,70.71687],[29.3342,70.71861],[29.3434,70.72099],[29.3489,70.72263],[29.34751,70.72325],[29.34997,70.72413],[29.35186,70.72416],[29.35575,70.72345],[29.36681,70.72318]],[[29.46847,70.71474],[29.46246,70.71481],[29.46141,70.71524],[29.44485,70.7143],[29.44415,70.71461],[29.4532,70.71749],[29.4611,70.71829],[29.47552,70.71838],[29.47324,70.71568],[29.46847,70.71474]],[[29.51954,70.71612],[29.52275,70.71613],[29.52196,70.71521],[29.52017,70.71465],[29.51476,70.714],[29.51155,70.71471],[29.50853,70.71445],[29.50555,70.71586],[29.50576,70.71649],[29.50841,70.71703],[29.51124,70.71689],[29.52134,70.71778],[29.52218,70.71743],[29.51954,70.71612]],[[29.25504,70.74077],[29.2559,70.74014],[29.25355,70.73929],[29.25838,70.73821],[29.26262,70.73905],[29.27324,70.73807],[29.27308,70.73714],[29.27041,70.73639],[29.27029,70.73574],[29.27606,70.73489],[29.26993,70.73255],[29.26816,70.73119],[29.26974,70.73051],[29.26648,70.73018]],[[29.36164,70.73229],[29.35367,70.73038],[29.3521,70.72944],[29.35231,70.72822],[29.35008,70.72687],[29.35261,70.7264],[29.35251,70.72583],[29.34971,70.72455],[29.34692,70.72419],[29.34482,70.72455],[29.33673,70.72479],[29.33348,70.72534],[29.33215,70.72696],[29.33442,70.72833],[29.33281,70.72872],[29.33041,70.72849],[29.32808,70.72906],[29.31897,70.72861],[29.31822,70.72918],[29.31951,70.73029],[29.31731,70.7305],[29.31658,70.73101],[29.31839,70.73243],[29.31425,70.73344],[29.3117,70.73291],[29.30532,70.73302],[29.29479,70.73168],[29.29181,70.73109],[29.29075,70.73004],[29.28692,70.72882],[29.27292,70.72659],[29.26736,70.72834]],[[29.36643,70.73191],[29.36602,70.7308],[29.36693,70.73037],[29.37206,70.73034]],[[29.38444,70.73047],[29.37655,70.73013],[29.37206,70.73034]],[[29.3979,70.7294],[29.38846,70.72745],[29.38024,70.72667],[29.37715,70.72546],[29.37675,70.7245],[29.37414,70.72368],[29.36681,70.72318]],[[29.45963,70.72444],[29.45439,70.72451],[29.44824,70.7229],[29.44475,70.72316],[29.44273,70.72288],[29.44712,70.725],[29.4509,70.72515]],[[29.60095,70.71302],[29.59361,70.71161],[29.58771,70.71137],[29.57773,70.708],[29.5727,70.70766],[29.56902,70.70699],[29.56611,70.70733],[29.55787,70.70651],[29.55654,70.70692],[29.55384,70.70673],[29.55229,70.70628],[29.55391,70.70572],[29.55301,70.70506],[29.54847,70.70546],[29.54248,70.70508],[29.54062,70.7054],[29.53124,70.70408],[29.52817,70.70304],[29.52244,70.70226],[29.52082,70.70271],[29.51928,70.70263],[29.51377,70.70174],[29.50938,70.70154],[29.50466,70.70254],[29.50083,70.70244],[29.49644,70.70158],[29.49009,70.70165]],[[29.79907,70.6968],[29.80224,70.69595],[29.8058,70.69422],[29.80751,70.69399],[29.81118,70.69452],[29.81237,70.69405],[29.80774,70.69101],[29.80416,70.68974],[29.80355,70.6869],[29.80043,70.685],[29.80407,70.68368],[29.79719,70.68209],[29.79473,70.67941],[29.79543,70.67797],[29.79077,70.67551],[29.79132,70.67446],[29.79436,70.67403],[29.7958,70.67162],[29.78876,70.66972],[29.78765,70.66865],[29.78383,70.66713],[29.78137,70.66343],[29.77287,70.66128],[29.77139,70.65988],[29.77304,70.65865],[29.77656,70.65882],[29.77967,70.65818],[29.78539,70.65865],[29.7902,70.65795],[29.7904,70.657],[29.78861,70.65595],[29.77434,70.6528]],[[29.36164,70.73229],[29.36553,70.73245],[29.36643,70.73191]],[[29.4509,70.72515],[29.44998,70.72598],[29.45435,70.72616],[29.46201,70.72735],[29.46595,70.72675],[29.47368,70.72726],[29.46896,70.72625],[29.46885,70.72561],[29.46652,70.72542],[29.46442,70.72568],[29.45963,70.72444]],[[29.38444,70.73047],[29.38856,70.73092],[29.39012,70.73183],[29.39772,70.73176],[29.40831,70.73334],[29.41256,70.7334],[29.41493,70.73269],[29.42044,70.733],[29.4193,70.73192],[29.41359,70.73093],[29.3979,70.7294]],[[29.3347,70.74046],[29.33107,70.74061],[29.33138,70.74196],[29.33287,70.74269],[29.34041,70.74281],[29.34342,70.74225],[29.34306,70.74098],[29.33723,70.74085],[29.3347,70.74046]],[[29.60095,70.71302],[29.60503,70.71404],[29.61959,70.71572],[29.63005,70.71745],[29.63433,70.7186],[29.63507,70.71956],[29.63787,70.72014],[29.63902,70.72219],[29.64201,70.72206],[29.64503,70.7229]],[[29.78871,70.72869],[29.79256,70.72808],[29.79454,70.72732],[29.79861,70.72692],[29.79959,70.72645],[29.80273,70.72706],[29.80344,70.7269],[29.80114,70.72531],[29.79916,70.72211],[29.7971,70.72152],[29.79722,70.72048],[29.79582,70.71944],[29.79587,70.71674],[29.79831,70.71557],[29.79714,70.71128],[29.79861,70.71102],[29.79937,70.71021],[29.79701,70.70743],[29.79722,70.70402],[29.79613,70.70279],[29.79228,70.70103],[29.79304,70.69991],[29.79484,70.69931],[29.79409,70.69847],[29.79907,70.6968]],[[29.64503,70.7229],[29.65114,70.72442],[29.65309,70.72541],[29.65723,70.72599],[29.66101,70.7275],[29.66724,70.72872],[29.67048,70.72995],[29.6773,70.72997],[29.67992,70.73071],[29.68832,70.73132],[29.69288,70.73311],[29.70801,70.73525],[29.7092,70.73602],[29.71189,70.73643],[29.71369,70.73623],[29.71645,70.73693],[29.71803,70.73693],[29.7207,70.736],[29.72539,70.7365],[29.73214,70.73554],[29.73763,70.73404],[29.73825,70.73299],[29.74022,70.73245],[29.74576,70.73314],[29.74892,70.7322],[29.75225,70.73213],[29.75354,70.73163],[29.75675,70.7319],[29.76047,70.72965],[29.76764,70.72927],[29.77068,70.72857],[29.77575,70.72939],[29.77868,70.73057],[29.78568,70.73201],[29.78645,70.73097],[29.78879,70.73095],[29.78696,70.72979],[29.78871,70.72869]],[[29.37355,70.77731],[29.37444,70.77661],[29.37207,70.77538],[29.37337,70.77481],[29.37285,70.77404],[29.36983,70.77314],[29.37093,70.77215],[29.36793,70.77047],[29.36291,70.76944],[29.35851,70.76744],[29.3489,70.76594],[29.34915,70.76537],[29.35234,70.76509],[29.35245,70.76388],[29.36457,70.76389],[29.36491,70.76358],[29.35368,70.76158],[29.35182,70.76042],[29.34523,70.75837],[29.32923,70.7554],[29.32516,70.75425],[29.32365,70.75304],[29.32115,70.75239],[29.31208,70.75091],[29.30727,70.75101],[29.30285,70.75047],[29.30051,70.74967],[29.29902,70.74977],[29.29398,70.74907],[29.29263,70.74803],[29.28762,70.74703],[29.27472,70.74571],[29.26812,70.74374],[29.25654,70.74141],[29.25504,70.74077]],[[29.27878,70.79341],[29.28487,70.79238],[29.29052,70.79226],[29.29645,70.79084],[29.29829,70.79281],[29.30052,70.79297],[29.30288,70.7918],[29.30114,70.79124],[29.30239,70.78934],[29.30104,70.78855],[29.30316,70.78882],[29.30498,70.79026],[29.30685,70.79024],[29.30795,70.79067],[29.30994,70.79231],[29.31197,70.79248],[29.31675,70.79173],[29.32118,70.7915],[29.32304,70.79045],[29.32564,70.79083],[29.32937,70.78943],[29.33127,70.78939],[29.3364,70.7903],[29.34655,70.7883],[29.3571,70.78744],[29.35854,70.78698],[29.36441,70.7869],[29.36683,70.78655],[29.36753,70.78583],[29.37301,70.78462],[29.39725,70.7857],[29.39767,70.78531],[29.39601,70.78507],[29.38469,70.78414],[29.38511,70.78307],[29.3842,70.78267],[29.37833,70.78216],[29.37495,70.78113],[29.37457,70.77926],[29.37256,70.77871],[29.37355,70.77731]],[[29.24789,70.79903],[29.25326,70.79904]],[[29.25326,70.79904],[29.25679,70.79968],[29.25826,70.80165],[29.25972,70.80179],[29.26594,70.79721],[29.27198,70.79492],[29.27548,70.79443],[29.27878,70.79341]],[[29.26405,70.83196],[29.27003,70.83091],[29.27153,70.82793],[29.27393,70.82633],[29.27173,70.82512],[29.26319,70.82315],[29.26128,70.82102],[29.26108,70.81738],[29.26717,70.8147],[29.26673,70.81387],[29.27192,70.81172],[29.27151,70.81093],[29.27312,70.80861],[29.27244,70.80807],[29.27383,70.80747],[29.27032,70.80605],[29.27004,70.80474],[29.26889,70.80417],[29.26186,70.80321],[29.25603,70.80156],[29.25458,70.80037],[29.24919,70.79997],[29.24769,70.79957],[29.24789,70.79903]],[[29.09277,70.85756],[29.09499,70.85738],[29.09766,70.85769],[29.0977,70.8586],[29.10064,70.85853],[29.10165,70.85881],[29.10373,70.8584],[29.10432,70.85748],[29.0996,70.85592],[29.09914,70.85482]],[[29.09971,70.85462],[29.10608,70.85363],[29.11089,70.8538],[29.1123,70.85413],[29.11542,70.85642],[29.11434,70.85742],[29.11839,70.858],[29.1192,70.85646],[29.12139,70.85596],[29.12401,70.85569],[29.12796,70.85595],[29.12591,70.8544],[29.13326,70.85245],[29.13339,70.85193],[29.13147,70.85137],[29.13289,70.85046],[29.13941,70.84913],[29.14157,70.84969],[29.14515,70.84934],[29.15002,70.84962],[29.15252,70.85016],[29.15429,70.84967],[29.1599,70.85008],[29.16233,70.84957],[29.16588,70.84999],[29.17145,70.84923],[29.17462,70.84967],[29.17586,70.85056],[29.18154,70.85179]],[[29.09912,70.86324],[29.09735,70.86184],[29.10169,70.86151],[29.1018,70.86123],[29.09735,70.85966],[29.08799,70.85808],[29.0895,70.8575],[29.09277,70.85756]],[[29.18154,70.85179],[29.18345,70.8524],[29.18722,70.85201],[29.19444,70.85295],[29.19659,70.85411],[29.20823,70.85456],[29.20588,70.85538],[29.20696,70.85602],[29.21196,70.85581],[29.21399,70.85463],[29.21337,70.85405],[29.2153,70.85344],[29.22465,70.85218],[29.22584,70.85253],[29.23111,70.8526],[29.2325,70.85322],[29.23533,70.85289],[29.23333,70.85328],[29.23359,70.85357],[29.23974,70.85357],[29.23746,70.85287],[29.2355,70.85284],[29.23313,70.85135],[29.23251,70.85059],[29.23335,70.84947],[29.23714,70.84818],[29.24383,70.84741],[29.24732,70.84647],[29.2454,70.84576],[29.24395,70.84278],[29.24854,70.84028],[29.25195,70.83997],[29.25323,70.8394],[29.25209,70.83713],[29.25384,70.83536],[29.26225,70.83302],[29.26405,70.83196]],[[28.9983,70.87264],[29.00058,70.87405],[29.00218,70.87391],[29.0017,70.87307],[29.00262,70.87269],[29.00789,70.87242],[29.04067,70.87488]],[[29.05773,70.87415],[29.07361,70.87322],[29.08473,70.87379],[29.09055,70.87246],[29.09195,70.87184],[29.08998,70.87145],[29.09031,70.87042],[29.0996,70.86761],[29.10064,70.86642],[29.10444,70.8664],[29.10519,70.86606],[29.10461,70.86478],[29.10608,70.86412],[29.1005,70.86366],[29.09912,70.86324]],[[29.32632,70.66768],[29.32604,70.6673]]]}}]}