{"type":"FeatureCollection","features":[{"type":"Feature","properties":{},"geometry":{"type":"MultiLineString","coordinates":[[[28.06655,70.46448],[28.07325,70.46734],[28.08076,70.46866],[28.08872,70.47154]],[[28.15909,70.48226],[28.15421,70.48163],[28.14662,70.47989]],[[28.15909,70.48226],[28.16095,70.48275]],[[28.12586,70.48873],[28.12511,70.48847]],[[28.15712,70.49152],[28.15042,70.49034],[28.14188,70.49047],[28.13006,70.48997],[28.12586,70.48873]],[[28.16727,70.49289],[28.15712,70.49152]],[[28.33122,70.48247],[28.3298,70.48169]],[[28.37073,70.48389],[28.37326,70.48474],[28.38374,70.48645]],[[28.33799,70.48571],[28.33122,70.48247]],[[28.36855,70.48319],[28.37073,70.48389]],[[28.34035,70.49001],[28.33803,70.48776],[28.33799,70.48571]],[[28.38502,70.48667],[28.38374,70.48645]],[[28.34192,70.49326],[28.34035,70.49001]],[[28.35199,70.4975],[28.35604,70.49687],[28.35608,70.49657],[28.34192,70.49326]],[[28.19514,70.59297],[28.1936,70.59248]],[[28.05231,70.66634],[28.05649,70.66708],[28.05855,70.66804],[28.06658,70.66989],[28.06917,70.67095],[28.0764,70.67141],[28.08389,70.67297]],[[28.00319,70.74722],[28.00032,70.74588]],[[28.07128,70.79851],[28.07124,70.79847]],[[28.30755,70.9963],[28.3049,70.99559],[28.30141,70.99573]],[[28.3002,70.99684],[28.3038,70.99921]],[[28.10671,70.5636],[28.09908,70.56147]],[[28.06655,70.46448],[28.05516,70.45964],[28.05472,70.45878],[28.05238,70.45767],[28.04113,70.45392],[28.03607,70.45139],[28.03799,70.45079],[28.03805,70.45018],[28.0328,70.44372],[28.03665,70.44316],[28.03844,70.44213],[28.04146,70.43652],[28.04044,70.43364],[28.04408,70.43146],[28.04223,70.4295],[28.03802,70.42814],[28.03572,70.42638],[28.04092,70.42473],[28.04067,70.42305],[28.04387,70.42222],[28.0456,70.42215],[28.04693,70.42266],[28.04695,70.42446],[28.04963,70.42657],[28.0483,70.42802],[28.0524,70.43113],[28.05522,70.43234],[28.05822,70.43291],[28.05962,70.43834],[28.06146,70.43939],[28.06182,70.44212],[28.06632,70.44659],[28.06725,70.4497],[28.07763,70.4546]],[[28.09792,70.46218],[28.08705,70.45673],[28.07763,70.4546]],[[27.99804,70.48068],[28.00342,70.48087],[28.01279,70.48381],[28.01722,70.48641],[28.02075,70.48719]],[[28.09792,70.46218],[28.10437,70.46449],[28.11022,70.4685],[28.12134,70.47322],[28.131,70.4762],[28.14662,70.47989]],[[28.11752,70.4837],[28.09897,70.47472],[28.08872,70.47154]],[[28.12511,70.48847],[28.11752,70.4837]],[[28.02075,70.48719],[28.02408,70.48978],[28.03332,70.4913],[28.05252,70.49565],[28.06089,70.49687],[28.06829,70.49905],[28.0715,70.49938],[28.07834,70.49805],[28.08352,70.49759],[28.09131,70.49765],[28.09707,70.49927],[28.10359,70.49963],[28.10799,70.5009]],[[28.35245,70.47388],[28.35841,70.47826],[28.3656,70.48218],[28.36855,70.48319]],[[28.12749,70.50578],[28.111,70.50204],[28.10799,70.5009]],[[28.19561,70.50076],[28.18346,70.49419],[28.17878,70.49335],[28.16727,70.49289]],[[28.22841,70.49834],[28.22623,70.4967],[28.2215,70.49464],[28.21509,70.4925],[28.21152,70.49052],[28.2078,70.48949],[28.20179,70.48811],[28.19842,70.48778],[28.19098,70.48819],[28.18411,70.48962],[28.17307,70.48919],[28.16304,70.48487],[28.16095,70.48275]],[[28.12749,70.50578],[28.15003,70.51078],[28.15624,70.511],[28.1686,70.51234],[28.17265,70.51202],[28.17499,70.51115],[28.1791,70.51153],[28.18108,70.51104],[28.18762,70.51177],[28.1934,70.51114],[28.19754,70.50927],[28.19813,70.50326],[28.19561,70.50076]],[[28.22841,70.49834],[28.23177,70.50033],[28.24399,70.50455],[28.24393,70.50518],[28.24168,70.50635],[28.24164,70.50933],[28.24747,70.51155],[28.24824,70.51137],[28.24699,70.51009],[28.25015,70.50876],[28.24957,70.50774]],[[28.3687,70.50573],[28.36918,70.5029],[28.36699,70.49951],[28.36132,70.4978],[28.35229,70.49781],[28.35199,70.4975]],[[28.007,70.54086],[28.00377,70.53863],[27.99358,70.53558]],[[28.24957,70.50774],[28.25103,70.50757],[28.25605,70.50831],[28.25917,70.50814],[28.26215,70.50872],[28.28839,70.51039],[28.29192,70.50964],[28.29312,70.5052],[28.29663,70.50382],[28.30159,70.50321],[28.30992,70.50518],[28.32214,70.50661],[28.32675,70.50916],[28.33207,70.51002],[28.33494,70.50972],[28.33818,70.50998],[28.34026,70.51088],[28.34052,70.51262],[28.34345,70.51386],[28.34945,70.51468],[28.3583,70.51663],[28.36181,70.51666],[28.36413,70.51609],[28.3646,70.51515],[28.3705,70.51497],[28.3716,70.5146],[28.37038,70.51345],[28.3659,70.51135],[28.36568,70.50863],[28.36764,70.50763],[28.3687,70.50573]],[[28.01609,70.5423],[28.007,70.54086]],[[28.04401,70.54846],[28.03201,70.54488],[28.02771,70.5444],[28.02613,70.54458],[28.02305,70.54384],[28.02306,70.54353],[28.02484,70.54333],[28.02192,70.5423],[28.01888,70.54174],[28.01733,70.54247],[28.01609,70.5423]],[[28.07694,70.55525],[28.06724,70.55228],[28.04401,70.54846]],[[28.08503,70.5577],[28.08333,70.55686],[28.07694,70.55525]],[[28.08503,70.5577],[28.09908,70.56147]],[[28.1382,70.56293],[28.13311,70.56166],[28.13259,70.56263],[28.13031,70.56277],[28.13337,70.56384],[28.1387,70.56461],[28.13977,70.56382],[28.1382,70.56293]],[[28.10671,70.5636],[28.1158,70.56692],[28.11725,70.56831],[28.14731,70.5763],[28.1502,70.57719],[28.1519,70.57852],[28.16055,70.58055]],[[28.18543,70.59001],[28.17753,70.5868],[28.17416,70.58416],[28.16055,70.58055]],[[28.1936,70.59248],[28.18543,70.59001]],[[28.21217,70.60066],[28.2092,70.59803],[28.19514,70.59297]],[[28.22451,70.60597],[28.21217,70.60066]],[[28.37319,70.60463],[28.37146,70.60458],[28.37231,70.60527],[28.37677,70.60618],[28.37658,70.60568],[28.37319,70.60463]],[[28.26824,70.63277],[28.26687,70.63067],[28.26069,70.62804],[28.25404,70.62575],[28.24814,70.62442],[28.24708,70.6223],[28.24811,70.62128],[28.24997,70.62096],[28.24977,70.62034],[28.24413,70.61784],[28.23394,70.61092],[28.22451,70.60597]],[[27.99187,70.65727],[28.00507,70.65953]],[[28.00507,70.65953],[28.0098,70.66031],[28.0264,70.66197],[28.04059,70.66496],[28.04452,70.66688],[28.04968,70.66642]],[[28.02399,70.69671],[28.02211,70.69652]],[[28.02211,70.69652],[28.02059,70.69539],[28.01716,70.69441],[28.00945,70.69444],[28.00139,70.69326],[27.99423,70.69304]],[[28.15667,70.68675],[28.15301,70.68648],[28.14123,70.68432],[28.13948,70.68429],[28.13003,70.68111],[28.12398,70.6781],[28.11704,70.67786],[28.10738,70.67606],[28.09972,70.67534],[28.09878,70.67463],[28.09492,70.67375],[28.08389,70.67297]],[[28.29534,70.67656],[28.30091,70.67258],[28.30092,70.6719],[28.29994,70.67084],[28.29574,70.66949],[28.29199,70.66662],[28.29117,70.66448],[28.29567,70.66341],[28.29367,70.66103],[28.29853,70.66138],[28.29984,70.66082],[28.29712,70.65991],[28.28898,70.65918],[28.2875,70.65874],[28.28628,70.657],[28.28746,70.65626],[28.28975,70.6558],[28.29069,70.65483],[28.28383,70.65164],[28.28255,70.64967],[28.27789,70.64782],[28.27718,70.64566],[28.2739,70.64413],[28.26796,70.63935],[28.26821,70.63672],[28.27086,70.63498],[28.26824,70.63277]],[[28.02399,70.69671],[28.02945,70.69779],[28.03796,70.7006],[28.04168,70.70268],[28.05475,70.70347],[28.06853,70.70679],[28.06983,70.70746],[28.06849,70.70833],[28.06934,70.70935],[28.07951,70.71094],[28.08182,70.71248],[28.07919,70.71286],[28.07817,70.71369],[28.0785,70.71418],[28.08144,70.71499],[28.08084,70.71536],[28.07467,70.71547],[28.069,70.71398],[28.06803,70.71403],[28.06687,70.71493],[28.06766,70.71564],[28.07441,70.71813],[28.08128,70.71835],[28.08533,70.71953],[28.09346,70.72005],[28.09515,70.72086],[28.1,70.72035],[28.10642,70.72025],[28.10978,70.72162],[28.11371,70.72227],[28.11483,70.72427],[28.11895,70.72577]],[[28.15667,70.68675],[28.16388,70.68854],[28.16942,70.69066],[28.17514,70.69505],[28.18786,70.69943],[28.19287,70.70357],[28.20045,70.70625],[28.20217,70.70731],[28.21031,70.70897],[28.2178,70.70959],[28.22223,70.71077],[28.23044,70.71185],[28.23958,70.71519],[28.2422,70.71725],[28.25276,70.71865]],[[28.25276,70.71865],[28.2569,70.71887],[28.26103,70.71979],[28.27518,70.7212],[28.28425,70.71945],[28.28753,70.71743],[28.28675,70.71605],[28.28872,70.71425],[28.28964,70.71124],[28.28779,70.70837],[28.29477,70.70264],[28.29425,70.70175],[28.29699,70.69966],[28.29775,70.69616],[28.30388,70.6921],[28.30357,70.69016],[28.3051,70.68768],[28.30368,70.68088],[28.30195,70.67987],[28.29897,70.67988],[28.29588,70.67888],[28.29534,70.67656]],[[28.01262,70.74296],[28.00472,70.74179],[28.00188,70.74187],[27.99879,70.74321]],[[28.14002,70.73374],[28.12663,70.7287],[28.12641,70.72726],[28.11895,70.72577]],[[28.00032,70.74588],[27.99853,70.74397]],[[28.13131,70.74432],[28.13381,70.74317],[28.13404,70.74207],[28.13781,70.73894],[28.13894,70.73837],[28.14094,70.73814],[28.14252,70.73706],[28.14231,70.73502],[28.14002,70.73374]],[[28.01262,70.74296],[28.01751,70.74394],[28.02077,70.7451],[28.02467,70.74804],[28.03517,70.75332],[28.04082,70.75501],[28.03992,70.75674],[28.042,70.75771],[28.04537,70.75827],[28.0568,70.75894],[28.06682,70.75838],[28.07385,70.75713],[28.08694,70.75575],[28.09822,70.75315],[28.10015,70.75175],[28.11176,70.7471],[28.11665,70.74707],[28.12067,70.74595],[28.12538,70.74574],[28.13131,70.74432]],[[28.00601,70.76456],[28.02518,70.76327],[28.02612,70.7626],[28.02176,70.75878],[28.02056,70.75562],[28.01535,70.75315],[28.00872,70.74864],[28.00319,70.74722]],[[27.99276,70.76494],[28.00601,70.76456]],[[28.02746,70.79693],[28.03642,70.79593],[28.04484,70.79546],[28.04814,70.79471],[28.062,70.79412],[28.06914,70.79261],[28.07243,70.79043],[28.07384,70.79064],[28.07737,70.79294],[28.07519,70.79368],[28.07446,70.7962],[28.07124,70.79847]],[[28.00554,70.80473],[28.00152,70.80522],[28.0018,70.80604],[28.00465,70.80671],[28.00753,70.80624],[28.00704,70.80511],[28.00554,70.80473]],[[28.07128,70.79851],[28.07222,70.79919],[28.07686,70.80047],[28.08302,70.80038],[28.08418,70.80181],[28.08386,70.80345],[28.08546,70.80457],[28.09935,70.80668],[28.10201,70.80671],[28.10452,70.80633],[28.10635,70.80554],[28.1069,70.80497],[28.10558,70.80311],[28.10928,70.80204],[28.11053,70.80047],[28.10765,70.79971],[28.10532,70.80131],[28.09895,70.80132],[28.09526,70.79935],[28.092,70.79857],[28.09627,70.79764],[28.09882,70.79617],[28.10499,70.79408],[28.10761,70.7937],[28.1139,70.79384],[28.11666,70.79335],[28.12193,70.79413],[28.12488,70.79405],[28.12531,70.79468],[28.1173,70.79583],[28.11986,70.79754],[28.12351,70.79786],[28.1399,70.7965],[28.14268,70.79555],[28.14471,70.79369],[28.14656,70.79335],[28.15631,70.79356],[28.16391,70.79303]],[[27.99797,70.81846],[28.00369,70.82031],[28.00546,70.82209],[28.01184,70.82259],[28.01557,70.82483],[28.01876,70.82519],[28.02171,70.8243],[28.02054,70.82245],[28.015,70.82104],[28.00559,70.81641],[28.00371,70.81334],[28.00758,70.81195],[28.00729,70.81035],[28.01003,70.80731],[28.01457,70.80533],[28.01498,70.80208],[28.02133,70.79733],[28.02378,70.7968],[28.02746,70.79693]],[[28.31144,70.81279],[28.30965,70.8106],[28.29589,70.81123],[28.29058,70.81092],[28.2886,70.80971],[28.29286,70.80763],[28.2921,70.8058],[28.28601,70.80448],[28.2804,70.80425],[28.27475,70.80273],[28.26596,70.80222],[28.26219,70.80161],[28.26142,70.80115],[28.26245,70.80006],[28.2563,70.79869],[28.25068,70.79579],[28.2505,70.79372],[28.23925,70.79082],[28.23256,70.79037],[28.22509,70.78856],[28.21835,70.78832],[28.20778,70.78921],[28.19166,70.78997],[28.1902,70.79055],[28.18917,70.7934],[28.18364,70.79436],[28.17914,70.79415],[28.17189,70.79245],[28.16391,70.79303]],[[28.26315,70.83773],[28.26839,70.83679],[28.27408,70.83505],[28.27965,70.83433],[28.29012,70.83211],[28.29507,70.83181],[28.29445,70.8293],[28.30012,70.82747],[28.31196,70.82707],[28.31861,70.82632],[28.3248,70.82511]],[[28.2381,70.84262],[28.24705,70.84141],[28.26315,70.83773]],[[28.31144,70.81279],[28.30847,70.81477],[28.30257,70.81655],[28.29072,70.81846],[28.27954,70.82344],[28.27119,70.8251],[28.26108,70.82653],[28.2573,70.82673],[28.25625,70.82942],[28.25462,70.83038],[28.24434,70.83522],[28.23936,70.83693],[28.23499,70.838],[28.22878,70.83834],[28.2278,70.83903],[28.22506,70.83913],[28.22212,70.83875],[28.21499,70.84061],[28.2168,70.84297],[28.21876,70.84367],[28.22114,70.84369],[28.22657,70.84249],[28.23348,70.84305],[28.2381,70.84262]],[[28.34226,70.85073],[28.34404,70.84992],[28.34757,70.84604],[28.35101,70.84536],[28.3586,70.84478],[28.36709,70.84246],[28.36976,70.84083],[28.36994,70.8384],[28.36244,70.83501],[28.36174,70.83315],[28.35405,70.82996],[28.35038,70.82622],[28.33942,70.82525],[28.32915,70.82482],[28.3248,70.82511]],[[28.34226,70.85073],[28.33855,70.85162],[28.33481,70.85124],[28.3285,70.85154],[28.32646,70.85201],[28.32649,70.85312],[28.33429,70.85528],[28.34249,70.85488],[28.34481,70.85447]],[[28.4015,70.85196],[28.39582,70.85089],[28.38777,70.85111],[28.37258,70.8506],[28.35893,70.85159],[28.34481,70.85447]],[[28.36514,70.8842],[28.35412,70.88393],[28.34709,70.88477],[28.3448,70.88668],[28.3402,70.88827],[28.34037,70.88929],[28.34128,70.89015],[28.34891,70.8908],[28.35728,70.89278],[28.37063,70.8922]],[[28.19858,70.95842],[28.19487,70.95773],[28.18405,70.95791],[28.17875,70.95874],[28.17844,70.95987]],[[28.20109,70.96349],[28.20254,70.963],[28.20215,70.96246],[28.19945,70.96266],[28.19657,70.96222],[28.20082,70.95933],[28.19991,70.95849],[28.19858,70.95842]],[[28.20109,70.96349],[28.19917,70.96478],[28.2024,70.96686],[28.20858,70.96654],[28.21012,70.96563]],[[28.17058,70.97981],[28.17196,70.98126]],[[28.18116,71.00147],[28.17451,70.99673],[28.17131,70.99118],[28.16862,70.98873],[28.16955,70.98754],[28.1683,70.98604],[28.17032,70.98335],[28.16936,70.98206],[28.1662,70.98094],[28.16767,70.98013]],[[28.18947,71.00085],[28.18728,70.9974],[28.19175,70.9966],[28.19174,70.99579],[28.18197,70.99319],[28.18114,70.99252],[28.18167,70.99158],[28.17983,70.98975],[28.17615,70.98975],[28.17541,70.98898],[28.17928,70.98775],[28.17919,70.98717],[28.17606,70.98603],[28.17536,70.98372],[28.1712,70.98231],[28.17196,70.98126]],[[28.22364,71.00048],[28.22014,70.9964],[28.21821,70.99526],[28.21313,70.99374],[28.2126,70.99273],[28.21394,70.99162],[28.21122,70.98862],[28.20609,70.98656],[28.20404,70.98338],[28.19913,70.98084],[28.19181,70.9755],[28.18497,70.96893],[28.18474,70.96672],[28.17844,70.95987]],[[28.29144,70.99747],[28.28978,70.99659],[28.28984,70.99495],[28.28588,70.98997],[28.28425,70.9897],[28.28114,70.99],[28.27832,70.98937],[28.27511,70.98537],[28.26776,70.98379],[28.26748,70.98266],[28.26583,70.98163],[28.25387,70.97934],[28.25275,70.97818],[28.24709,70.97557],[28.2412,70.97376],[28.23782,70.97311],[28.23301,70.97407],[28.23388,70.9796],[28.23174,70.98001],[28.22568,70.97963],[28.22336,70.97866],[28.22228,70.97729],[28.22386,70.9738],[28.22244,70.97352],[28.21843,70.97381],[28.21381,70.97357],[28.20878,70.97222],[28.21218,70.96999],[28.21435,70.96998],[28.21842,70.96914],[28.2235,70.9676],[28.22352,70.96712],[28.21758,70.96601],[28.21483,70.96685],[28.21403,70.96625],[28.21012,70.96563]],[[28.3002,70.99684],[28.29949,70.99625],[28.30141,70.99573]],[[28.30709,71.00065],[28.3038,70.99921]],[[28.29144,70.99747],[28.29559,71.00087]],[[28.30755,70.9963],[28.31695,70.99986],[28.3188,71.00177]],[[28.41245,71.00011],[28.41608,70.99799],[28.41745,70.99781],[28.42603,70.99759],[28.43065,70.99784],[28.43353,70.9985],[28.43435,70.9993],[28.44018,70.99805],[28.44201,70.99835],[28.4437,70.99816]],[[28.90752,70.07331],[28.90691,70.07388],[28.90931,70.07593]],[[28.90752,70.07331],[28.908,70.07301],[28.9072,70.07283]],[[28.65395,70.0962],[28.65599,70.09603]],[[28.57885,70.16293],[28.57863,70.16238]],[[28.56901,70.17063],[28.56904,70.17062]],[[28.48505,70.45028],[28.48609,70.4496],[28.48768,70.45039],[28.49291,70.45032],[28.4953,70.4493]],[[28.51395,70.44842],[28.51331,70.44958]],[[28.45798,70.48118],[28.45777,70.48058],[28.45291,70.47868]],[[28.55431,70.5096],[28.55411,70.50936]],[[28.50881,70.66066],[28.50893,70.66097]],[[28.76944,70.07868],[28.77034,70.07846],[28.7768,70.07888]],[[28.7768,70.07888],[28.78511,70.07929],[28.78743,70.07769]],[[28.96872,70.06563],[28.96405,70.06645],[28.9631,70.06766],[28.96715,70.06719],[28.96944,70.06647],[28.96977,70.0659],[28.96872,70.06563]],[[28.78743,70.07769],[28.79253,70.07854],[28.79754,70.07749],[28.80222,70.07771],[28.80922,70.07742],[28.81532,70.076],[28.82005,70.07566],[28.82272,70.07627],[28.82276,70.07733],[28.82437,70.07803],[28.82777,70.0785],[28.8314,70.0785],[28.83488,70.07802],[28.84261,70.07599],[28.84219,70.07493],[28.84478,70.07457],[28.84491,70.07297],[28.84864,70.0721],[28.8512,70.07219],[28.85143,70.07317],[28.86268,70.07446],[28.86802,70.07571],[28.87495,70.07478],[28.88147,70.07495],[28.88574,70.07439],[28.89653,70.07399],[28.9,70.07313],[28.9072,70.07283]],[[28.57966,70.16477],[28.58033,70.16404],[28.57885,70.16293]],[[28.81209,70.07936],[28.80878,70.07965],[28.80942,70.08048],[28.81277,70.08112],[28.81589,70.08111],[28.81669,70.07976],[28.81209,70.07936]],[[28.80983,70.08206],[28.80997,70.08132],[28.80585,70.08182],[28.80323,70.08041],[28.80069,70.07999],[28.79799,70.08016],[28.79502,70.07922],[28.79147,70.07893],[28.78801,70.07994],[28.79064,70.08165],[28.79323,70.08217],[28.79435,70.08172],[28.79387,70.08086],[28.79515,70.08051],[28.80034,70.08126],[28.80002,70.08222],[28.80126,70.08252],[28.80983,70.08206]],[[28.90931,70.07593],[28.91124,70.07586],[28.91265,70.075],[28.91543,70.07477],[28.91606,70.07381],[28.91312,70.07353],[28.91303,70.07274],[28.90829,70.07298],[28.91011,70.07194],[28.92348,70.06995],[28.92635,70.06885],[28.93615,70.06844],[28.95671,70.06339],[28.95859,70.06337],[28.96087,70.06412],[28.96533,70.06447],[28.97856,70.06243],[28.98396,70.06109],[28.98583,70.06113],[28.98728,70.06208],[28.98877,70.06223],[28.99902,70.06111],[29.00301,70.06102]],[[28.65233,70.09965],[28.65376,70.0974],[28.65014,70.0968],[28.65395,70.0962]],[[28.68211,70.09733],[28.67743,70.09684],[28.67486,70.09707],[28.67151,70.09686],[28.67121,70.0964],[28.67336,70.09569],[28.67344,70.09522],[28.67072,70.09482],[28.66878,70.0955],[28.66192,70.09628],[28.65599,70.09603]],[[28.72999,70.09359],[28.72712,70.09282],[28.72697,70.09231],[28.73447,70.0901],[28.73723,70.08754],[28.74435,70.08632],[28.748,70.08662],[28.74986,70.0861],[28.74976,70.08558],[28.74649,70.08493],[28.74751,70.08408],[28.75735,70.08435],[28.76148,70.08341],[28.76518,70.08202],[28.76466,70.07992],[28.76944,70.07868]],[[28.72999,70.09359],[28.7294,70.09463],[28.73627,70.09618],[28.73673,70.09715],[28.73851,70.09723],[28.74505,70.09573],[28.74465,70.09335],[28.74731,70.0926],[28.75165,70.09249],[28.7522,70.09293],[28.75365,70.093],[28.76067,70.09218],[28.762,70.09171],[28.76535,70.09153],[28.77558,70.09192],[28.77844,70.09097],[28.78474,70.09062]],[[28.62783,70.10521],[28.63018,70.10465],[28.63191,70.10471],[28.63344,70.10535],[28.63541,70.10532],[28.63868,70.10412],[28.6419,70.10404],[28.64398,70.10342],[28.64414,70.10279],[28.65153,70.10192],[28.6535,70.10074],[28.65233,70.09965]],[[28.6076,70.10796],[28.61554,70.1064],[28.62031,70.10655],[28.62783,70.10521]],[[28.59585,70.1113],[28.60015,70.10984],[28.6025,70.11046],[28.60507,70.11055],[28.6076,70.10796]],[[28.59585,70.1113],[28.59407,70.11231],[28.5914,70.11232],[28.58821,70.11171],[28.58275,70.11265]],[[28.57687,70.1141],[28.57829,70.11233],[28.57997,70.11209],[28.58275,70.11265]],[[28.79555,70.10656],[28.80516,70.10694],[28.80822,70.10637],[28.81134,70.10637],[28.81582,70.10577],[28.82831,70.10568],[28.8365,70.10391],[28.83968,70.10254],[28.84375,70.10185],[28.84789,70.10049],[28.85243,70.09525],[28.85085,70.0931],[28.85062,70.0908],[28.847,70.08971],[28.83969,70.08843],[28.82614,70.08731],[28.82438,70.08736],[28.82184,70.08853],[28.81641,70.08842],[28.8061,70.08937],[28.80504,70.08913],[28.80518,70.08859],[28.80054,70.08833],[28.78474,70.09062]],[[28.68211,70.09733],[28.68516,70.09782],[28.68688,70.09859],[28.69708,70.09981],[28.69854,70.09918],[28.70084,70.09943],[28.70224,70.10121],[28.70422,70.10228],[28.7072,70.10227],[28.71022,70.10177],[28.71296,70.10243],[28.70734,70.10389],[28.70775,70.1043],[28.71871,70.10561],[28.72316,70.10562],[28.7335,70.10473],[28.73273,70.10423],[28.7267,70.10378],[28.7344,70.10311],[28.73638,70.10324],[28.73631,70.10412],[28.74055,70.10448],[28.7432,70.10384],[28.74757,70.10348],[28.751,70.10398],[28.75508,70.10406],[28.7566,70.10471],[28.75405,70.10584],[28.75459,70.10661],[28.76021,70.10695],[28.76559,70.10652],[28.76533,70.10724],[28.76695,70.10738],[28.77594,70.10682],[28.77965,70.10729],[28.78275,70.1082],[28.79284,70.10899],[28.79571,70.10896],[28.79639,70.10846],[28.79161,70.10768],[28.79135,70.10701],[28.79555,70.10656]],[[28.57687,70.1141],[28.57504,70.11907],[28.57757,70.12265],[28.58614,70.12352],[28.5966,70.12266],[28.59978,70.12282],[28.6315,70.12639],[28.64882,70.12954],[28.66442,70.1307],[28.66824,70.13146],[28.67552,70.13537],[28.6813,70.13691]],[[28.70166,70.14165],[28.69642,70.14072],[28.68671,70.14008],[28.68351,70.13904],[28.6813,70.13691]],[[28.80648,70.13344],[28.78744,70.13437],[28.77793,70.13444],[28.77551,70.13349],[28.77639,70.13231],[28.77559,70.13087],[28.76724,70.12976],[28.75963,70.12971],[28.74884,70.12901],[28.74267,70.12926],[28.74118,70.12989],[28.73619,70.13052],[28.73333,70.13214],[28.72985,70.13253],[28.73165,70.13337],[28.73611,70.13274],[28.7422,70.13285],[28.75208,70.13235],[28.75459,70.13307],[28.75523,70.13389],[28.75645,70.13398],[28.75914,70.13328],[28.75764,70.13251],[28.75867,70.13205],[28.76189,70.13232],[28.7633,70.13295],[28.76844,70.1332],[28.76889,70.13384],[28.7653,70.13485],[28.76833,70.1357],[28.77403,70.13527],[28.77684,70.13577]],[[28.80648,70.13344],[28.81154,70.13343],[28.81428,70.13415]],[[28.81481,70.13493],[28.81521,70.13446],[28.81428,70.13415]],[[28.77684,70.13577],[28.77869,70.13678],[28.77832,70.13803],[28.78197,70.13682],[28.78989,70.1374],[28.79421,70.13814],[28.80444,70.13705],[28.81481,70.13493]],[[28.58685,70.16157],[28.59311,70.16131]],[[28.84162,70.14485],[28.84224,70.14433],[28.84086,70.14359],[28.836,70.14419],[28.83731,70.14497],[28.84162,70.14485]],[[28.95176,70.1379],[28.96073,70.13672],[28.97366,70.13575],[28.98178,70.13323],[28.99111,70.131],[29.00839,70.12894]],[[28.56904,70.17062],[28.57524,70.17074],[28.5815,70.17024],[28.58081,70.16992],[28.57702,70.16975],[28.57695,70.16937],[28.57947,70.16883],[28.5748,70.16822],[28.57307,70.16712],[28.5773,70.16606],[28.57966,70.16477]],[[28.56901,70.17063],[28.56681,70.17039],[28.56474,70.17124],[28.56085,70.17038],[28.55996,70.17064],[28.56324,70.17144],[28.56545,70.17304],[28.57098,70.17357]],[[28.59311,70.16131],[28.59459,70.16182],[28.59738,70.16212],[28.60032,70.1619],[28.60446,70.16267],[28.60605,70.16239],[28.60869,70.16083],[28.61029,70.16109],[28.61685,70.16042],[28.62628,70.16126],[28.62913,70.16277],[28.63372,70.1611],[28.65465,70.1617],[28.66786,70.16135],[28.68375,70.16261],[28.69614,70.16287],[28.69915,70.16339]],[[28.82865,70.15526],[28.83618,70.155],[28.83821,70.15423],[28.84555,70.15301],[28.84751,70.1523],[28.84759,70.15157],[28.85138,70.152],[28.85659,70.1516],[28.8552,70.15092],[28.85568,70.15024],[28.86205,70.14922],[28.86282,70.14689],[28.86165,70.14562],[28.85763,70.14384],[28.85348,70.14293],[28.85211,70.14333],[28.85083,70.14313],[28.85284,70.14215],[28.85532,70.14188],[28.8578,70.14199],[28.85841,70.14293],[28.86279,70.14303],[28.86297,70.14403],[28.86097,70.14446],[28.86313,70.14544],[28.86913,70.14514],[28.88151,70.14567],[28.883,70.14519],[28.88108,70.14376],[28.8813,70.14282],[28.88373,70.14292],[28.88997,70.14528],[28.89861,70.14677],[28.89724,70.1481],[28.89795,70.14987]],[[28.69915,70.16339],[28.70263,70.16397],[28.71495,70.16337],[28.72903,70.16329],[28.73057,70.16363]],[[28.90145,70.15088],[28.90394,70.15038],[28.90457,70.14911],[28.89901,70.14824],[28.90636,70.14762],[28.91266,70.14658],[28.9241,70.14081],[28.93691,70.13869],[28.94259,70.13831],[28.94476,70.1385],[28.95176,70.1379]],[[28.82865,70.15526],[28.82479,70.1559],[28.82193,70.15583],[28.81979,70.1552],[28.81961,70.15651],[28.818,70.15697],[28.81641,70.15682],[28.81598,70.15592],[28.81474,70.15561],[28.80892,70.15793],[28.79674,70.16053]],[[28.73057,70.16363],[28.73377,70.16459],[28.73614,70.16429],[28.73983,70.16498],[28.74484,70.16525],[28.74604,70.16514],[28.74618,70.1645],[28.74928,70.16348],[28.75516,70.16304],[28.75831,70.16321],[28.76045,70.16145],[28.76063,70.15871],[28.75773,70.15827],[28.75523,70.15862],[28.75337,70.1581],[28.75302,70.15762],[28.7546,70.157],[28.75004,70.15615],[28.74705,70.15485],[28.74189,70.15019],[28.74014,70.15071],[28.73868,70.15065],[28.72562,70.14651],[28.72099,70.14564],[28.7184,70.14561],[28.7087,70.14289],[28.70166,70.14165]],[[28.57098,70.17357],[28.58295,70.17444],[28.59592,70.17636],[28.60041,70.17666]],[[28.6161,70.17687],[28.60041,70.17666]],[[28.78433,70.16385],[28.7859,70.16314],[28.79674,70.16053]],[[28.6161,70.17687],[28.6244,70.17733],[28.62815,70.17668],[28.63562,70.17779],[28.63969,70.17736],[28.64197,70.17853],[28.64547,70.17846],[28.65172,70.17939],[28.66179,70.17879]],[[28.66179,70.17879],[28.66838,70.17747],[28.67433,70.17561],[28.6776,70.17542],[28.67909,70.17627],[28.68266,70.17548],[28.68565,70.17575]],[[28.73279,70.17425],[28.74489,70.17291],[28.75455,70.17095],[28.76069,70.17049],[28.76275,70.16982],[28.76354,70.16882],[28.76727,70.16913],[28.76992,70.16895],[28.7729,70.16791],[28.77782,70.167],[28.78433,70.16385]],[[28.68565,70.17575],[28.69164,70.17673],[28.70788,70.1763]],[[28.70788,70.1763],[28.71105,70.17643],[28.71894,70.17477],[28.72463,70.1749],[28.73279,70.17425]],[[28.49777,70.44989],[28.50082,70.4503],[28.50583,70.44949],[28.50634,70.44874],[28.50898,70.44828],[28.50983,70.4476],[28.51395,70.44842]],[[28.50773,70.45438],[28.50662,70.45299],[28.50888,70.45223],[28.51126,70.45017],[28.51331,70.44958]],[[28.49663,70.46742],[28.50016,70.46648],[28.5031,70.46461],[28.50809,70.46254],[28.51142,70.45998],[28.51114,70.45837],[28.50939,70.45669],[28.50451,70.4547],[28.50732,70.45462]],[[28.49663,70.46742],[28.49141,70.46926]],[[28.49087,70.47324],[28.48578,70.47132],[28.48688,70.47014],[28.49141,70.46926]],[[28.45291,70.47868],[28.44793,70.47504],[28.44691,70.47325],[28.44641,70.46967],[28.44423,70.46664],[28.44632,70.4631],[28.45208,70.46095],[28.46067,70.45931],[28.46558,70.45773],[28.46851,70.45588],[28.47211,70.45169],[28.47434,70.45135],[28.48003,70.45129],[28.48505,70.45028]],[[28.50199,70.47786],[28.49608,70.47502],[28.49208,70.47426],[28.49087,70.47324]],[[28.38502,70.48667],[28.38859,70.4872],[28.38949,70.48653],[28.40131,70.48812]],[[28.50199,70.47786],[28.50273,70.4794],[28.50541,70.48132],[28.50594,70.48616],[28.50812,70.48833],[28.50857,70.49039],[28.51434,70.49359]],[[28.53623,70.49816],[28.52873,70.49676],[28.52233,70.49506],[28.51707,70.49453],[28.51434,70.49359]],[[28.40131,70.48812],[28.41652,70.49137],[28.41827,70.49149],[28.41836,70.49091],[28.41936,70.4908],[28.42738,70.49518],[28.42932,70.4966],[28.42931,70.4978],[28.42917,70.49834],[28.42739,70.49865],[28.42575,70.50108],[28.42635,70.50433],[28.41991,70.50568],[28.41971,70.5072],[28.42048,70.50801],[28.42349,70.50915],[28.43714,70.51148],[28.43572,70.51049],[28.43866,70.5106],[28.43974,70.50895],[28.43834,70.50807],[28.43737,70.50587],[28.44745,70.49882],[28.45373,70.49343],[28.45349,70.49168],[28.45914,70.48573],[28.45798,70.48118]],[[28.45443,70.51106],[28.45346,70.51082],[28.44682,70.51192],[28.45433,70.51215],[28.45443,70.51106]],[[28.52405,70.5079],[28.51947,70.50764],[28.5164,70.50689],[28.50933,70.50602],[28.49999,70.50643],[28.49125,70.50784],[28.48524,70.50838],[28.47414,70.50863]],[[28.53623,70.49816],[28.53944,70.49883],[28.5416,70.50053],[28.54757,70.50268],[28.54688,70.50657],[28.55255,70.50955],[28.55411,70.50936]],[[28.52405,70.5079],[28.53246,70.50874],[28.53781,70.50888],[28.54327,70.50808],[28.54515,70.5082],[28.54571,70.50848],[28.54419,70.50918],[28.54564,70.5095],[28.5494,70.50922],[28.5494,70.51022],[28.55026,70.51046],[28.55431,70.5096]],[[28.43743,70.52855],[28.44119,70.52663],[28.44408,70.52415],[28.45616,70.52163],[28.46384,70.51377],[28.46566,70.50969],[28.47414,70.50863]],[[28.40792,70.53923],[28.41169,70.53893],[28.41443,70.53809],[28.42174,70.53693],[28.43037,70.53426],[28.43448,70.53214],[28.43743,70.52855]],[[28.40792,70.53923],[28.40145,70.54015],[28.39864,70.54182],[28.39485,70.54211],[28.39331,70.54258],[28.39572,70.54348],[28.40142,70.54417],[28.40525,70.5453],[28.40936,70.54786],[28.41017,70.54986]],[[28.41017,70.54986],[28.40963,70.55375],[28.4113,70.55588]],[[28.42397,70.57538],[28.42062,70.5724],[28.41718,70.57053],[28.4113,70.55588]],[[28.42397,70.57538],[28.44186,70.58943]],[[28.47644,70.61727],[28.47546,70.61418],[28.4776,70.60942],[28.47733,70.60801],[28.46978,70.6038],[28.46624,70.60311],[28.47024,70.60075],[28.47032,70.59815],[28.46607,70.59606],[28.45045,70.59281],[28.44186,70.58943]],[[28.4797,70.62218],[28.47758,70.62041],[28.47644,70.61727]],[[28.4797,70.62218],[28.48047,70.62302],[28.47968,70.62593]],[[28.50968,70.6561],[28.5021,70.65084],[28.49715,70.64488],[28.49173,70.64208],[28.48616,70.63779],[28.48249,70.62989],[28.47816,70.6278],[28.47968,70.62593]],[[28.50881,70.66066],[28.51021,70.65741],[28.50968,70.6561]],[[28.50567,70.68311],[28.50676,70.6807],[28.51053,70.67877],[28.51245,70.67681],[28.51203,70.67376],[28.50673,70.669],[28.50893,70.66097]],[[28.50567,70.68311],[28.50679,70.68474]],[[28.50679,70.68474],[28.50957,70.68481],[28.51155,70.68388],[28.51524,70.68355]],[[28.51524,70.68355],[28.52664,70.68452],[28.53587,70.68215]],[[28.53587,70.68215],[28.54808,70.67914],[28.57362,70.67491],[28.578,70.67592],[28.57821,70.67734],[28.58343,70.67771],[28.59072,70.67654],[28.59354,70.67695],[28.59753,70.67665],[28.60637,70.67542],[28.6131,70.67382],[28.61723,70.67478],[28.6217,70.67731],[28.62415,70.67756],[28.62439,70.67686],[28.62608,70.67696],[28.62479,70.67843],[28.62819,70.67922]],[[28.53825,70.70429],[28.54019,70.70293],[28.55134,70.69849],[28.55851,70.69449],[28.56522,70.69295],[28.56795,70.69104],[28.57367,70.69047],[28.57819,70.68826],[28.58615,70.687],[28.59197,70.6863],[28.608,70.68575],[28.6163,70.68313],[28.62398,70.68272],[28.62569,70.68203],[28.62696,70.6797],[28.62817,70.67945]],[[28.52747,70.71489],[28.5327,70.70896],[28.53825,70.70429]],[[28.55297,70.74902],[28.54948,70.74686]],[[28.52747,70.71489],[28.52331,70.71858],[28.52054,70.72239],[28.51491,70.72684],[28.51551,70.7287],[28.51734,70.7291],[28.51965,70.7311],[28.5222,70.73158],[28.52591,70.73445],[28.53042,70.7354],[28.53278,70.73717],[28.53605,70.73797],[28.53821,70.73994],[28.54774,70.74467],[28.54948,70.74686]],[[28.66709,70.78627],[28.67104,70.78492],[28.67138,70.78418],[28.66931,70.78225],[28.66425,70.77992],[28.64357,70.77531],[28.63087,70.7739],[28.61762,70.77113],[28.60361,70.76985],[28.60092,70.76722],[28.59748,70.7656],[28.58933,70.7631],[28.578,70.75785],[28.57612,70.75646],[28.57182,70.75462],[28.56754,70.75346],[28.56675,70.75195],[28.5648,70.75161],[28.56148,70.75204],[28.55632,70.74958],[28.55297,70.74902]],[[28.70963,70.82891],[28.70603,70.82516],[28.70353,70.82414],[28.69785,70.82282],[28.69758,70.82127],[28.69499,70.82025],[28.69276,70.81809],[28.68903,70.81611],[28.68565,70.81494],[28.67963,70.81502],[28.67614,70.81394],[28.67264,70.81186],[28.67377,70.81012],[28.67082,70.80462],[28.65841,70.79686],[28.65925,70.79609],[28.65699,70.79434],[28.66365,70.7907],[28.66521,70.78717],[28.66709,70.78627]],[[28.36514,70.8842],[28.37633,70.8842],[28.39304,70.88256],[28.39954,70.88167],[28.40538,70.88002],[28.41019,70.87939],[28.43666,70.87784],[28.45015,70.87802],[28.45214,70.87729],[28.45621,70.87664],[28.45629,70.87483],[28.45242,70.87404],[28.44898,70.87405],[28.4439,70.87235],[28.43929,70.87039],[28.4368,70.86744],[28.43523,70.86707],[28.42477,70.86643],[28.42426,70.86571],[28.42637,70.86536],[28.42316,70.86379],[28.42328,70.86159],[28.42512,70.86018],[28.42462,70.85925],[28.42085,70.85805],[28.41508,70.85723],[28.41171,70.85567],[28.41101,70.85416],[28.40764,70.85252],[28.4015,70.85196]],[[28.70963,70.82891],[28.70952,70.82969],[28.7111,70.8308],[28.71633,70.83197],[28.72723,70.83691],[28.72865,70.83996],[28.7275,70.84071],[28.72758,70.84338],[28.73149,70.84316],[28.73228,70.84359],[28.7316,70.84428],[28.73405,70.84466],[28.73663,70.84464],[28.73987,70.84361],[28.74388,70.84416],[28.74535,70.84645],[28.7437,70.84915],[28.74599,70.84965],[28.74627,70.85028],[28.74994,70.85148],[28.74976,70.85235],[28.75349,70.85435],[28.75265,70.85508],[28.75399,70.85561],[28.76046,70.8562],[28.76181,70.85704],[28.76554,70.85687]],[[28.47327,70.89248],[28.47277,70.89185],[28.47461,70.8914],[28.47269,70.89088],[28.46996,70.89108],[28.47038,70.89018],[28.46434,70.88979],[28.45313,70.88739],[28.43424,70.88654],[28.42807,70.88563],[28.41928,70.88599],[28.41363,70.88673],[28.40245,70.88899],[28.39629,70.88926],[28.3816,70.89096],[28.37792,70.89293],[28.37435,70.89284],[28.37255,70.89227],[28.37063,70.8922]],[[28.8017,70.8678],[28.7987,70.86657],[28.79773,70.86389],[28.79635,70.86324],[28.79143,70.86254],[28.78446,70.86263],[28.77998,70.86084],[28.77567,70.86064],[28.77422,70.8587],[28.76554,70.85687]],[[28.8017,70.8678],[28.80121,70.86857],[28.80369,70.86895],[28.80754,70.86861],[28.81348,70.87004],[28.81552,70.87088],[28.81508,70.87263],[28.81689,70.87326],[28.82444,70.87419],[28.82598,70.87499],[28.83009,70.87554],[28.83022,70.87661],[28.83282,70.87796],[28.83961,70.87844],[28.84218,70.8783],[28.84644,70.8763],[28.85017,70.87623],[28.85462,70.87718],[28.85601,70.87842],[28.85921,70.87852],[28.86389,70.87962],[28.87503,70.87891],[28.87774,70.87902],[28.88077,70.87937],[28.88254,70.88005],[28.896,70.8816],[28.9007,70.88119],[28.9041,70.8814],[28.91011,70.88105],[28.91982,70.88166],[28.92348,70.88225]],[[28.99706,70.87075],[28.9983,70.87264],[29.00058,70.87405]],[[28.92348,70.88225],[28.9261,70.88299],[28.93022,70.88343],[28.93656,70.88317],[28.94041,70.88244],[28.94415,70.88234],[28.94821,70.88289],[28.95515,70.88482],[28.95676,70.88472],[28.95782,70.88417],[28.96119,70.88416],[28.96414,70.88456],[28.96716,70.88568],[28.96861,70.88332],[28.97109,70.88243],[28.9755,70.88226],[28.97688,70.88307],[28.98204,70.88173],[28.97933,70.87875],[28.98603,70.87585],[28.98364,70.87453],[28.97632,70.87326],[28.97708,70.87144],[28.98088,70.8699],[28.98431,70.86935],[28.98878,70.86925],[28.9963,70.87011]],[[28.52329,70.9346],[28.52384,70.93269],[28.52683,70.93009],[28.5253,70.92923],[28.51792,70.92821],[28.51721,70.92715],[28.51954,70.92605],[28.51784,70.92497],[28.51116,70.92246],[28.50859,70.92215],[28.50215,70.92234],[28.49905,70.92197],[28.4977,70.92126],[28.49923,70.92015],[28.50353,70.91927],[28.50475,70.91679],[28.50988,70.91582],[28.51046,70.91422],[28.50004,70.91242],[28.4988,70.91083],[28.49164,70.90755],[28.48555,70.90732],[28.47041,70.90879],[28.46438,70.90858],[28.46277,70.90795],[28.46258,70.90688],[28.46442,70.90611],[28.47776,70.90345],[28.48589,70.90114],[28.48497,70.90001],[28.47787,70.89916],[28.47799,70.89813],[28.48053,70.89792],[28.48271,70.89636],[28.48029,70.89539],[28.47632,70.89481],[28.47705,70.89425],[28.47412,70.89334],[28.47327,70.89248]],[[28.54371,70.97893],[28.5447,70.97776],[28.54058,70.97596],[28.54403,70.97428],[28.54294,70.9724],[28.54606,70.97164],[28.54473,70.97086],[28.54704,70.96952],[28.54706,70.96724],[28.53516,70.96597],[28.53385,70.96549],[28.53581,70.96353],[28.53505,70.96261],[28.53789,70.96197],[28.53781,70.96062],[28.53995,70.95979],[28.53864,70.95658],[28.54072,70.95666],[28.54121,70.95629],[28.53897,70.95564],[28.5367,70.95594],[28.53166,70.95552],[28.52864,70.95504],[28.52784,70.9545],[28.53097,70.95246],[28.53078,70.95108],[28.53302,70.9502],[28.53287,70.94967],[28.52864,70.94843],[28.52861,70.94807],[28.53116,70.94716],[28.53437,70.94669],[28.52854,70.94418],[28.52854,70.9437],[28.53103,70.94307],[28.53246,70.94099],[28.53013,70.93917],[28.52376,70.93777],[28.52331,70.93635],[28.52436,70.93576],[28.52329,70.9346]],[[28.4437,70.99816],[28.44474,70.9963],[28.44643,70.99611],[28.45086,70.99673],[28.45622,70.99621],[28.45606,70.99504],[28.45743,70.99447],[28.46142,70.99427],[28.46453,70.99475],[28.4695,70.99414],[28.47102,70.99439],[28.4776,70.99285],[28.48411,70.99276],[28.48537,70.99176],[28.48721,70.99156],[28.48937,70.99155],[28.49357,70.99255],[28.49534,70.99131],[28.50326,70.98993],[28.50696,70.98999],[28.50918,70.99075],[28.51164,70.99097],[28.51529,70.99057],[28.51693,70.98973],[28.52265,70.98907],[28.5234,70.98871],[28.52233,70.98797],[28.52011,70.98853],[28.51793,70.98805],[28.52253,70.98383],[28.52745,70.98306],[28.53486,70.98265],[28.54012,70.98094],[28.54371,70.97893]]]}}]}