{"type":"FeatureCollection","features":[{"type":"Feature","properties":{},"geometry":{"type":"MultiLineString","coordinates":[[[23.02808,70.01601],[23.03288,70.01593],[23.03405,70.01624],[23.03372,70.01656],[23.03592,70.01686],[23.039,70.01681],[23.03933,70.01633],[23.04146,70.01631],[23.04276,70.01683],[23.04149,70.0178],[23.04488,70.01757],[23.04527,70.01704],[23.04745,70.01754]],[[23.01788,70.01956],[23.02033,70.01962],[23.02169,70.019],[23.02316,70.01656],[23.02808,70.01601]],[[22.9923,70.03056],[23.00048,70.0292],[23.00836,70.02485],[23.01402,70.02049],[23.01534,70.0199],[23.01788,70.01956]],[[22.99755,70.13686],[23.00257,70.13321],[22.9987,70.13225]],[[23.01521,70.13565],[23.00834,70.13637],[23.00208,70.13911],[23.00139,70.14083],[23.00413,70.143],[23.00533,70.14299],[23.00987,70.14102],[23.01665,70.13616],[23.01521,70.13565]],[[23.01674,70.25945],[23.01567,70.25955],[23.01492,70.26036],[23.01538,70.26127],[23.0168,70.26173],[23.01837,70.26156],[23.01897,70.26107],[23.01674,70.25945]],[[23.00722,70.26262],[23.00696,70.2607],[23.00807,70.25965],[23.00667,70.25761],[23.00914,70.25369],[23.00932,70.24879],[23.00877,70.24717],[23.00517,70.24438],[23.00017,70.24342],[22.99696,70.2417]],[[22.99869,70.26433],[23.0036,70.2642],[23.00722,70.26262]],[[23.04192,70.35213],[23.03992,70.35152]],[[23.01181,70.33617],[23.00778,70.33482]],[[23.00778,70.33482],[23.00407,70.33489],[23.00087,70.33555],[22.99736,70.33846]],[[23.03992,70.35152],[23.03103,70.34846],[23.03207,70.34691],[23.03515,70.34668],[23.03618,70.34604],[23.03189,70.3445],[23.03008,70.3433],[23.02123,70.34039],[23.01494,70.33769],[23.01364,70.33659],[23.01181,70.33617]],[[23.22881,70.00904],[23.22672,70.00873],[23.22595,70.00901],[23.22752,70.01054],[23.22977,70.01091],[23.23091,70.01047],[23.22881,70.00904]],[[23.52062,70.01907],[23.52447,70.01635]],[[23.16118,70.07491],[23.16096,70.07497]],[[23.13738,70.08784],[23.14177,70.08857]],[[23.35062,70.10054],[23.35084,70.10154],[23.35635,70.10247]],[[23.3628,70.11073],[23.36717,70.11288],[23.37138,70.11392]],[[23.38749,70.12297],[23.38823,70.12315]],[[23.23192,70.13959],[23.22854,70.13864],[23.2272,70.13718]],[[23.25786,70.14109],[23.25232,70.1412],[23.24837,70.14071]],[[23.24761,70.14855],[23.25501,70.14764],[23.25882,70.14624]],[[23.22966,70.21985],[23.24011,70.21897]],[[23.50444,70.23966],[23.50494,70.23986]],[[23.40906,70.26165],[23.41002,70.2617]],[[23.38795,70.28045],[23.38949,70.2803]],[[23.25759,70.29578],[23.25841,70.29463]],[[23.05192,70.3058],[23.05893,70.30398]],[[23.06067,70.33547],[23.05975,70.33354]],[[23.08632,70.34943],[23.08762,70.35037]],[[23.38053,70.34293],[23.3781,70.34322],[23.38025,70.34426],[23.38221,70.34365],[23.38053,70.34293]],[[23.10546,70.39376],[23.10416,70.39149]],[[23.44118,70.38364],[23.44768,70.38335],[23.45008,70.38241]],[[23.43797,70.3841],[23.44118,70.38364]],[[23.07848,70.0278],[23.08608,70.02066],[23.0861,70.01814],[23.08813,70.01753],[23.09107,70.01436],[23.094,70.01323],[23.09618,70.00718],[23.09893,70.00612],[23.1023,70.00158],[23.10242,69.99909]],[[23.04745,70.01754],[23.04667,70.02046],[23.05374,70.0234],[23.05436,70.02454],[23.05353,70.02585],[23.0649,70.02892]],[[23.0649,70.02892],[23.06509,70.02981],[23.06074,70.03104],[23.06071,70.03156],[23.06323,70.03189],[23.06436,70.0317],[23.0662,70.03003],[23.07158,70.03102],[23.0725,70.03241],[23.07436,70.03289],[23.0763,70.03051],[23.07998,70.02986],[23.07848,70.0278]],[[23.37768,70.01961],[23.37021,70.01937],[23.37088,70.01993]],[[23.52373,70.01264],[23.52208,70.01184],[23.51083,70.01056],[23.50599,70.00951],[23.50696,70.00885],[23.50657,70.00591],[23.50309,70.0046],[23.50071,70.00223],[23.49878,70.0014],[23.48386,70.00167],[23.47729,70.00035],[23.47699,69.9991]],[[23.37088,70.01993],[23.37928,70.0215],[23.3803,70.02032],[23.37768,70.01961]],[[23.53133,70.01505],[23.52878,70.01458],[23.52681,70.01501],[23.52507,70.01477],[23.52373,70.01264]],[[23.22746,70.02813],[23.22452,70.02829],[23.22129,70.02901],[23.23053,70.03013],[23.23258,70.03],[23.2328,70.02966],[23.23063,70.02874],[23.22746,70.02813]],[[23.53133,70.01505],[23.53127,70.0158],[23.52447,70.01635]],[[23.20963,70.03336],[23.20543,70.03359],[23.20465,70.03409],[23.21268,70.03557],[23.21587,70.03518],[23.20963,70.03336]],[[23.28803,70.03424],[23.29361,70.0348],[23.29905,70.03347],[23.3028,70.03302],[23.30478,70.03217],[23.30502,70.03146],[23.31129,70.03115],[23.31578,70.03041],[23.31848,70.02936],[23.32113,70.02661],[23.3293,70.02514],[23.33352,70.02481],[23.33572,70.0236],[23.33833,70.02371],[23.34649,70.02263],[23.35899,70.02283],[23.36189,70.02146],[23.36855,70.02297],[23.37291,70.02343],[23.38237,70.02593],[23.39184,70.02785],[23.39491,70.02776],[23.39487,70.02709],[23.39696,70.02628],[23.41456,70.02584],[23.41706,70.02623]],[[23.49844,70.02622],[23.50699,70.02425],[23.50732,70.02366],[23.51118,70.02222],[23.51521,70.02149],[23.52062,70.01907]],[[23.41706,70.02623],[23.4218,70.02686],[23.44111,70.0265],[23.45488,70.0272],[23.45963,70.0262],[23.46874,70.02537],[23.47602,70.02672],[23.48669,70.02602],[23.49528,70.02648],[23.49844,70.02622]],[[23.17101,70.07279],[23.17313,70.07125],[23.18201,70.06972],[23.18419,70.06896],[23.18464,70.06782],[23.18248,70.06699],[23.18421,70.06668],[23.18426,70.06602],[23.18124,70.06449],[23.18275,70.06399],[23.18739,70.06352],[23.1885,70.06216],[23.19166,70.06119],[23.19607,70.0583],[23.20487,70.05668],[23.20719,70.05523],[23.21705,70.05422],[23.22069,70.0533],[23.22277,70.05177],[23.2211,70.05116],[23.22109,70.05048],[23.2233,70.05034],[23.22421,70.04915],[23.2302,70.04781],[23.23419,70.04746],[23.23772,70.04547],[23.23803,70.04438],[23.24863,70.04378],[23.24826,70.04222],[23.25601,70.04181],[23.26008,70.04058],[23.27058,70.03972],[23.27684,70.03802],[23.27694,70.03728],[23.28177,70.03523],[23.28803,70.03424]],[[23.16118,70.07491],[23.17101,70.07279]],[[23.16096,70.07497],[23.15302,70.07723],[23.15052,70.07927],[23.14342,70.08103],[23.14485,70.08182],[23.14363,70.08289],[23.13639,70.08368],[23.13603,70.08487],[23.13266,70.08516],[23.13458,70.0874],[23.13738,70.08784]],[[23.14177,70.08857],[23.1423,70.08912],[23.1397,70.09016],[23.14217,70.09068],[23.15021,70.09036],[23.15358,70.09065],[23.1558,70.09131],[23.16219,70.09069],[23.17909,70.09318]],[[23.17909,70.09318],[23.1901,70.09352]],[[23.1901,70.09352],[23.1985,70.09476]],[[23.2774,70.1022],[23.27905,70.10192],[23.29324,70.10218],[23.29545,70.10143],[23.3015,70.10043],[23.30839,70.10031],[23.31049,70.09962],[23.31453,70.10013]],[[23.1985,70.09476],[23.2002,70.09577],[23.21022,70.09879],[23.21284,70.10043],[23.21928,70.10114],[23.22338,70.10088],[23.22577,70.10131],[23.22925,70.10274],[23.23561,70.10298],[23.23884,70.10221],[23.24979,70.10319],[23.25369,70.10203],[23.25904,70.10212],[23.26476,70.10155],[23.2706,70.10228],[23.27299,70.10328],[23.27578,70.10295],[23.2774,70.1022]],[[23.35062,70.10054],[23.3456,70.0988],[23.34195,70.09868],[23.33903,70.1001],[23.33545,70.10302],[23.33395,70.10334],[23.32837,70.10331],[23.32792,70.1045],[23.32674,70.10473],[23.32259,70.10408],[23.32249,70.10233],[23.32076,70.10141],[23.31453,70.10013]],[[23.32448,70.10538],[23.3217,70.10598],[23.32282,70.10675],[23.32624,70.10628],[23.32634,70.10546],[23.32448,70.10538]],[[23.3628,70.11073],[23.35719,70.10623],[23.3578,70.10394],[23.35635,70.10247]],[[23.37138,70.11392],[23.37882,70.11415],[23.38165,70.11636],[23.38172,70.11711],[23.3802,70.11799],[23.38467,70.11861]],[[23.19941,70.12919],[23.19579,70.12911],[23.19367,70.12988]],[[23.38823,70.12315],[23.38919,70.12325],[23.38888,70.12407],[23.39036,70.12434],[23.39022,70.12265],[23.38835,70.12227],[23.38749,70.12297]],[[23.2272,70.13718],[23.22913,70.13666],[23.23012,70.13542],[23.23161,70.13538],[23.23117,70.13432],[23.23281,70.13271],[23.23102,70.13118],[23.23188,70.1296],[23.22544,70.12893],[23.21911,70.12931],[23.20954,70.12894],[23.19941,70.12919]],[[23.38542,70.1196],[23.37465,70.11976],[23.37017,70.12064],[23.36866,70.12147],[23.36886,70.12224],[23.37287,70.1238],[23.37281,70.12474],[23.37496,70.12525],[23.37622,70.12536],[23.3771,70.12449],[23.37858,70.12421],[23.3807,70.12455],[23.38348,70.12406],[23.38461,70.12441],[23.37564,70.12656],[23.36824,70.12675],[23.34351,70.13336]],[[23.29987,70.13735],[23.30401,70.13639],[23.29537,70.13516],[23.29041,70.13593],[23.29603,70.13737],[23.29987,70.13735]],[[23.24837,70.14071],[23.24253,70.13912],[23.23995,70.13927],[23.23698,70.13891],[23.23512,70.13969],[23.23192,70.13959]],[[23.32955,70.1373],[23.3387,70.13519],[23.34351,70.13336]],[[23.19367,70.12988],[23.18721,70.13156],[23.17923,70.13294],[23.17562,70.13477],[23.17096,70.13629],[23.17216,70.1386],[23.16949,70.1415],[23.17165,70.14262],[23.17101,70.14369],[23.17287,70.14466],[23.16775,70.14646],[23.1668,70.14737],[23.16902,70.14848],[23.17601,70.149]],[[23.25882,70.14624],[23.26312,70.14534],[23.27245,70.14469],[23.27318,70.14368],[23.27084,70.14336],[23.27212,70.14263],[23.27767,70.14281],[23.28534,70.14073],[23.28127,70.1395],[23.27628,70.1399],[23.27327,70.14119],[23.26208,70.14051],[23.25786,70.14109]],[[23.17601,70.149],[23.18435,70.14938],[23.19395,70.15107],[23.20165,70.14991]],[[23.20165,70.14991],[23.20694,70.14968],[23.21194,70.15015],[23.22039,70.15025]],[[23.22039,70.15025],[23.22537,70.15042],[23.23837,70.14986],[23.24481,70.14933],[23.24761,70.14855]],[[23.27006,70.16027],[23.27722,70.15837],[23.28281,70.15768],[23.28694,70.15652],[23.28872,70.15511],[23.30113,70.15238],[23.30323,70.14971],[23.30671,70.14771],[23.31104,70.14634],[23.31814,70.14513],[23.32,70.14312],[23.31899,70.14192],[23.32373,70.13843],[23.32685,70.13744],[23.32955,70.1373]],[[23.27006,70.16027],[23.2711,70.16059],[23.27804,70.16042],[23.28245,70.16073],[23.28484,70.16279],[23.28155,70.16486],[23.28065,70.1665],[23.27096,70.17149],[23.26695,70.17286],[23.26716,70.17333],[23.288,70.17577],[23.31721,70.17359],[23.32243,70.17374],[23.33667,70.17532],[23.34601,70.17787]],[[23.37615,70.17793],[23.37365,70.1774],[23.37067,70.1779],[23.36987,70.17692],[23.36833,70.17673],[23.35576,70.17714],[23.34985,70.17816],[23.34601,70.17787]],[[23.34835,70.18362],[23.35434,70.1838],[23.35632,70.18337],[23.3578,70.18195],[23.35991,70.18122],[23.36263,70.18088],[23.36653,70.18124],[23.37301,70.18041],[23.37533,70.17859]],[[23.22005,70.19592],[23.24107,70.18972],[23.25486,70.18812],[23.26535,70.1856],[23.28203,70.1835],[23.28633,70.18322],[23.30021,70.18328],[23.30414,70.18292],[23.31751,70.18313],[23.326,70.18289],[23.33671,70.18359],[23.34488,70.18313],[23.34835,70.18362]],[[23.20854,70.20007],[23.21212,70.19921],[23.21682,70.19685],[23.22005,70.19592]],[[23.20527,70.20846],[23.20588,70.20574],[23.20456,70.20384],[23.20615,70.20128],[23.20854,70.20007]],[[23.20527,70.20846],[23.2044,70.20953],[23.199,70.20994],[23.19208,70.21252],[23.18569,70.21295],[23.18404,70.21377],[23.17919,70.21407],[23.17856,70.21562],[23.17961,70.21621],[23.18423,70.21639],[23.18843,70.21519],[23.19224,70.21534],[23.19443,70.21458],[23.19708,70.21424],[23.19884,70.21442],[23.20314,70.21548],[23.20404,70.21691],[23.20271,70.21818],[23.20819,70.21968],[23.20839,70.2216],[23.22341,70.21966],[23.22966,70.21985]],[[23.24011,70.21897],[23.24636,70.21798],[23.26033,70.21972],[23.27155,70.22052],[23.28174,70.22079],[23.29654,70.22293],[23.3044,70.22504],[23.32307,70.22722],[23.33098,70.22751],[23.3571,70.22726]],[[23.3571,70.22726],[23.36616,70.22727]],[[23.35787,70.24658],[23.36828,70.24609]],[[23.36616,70.22727],[23.37111,70.2274],[23.37611,70.22642],[23.3803,70.22666],[23.3813,70.22633],[23.38974,70.22638],[23.39421,70.22744],[23.3959,70.22966],[23.39692,70.22947],[23.39717,70.22796],[23.39863,70.22675],[23.40349,70.22732],[23.40487,70.2283]],[[23.36828,70.24609],[23.37322,70.24455]],[[23.39714,70.24474],[23.39479,70.24417],[23.38799,70.24466],[23.38392,70.24431],[23.37322,70.24455]],[[23.35787,70.24658],[23.35011,70.24418],[23.34118,70.24277],[23.3393,70.24215],[23.33617,70.24189],[23.33215,70.24229],[23.32951,70.24126],[23.32723,70.24102],[23.32175,70.2411],[23.31948,70.24159],[23.31686,70.24127],[23.31121,70.24166],[23.30406,70.24139],[23.29654,70.24321],[23.28799,70.24296],[23.27349,70.24131],[23.26637,70.24337],[23.25774,70.24448],[23.24954,70.24666],[23.24642,70.24789],[23.24934,70.25162]],[[23.50444,70.23966],[23.50376,70.23927],[23.49889,70.2389],[23.49444,70.23908],[23.48781,70.24016],[23.48271,70.24036],[23.45822,70.23985],[23.44554,70.24098],[23.44175,70.24004],[23.43533,70.23917],[23.43664,70.23746],[23.42683,70.23742],[23.42112,70.23617],[23.41296,70.23676],[23.40513,70.23592],[23.40163,70.23389],[23.40445,70.23215],[23.40442,70.23093],[23.40288,70.22951],[23.40487,70.2283]],[[23.50626,70.24304],[23.50754,70.24139],[23.50494,70.23986]],[[23.39714,70.24474],[23.39672,70.24576],[23.38577,70.24792],[23.3864,70.24871],[23.39007,70.24936],[23.39808,70.24984],[23.40059,70.24965],[23.40247,70.24856],[23.40508,70.24801],[23.41146,70.24775],[23.41544,70.24799],[23.42173,70.24706],[23.42541,70.24716],[23.42982,70.2479],[23.44788,70.2483],[23.4493,70.24798],[23.44952,70.24728],[23.44693,70.24457],[23.44863,70.2436],[23.45333,70.24291],[23.46105,70.24286],[23.46988,70.24412],[23.47428,70.24434],[23.4991,70.24328],[23.50525,70.24361],[23.50626,70.24304]],[[23.40906,70.26165],[23.39569,70.26287],[23.38931,70.26392],[23.38136,70.26439]],[[23.24934,70.25162],[23.25034,70.25229],[23.25344,70.25296],[23.26718,70.25417],[23.27259,70.25667],[23.27895,70.25794],[23.28955,70.25876],[23.30004,70.25857],[23.30514,70.25938],[23.31809,70.26019],[23.33571,70.26199],[23.33989,70.2639],[23.35163,70.26571],[23.35815,70.26783],[23.37288,70.26659],[23.3766,70.26569],[23.37849,70.26477],[23.38136,70.26439]],[[23.3841,70.27108],[23.395,70.26911],[23.40164,70.26725],[23.40709,70.26642],[23.41002,70.26536],[23.4123,70.26397],[23.41216,70.26277],[23.41002,70.2617]],[[23.3841,70.27108],[23.37966,70.27157]],[[23.08751,70.28727],[23.08824,70.28662],[23.08694,70.28535],[23.08846,70.28405],[23.09535,70.28228],[23.09859,70.28027],[23.10058,70.27999],[23.10717,70.28012],[23.11138,70.27942],[23.11672,70.28036],[23.11987,70.27948]],[[23.37966,70.27157],[23.37221,70.27317],[23.37035,70.27533],[23.37304,70.27705],[23.37245,70.27856],[23.37377,70.27933],[23.37951,70.28072],[23.38795,70.28045]],[[23.11987,70.27948],[23.12364,70.27725],[23.12396,70.27594],[23.13516,70.27326],[23.1396,70.27319],[23.14642,70.27225],[23.14992,70.27283],[23.15115,70.27364],[23.15375,70.27415],[23.15855,70.27403],[23.16161,70.27315],[23.1712,70.2745],[23.17711,70.27392],[23.17719,70.27507],[23.17819,70.27546],[23.18531,70.27526],[23.19391,70.27741],[23.19762,70.27788],[23.19814,70.27977],[23.20058,70.28047],[23.2069,70.28029],[23.2142,70.28084],[23.22128,70.2824],[23.22847,70.28273],[23.23104,70.28393],[23.23554,70.28482],[23.24805,70.28614],[23.25277,70.28776],[23.25234,70.28801],[23.25747,70.28881]],[[23.08751,70.28727],[23.08545,70.28759],[23.08396,70.28726],[23.08273,70.28742],[23.08442,70.28811],[23.08105,70.2894],[23.07672,70.28973],[23.06926,70.28931],[23.06365,70.29127],[23.06001,70.29408],[23.05616,70.29443],[23.06016,70.29685],[23.05948,70.29889],[23.06369,70.30005],[23.06447,70.30102]],[[23.05893,70.30398],[23.06447,70.30102]],[[23.25936,70.29348],[23.26036,70.29117],[23.25747,70.28881]],[[23.25841,70.29463],[23.25936,70.29348]],[[23.25894,70.29638],[23.25759,70.29578]],[[23.28404,70.29522],[23.2809,70.29322],[23.26856,70.29593]],[[23.44169,70.28785],[23.44193,70.28633],[23.44066,70.28579],[23.43048,70.28626],[23.41653,70.28534],[23.41331,70.28453],[23.40955,70.28259],[23.4065,70.28174],[23.3958,70.28018],[23.38949,70.2803]],[[23.45209,70.28736],[23.45724,70.28648],[23.46147,70.28514],[23.49502,70.28334],[23.50021,70.28214],[23.50371,70.28226],[23.50961,70.28156],[23.52256,70.28214]],[[23.53637,70.28336],[23.53217,70.28176],[23.52256,70.28214]],[[23.26058,70.2965],[23.26615,70.29639],[23.26856,70.29593]],[[23.44169,70.28785],[23.44374,70.28816],[23.45209,70.28736]],[[23.25894,70.29638],[23.26058,70.2965]],[[23.54027,70.28842],[23.53832,70.28864],[23.54085,70.2896],[23.54356,70.28963],[23.54361,70.28924],[23.54027,70.28842]],[[23.52829,70.29584],[23.52123,70.29599],[23.51258,70.29744]],[[23.05192,70.3058],[23.05121,70.30652],[23.05352,70.30767],[23.05234,70.30888],[23.05558,70.30947],[23.063,70.309],[23.0607,70.31145],[23.06154,70.31189],[23.06345,70.31163],[23.06441,70.31215],[23.05436,70.31747],[23.05373,70.32034]],[[23.05169,70.3212],[23.05373,70.32034]],[[23.52829,70.29584],[23.5331,70.29549],[23.53339,70.29467],[23.52915,70.29337],[23.53093,70.29221],[23.53636,70.29213],[23.54977,70.29386],[23.56132,70.2944],[23.56956,70.2961],[23.57488,70.29644],[23.58514,70.29781],[23.59047,70.29776],[23.59156,70.29737],[23.59587,70.29787],[23.59888,70.29715],[23.60073,70.29798]],[[23.60073,70.29798],[23.60417,70.29797],[23.60514,70.29685],[23.59613,70.29355],[23.59485,70.2917],[23.59156,70.29073],[23.57497,70.28782],[23.5679,70.28792],[23.56384,70.28844],[23.54052,70.2872],[23.53712,70.28629],[23.53697,70.28549],[23.53825,70.2846],[23.53637,70.28336]],[[23.48085,70.30892],[23.48022,70.3083],[23.47663,70.30736],[23.46944,70.30622],[23.46848,70.30569],[23.474,70.30268],[23.47642,70.30199],[23.48529,70.30151],[23.49046,70.30051],[23.49648,70.30006],[23.50677,70.29788],[23.51258,70.29744]],[[23.05169,70.3212],[23.04598,70.32245],[23.04474,70.32376],[23.03914,70.32666],[23.03956,70.32749],[23.04036,70.32786],[23.05047,70.32877],[23.05271,70.32934],[23.05581,70.33188],[23.05975,70.33354]],[[23.48085,70.30892],[23.4802,70.31025],[23.48765,70.31186],[23.48849,70.31492],[23.49441,70.31743]],[[23.51236,70.32198],[23.51124,70.32063],[23.50817,70.31959],[23.49441,70.31743]],[[23.06067,70.33547],[23.06136,70.33752],[23.05811,70.33835],[23.05863,70.33945],[23.05485,70.33975],[23.0582,70.34133],[23.05892,70.34227],[23.06343,70.34292],[23.06539,70.34236]],[[23.51236,70.32198],[23.51126,70.32376],[23.50555,70.32411],[23.50569,70.32533],[23.50282,70.32598]],[[23.28057,70.33297],[23.28448,70.33273],[23.28631,70.33196],[23.29255,70.33267],[23.29361,70.33167],[23.29853,70.33148],[23.31597,70.33277],[23.32224,70.3324],[23.32887,70.33138],[23.32991,70.33084],[23.32659,70.32885],[23.32759,70.32811],[23.34499,70.32388],[23.35045,70.32195],[23.35185,70.32029],[23.35122,70.3169],[23.35429,70.31578],[23.35278,70.31395],[23.34933,70.31313],[23.34384,70.31038],[23.33646,70.30847],[23.32888,70.30404],[23.31805,70.3025],[23.31496,70.30079],[23.3085,70.29938],[23.2893,70.29707],[23.28404,70.29522]],[[23.08632,70.34943],[23.08161,70.34832],[23.07924,70.34684],[23.07244,70.34584],[23.06768,70.34236],[23.06539,70.34236]],[[23.29115,70.34009],[23.28306,70.33544],[23.28057,70.33297]],[[23.44951,70.3327],[23.44593,70.33128],[23.44199,70.32803],[23.43836,70.32129],[23.4294,70.31315],[23.43175,70.31158],[23.4348,70.31109],[23.43983,70.31115],[23.44402,70.31198],[23.44824,70.31209],[23.45615,70.3136],[23.46641,70.31601],[23.47697,70.32048],[23.48704,70.32319],[23.50282,70.32598]],[[23.29361,70.34102],[23.29619,70.34085],[23.29807,70.3402],[23.29115,70.34009]],[[23.27965,70.34345],[23.28093,70.34303],[23.27927,70.34225],[23.27986,70.34184],[23.29361,70.34102]],[[23.29271,70.34352],[23.29371,70.34389],[23.2993,70.34295],[23.30652,70.34306],[23.30965,70.34119],[23.31502,70.34057],[23.31691,70.34071]],[[23.29271,70.34352],[23.29219,70.34315],[23.29045,70.3431],[23.28366,70.3438],[23.28067,70.34596]],[[23.27965,70.34345],[23.27864,70.34421],[23.27955,70.34555],[23.27856,70.34613],[23.27983,70.34628],[23.28067,70.34596]],[[23.09524,70.35812],[23.09496,70.35645],[23.09601,70.35485],[23.09409,70.35328],[23.08889,70.35166],[23.08762,70.35037]],[[23.06797,70.36191],[23.06791,70.36061],[23.0653,70.35899],[23.05094,70.35607],[23.04814,70.35396],[23.04889,70.35331],[23.04192,70.35213]],[[23.09915,70.36068],[23.09588,70.35928],[23.09524,70.35812]],[[23.31691,70.34071],[23.32227,70.34167],[23.33488,70.34277],[23.34393,70.34431],[23.34996,70.34433],[23.35575,70.34388],[23.36335,70.34469],[23.36851,70.34642],[23.3721,70.34704],[23.37489,70.34695],[23.37801,70.34614],[23.38249,70.34648],[23.38899,70.34502],[23.39136,70.34514],[23.40849,70.34717],[23.4106,70.34754],[23.41257,70.34869],[23.41622,70.34897]],[[23.09915,70.36068],[23.09879,70.36115],[23.09334,70.36261],[23.09328,70.3634],[23.09493,70.36458],[23.09344,70.36507],[23.09699,70.36538],[23.0978,70.36584],[23.09764,70.3682],[23.10192,70.36868]],[[23.41942,70.3567],[23.42104,70.35537],[23.42082,70.35069],[23.41622,70.34897]],[[23.41942,70.3567],[23.41418,70.3584],[23.412,70.36087],[23.41275,70.362],[23.41804,70.36385],[23.42248,70.36407]],[[23.10416,70.39149],[23.10283,70.38741],[23.09846,70.38637],[23.09513,70.38397],[23.09504,70.38296],[23.09219,70.38149],[23.09189,70.37805],[23.08855,70.37458],[23.08582,70.37381],[23.08221,70.37124],[23.07642,70.36936],[23.07451,70.36771],[23.06918,70.36496],[23.06793,70.36386],[23.06797,70.36191]],[[23.12131,70.39304],[23.11924,70.39065],[23.1196,70.38948],[23.11771,70.3867],[23.11867,70.38401],[23.11607,70.3804],[23.11175,70.37738],[23.11196,70.37656],[23.11386,70.37565],[23.11337,70.37454],[23.11165,70.37343],[23.10764,70.37247],[23.10659,70.37161],[23.10689,70.37067],[23.10192,70.36868]],[[23.47255,70.37683],[23.46853,70.37456],[23.46419,70.37059],[23.45781,70.36777],[23.45409,70.36671],[23.4514,70.36488],[23.44558,70.363],[23.44321,70.36259],[23.43814,70.36264],[23.43309,70.3616],[23.42624,70.36362],[23.42248,70.36407]],[[23.54815,70.37325],[23.53787,70.36885],[23.51662,70.36203],[23.5092,70.35866],[23.50431,70.35715],[23.49952,70.35427],[23.49158,70.3518],[23.49281,70.35022],[23.48945,70.34847],[23.45612,70.33451],[23.44951,70.3327]],[[23.47089,70.37925],[23.47329,70.37822],[23.47255,70.37683]],[[23.54815,70.37325],[23.55821,70.37713]],[[23.45008,70.38241],[23.45831,70.38114],[23.4635,70.38086],[23.47089,70.37925]],[[23.55821,70.37713],[23.56296,70.37835]],[[23.43222,70.38754],[23.43483,70.38477],[23.43797,70.3841]],[[23.12131,70.39304],[23.12246,70.39452],[23.12204,70.39576],[23.12072,70.39645],[23.12244,70.39795],[23.12156,70.402]],[[23.10546,70.39376],[23.10905,70.39506],[23.10897,70.39613],[23.11612,70.40519],[23.11613,70.40796],[23.11722,70.40843],[23.12114,70.40792],[23.12156,70.402]],[[23.43222,70.38754],[23.4309,70.39268],[23.4301,70.39319],[23.42387,70.39435],[23.42181,70.39522],[23.42395,70.39592],[23.42721,70.39606],[23.43511,70.39448]],[[23.56296,70.37835],[23.5777,70.38052],[23.58196,70.38195],[23.58175,70.38591],[23.5791,70.38759],[23.57865,70.38891],[23.5817,70.39046],[23.58771,70.39237]],[[23.5406,70.4037],[23.53573,70.40264],[23.53265,70.40064],[23.52108,70.3967],[23.51992,70.39522],[23.52097,70.3938],[23.51794,70.3923],[23.50242,70.3886],[23.49538,70.38835],[23.48925,70.38962],[23.48514,70.38969],[23.47437,70.38885],[23.46482,70.38857],[23.46022,70.38764],[23.45587,70.38786],[23.45184,70.38892],[23.44458,70.39215],[23.43511,70.39448]],[[23.58771,70.39237],[23.59262,70.39441],[23.60207,70.39578],[23.6086,70.39769],[23.61368,70.39859],[23.62244,70.40134],[23.62347,70.40187],[23.62396,70.40426]],[[23.64421,70.41022],[23.64088,70.41063],[23.63362,70.40937],[23.62476,70.40608],[23.62396,70.40426]],[[23.57369,70.41726],[23.56954,70.41543],[23.56666,70.41316],[23.56346,70.41201],[23.56116,70.41155],[23.55279,70.41151],[23.55004,70.41108],[23.54841,70.41034],[23.5476,70.40901],[23.54465,70.40776],[23.54371,70.40533],[23.5406,70.4037]],[[23.65871,70.41319],[23.65447,70.41101],[23.64835,70.40934],[23.64507,70.40936],[23.64421,70.41022]],[[23.57369,70.41726],[23.58072,70.42035]],[[23.65871,70.41319],[23.6605,70.4158],[23.6638,70.41774],[23.66679,70.41902],[23.67217,70.4204]],[[23.09426,70.62018],[23.08762,70.61904]],[[23.38271,70.6071],[23.38763,70.60506]],[[23.40692,70.60598],[23.3961,70.60431],[23.38955,70.60454],[23.38763,70.60506]],[[23.09426,70.62018],[23.095,70.62034]],[[23.05018,70.62873],[23.0484,70.62822],[23.04764,70.62716],[23.05379,70.62541],[23.05608,70.62528],[23.06249,70.62636],[23.06473,70.62639]],[[23.13044,70.63186],[23.12646,70.63183]],[[23.1291,70.66358],[23.12669,70.66104]],[[23.1401,70.66376],[23.13943,70.66372]],[[23.14431,70.66467],[23.14259,70.66398],[23.1401,70.66376]],[[23.05546,70.69109],[23.05419,70.68994],[23.04992,70.68903]],[[23.26109,70.6788],[23.24955,70.6763],[23.24459,70.6757],[23.24042,70.67616],[23.23754,70.67705]],[[23.01438,70.69192],[23.02061,70.69085],[23.03105,70.6912],[23.04413,70.68877]],[[23.03729,70.70057],[23.04054,70.70139],[23.0407,70.70372]],[[23.25048,70.69465],[23.25088,70.69401],[23.25355,70.69356]],[[23.24427,70.69664],[23.25048,70.69465]],[[23.04283,70.71283],[23.04291,70.71274]],[[23.27915,70.70564],[23.27893,70.70226]],[[23.151,70.73669],[23.15485,70.73562]],[[23.17889,70.73548],[23.1687,70.73532]],[[23.30906,70.74362],[23.31287,70.74197]],[[23.32979,70.79036],[23.32816,70.78923]],[[23.05971,70.80413],[23.06772,70.8021]],[[23.06753,70.84729],[23.06551,70.84706],[23.06427,70.84743]],[[23.38974,70.6101],[23.39039,70.60896],[23.38893,70.60817]],[[23.35491,70.60177],[23.35439,70.60122],[23.35237,70.60097],[23.3479,70.60103],[23.33843,70.60014],[23.32391,70.59988],[23.31879,70.60036],[23.32748,70.6037],[23.33773,70.60254],[23.34569,70.60303],[23.34934,70.60288],[23.35449,70.60224],[23.35491,70.60177]],[[23.08462,70.62061],[23.08408,70.61914],[23.08539,70.61883],[23.08762,70.61904]],[[23.11792,70.61913],[23.11417,70.60956],[23.11089,70.60837],[23.10721,70.60777],[23.10446,70.60769],[23.09896,70.60829],[23.09677,70.60811],[23.09489,70.60706],[23.09505,70.60621],[23.09985,70.60441],[23.10131,70.60336],[23.09859,70.60118],[23.09839,70.59907],[23.0959,70.59731]],[[23.38271,70.6071],[23.3838,70.60769],[23.38893,70.60817]],[[23.095,70.62034],[23.10001,70.62153],[23.10307,70.62169],[23.10874,70.62104],[23.11755,70.62115],[23.11926,70.62074],[23.11792,70.61913]],[[23.07541,70.62461],[23.07755,70.62245],[23.07902,70.62201],[23.08234,70.62196],[23.08538,70.62141],[23.08462,70.62061]],[[23.06473,70.62639],[23.06673,70.62706],[23.07487,70.62643],[23.07703,70.62568],[23.07541,70.62461]],[[23.0746,70.63093],[23.0844,70.62925],[23.08403,70.628],[23.08513,70.62776],[23.08824,70.6277],[23.08924,70.62852],[23.09166,70.62907],[23.09547,70.62931],[23.09633,70.62998]],[[23.05018,70.62873],[23.05445,70.62859],[23.05654,70.6301],[23.06422,70.63162]],[[23.06422,70.63162],[23.06692,70.63193],[23.0746,70.63093]],[[23.09633,70.62998],[23.09786,70.63081],[23.10098,70.6315],[23.10506,70.6313],[23.12646,70.63183]],[[23.39629,70.62574],[23.39033,70.6246],[23.39654,70.62633]],[[23.38974,70.6101],[23.38827,70.6105],[23.37775,70.61107],[23.37155,70.61193],[23.366,70.61414],[23.36085,70.61516],[23.35498,70.61694],[23.35421,70.61794],[23.36063,70.62141],[23.36706,70.62392],[23.37241,70.6246],[23.38145,70.62482],[23.38601,70.62724],[23.39002,70.62834],[23.39724,70.62799]],[[23.39724,70.62799],[23.40157,70.62786],[23.40274,70.62691],[23.39654,70.62633]],[[23.16429,70.64735],[23.1644,70.64636],[23.16258,70.6451],[23.15525,70.64257],[23.14876,70.6388],[23.14935,70.63704],[23.15485,70.63488],[23.15339,70.6342],[23.15101,70.62944],[23.14864,70.6288],[23.14512,70.62893],[23.13931,70.63016],[23.13681,70.63158],[23.13044,70.63186]],[[23.17181,70.6563],[23.16716,70.65235],[23.16605,70.64916],[23.16429,70.64735]],[[23.29268,70.64558],[23.28952,70.64566],[23.28864,70.64641],[23.28992,70.64821],[23.29284,70.64964],[23.3,70.65097],[23.30785,70.64915],[23.30571,70.64774],[23.30272,70.64685],[23.29268,70.64558]],[[23.12669,70.66104],[23.12964,70.65949],[23.13705,70.65787]],[[23.00483,70.66646],[23.01413,70.65933],[23.0154,70.65575],[23.01409,70.65469],[23.00753,70.65714],[23.0019,70.66081]],[[23.13705,70.65787],[23.13964,70.65769],[23.1534,70.66011],[23.1598,70.65911]],[[23.00468,70.66774],[23.00483,70.66646]],[[23.1598,70.65911],[23.16312,70.65925],[23.1681,70.66091],[23.17508,70.65987],[23.17984,70.66064],[23.19103,70.65947],[23.19053,70.65906],[23.18357,70.65827],[23.17898,70.65712],[23.17335,70.6568],[23.17181,70.6563]],[[22.99933,70.66801],[23.00122,70.66682],[23.00001,70.66319],[23.0019,70.66081]],[[23.00316,70.66939],[23.00468,70.66774]],[[23.12971,70.66379],[23.1291,70.66358]],[[23.12971,70.66379],[23.13943,70.66372]],[[23.40803,70.65369],[23.40731,70.65435],[23.40889,70.65572]],[[23.14476,70.67679],[23.15053,70.67517],[23.15345,70.67525],[23.15931,70.67628],[23.16339,70.67612],[23.16867,70.67372],[23.16796,70.67327],[23.16253,70.67229],[23.15701,70.66997],[23.14947,70.66883],[23.14888,70.66823],[23.15023,70.66635],[23.14431,70.66467]],[[23.14476,70.67679],[23.14087,70.67872],[23.13708,70.68258],[23.13972,70.68396],[23.14341,70.68289],[23.14718,70.68272]],[[23.04413,70.68877],[23.04602,70.68851],[23.04992,70.68903]],[[23.21819,70.68343],[23.21715,70.68143],[23.21854,70.67834],[23.21338,70.67654],[23.20831,70.67603],[23.20374,70.67844],[23.19599,70.68017]],[[23.00316,70.66939],[23.0003,70.67099],[23.0027,70.67293],[23.00108,70.67435],[23.00433,70.67468],[23.00564,70.67528],[23.00491,70.67641],[23.00118,70.67764],[23.00442,70.67877],[23.00406,70.68018],[23.00322,70.68059],[22.99402,70.68184]],[[22.99681,70.68544],[23.00258,70.68773],[23.00987,70.68869],[23.0098,70.68932],[23.0037,70.69054],[23.00374,70.69105],[23.00611,70.69169],[23.00532,70.69215],[23.00336,70.69231],[23.00375,70.69309],[23.00921,70.69328],[23.01438,70.69192]],[[23.23754,70.67705],[23.23075,70.68282],[23.22445,70.68411]],[[23.22445,70.68411],[23.22126,70.68424],[23.21819,70.68343]],[[23.05546,70.69109],[23.0516,70.69275],[23.03566,70.69554]],[[23.27498,70.686],[23.27545,70.68442],[23.27249,70.68226],[23.26109,70.6788]],[[23.03566,70.69554],[23.03222,70.6964],[23.0249,70.69741],[23.02383,70.69931],[23.02615,70.70007],[23.03012,70.6993],[23.03093,70.69981],[23.03729,70.70057]],[[23.25355,70.69356],[23.25743,70.69315],[23.2602,70.69078],[23.27026,70.68946],[23.27498,70.686]],[[23.19599,70.68017],[23.18898,70.68314],[23.18347,70.68413],[23.18037,70.68538],[23.1776,70.68783],[23.17611,70.69056],[23.17395,70.69146],[23.17132,70.69369],[23.16976,70.69419],[23.16442,70.69467],[23.1626,70.69578],[23.16296,70.69785]],[[23.16296,70.69785],[23.1638,70.69936],[23.1631,70.70006],[23.1615,70.70067],[23.1586,70.70064],[23.15452,70.69474],[23.15296,70.6943],[23.15425,70.69308],[23.15427,70.69058],[23.15683,70.68773],[23.15607,70.68497],[23.15498,70.68419],[23.14718,70.68272]],[[23.24238,70.70012],[23.24536,70.69935],[23.24385,70.69758],[23.24427,70.69664]],[[23.04291,70.71274],[23.04383,70.70964],[23.03991,70.7072],[23.04102,70.70565],[23.0407,70.70372]],[[23.27893,70.70226],[23.27826,70.70092],[23.27617,70.69992],[23.26896,70.69882],[23.26118,70.69935],[23.25387,70.70125],[23.2489,70.70084],[23.24913,70.70154],[23.24758,70.70193],[23.2419,70.70105]],[[23.04283,70.71283],[23.03982,70.71512],[23.03726,70.71603],[23.03649,70.71745]],[[23.12954,70.71424],[23.13496,70.71301]],[[23.27915,70.70564],[23.27984,70.70862],[23.27912,70.70922]],[[23.13496,70.71301],[23.13874,70.71039],[23.13772,70.70976],[23.13169,70.70999],[23.1246,70.71152],[23.11726,70.71201],[23.10703,70.71335],[23.10196,70.71455],[23.09616,70.71518],[23.09345,70.7168],[23.09554,70.71768],[23.09982,70.71715],[23.10095,70.71665],[23.10287,70.71751],[23.10609,70.71669],[23.11246,70.71641],[23.11192,70.71567],[23.11281,70.71506],[23.1158,70.71437],[23.12223,70.71494],[23.12954,70.71424]],[[23.27912,70.70922],[23.27691,70.71138],[23.27625,70.71372],[23.28125,70.71562]],[[23.28125,70.71562],[23.28589,70.71655],[23.29043,70.71661],[23.29276,70.71615],[23.29662,70.7138]],[[23.32139,70.72028],[23.32451,70.71833],[23.32384,70.71532],[23.33526,70.71336],[23.33077,70.71092],[23.32876,70.70855],[23.32497,70.70715],[23.31135,70.70599],[23.30374,70.70735],[23.30211,70.70804],[23.30088,70.71048],[23.29662,70.7138]],[[23.15485,70.73562],[23.15717,70.73537],[23.16165,70.73563],[23.16374,70.73494],[23.1687,70.73532]],[[23.18185,70.73695],[23.18303,70.73666],[23.18161,70.73583],[23.17889,70.73548]],[[23.1709,70.74068],[23.17418,70.73941],[23.17513,70.73805],[23.1785,70.73683],[23.18185,70.73695]],[[23.32373,70.73425],[23.32398,70.73272],[23.32062,70.72682],[23.32214,70.72329],[23.3196,70.72202],[23.32139,70.72028]],[[23.03649,70.71745],[23.03253,70.71776],[23.03255,70.71888],[23.034,70.72021],[23.04151,70.72242],[23.04404,70.72585],[23.04933,70.72609],[23.05096,70.72546],[23.05398,70.72686],[23.05604,70.72706],[23.05847,70.7268],[23.05912,70.72571],[23.06306,70.72613],[23.06678,70.72516],[23.06839,70.72567],[23.06864,70.72631],[23.07461,70.72728],[23.0778,70.72599],[23.07919,70.7247],[23.08236,70.72422],[23.08364,70.72254],[23.08713,70.72092],[23.09001,70.72036],[23.09311,70.72041],[23.09842,70.71839],[23.10059,70.71848],[23.10104,70.71996],[23.10222,70.72044],[23.09753,70.72242],[23.09818,70.72335],[23.09526,70.72413],[23.09254,70.72755],[23.09841,70.72948],[23.10088,70.73122],[23.10622,70.73204],[23.10467,70.73329],[23.10658,70.73566],[23.10951,70.73639],[23.11011,70.73959],[23.11292,70.74194],[23.11584,70.74314],[23.12349,70.744],[23.13436,70.74009],[23.13684,70.73823],[23.1437,70.73722],[23.14545,70.73756],[23.14583,70.73873],[23.14745,70.7391],[23.151,70.73669]],[[23.31287,70.74197],[23.31755,70.73926],[23.32373,70.73425]],[[23.30906,70.74362],[23.3076,70.74447],[23.30957,70.74485]],[[23.40101,70.74189],[23.40104,70.74031],[23.3998,70.7393],[23.39404,70.73694],[23.39099,70.73505],[23.38944,70.73471],[23.37975,70.73461],[23.36834,70.73303],[23.36694,70.73245],[23.36697,70.73073],[23.364,70.72811],[23.36175,70.72743],[23.35924,70.72726],[23.35788,70.72764],[23.35498,70.73009],[23.35546,70.73155],[23.35896,70.73353],[23.35135,70.73558],[23.34536,70.74202],[23.34273,70.74276],[23.33707,70.7431],[23.33294,70.74501]],[[23.11027,70.75503],[23.11011,70.75429],[23.10622,70.7535],[23.10744,70.75269],[23.11693,70.75163],[23.12386,70.75195],[23.1296,70.7507],[23.13521,70.75016],[23.13558,70.74938],[23.14163,70.74756],[23.14156,70.74694],[23.13514,70.74525],[23.13713,70.74332],[23.14231,70.74234],[23.14133,70.74194],[23.13712,70.74228],[23.13722,70.74166],[23.14875,70.741],[23.15092,70.74187],[23.15423,70.74198],[23.15884,70.74324],[23.16167,70.74334],[23.16672,70.74267],[23.1709,70.74068]],[[23.31739,70.74572],[23.31635,70.74483],[23.31457,70.74455],[23.30957,70.74485]],[[23.33294,70.74501],[23.33038,70.74603],[23.32595,70.74954]],[[23.08826,70.76033],[23.0849,70.76047],[23.08326,70.76154],[23.08872,70.76189],[23.08957,70.76102],[23.08826,70.76033]],[[23.31739,70.74572],[23.31889,70.74859],[23.31701,70.75213],[23.31952,70.75239],[23.32595,70.74954]],[[23.04961,70.77925],[23.05909,70.77832],[23.06181,70.7784],[23.06721,70.77653],[23.06831,70.77472],[23.06983,70.77452],[23.06971,70.77323],[23.07358,70.77357],[23.08109,70.77229],[23.07967,70.77043],[23.08283,70.76897],[23.08403,70.76769],[23.08606,70.76742],[23.08682,70.76689],[23.08436,70.76702],[23.08173,70.7662],[23.0849,70.7659],[23.08612,70.76532],[23.08994,70.76522],[23.09211,70.76565],[23.09673,70.76494],[23.09879,70.76516],[23.10343,70.76656],[23.10763,70.76699],[23.11439,70.76646],[23.12682,70.76613],[23.12893,70.76561],[23.13069,70.76379],[23.13052,70.76262],[23.12365,70.7595],[23.11857,70.75957],[23.1177,70.76001],[23.11971,70.76037],[23.11937,70.76106],[23.11632,70.76145],[23.11174,70.76121],[23.10753,70.7617],[23.10302,70.76072],[23.10388,70.75944],[23.10921,70.75677],[23.10783,70.75547],[23.11027,70.75503]],[[23.40101,70.74189],[23.39855,70.74496],[23.40068,70.7468],[23.39787,70.75042],[23.40562,70.75466],[23.40561,70.75556],[23.40181,70.75764],[23.39164,70.76004],[23.39487,70.76337],[23.3948,70.76505],[23.39584,70.76573],[23.40028,70.76693],[23.40542,70.7671]],[[23.19062,70.78858],[23.19812,70.78489],[23.19745,70.78433],[23.19351,70.78359],[23.18898,70.7846]],[[23.19062,70.78858],[23.18701,70.79251],[23.18823,70.79301],[23.19239,70.79287]],[[23.05375,70.80271],[23.05361,70.80128],[23.05055,70.80001],[23.05133,70.79593],[23.04977,70.79573],[23.0414,70.79638],[23.03556,70.79616],[23.03083,70.79656],[23.03131,70.79594],[23.029,70.79463],[23.02361,70.79305],[23.01515,70.79243],[23.01415,70.78958],[23.0178,70.78793],[23.02007,70.7876],[23.02246,70.78613],[23.04318,70.78504],[23.04556,70.78408],[23.04737,70.78231],[23.04629,70.77989],[23.04961,70.77925]],[[23.08841,70.80118],[23.08839,70.80047],[23.08681,70.80019],[23.08853,70.79936],[23.09417,70.79817],[23.10039,70.79747],[23.10116,70.79671],[23.10584,70.79525],[23.10592,70.79273],[23.10483,70.79215],[23.09816,70.7916],[23.09222,70.7935],[23.08856,70.79544],[23.06772,70.8021]],[[23.15791,70.7981],[23.15963,70.79638],[23.1681,70.79384],[23.17129,70.79089],[23.18898,70.7846]],[[23.19894,70.79627],[23.19842,70.7948],[23.19239,70.79287]],[[23.2356,70.79462],[23.23368,70.79166],[23.23482,70.79085],[23.24564,70.79111],[23.24951,70.79162],[23.25136,70.79148],[23.25385,70.79026],[23.26079,70.78403],[23.26494,70.77777],[23.26886,70.77416],[23.27248,70.77352],[23.27984,70.77349],[23.28659,70.77052],[23.29357,70.76862],[23.2965,70.76859],[23.29869,70.76902],[23.29944,70.76961],[23.29659,70.7709],[23.2951,70.77323],[23.28597,70.78087],[23.2825,70.78495],[23.28234,70.78961],[23.29268,70.79096],[23.29635,70.79101],[23.30047,70.79005],[23.30556,70.78807],[23.30921,70.78541],[23.3128,70.78459],[23.32182,70.78632],[23.32816,70.78923]],[[23.39483,70.78739],[23.3902,70.78643],[23.38331,70.78565],[23.38074,70.78494],[23.37752,70.78564],[23.37462,70.78525],[23.37668,70.78273],[23.38044,70.78107],[23.38379,70.78031],[23.39255,70.77921],[23.40094,70.7795],[23.40496,70.7791],[23.41258,70.77724],[23.42053,70.77688],[23.42904,70.77485],[23.43446,70.77476],[23.44094,70.77372],[23.44881,70.77193],[23.45354,70.76985],[23.45635,70.76785]],[[23.19452,70.79801],[23.19894,70.79627]],[[23.05375,70.80271],[23.05524,70.80438],[23.05724,70.80455],[23.05971,70.80413]],[[23.32978,70.7931],[23.33195,70.79223],[23.32979,70.79036]],[[23.39483,70.78739],[23.40094,70.78839],[23.4053,70.7912],[23.40804,70.7943],[23.41087,70.79466],[23.41487,70.7936],[23.41431,70.79146],[23.41516,70.78962],[23.41698,70.78856],[23.42521,70.78692],[23.43581,70.7855]],[[23.06273,70.81155],[23.07278,70.81192],[23.07673,70.81152],[23.08013,70.81081],[23.08521,70.80886],[23.08914,70.80619],[23.08936,70.80538],[23.0881,70.8046],[23.09041,70.80397],[23.092,70.80264],[23.09157,70.80125],[23.08841,70.80118]],[[23.06273,70.81155],[23.05793,70.81197],[23.05539,70.81291],[23.05366,70.81501],[23.05891,70.81757],[23.06148,70.81787],[23.06348,70.81759],[23.06405,70.81865],[23.06575,70.81899]],[[23.06575,70.81899],[23.06985,70.8203],[23.07514,70.81968],[23.07766,70.81904],[23.0803,70.81748],[23.0821,70.81752],[23.08451,70.81586],[23.08749,70.81582],[23.09397,70.81442],[23.09785,70.81312],[23.10071,70.81375],[23.10498,70.8131],[23.10909,70.81185],[23.11042,70.81054],[23.11334,70.80964],[23.11963,70.80883],[23.12672,70.80953],[23.13438,70.80808],[23.13538,70.80678],[23.1405,70.80599],[23.14328,70.80367],[23.1451,70.80377],[23.14451,70.80462],[23.14672,70.805],[23.14889,70.80278],[23.15071,70.80209],[23.15307,70.80206],[23.15581,70.80136],[23.15813,70.79928],[23.15791,70.7981]],[[23.20259,70.81752],[23.20539,70.81636],[23.21156,70.81583],[23.21447,70.81362],[23.21529,70.8117],[23.22015,70.80803],[23.22013,70.80572],[23.22268,70.80375],[23.22907,70.80166],[23.23103,70.80042],[23.23469,70.7971],[23.2356,70.79462]],[[23.19452,70.79801],[23.19182,70.80026],[23.1941,70.80312],[23.1939,70.80503],[23.19503,70.80573],[23.19203,70.80639],[23.1859,70.81003],[23.18477,70.81242],[23.18301,70.81354],[23.17856,70.81468],[23.17916,70.81577],[23.18106,70.81602],[23.18115,70.81658],[23.1775,70.81723],[23.17867,70.81772],[23.17824,70.81804],[23.174,70.81825],[23.16996,70.82011],[23.16851,70.82143],[23.16951,70.82256],[23.17343,70.82331],[23.17331,70.82583],[23.17477,70.82788],[23.18107,70.82903],[23.18382,70.82845],[23.18736,70.82655],[23.18784,70.82497],[23.19148,70.82271],[23.19154,70.82148],[23.19531,70.82058],[23.20259,70.81752]],[[23.18046,70.83018],[23.17798,70.83042],[23.17748,70.83203],[23.1795,70.83172],[23.18046,70.83018]],[[23.07326,70.8374],[23.0753,70.8374],[23.07334,70.83628],[23.07595,70.83501],[23.07172,70.83364]],[[23.42818,70.83107],[23.42216,70.83047],[23.41685,70.8304],[23.41361,70.83052],[23.41123,70.83116],[23.40627,70.83168],[23.39889,70.83028],[23.39207,70.83043],[23.38969,70.83091],[23.38348,70.82905],[23.38102,70.82902],[23.37608,70.82966],[23.37283,70.83073],[23.36902,70.83265],[23.36923,70.83377]],[[23.07172,70.83364],[23.06882,70.83263],[23.06461,70.83245],[23.06074,70.83134],[23.05231,70.83053],[23.04877,70.83074],[23.04111,70.83255],[23.03421,70.83149],[23.03007,70.83189],[23.02519,70.83336],[23.0186,70.83283],[23.00717,70.83395],[23.00344,70.83362],[22.99975,70.83391]],[[22.99831,70.84744],[23.00481,70.84615],[23.00657,70.846],[23.00939,70.84683],[23.01174,70.84684],[23.01665,70.8448],[23.02182,70.84449],[23.02511,70.84332],[23.0265,70.84155],[23.02831,70.84131],[23.03302,70.84256],[23.03478,70.8455],[23.04225,70.84544],[23.04573,70.84614],[23.05022,70.84594],[23.05055,70.84537],[23.05419,70.84479],[23.06242,70.84532],[23.06647,70.84444],[23.06738,70.84312],[23.07336,70.84077],[23.07174,70.83813],[23.07326,70.8374]],[[23.31475,70.83625],[23.31479,70.83516],[23.30821,70.83415],[23.30955,70.83343],[23.30615,70.83221],[23.30391,70.83199],[23.30104,70.83263],[23.29737,70.83235],[23.29581,70.83165],[23.29305,70.83153],[23.2917,70.83049],[23.29802,70.82795],[23.3053,70.82624],[23.30711,70.82543],[23.30746,70.82395],[23.30983,70.82302],[23.30925,70.82237],[23.30715,70.82223],[23.30786,70.82151],[23.31307,70.82022],[23.31878,70.81749],[23.3164,70.81615],[23.31597,70.81474],[23.31317,70.81475],[23.31258,70.81446],[23.31347,70.81361],[23.31842,70.81296],[23.31724,70.8116],[23.31402,70.81154],[23.31144,70.81209],[23.30498,70.81131],[23.30289,70.80924],[23.30058,70.80867],[23.3002,70.80779],[23.30146,70.80634],[23.30011,70.80533],[23.29774,70.80512],[23.2969,70.80467],[23.29784,70.80095],[23.29873,70.80026],[23.30275,70.79954],[23.31009,70.79905],[23.32225,70.79743],[23.32666,70.79381],[23.32978,70.7931]],[[23.06427,70.84743],[23.06088,70.84863],[23.06248,70.84934],[23.06211,70.85092],[23.05616,70.85559],[23.0564,70.85673],[23.05365,70.85957],[23.04983,70.86058],[23.04996,70.86143],[23.05415,70.86105],[23.05692,70.85976],[23.06189,70.85986],[23.06484,70.85939],[23.06541,70.85758],[23.07147,70.85454],[23.07046,70.85307],[23.07404,70.85136],[23.07078,70.85066],[23.07122,70.84958],[23.07009,70.84875],[23.07103,70.848],[23.06753,70.84729]],[[23.35385,70.85022],[23.35622,70.8493],[23.35877,70.84895],[23.36286,70.84945],[23.36524,70.84778],[23.37175,70.84861],[23.37462,70.84855],[23.37709,70.84759],[23.37696,70.84691],[23.37854,70.84602],[23.38194,70.84578],[23.38273,70.8444],[23.38011,70.84262],[23.37955,70.84119],[23.38076,70.83905],[23.37631,70.83838],[23.37176,70.83855],[23.36954,70.8383],[23.3677,70.83633],[23.36923,70.83377]],[[23.31475,70.83625],[23.31512,70.83736],[23.30738,70.83979],[23.30843,70.84223],[23.30749,70.84318],[23.30225,70.84518],[23.30387,70.84748],[23.30324,70.84861],[23.30465,70.8495],[23.3037,70.85029],[23.30692,70.8508],[23.30844,70.8505],[23.31448,70.85175],[23.31674,70.85273],[23.3133,70.85514],[23.31297,70.85623],[23.31436,70.85756],[23.31202,70.85767],[23.31681,70.85932],[23.31609,70.86243],[23.32042,70.86308],[23.32083,70.86357],[23.31787,70.86492],[23.3137,70.86599],[23.31039,70.86788],[23.30924,70.86913],[23.31038,70.87025],[23.3182,70.87051],[23.32185,70.86915],[23.32097,70.8666],[23.32601,70.8657],[23.32714,70.86499],[23.32547,70.86357],[23.32509,70.86144],[23.32712,70.86049],[23.33124,70.85994],[23.33137,70.85913],[23.33344,70.85825],[23.33642,70.8582],[23.33824,70.85689],[23.34213,70.85588],[23.34504,70.8541],[23.34697,70.85407],[23.34862,70.85239],[23.34776,70.8516],[23.34957,70.85032],[23.35161,70.84994],[23.35385,70.85022]],[[23.23193,70.47332],[23.23034,70.47147]],[[23.15535,70.48188],[23.15258,70.48122],[23.14744,70.48224]],[[23.20117,70.51582],[23.19777,70.51565],[23.19605,70.51601],[23.19988,70.51679],[23.20117,70.51582]],[[23.2208,70.52992],[23.22269,70.52629],[23.22557,70.52513],[23.22553,70.52389]],[[23.29581,70.52322],[23.30911,70.52573],[23.31572,70.52637],[23.31842,70.52625]],[[23.34944,70.53618],[23.3538,70.53737],[23.35954,70.53769]],[[23.36232,70.53799],[23.35954,70.53769]],[[23.36516,70.55123],[23.36709,70.55006],[23.36566,70.54839],[23.36373,70.54778]],[[23.36516,70.55123],[23.36415,70.55231],[23.36599,70.55322]],[[23.13344,70.48287],[23.12453,70.48093],[23.12391,70.48164],[23.12549,70.48323]],[[23.23635,70.4782],[23.23193,70.47332]],[[23.27254,70.47655],[23.27147,70.47443],[23.2721,70.47323],[23.27117,70.47269],[23.26694,70.47172],[23.2642,70.46998],[23.26213,70.47034],[23.2612,70.47155],[23.25892,70.47099],[23.2591,70.47027],[23.25716,70.46921],[23.25694,70.46826],[23.25798,70.46724],[23.26135,70.46738],[23.26093,70.46674],[23.24416,70.4658],[23.2391,70.46408],[23.23434,70.46384],[23.23159,70.46439],[23.22544,70.46373],[23.22467,70.46337],[23.22701,70.46308],[23.22754,70.46225],[23.21873,70.4581],[23.21389,70.45764],[23.21031,70.45571],[23.20709,70.45567],[23.20507,70.45677],[23.20769,70.45865],[23.20853,70.46173],[23.21455,70.4648],[23.21929,70.46612],[23.22351,70.46681],[23.22724,70.46591],[23.22996,70.46613],[23.23199,70.4676],[23.23501,70.46748],[23.23674,70.46689],[23.23988,70.46664],[23.25093,70.46736],[23.25021,70.46951],[23.23882,70.46989],[23.23594,70.46929],[23.23361,70.4694],[23.23068,70.47061],[23.23034,70.47147]],[[23.13344,70.48287],[23.13878,70.48393],[23.14342,70.48431],[23.14594,70.48386],[23.14744,70.48224]],[[22.99853,70.49364],[23.00045,70.49383],[23.00416,70.49509],[23.00331,70.4961],[23.00576,70.49697]],[[23.27254,70.47655],[23.27453,70.48163],[23.27583,70.4825],[23.27889,70.48334],[23.28169,70.48631],[23.28384,70.48745],[23.28374,70.4917],[23.28288,70.49202]],[[23.15535,70.48188],[23.15552,70.48277],[23.15457,70.48317],[23.15609,70.48452],[23.16207,70.48572],[23.1626,70.48661],[23.16181,70.49067],[23.15686,70.4935],[23.15803,70.49457],[23.15529,70.49575],[23.15437,70.49699],[23.15526,70.49741],[23.1601,70.49797],[23.16333,70.49926],[23.16346,70.50193]],[[23.28288,70.49202],[23.28185,70.49205],[23.28007,70.49116],[23.27707,70.49116],[23.27619,70.49279],[23.2772,70.49454],[23.27604,70.49513],[23.27421,70.49502],[23.27265,70.4968],[23.2741,70.49755],[23.27739,70.49782]],[[23.28001,70.49936],[23.27849,70.49946],[23.27708,70.50028],[23.27719,70.50104],[23.27877,70.50082],[23.28001,70.49936]],[[23.00576,70.49697],[23.00689,70.49747],[23.00717,70.50054],[23.01236,70.50131],[23.01766,70.5028],[23.01877,70.5041],[23.02598,70.50463],[23.03242,70.50454],[23.03793,70.50654],[23.04049,70.50823],[23.05136,70.50989],[23.0532,70.51074],[23.06532,70.51321],[23.07024,70.51332],[23.07642,70.51269]],[[23.07642,70.51269],[23.07856,70.51306]],[[23.07871,70.51344],[23.07856,70.51306]],[[23.07871,70.51344],[23.07699,70.51415],[23.07906,70.51431]],[[23.09711,70.5155],[23.11089,70.513],[23.11939,70.50907],[23.12645,70.507],[23.12863,70.50489],[23.12808,70.50332],[23.12936,70.5027],[23.13375,70.50219],[23.13481,70.50159],[23.13699,70.50189],[23.13922,70.50166],[23.13917,70.50107],[23.13612,70.49942],[23.13851,70.49914],[23.14019,70.50008],[23.14607,70.49892],[23.14778,70.49664],[23.14246,70.49642],[23.1405,70.49517],[23.14028,70.49369],[23.14141,70.49153],[23.14467,70.49118],[23.14541,70.49181],[23.1489,70.49188],[23.15023,70.49112],[23.14739,70.48978],[23.14571,70.48742],[23.14129,70.4866],[23.13198,70.4857],[23.12549,70.48323]],[[23.07906,70.51431],[23.08314,70.51355],[23.08805,70.51442],[23.08922,70.5158],[23.09711,70.5155]],[[23.16346,70.50193],[23.15715,70.50174],[23.15622,70.50237],[23.16106,70.50302],[23.16325,70.50424],[23.16294,70.50513],[23.16519,70.50761],[23.16406,70.50906],[23.1684,70.51228],[23.16784,70.513],[23.16625,70.51298],[23.16539,70.51338],[23.16724,70.51387],[23.16812,70.51533],[23.18734,70.51579],[23.19193,70.51622],[23.19345,70.51589],[23.19527,70.51439],[23.19694,70.51429],[23.20135,70.5145],[23.20555,70.51528]],[[23.20555,70.51528],[23.2149,70.51546]],[[23.21626,70.51881],[23.22349,70.51725],[23.22846,70.51541],[23.22739,70.51497],[23.2149,70.51546]],[[23.27739,70.49782],[23.28196,70.49638],[23.2831,70.49641],[23.28542,70.49933],[23.28437,70.50276],[23.28499,70.50399],[23.28155,70.50556],[23.27817,70.5058],[23.277,70.50736],[23.2775,70.50851],[23.2825,70.51009],[23.28485,70.51341],[23.29486,70.51578]],[[23.18077,70.52214],[23.20163,70.5206],[23.20911,70.51929],[23.21626,70.51881]],[[23.14715,70.52744],[23.14926,70.52637],[23.1483,70.52501],[23.14931,70.52435],[23.1763,70.52216],[23.18077,70.52214]],[[23.22553,70.52389],[23.22479,70.52303],[23.22673,70.52119],[23.22932,70.5202],[23.23432,70.51959],[23.237,70.51475],[23.24162,70.51036],[23.25078,70.50781],[23.24935,70.50378],[23.25,70.49928],[23.24561,70.48867],[23.246,70.48584],[23.24452,70.48433],[23.24506,70.48338],[23.24285,70.48184],[23.23773,70.47973],[23.23635,70.4782]],[[23.28715,70.52108],[23.27975,70.5195],[23.27321,70.51903],[23.27135,70.5193],[23.27033,70.52],[23.27428,70.52167]],[[23.31424,70.51984],[23.30828,70.51788],[23.29486,70.51578]],[[23.29581,70.52322],[23.29248,70.52197],[23.28715,70.52108]],[[23.27428,70.52167],[23.27708,70.52183],[23.28003,70.52253],[23.27729,70.52371],[23.27829,70.52459]],[[23.36336,70.54689],[23.36373,70.54778]],[[23.31842,70.52625],[23.32212,70.5256],[23.32335,70.52459],[23.32031,70.52232],[23.31688,70.52155],[23.31424,70.51984]],[[23.40046,70.52891],[23.39411,70.52931],[23.38998,70.53075],[23.38561,70.5314],[23.38518,70.53185]],[[23.32588,70.53641],[23.33001,70.53605],[23.33527,70.53672],[23.34502,70.53534],[23.34944,70.53618]],[[23.19475,70.54669],[23.20313,70.54601],[23.21625,70.54206],[23.21558,70.5412],[23.21049,70.54055],[23.20989,70.53965],[23.21069,70.53861],[23.2133,70.53758],[23.21675,70.53292],[23.2208,70.52992]],[[23.15519,70.54355],[23.16815,70.54693],[23.17288,70.54764]],[[23.36232,70.53799],[23.36839,70.53885],[23.37009,70.53874],[23.3719,70.53805],[23.37207,70.53682],[23.37695,70.53621],[23.3794,70.53532],[23.38057,70.53424],[23.38354,70.53419],[23.38518,70.53185]],[[23.17288,70.54764],[23.18413,70.54799],[23.19475,70.54669]],[[23.14715,70.52744],[23.14823,70.52906],[23.14697,70.52959],[23.14222,70.52984],[23.14201,70.53047],[23.14391,70.53173],[23.14222,70.53308],[23.13874,70.53439],[23.13043,70.53508],[23.12379,70.53476],[23.12097,70.53521],[23.12055,70.53586],[23.12195,70.53728],[23.12617,70.53819],[23.12702,70.53926],[23.12534,70.53965],[23.12237,70.53912],[23.11932,70.53906],[23.12031,70.54097],[23.11867,70.54315],[23.12002,70.544],[23.12378,70.5447],[23.12583,70.54597],[23.12945,70.547],[23.1378,70.54796],[23.14176,70.54926],[23.14503,70.54914],[23.14662,70.54867],[23.1499,70.54867],[23.15889,70.5496],[23.16144,70.54952],[23.16381,70.54846],[23.14908,70.54439],[23.14955,70.54381],[23.15201,70.54324],[23.15519,70.54355]],[[23.27829,70.52459],[23.26625,70.53147],[23.26301,70.5366],[23.24704,70.54586],[23.24482,70.54659]],[[23.00915,70.56026],[23.00149,70.55839],[22.99845,70.55824]],[[23.24482,70.54659],[23.24194,70.54752],[23.24325,70.54834],[23.24551,70.54863],[23.2635,70.54862],[23.28443,70.5498]],[[23.28443,70.5498],[23.29452,70.54994],[23.30482,70.54876],[23.30933,70.54377],[23.32588,70.53641]],[[23.36336,70.54689],[23.37016,70.54555],[23.37392,70.54529],[23.37808,70.54555],[23.38271,70.54487],[23.38411,70.54424],[23.38535,70.54243],[23.38899,70.54172],[23.38944,70.53905],[23.39151,70.53706],[23.39511,70.53663],[23.39554,70.53552],[23.39445,70.53508],[23.39519,70.53431],[23.39635,70.53402],[23.40633,70.53384],[23.40857,70.53332],[23.40892,70.53271],[23.40684,70.53054],[23.40323,70.52925],[23.40046,70.52891]],[[23.38323,70.55505],[23.37855,70.5536],[23.37115,70.55409],[23.36599,70.55322]],[[23.04668,70.57053],[23.04321,70.57069],[23.04208,70.57126],[23.04497,70.57245],[23.04386,70.57401],[23.04609,70.57377],[23.05055,70.57205],[23.04925,70.57108],[23.04668,70.57053]],[[23.01107,70.57869],[23.0106,70.57384],[23.01222,70.57161],[23.01625,70.5706],[23.01434,70.56867],[23.01494,70.56682],[23.01392,70.56497],[23.01467,70.56401],[23.01094,70.56284],[23.01174,70.56201],[23.00915,70.56026]],[[23.046,70.57571],[23.04307,70.57728]],[[23.06812,70.57616],[23.06212,70.57455],[23.06318,70.57364],[23.06648,70.57371],[23.06817,70.57331],[23.06696,70.5713],[23.059,70.56885],[23.05431,70.56951],[23.05453,70.5698],[23.05734,70.56998],[23.05785,70.57074],[23.04828,70.57374],[23.046,70.57571]],[[23.41232,70.56051],[23.40582,70.55872],[23.39325,70.55718],[23.38323,70.55505]],[[23.41232,70.56051],[23.41729,70.56169],[23.42774,70.56252]],[[23.0788,70.5864],[23.07796,70.58461],[23.07413,70.58371],[23.07279,70.58252],[23.07339,70.58203],[23.07732,70.58121],[23.07808,70.57973],[23.07647,70.57899],[23.07011,70.57824],[23.07046,70.57798],[23.07476,70.57789],[23.07452,70.57706],[23.07139,70.57618],[23.06812,70.57616]],[[23.37402,70.57249],[23.36092,70.57002],[23.35421,70.56833],[23.34666,70.56777],[23.34255,70.5671],[23.33725,70.56702],[23.32575,70.56814],[23.32513,70.56897],[23.32761,70.56881],[23.33496,70.56936],[23.33957,70.57075],[23.34854,70.57092],[23.35482,70.57155],[23.35534,70.5725],[23.34808,70.57374],[23.34581,70.57561],[23.3432,70.57632]],[[23.09236,70.59065],[23.08983,70.58787],[23.08741,70.58726],[23.0788,70.5864]],[[22.99727,70.59312],[23.00362,70.59286],[23.00697,70.59214],[23.00837,70.59129],[23.00685,70.59008],[23.012,70.58995],[23.01683,70.5888],[23.01731,70.58774],[23.01336,70.58748],[23.0126,70.58782],[23.01392,70.58871],[23.01211,70.58905],[23.00976,70.58733],[23.00788,70.58697],[23.00803,70.58617],[23.01006,70.58553],[23.01057,70.5847],[23.0067,70.58245],[23.01133,70.58239],[23.01314,70.582],[23.00927,70.57988],[23.01107,70.57869]],[[23.41186,70.57768],[23.40566,70.5763],[23.39151,70.57496],[23.38396,70.57335],[23.37402,70.57249]],[[23.41608,70.57945],[23.41563,70.57879],[23.41186,70.57768]],[[22.99604,70.59939],[23.00289,70.59801],[23.00932,70.59608],[23.01675,70.59583],[23.02507,70.59422],[23.02784,70.59403],[23.0297,70.59225],[23.03276,70.59082],[23.03406,70.5891],[23.04371,70.58466],[23.0415,70.58251],[23.03765,70.58194],[23.04269,70.58065],[23.04119,70.57829],[23.04307,70.57728]],[[23.0959,70.59731],[23.09798,70.59544],[23.0951,70.59426],[23.08894,70.59325],[23.08908,70.59252],[23.09096,70.59204],[23.09236,70.59065]],[[23.3432,70.57632],[23.34165,70.57705],[23.35761,70.57889],[23.36037,70.57951],[23.3616,70.5804],[23.36114,70.58252],[23.36371,70.58369],[23.37982,70.58639]],[[23.37982,70.58639],[23.38597,70.58717],[23.39121,70.58727]],[[23.39121,70.58727],[23.39817,70.58688],[23.40275,70.5858],[23.4155,70.5811],[23.41608,70.57945]],[[23.42928,70.58449],[23.43115,70.58624],[23.43106,70.58724],[23.42172,70.59187]],[[23.77502,70.4528],[23.77269,70.45267],[23.77157,70.45296]],[[23.77157,70.45296],[23.77353,70.45462],[23.77614,70.45558]],[[23.77614,70.45558],[23.78018,70.45659],[23.78013,70.45763]],[[23.61459,70.49989],[23.61576,70.49949]],[[23.91462,70.50145],[23.9204,70.50309]],[[23.49463,70.53807],[23.49506,70.53751]],[[23.49426,70.53936],[23.49463,70.53807]],[[23.45957,70.55831],[23.46205,70.5576]],[[23.44801,70.60407],[23.44972,70.60176],[23.44923,70.60093],[23.44793,70.6006]],[[23.63453,70.59978],[23.63245,70.59946],[23.63163,70.60108],[23.63281,70.6022],[23.63496,70.6024],[23.63453,70.59978]],[[23.67213,70.63355],[23.67162,70.63362]],[[23.67346,70.63662],[23.6749,70.63564],[23.67369,70.63379],[23.67213,70.63355]],[[23.65624,70.67261],[23.66388,70.67178],[23.66139,70.67088]],[[23.84011,70.72114],[23.84807,70.72302]],[[23.84956,70.72636],[23.85037,70.72426],[23.84807,70.72302]],[[23.84447,70.72718],[23.84252,70.72723],[23.84291,70.72788],[23.84762,70.72811],[23.84691,70.72758],[23.84447,70.72718]],[[23.43581,70.7855],[23.44279,70.7845],[23.45753,70.78349],[23.46303,70.78352]],[[23.67217,70.4204],[23.67844,70.42151],[23.68308,70.42409],[23.69009,70.42588],[23.6919,70.42701],[23.70307,70.42931]],[[23.70307,70.42931],[23.71254,70.43162],[23.72209,70.43539]],[[23.62805,70.45051],[23.63751,70.44381],[23.63658,70.44283],[23.63851,70.43972],[23.63702,70.43751],[23.6268,70.43341],[23.62039,70.43209],[23.6156,70.43198],[23.61249,70.43089],[23.61001,70.43058],[23.59923,70.42649],[23.5914,70.42485],[23.58072,70.42035]],[[23.72209,70.43539],[23.73667,70.439],[23.74084,70.44127],[23.74289,70.44163],[23.74517,70.44109],[23.74832,70.44094],[23.75639,70.44195],[23.77316,70.44753],[23.77836,70.44856],[23.78241,70.44839],[23.78684,70.44742],[23.78762,70.44348],[23.78582,70.43967],[23.79318,70.44188]],[[23.62942,70.45983],[23.63053,70.45754],[23.63033,70.45365],[23.628,70.45192],[23.62805,70.45051]],[[23.78366,70.45238],[23.79015,70.44998],[23.79635,70.44629],[23.79618,70.44408],[23.79318,70.44188]],[[23.77502,70.4528],[23.77775,70.45317],[23.77842,70.45371],[23.78,70.45373],[23.78366,70.45238]],[[23.62103,70.48872],[23.61849,70.48699],[23.62031,70.48256],[23.61756,70.47669],[23.61871,70.47268],[23.61813,70.47107],[23.61976,70.47007],[23.62418,70.46876],[23.6239,70.46648],[23.62899,70.46248],[23.62942,70.45983]],[[23.81078,70.48082],[23.8024,70.4793],[23.79767,70.47508],[23.78789,70.47121],[23.78759,70.47035],[23.78976,70.46884],[23.78972,70.46695],[23.78616,70.46483],[23.78214,70.46406],[23.77582,70.46553],[23.77329,70.46513],[23.77298,70.46422],[23.77703,70.46408],[23.77654,70.46258],[23.77786,70.46158],[23.77964,70.46159],[23.78059,70.4611],[23.78148,70.45999],[23.78013,70.45763]],[[23.61576,70.49949],[23.62379,70.49647],[23.62904,70.49348],[23.63421,70.49145],[23.63916,70.49077],[23.64189,70.4897],[23.64209,70.48696],[23.639,70.48663],[23.63279,70.48926],[23.6289,70.48966],[23.62448,70.48952],[23.62103,70.48872]],[[23.59781,70.50657],[23.60565,70.50237],[23.61459,70.49989]],[[23.85302,70.49423],[23.8431,70.49052],[23.83993,70.48993],[23.82392,70.48314],[23.81933,70.48192],[23.81078,70.48082]],[[23.85302,70.49423],[23.85541,70.49483],[23.87202,70.4962],[23.87795,70.4974]],[[23.5514,70.51383],[23.55676,70.51255],[23.56108,70.51237],[23.56263,70.51276],[23.5721,70.51056],[23.59627,70.5071],[23.59781,70.50657]],[[23.87795,70.4974],[23.88492,70.49865]],[[23.90591,70.49896],[23.91462,70.50145]],[[23.88492,70.49865],[23.8956,70.49916],[23.90171,70.49831],[23.90591,70.49896]],[[23.97109,70.50964],[23.97518,70.50958],[23.97634,70.50684],[23.97917,70.50552],[23.97996,70.5031],[23.98231,70.50253]],[[23.75813,70.51858],[23.76058,70.51756],[23.76322,70.51523],[23.76626,70.514],[23.76815,70.51189],[23.77425,70.50968],[23.77702,70.50965],[23.78201,70.50885],[23.78412,70.50876],[23.78933,70.50965],[23.80739,70.50926],[23.81467,70.50873],[23.82463,70.50971],[23.83029,70.50944],[23.83696,70.50991],[23.85262,70.51002],[23.86214,70.50831],[23.8701,70.50874],[23.87426,70.5086],[23.88808,70.50583]],[[23.9204,70.50309],[23.92993,70.5054],[23.9454,70.50737],[23.95581,70.51011],[23.95952,70.51013],[23.96556,70.50938],[23.97109,70.50964]],[[23.49506,70.53751],[23.49846,70.53458],[23.50101,70.53497],[23.50336,70.53321]],[[23.98384,70.50257],[23.99055,70.50637],[23.9978,70.50916],[24.01213,70.51109]],[[23.50004,70.54929],[23.50445,70.54721],[23.50904,70.54639],[23.50881,70.54493],[23.51128,70.54318],[23.51145,70.54172],[23.51485,70.54065],[23.52335,70.53972],[23.52398,70.53933],[23.52144,70.53661],[23.51428,70.5352],[23.50964,70.53235],[23.50993,70.53124],[23.50794,70.53118],[23.50336,70.53321]],[[23.47607,70.55309],[23.47706,70.55233],[23.47667,70.55089],[23.47936,70.54925],[23.48222,70.54803],[23.48591,70.54804],[23.48794,70.54754],[23.48874,70.54584],[23.49432,70.54154],[23.49426,70.53936]],[[23.46492,70.55671],[23.46803,70.55696],[23.47033,70.55651],[23.47357,70.55538],[23.47424,70.55409],[23.47607,70.55309]],[[23.46205,70.5576],[23.46492,70.55671]],[[23.47442,70.55762],[23.47777,70.55593],[23.48749,70.5546],[23.49384,70.55318],[23.50004,70.54929]],[[23.53406,70.55482],[23.53372,70.55332],[23.53822,70.5534],[23.54025,70.55282],[23.53953,70.55158],[23.5424,70.55039],[23.5406,70.54939],[23.54253,70.54628],[23.54653,70.5468],[23.55018,70.54858],[23.54861,70.54976],[23.54851,70.55176],[23.5543,70.55267],[23.55653,70.55164],[23.55666,70.54957],[23.55285,70.54714],[23.55288,70.54632],[23.55029,70.54683],[23.54913,70.54667],[23.54852,70.54392],[23.54499,70.5395],[23.54073,70.53897],[23.53153,70.53983],[23.53106,70.53944],[23.53336,70.53843],[23.53372,70.53771],[23.5297,70.53565],[23.53599,70.5325],[23.5419,70.53225],[23.54485,70.53138],[23.54934,70.52833],[23.54887,70.52804],[23.54712,70.52816],[23.54053,70.53002],[23.53489,70.52955],[23.52919,70.52582],[23.52956,70.52234],[23.53148,70.52145],[23.53358,70.5193],[23.53616,70.51819],[23.53737,70.51785],[23.53854,70.51817],[23.53992,70.518],[23.54367,70.51705],[23.5514,70.51383]],[[23.72632,70.54565],[23.72899,70.54379],[23.72768,70.54083],[23.72829,70.54018],[23.72298,70.54],[23.72306,70.539],[23.72707,70.5371],[23.73246,70.53568],[23.73388,70.53435],[23.74064,70.53145],[23.7382,70.52853],[23.73626,70.52808],[23.73222,70.52788],[23.73127,70.52746],[23.73517,70.52342],[23.73707,70.52254],[23.73866,70.52277],[23.74524,70.52201],[23.74955,70.52023],[23.75419,70.51961],[23.75813,70.51858]],[[24.00201,70.52961],[23.99641,70.52575],[23.9915,70.52434],[23.98401,70.52291],[23.97271,70.51827],[23.94078,70.51421],[23.92568,70.51159],[23.91329,70.5085],[23.90498,70.50773],[23.89327,70.50578],[23.88808,70.50583]],[[23.42774,70.56252],[23.43687,70.56322],[23.43974,70.56262],[23.44099,70.56116],[23.4452,70.55968],[23.44966,70.55923],[23.45341,70.55974],[23.45957,70.55831]],[[23.56411,70.55982],[23.56304,70.55982],[23.56229,70.56041],[23.56312,70.56145],[23.56413,70.56161],[23.56482,70.56111],[23.56411,70.55982]],[[23.42928,70.58449],[23.42735,70.58135],[23.42941,70.58021],[23.44944,70.58139],[23.46057,70.58317],[23.47001,70.58339],[23.476,70.58305],[23.47809,70.58202],[23.47854,70.58148],[23.4762,70.58005],[23.47833,70.57896],[23.47857,70.57831],[23.47747,70.57783],[23.47852,70.5773],[23.49381,70.57703],[23.49095,70.5761],[23.48812,70.57639],[23.48383,70.57582],[23.48631,70.57546],[23.48976,70.57401],[23.49366,70.57374],[23.49369,70.57343],[23.48331,70.57159],[23.47968,70.56942],[23.47366,70.56764],[23.47097,70.56729],[23.46373,70.56739],[23.46149,70.56597],[23.45552,70.5649],[23.45825,70.56384],[23.46566,70.56215],[23.47442,70.55762]],[[24.0037,70.5392],[23.99957,70.54056],[23.99862,70.54191],[23.99445,70.54465],[23.99657,70.54662],[23.99823,70.54664],[23.99911,70.54707],[23.99919,70.54863],[24.00423,70.55107]],[[23.55151,70.59442],[23.55526,70.59242],[23.55939,70.5921],[23.563,70.59202],[23.57016,70.59268],[23.57491,70.59373],[23.57885,70.59408],[23.58225,70.59334],[23.58599,70.59108],[23.58536,70.58977],[23.58102,70.58923],[23.57847,70.58826],[23.57784,70.58624],[23.57893,70.58582],[23.58261,70.58639],[23.5851,70.58608],[23.5865,70.58534],[23.58697,70.58273],[23.58322,70.58058],[23.5736,70.57744],[23.56917,70.57379],[23.5718,70.57236],[23.5662,70.56806],[23.56112,70.56577],[23.56017,70.56023],[23.56183,70.55985],[23.56244,70.55892],[23.55942,70.5575],[23.55836,70.55629],[23.55249,70.55541],[23.53944,70.55655],[23.53568,70.55598],[23.53406,70.55482]],[[23.44793,70.6006],[23.43539,70.60003],[23.42268,70.59695],[23.41931,70.59444],[23.42172,70.59187]],[[23.55009,70.59832],[23.54901,70.59624],[23.55151,70.59442]],[[23.5511,70.59924],[23.55009,70.59832]],[[23.68108,70.59306],[23.67993,70.58923],[23.68149,70.58648],[23.68532,70.5836],[23.68639,70.58062],[23.68926,70.57911],[23.69062,70.57593],[23.69663,70.56986],[23.69586,70.56686],[23.69368,70.56581],[23.69145,70.56305],[23.68963,70.56283],[23.68455,70.56332],[23.67987,70.56214],[23.68062,70.56075],[23.68638,70.5593],[23.68886,70.5591],[23.6917,70.55955],[23.69266,70.5603],[23.6961,70.56054],[23.70431,70.55866],[23.70827,70.55733],[23.71265,70.5545],[23.71795,70.5528],[23.71936,70.55153],[23.71919,70.54796],[23.72632,70.54565]],[[23.44801,70.60407],[23.44815,70.60454],[23.45059,70.60499]],[[23.65796,70.60082],[23.67258,70.60154],[23.67075,70.60036],[23.66444,70.59939],[23.66313,70.5977],[23.66628,70.59676],[23.67913,70.5955],[23.68108,70.59306]],[[23.40692,70.60598],[23.42173,70.60903],[23.43414,70.61082],[23.43973,70.61275],[23.44545,70.61368],[23.45517,70.61253],[23.45974,70.61046],[23.4546,70.60809],[23.45497,70.60656],[23.45059,70.60499]],[[23.5692,70.60793],[23.56695,70.60797],[23.56438,70.60862],[23.56418,70.6095],[23.56647,70.6105],[23.57593,70.61233],[23.58367,70.61221],[23.58373,70.61138],[23.57794,70.60929],[23.57315,70.60827],[23.5692,70.60793]],[[23.52853,70.61642],[23.53588,70.61706],[23.54484,70.61845],[23.54979,70.62056],[23.55997,70.6235],[23.56108,70.62363],[23.56361,70.62303],[23.56485,70.622],[23.56436,70.6215],[23.55741,70.61988],[23.55177,70.61675],[23.5515,70.61623],[23.55392,70.61557],[23.55218,70.61218],[23.54794,70.61091],[23.54585,70.60895],[23.54676,70.60689],[23.54625,70.60516],[23.54871,70.60425],[23.55296,70.6045],[23.55477,70.60262],[23.55652,70.60226],[23.5511,70.59924]],[[23.39629,70.62574],[23.3989,70.62606],[23.40688,70.62587],[23.41489,70.62437],[23.43581,70.62508],[23.44194,70.62413],[23.44578,70.62432],[23.44808,70.62524],[23.45148,70.62571],[23.45425,70.62744],[23.4574,70.628],[23.46463,70.62774],[23.4707,70.62799],[23.47479,70.62743],[23.48343,70.62763],[23.4868,70.62686],[23.48801,70.62576],[23.47947,70.62261],[23.47768,70.62127],[23.48448,70.61619],[23.49829,70.61541],[23.50842,70.6133],[23.51473,70.61434],[23.52066,70.61467],[23.52853,70.61642]],[[23.65796,70.60082],[23.64943,70.60034],[23.64644,70.60068],[23.64475,70.60159],[23.64542,70.60537],[23.65172,70.6082],[23.65159,70.60967],[23.64908,70.6105],[23.63802,70.60807],[23.63503,70.60679],[23.63542,70.60572],[23.63042,70.60515],[23.62057,70.60258],[23.62046,70.60195],[23.62407,70.60033],[23.6283,70.60073],[23.62976,70.60034],[23.63006,70.59807],[23.62833,70.59734],[23.62676,70.59773],[23.62411,70.59987],[23.62097,70.59915],[23.61801,70.59966],[23.61791,70.60095],[23.61971,70.60174],[23.61803,70.60215],[23.61209,70.60074],[23.60533,70.60041],[23.60018,70.60092],[23.59614,70.60056],[23.59429,70.60199],[23.60232,70.60565],[23.60782,70.60663],[23.61878,70.61044],[23.62636,70.61237],[23.63029,70.61269],[23.63518,70.61573],[23.64663,70.61913],[23.64863,70.62102],[23.65119,70.62137],[23.6509,70.62078],[23.65177,70.62057],[23.65493,70.62133],[23.65748,70.62605],[23.65561,70.62786]],[[23.65561,70.62786],[23.65401,70.62844],[23.66062,70.63336],[23.65829,70.6341],[23.65088,70.63077],[23.64576,70.63057],[23.64193,70.62963],[23.64,70.62753],[23.63675,70.62701],[23.63217,70.62531],[23.63116,70.62535],[23.6297,70.62626],[23.63567,70.62952],[23.64235,70.63192],[23.65167,70.63337],[23.65921,70.63634],[23.66134,70.63625],[23.67162,70.63362]],[[23.63262,70.64061],[23.6295,70.64003],[23.62416,70.63983],[23.61867,70.64012],[23.62161,70.64113]],[[23.67086,70.63879],[23.67346,70.63662]],[[23.45328,70.65357],[23.44698,70.65306],[23.43129,70.65274],[23.42338,70.65338],[23.41642,70.65332],[23.41299,70.65293],[23.40803,70.65369]],[[23.63262,70.64061],[23.63833,70.64216],[23.63825,70.64267],[23.63551,70.64372],[23.63517,70.64464],[23.63804,70.64579],[23.64067,70.64612],[23.64751,70.64539],[23.65063,70.64569],[23.65494,70.64542]],[[23.65494,70.64542],[23.65753,70.64511],[23.66862,70.64628],[23.67132,70.64563],[23.67338,70.64392],[23.66692,70.64051],[23.66713,70.64007],[23.66992,70.63967],[23.67086,70.63879]],[[23.46043,70.65932],[23.46406,70.65515],[23.46289,70.65471],[23.45328,70.65357]],[[23.40889,70.65572],[23.42707,70.66086],[23.44212,70.66282],[23.45303,70.66291],[23.45608,70.66259],[23.45805,70.66171],[23.46043,70.65932]],[[23.62161,70.64113],[23.63265,70.64416],[23.6331,70.64637],[23.63655,70.64989],[23.63911,70.6508],[23.65825,70.6547],[23.66146,70.65603],[23.66276,70.65776],[23.67078,70.66069]],[[23.67078,70.66069],[23.67871,70.6648],[23.68318,70.6649],[23.6834,70.66343],[23.68499,70.66315]],[[23.68499,70.66315],[23.68836,70.66407]],[[23.68836,70.66407],[23.69231,70.66583],[23.69292,70.66696],[23.6943,70.66709],[23.69578,70.66798],[23.69366,70.66915]],[[23.68805,70.67019],[23.69366,70.66915]],[[23.68805,70.67019],[23.67708,70.67094],[23.67039,70.67075],[23.66597,70.66837],[23.66308,70.66788],[23.66079,70.66835],[23.65908,70.66683],[23.65552,70.66704],[23.65595,70.66797],[23.66139,70.67088]],[[23.58797,70.68796],[23.58791,70.68731],[23.58214,70.68492],[23.57983,70.68322],[23.58332,70.68123],[23.58563,70.68183],[23.59011,70.68176],[23.59217,70.68311],[23.59912,70.68446],[23.59911,70.68512],[23.60929,70.68695]],[[23.63003,70.68597],[23.63215,70.68456],[23.63376,70.68197],[23.63678,70.6805],[23.63623,70.68009],[23.63719,70.67933],[23.63905,70.6789],[23.63994,70.67714],[23.64652,70.67591],[23.6501,70.67171],[23.65265,70.6711],[23.65706,70.67094],[23.65739,70.67122],[23.65503,70.67212],[23.65624,70.67261]],[[23.58797,70.68796],[23.58862,70.68902],[23.59391,70.69234],[23.59804,70.69356],[23.60005,70.69371],[23.61458,70.69128],[23.61742,70.68995],[23.60929,70.68695]],[[23.97607,70.70307],[23.98285,70.70301],[23.98875,70.70199],[23.99024,70.70224],[23.99088,70.70197],[23.99009,70.70074],[23.9915,70.69987],[23.98692,70.69628],[23.98674,70.69536],[23.98741,70.69463],[23.99007,70.69389],[23.99138,70.69199],[23.99311,70.69123],[23.99928,70.69068],[24.01486,70.6925]],[[23.91193,70.70749],[23.90792,70.70696],[23.9095,70.70802],[23.91187,70.7085],[23.91265,70.7083],[23.91193,70.70749]],[[23.84196,70.70927],[23.84512,70.71152],[23.85445,70.71411],[23.85813,70.71435],[23.86114,70.71366],[23.86931,70.71308],[23.87818,70.71194],[23.89074,70.71175],[23.89649,70.71203],[23.8985,70.71083],[23.90782,70.7086],[23.90569,70.70693],[23.90817,70.70624],[23.91097,70.70647],[23.91683,70.7087],[23.92168,70.70917],[23.92422,70.70889],[23.92528,70.708],[23.92742,70.7077],[23.92572,70.7055],[23.93141,70.70564],[23.93396,70.70755],[23.92678,70.70889],[23.9245,70.70977],[23.92982,70.71058],[23.93233,70.71055],[23.93266,70.70987],[23.93781,70.71032],[23.93871,70.70979],[23.93546,70.70898],[23.9406,70.70853],[23.94262,70.70761],[23.93995,70.70643],[23.93819,70.70479],[23.94903,70.70663],[23.9506,70.70597],[23.94773,70.70509],[23.94773,70.70457],[23.95471,70.70421],[23.9578,70.70371],[23.9601,70.70245],[23.96505,70.70327],[23.96891,70.70347],[23.9741,70.70355],[23.97607,70.70307]],[[23.45635,70.76785],[23.45757,70.76525],[23.45653,70.76406],[23.45436,70.76316]],[[23.65895,70.72983],[23.66086,70.72861],[23.65892,70.72723],[23.64745,70.72385],[23.64409,70.72356],[23.64194,70.72266],[23.64,70.72143],[23.63926,70.71949],[23.63152,70.71363],[23.63196,70.71152],[23.62941,70.71108],[23.62732,70.70989],[23.62882,70.70916],[23.62722,70.70555],[23.62911,70.70383],[23.62448,70.70286],[23.62275,70.698],[23.62323,70.69764],[23.62483,70.69788],[23.62629,70.69766],[23.63243,70.69395],[23.62714,70.68962],[23.63063,70.68817],[23.63003,70.68597]],[[23.82757,70.72174],[23.82661,70.72129],[23.82334,70.72098],[23.82459,70.71985],[23.82715,70.71956],[23.82319,70.71885],[23.81745,70.71928],[23.81041,70.71888],[23.80798,70.71929],[23.79803,70.71971],[23.80144,70.721],[23.80908,70.72097],[23.81274,70.72149],[23.81506,70.72235]],[[23.84011,70.72114],[23.83856,70.72014],[23.84298,70.72021],[23.8393,70.71798],[23.82396,70.71523],[23.81532,70.7126],[23.79453,70.70798],[23.78835,70.70597],[23.78751,70.70492],[23.79031,70.70364],[23.79386,70.70363],[23.79468,70.70322],[23.78716,70.69949],[23.78311,70.69806],[23.78159,70.69603],[23.78686,70.69661],[23.78998,70.69778],[23.7943,70.69808],[23.80754,70.70007],[23.80699,70.69685],[23.80439,70.69268],[23.80697,70.69261],[23.81557,70.69416],[23.81689,70.69585],[23.80899,70.69493],[23.8085,70.69554],[23.81393,70.69706],[23.81823,70.69994],[23.82238,70.70087],[23.82492,70.70069],[23.8295,70.70155],[23.82958,70.70221],[23.82784,70.70276],[23.82782,70.70328],[23.83451,70.70572],[23.84196,70.70927]],[[23.82757,70.72174],[23.82793,70.72328],[23.83161,70.72447],[23.82855,70.72481],[23.8302,70.72599],[23.84956,70.72636]],[[23.40542,70.7671],[23.41722,70.76456]],[[23.84624,70.72942],[23.82986,70.7275],[23.82221,70.72799],[23.82021,70.72913],[23.81951,70.73054],[23.8201,70.73075],[23.82578,70.73006],[23.82958,70.73129],[23.83849,70.73185],[23.84601,70.7309],[23.84742,70.72998],[23.84624,70.72942]],[[23.65895,70.72983],[23.65989,70.7334],[23.66426,70.73612],[23.66704,70.73935],[23.6646,70.73999],[23.6638,70.74165],[23.66765,70.74595],[23.67004,70.7474],[23.67723,70.74841],[23.68119,70.74836],[23.68381,70.74779],[23.68968,70.74535],[23.69608,70.74526],[23.69764,70.74493],[23.69969,70.7452],[23.70667,70.74754],[23.71042,70.74656],[23.71623,70.74804],[23.72083,70.74835],[23.72204,70.74795]],[[23.41722,70.76456],[23.43404,70.76191],[23.43896,70.7615],[23.44894,70.76194],[23.45436,70.76316]],[[23.72204,70.74795],[23.72337,70.74716],[23.72847,70.74591],[23.73769,70.74779],[23.74283,70.74736],[23.746,70.74766],[23.75477,70.74721],[23.76222,70.74722],[23.78065,70.74815],[23.78521,70.74744],[23.79425,70.74801],[23.79685,70.74778],[23.79893,70.74681],[23.80594,70.74492],[23.80401,70.74339],[23.80557,70.7425],[23.80791,70.74215],[23.80801,70.74174],[23.80539,70.74054],[23.80334,70.73808],[23.80893,70.73622],[23.80828,70.73512],[23.8059,70.73527],[23.8046,70.73496],[23.80649,70.73306],[23.79989,70.73227],[23.79903,70.73122],[23.80147,70.7304],[23.8064,70.73122],[23.80929,70.73043],[23.80961,70.72976],[23.81145,70.72949],[23.81273,70.72993],[23.81447,70.72926],[23.81299,70.72624],[23.80723,70.72379],[23.80864,70.72333],[23.81408,70.72378],[23.81569,70.72291],[23.81506,70.72235]],[[23.50325,70.78238],[23.49996,70.78051],[23.48937,70.77994],[23.47431,70.78123],[23.46303,70.78352]],[[23.47111,70.80245],[23.47998,70.80237],[23.48124,70.80185],[23.48671,70.80135],[23.48743,70.80048],[23.49141,70.80037],[23.50002,70.79842],[23.50051,70.79736],[23.49718,70.7972],[23.4952,70.79666],[23.49204,70.794],[23.48912,70.79321],[23.48902,70.79273],[23.49088,70.79092],[23.50275,70.78883],[23.50579,70.78778],[23.50584,70.78688],[23.50262,70.78625],[23.50121,70.78525],[23.50357,70.78331],[23.50325,70.78238]],[[23.4403,70.83051],[23.43593,70.82806],[23.43199,70.82666],[23.43155,70.82559],[23.42685,70.82387],[23.42585,70.82223],[23.42925,70.82168],[23.43151,70.82013],[23.43414,70.81998],[23.43565,70.81916],[23.44343,70.81908],[23.44654,70.8186],[23.4474,70.818],[23.44676,70.81688],[23.44921,70.81627],[23.45679,70.81618],[23.45891,70.81529],[23.46224,70.81566],[23.46489,70.81667],[23.46895,70.8167],[23.46658,70.81288],[23.46719,70.8121],[23.46451,70.81169],[23.44964,70.81322],[23.43308,70.81351],[23.42623,70.81276],[23.42605,70.81182],[23.42769,70.81127],[23.43022,70.81176],[23.43301,70.81038],[23.43932,70.8105],[23.44164,70.8102],[23.44901,70.80824],[23.45095,70.80692],[23.45564,70.80625],[23.46105,70.80462],[23.46427,70.80319],[23.46748,70.80259],[23.47111,70.80245]],[[23.42818,70.83107],[23.43032,70.83174],[23.43784,70.83187],[23.43764,70.83254],[23.4394,70.83313],[23.44523,70.8328],[23.44562,70.83224],[23.4403,70.83051]],[[23.72075,70.87527],[23.72248,70.87382],[23.72444,70.87335],[23.72366,70.87242],[23.71989,70.87287],[23.72057,70.87369],[23.71745,70.87346],[23.71601,70.87406],[23.71441,70.87405],[23.71463,70.87486],[23.71085,70.87571],[23.70421,70.87558],[23.70105,70.87615],[23.70093,70.87682],[23.70249,70.87739],[23.70875,70.87802],[23.70967,70.87864],[23.71797,70.87883],[23.72236,70.87685],[23.72075,70.87527]],[[23.69312,70.92426],[23.69942,70.92353],[23.70577,70.92189],[23.70865,70.91964],[23.70854,70.91769],[23.7127,70.91635],[23.71258,70.91587],[23.69048,70.9149],[23.68388,70.9153],[23.67714,70.91631],[23.67529,70.91729],[23.67944,70.91768],[23.67943,70.919],[23.68348,70.91948],[23.68292,70.92022],[23.68473,70.92136],[23.68753,70.92196],[23.69078,70.9239],[23.69312,70.92426]],[[23.941,70.92963],[23.94128,70.93026]],[[23.941,70.92963],[23.94618,70.9286],[23.94904,70.92676],[23.95455,70.92628],[23.96921,70.92833],[23.97928,70.92903],[23.98495,70.92999],[23.98643,70.92982],[23.99152,70.92809],[23.98937,70.92544],[23.9861,70.92346],[23.98555,70.92169],[23.98725,70.92056],[23.99129,70.91906],[24.00533,70.91688]],[[23.94253,70.93302],[23.94402,70.93176],[23.9428,70.93063],[23.94128,70.93026]],[[23.94253,70.93302],[23.93775,70.93333],[23.93064,70.93275],[23.92724,70.93332],[23.92307,70.93338],[23.92624,70.93464],[23.92286,70.93637],[23.92525,70.93705],[23.92905,70.93729],[23.93094,70.93812],[23.93786,70.93784],[23.94493,70.93828]],[[23.96648,70.9413],[23.96273,70.94065],[23.94815,70.93957],[23.94493,70.93828]],[[23.94765,70.94424],[23.95011,70.94394],[23.95859,70.94529],[23.96217,70.94636],[23.96444,70.94627],[23.965,70.94601],[23.96316,70.94479],[23.96509,70.94383],[23.96668,70.9437],[23.96931,70.94453],[23.97112,70.94443],[23.97149,70.9439],[23.97119,70.9431],[23.96648,70.9413]],[[23.94765,70.94424],[23.94452,70.9448],[23.94591,70.94565],[23.94585,70.94779],[23.94954,70.9493],[23.94824,70.95068],[23.94595,70.95076],[23.93888,70.94996],[23.93577,70.94916],[23.92961,70.94898],[23.92053,70.9498],[23.90934,70.95169],[23.90132,70.9521],[23.89474,70.95184],[23.89092,70.95274],[23.88993,70.95341],[23.89073,70.9539],[23.88684,70.95489],[23.88997,70.95566],[23.89791,70.95577],[23.90184,70.95655],[23.90107,70.95777],[23.8983,70.95911],[23.89978,70.9597],[23.90016,70.96064],[23.89793,70.96082],[23.89271,70.96032],[23.89189,70.96149],[23.90267,70.96285],[23.90644,70.9647],[23.90557,70.96554],[23.9082,70.96632],[23.91397,70.96708],[23.91499,70.96789],[23.92658,70.96934],[23.92692,70.97043],[23.92527,70.97121],[23.91943,70.9721],[23.91944,70.97307],[23.92168,70.97448],[23.93017,70.97637],[23.93276,70.97798],[23.93684,70.9792],[23.94455,70.97966],[23.95926,70.9816],[23.96472,70.98166]],[[23.95308,70.98722],[23.94794,70.98588],[23.94676,70.98633],[23.93962,70.98571],[23.9363,70.98614],[23.92632,70.98579],[23.91517,70.98487],[23.90838,70.98482],[23.89973,70.98336],[23.88198,70.98273],[23.87984,70.98381],[23.88196,70.9849],[23.88257,70.98641],[23.88178,70.98682],[23.87885,70.98702],[23.87827,70.98753],[23.88379,70.98989],[23.88656,70.99044]],[[24.00497,70.97979],[23.99941,70.97828],[23.99817,70.97888],[23.99875,70.98023],[23.99649,70.98097],[23.99315,70.98133],[23.98697,70.98182],[23.97954,70.98172],[23.97321,70.98258],[23.96472,70.98166]],[[23.95308,70.98722],[23.95774,70.98768],[23.96731,70.98731]],[[23.96731,70.98731],[23.97554,70.98747],[23.98649,70.98665],[23.99241,70.98689],[23.99832,70.98601],[24.0006,70.98603]],[[23.944,71.00089],[23.94156,70.99931],[23.93848,70.99847],[23.93352,70.99849],[23.92176,70.99964],[23.91273,71.00143]],[[23.90319,71.00114],[23.90775,70.9993],[23.90167,70.99774],[23.89915,70.99779],[23.89271,70.99893],[23.88555,70.99865],[23.87562,70.99993],[23.86446,71.00005]],[[23.86446,71.00005],[23.86218,70.99942],[23.85302,70.99853],[23.84225,70.99817],[23.84011,70.99762],[23.84014,70.99691],[23.84518,70.99447],[23.85178,70.99245],[23.85582,70.9921],[23.86672,70.99324],[23.86939,70.99261],[23.8831,70.9919],[23.88594,70.99137],[23.88656,70.99044]]]}}]}