{"type":"FeatureCollection","features":[{"type":"Feature","properties":{},"geometry":{"type":"MultiLineString","coordinates":[[[25.02666,70.06971],[25.02739,70.06871]],[[25.02845,70.07218],[25.02923,70.0725]],[[25.03364,70.07561],[25.03142,70.07337],[25.02923,70.0725]],[[25.16378,70.07556],[25.16589,70.07547]],[[25.07633,70.17257],[25.07481,70.17249],[25.07468,70.17334],[25.07662,70.17449],[25.07633,70.17257]],[[25.32902,70.18958],[25.33761,70.19293]],[[25.40829,70.22929],[25.40446,70.2313]],[[25.04064,70.26163],[25.0359,70.26139]],[[25.39154,70.27568],[25.38933,70.27518],[25.38498,70.27564],[25.38549,70.27604]],[[25.38549,70.27604],[25.39202,70.27619],[25.39154,70.27568]],[[25.12575,70.29097],[25.12485,70.29164]],[[25.15099,70.2921],[25.14969,70.28961]],[[25.14116,70.2901],[25.14307,70.2909],[25.14843,70.29158],[25.14862,70.29213],[25.15037,70.29225]],[[25.50492,70.29678],[25.50067,70.29619],[25.49975,70.2944],[25.49664,70.2934],[25.49494,70.29196]],[[25.28814,70.32394],[25.28787,70.32341]],[[25.51503,70.31387],[25.51426,70.31332]],[[25.37272,70.32232],[25.36889,70.32262],[25.3692,70.32315],[25.37291,70.32324],[25.37365,70.32279],[25.37272,70.32232]],[[25.07923,70.34429],[25.07912,70.34169],[25.07639,70.33915]],[[25.10837,70.37578],[25.10779,70.37616],[25.11287,70.37711],[25.11347,70.37683],[25.11229,70.37619],[25.10837,70.37578]],[[24.99668,70.05409],[25.0018,70.05335],[25.00464,70.05346]],[[25.0049,70.05474],[25.00359,70.05671],[25.02258,70.05883]],[[25.02739,70.06871],[25.03059,70.06663],[25.02977,70.06418],[25.03076,70.06109],[25.02894,70.06022],[25.02258,70.05883]],[[25.02666,70.06971],[25.02618,70.07109],[25.02845,70.07218]],[[25.12387,70.067],[25.12844,70.06603],[25.13149,70.06453]],[[25.13149,70.06453],[25.13844,70.06373],[25.14858,70.06463],[25.15046,70.06529],[25.15523,70.0648],[25.15248,70.06619],[25.15398,70.06832],[25.1563,70.06751],[25.15773,70.06762],[25.1564,70.06848]],[[25.1564,70.06848],[25.15326,70.06936],[25.15359,70.07131],[25.15224,70.07208],[25.15362,70.07203],[25.15627,70.07106],[25.15952,70.07113],[25.1614,70.07394],[25.15961,70.07489],[25.16378,70.07556]],[[25.17015,70.07625],[25.17071,70.07548],[25.16989,70.07496],[25.16589,70.07547]],[[25.03537,70.08509],[25.03827,70.08227],[25.03833,70.07985],[25.03364,70.07561]],[[25.03537,70.08509],[25.03271,70.0865]],[[25.03271,70.0865],[25.03131,70.08761],[25.0278,70.08883]],[[25.17015,70.07625],[25.16927,70.07864],[25.17234,70.07857],[25.17349,70.0794],[25.17255,70.08019],[25.17428,70.08081],[25.17635,70.08096],[25.17705,70.08149],[25.1795,70.08127],[25.17992,70.08227],[25.18253,70.08249],[25.18346,70.08446],[25.18569,70.08499],[25.18498,70.08553],[25.18601,70.08597],[25.18782,70.08523],[25.18995,70.08561],[25.19115,70.08536],[25.19722,70.08835],[25.19867,70.08804],[25.19922,70.08722],[25.20553,70.08733]],[[25.0844,70.09506],[25.08337,70.09561],[25.08359,70.09934],[25.08157,70.10081],[25.08231,70.10159],[25.08538,70.10011],[25.0868,70.09731],[25.08654,70.09637],[25.0844,70.09506]],[[25.10648,70.09655],[25.10603,70.09619],[25.10477,70.0966],[25.10194,70.09646],[25.10013,70.09847],[25.10117,70.1011],[25.0996,70.10221],[25.10033,70.10272],[25.10419,70.10126],[25.10419,70.10052],[25.1023,70.10008],[25.10532,70.09855],[25.10648,70.09655]],[[25.0278,70.08883],[25.02048,70.09015],[25.01582,70.08989],[25.01484,70.09054],[25.00453,70.09311],[25.00208,70.09322],[25.00098,70.09396],[24.98993,70.09428]],[[25.10356,70.11071],[25.1113,70.11174],[25.11345,70.11015]],[[25.05844,70.11328],[25.05838,70.10982],[25.0594,70.1081],[25.06212,70.10837],[25.06983,70.11124],[25.07069,70.11196],[25.07198,70.11143],[25.07081,70.11007],[25.07446,70.10713],[25.07496,70.10209],[25.07307,70.09899],[25.06978,70.09639],[25.07354,70.09282],[25.07672,70.09299],[25.07691,70.08924],[25.07954,70.08531],[25.07883,70.0847],[25.08067,70.08438],[25.08249,70.0854],[25.08337,70.08536],[25.08464,70.08345],[25.08365,70.08195],[25.08681,70.07838],[25.09144,70.07774],[25.09111,70.0764],[25.09514,70.07559],[25.09563,70.07397],[25.10316,70.07261],[25.103,70.07169],[25.10611,70.07068],[25.1228,70.06793],[25.12387,70.067]],[[25.11345,70.11015],[25.11309,70.1086],[25.10187,70.10825],[25.09996,70.10865],[25.10057,70.11033],[25.10356,70.11071]],[[25.23047,70.10342],[25.23208,70.09987],[25.2293,70.09506],[25.22621,70.09337],[25.22481,70.09113],[25.22166,70.08952],[25.21208,70.08915],[25.20883,70.0886],[25.20553,70.08733]],[[25.19907,70.10645],[25.19692,70.10614],[25.19891,70.10778],[25.20064,70.10801],[25.20082,70.10742],[25.19907,70.10645]],[[25.06647,70.11809],[25.06482,70.118],[25.06364,70.11731],[25.06327,70.11641],[25.05844,70.11328]],[[25.065,70.11982],[25.06442,70.12043],[25.06528,70.12152],[25.06784,70.12212],[25.06995,70.1218],[25.07051,70.12065],[25.07433,70.12153],[25.07877,70.12102],[25.08022,70.12259],[25.08515,70.12182],[25.08667,70.12225],[25.08785,70.12395],[25.08927,70.12429],[25.09021,70.12395]],[[25.05818,70.13171],[25.05967,70.13125],[25.06037,70.12941],[25.05894,70.12735],[25.05931,70.1201],[25.06093,70.11979],[25.0622,70.11878],[25.06487,70.11917],[25.065,70.11982]],[[25.15269,70.12419],[25.15172,70.12467],[25.15192,70.12604],[25.15232,70.12641],[25.15357,70.1264],[25.15517,70.12476],[25.15269,70.12419]],[[25.09021,70.12395],[25.09043,70.12317],[25.09171,70.12371],[25.09173,70.12598],[25.09726,70.12824],[25.09956,70.12837],[25.10471,70.13009]],[[25.05818,70.13171],[25.05586,70.13279],[25.05493,70.13396],[25.0533,70.1343],[25.05977,70.13494]],[[25.06377,70.13643],[25.06249,70.13522],[25.05977,70.13494]],[[25.09334,70.13427],[25.09198,70.13463],[25.09455,70.1364],[25.09509,70.13611],[25.09334,70.13427]],[[25.23047,70.10342],[25.23278,70.10753],[25.2342,70.10854],[25.23279,70.1106],[25.23326,70.11161],[25.23161,70.1131],[25.23789,70.11516],[25.24178,70.1172],[25.24202,70.1189],[25.24419,70.12086],[25.24728,70.12212],[25.25513,70.13142]],[[25.25513,70.13142],[25.25478,70.13266],[25.24833,70.13392]],[[25.10471,70.13009],[25.10857,70.13263],[25.11002,70.13283],[25.1077,70.13372],[25.10771,70.13439],[25.10956,70.13571],[25.1147,70.13711],[25.11446,70.13891],[25.11536,70.13969],[25.11661,70.13969],[25.11612,70.13884],[25.11713,70.1382],[25.11681,70.13593],[25.11464,70.13462],[25.11549,70.1335],[25.11802,70.13431],[25.12177,70.13781],[25.12701,70.14012],[25.12909,70.13948],[25.13226,70.13624],[25.13222,70.13503],[25.1346,70.13477],[25.13498,70.13351],[25.13654,70.13256],[25.13814,70.13262],[25.13812,70.13318],[25.14315,70.13321],[25.14602,70.13389],[25.14747,70.13293],[25.14661,70.13096],[25.14853,70.13042],[25.15272,70.13071],[25.15008,70.12952],[25.1466,70.12917],[25.14674,70.12867],[25.1487,70.12841],[25.15166,70.12725],[25.14959,70.12708],[25.15038,70.12579],[25.14751,70.12451],[25.14674,70.12267],[25.14412,70.12205],[25.13723,70.12231],[25.13841,70.12602],[25.13784,70.12645],[25.13466,70.12666],[25.13331,70.12647],[25.12949,70.12445],[25.12997,70.12364],[25.13398,70.1218],[25.13376,70.1211],[25.13197,70.12072],[25.12807,70.12142],[25.125,70.12084],[25.12424,70.12152],[25.12498,70.12314],[25.12314,70.12457],[25.12165,70.12522],[25.11887,70.12536],[25.11776,70.12438],[25.11747,70.12088],[25.11589,70.11985],[25.1137,70.11953],[25.11267,70.11796],[25.10954,70.11657],[25.10875,70.11489],[25.10487,70.11309],[25.10182,70.11402],[25.09283,70.11534],[25.08952,70.11523],[25.08828,70.11434],[25.08502,70.11416],[25.08452,70.11539],[25.07673,70.11803],[25.06871,70.11624],[25.06771,70.11792],[25.06647,70.11809]],[[24.99923,70.12825],[25.00174,70.12965],[25.00063,70.13086],[24.99789,70.13183]],[[24.99801,70.13459],[25.00421,70.13763],[25.00407,70.13966],[25.00565,70.14316],[25.00831,70.14504],[25.01389,70.14644],[25.01492,70.14828]],[[25.09986,70.14305],[25.09881,70.1431],[25.09707,70.14475],[25.09773,70.14653],[25.10017,70.14604],[25.10079,70.14527],[25.09986,70.14305]],[[25.11626,70.14538],[25.11885,70.14496],[25.1227,70.14542],[25.11831,70.14267],[25.11542,70.14283],[25.11074,70.14373],[25.10573,70.14171],[25.10478,70.14177],[25.10338,70.14342],[25.10484,70.14441],[25.10644,70.14453],[25.10732,70.14598],[25.10929,70.14585],[25.10876,70.14461],[25.10954,70.14447],[25.11344,70.14729],[25.11499,70.1476],[25.11663,70.14721],[25.1156,70.14568],[25.11626,70.14538]],[[25.01492,70.14828],[25.01811,70.15064],[25.01994,70.15056],[25.02136,70.15139],[25.02336,70.15076],[25.02488,70.15116],[25.02695,70.15208],[25.02913,70.15422],[25.03171,70.15301],[25.03565,70.15272],[25.03697,70.15191],[25.03762,70.15016],[25.04021,70.15034],[25.04494,70.14943],[25.04664,70.14787],[25.04898,70.14778],[25.04921,70.14158],[25.05029,70.14099],[25.05283,70.14096],[25.05542,70.1413],[25.0587,70.1428],[25.05971,70.1446],[25.06736,70.1504]],[[25.1617,70.14882],[25.16012,70.14903],[25.16066,70.14981],[25.16498,70.15156],[25.16541,70.15059],[25.1617,70.14882]],[[25.00621,70.1616],[25.00616,70.15983],[24.99826,70.15766]],[[24.99826,70.15766],[25.00072,70.15677],[24.99885,70.15437]],[[24.99993,70.16018],[25.0017,70.16076],[25.00088,70.1619]],[[25.08208,70.15731],[25.083,70.15697],[25.08215,70.15647],[25.07651,70.15526],[25.07424,70.15437],[25.06736,70.1504]],[[25.08742,70.15701],[25.08923,70.15092],[25.08596,70.15065],[25.08499,70.14954],[25.08753,70.14933],[25.08862,70.14818],[25.09005,70.14851],[25.0913,70.14828],[25.09137,70.14772],[25.08972,70.14697],[25.09094,70.14453],[25.09363,70.14282],[25.09524,70.14059],[25.0934,70.14028],[25.0911,70.14175],[25.08576,70.14196],[25.08479,70.14101],[25.08579,70.13926],[25.08204,70.14024],[25.07849,70.14014],[25.07779,70.14047],[25.07821,70.14461],[25.08051,70.14765],[25.07897,70.14802],[25.07475,70.14763],[25.07241,70.14717],[25.07098,70.14583],[25.06683,70.13797],[25.06614,70.13716],[25.06377,70.13643]],[[25.13744,70.15416],[25.13436,70.15208],[25.13304,70.15196],[25.13222,70.15239],[25.13479,70.15431]],[[25.17579,70.15196],[25.17645,70.1508],[25.17988,70.15008],[25.17497,70.14617],[25.17492,70.14525],[25.17146,70.14311],[25.16256,70.13933],[25.15951,70.13893],[25.15879,70.13913],[25.15936,70.13972],[25.16301,70.14138],[25.16265,70.14194],[25.16646,70.145],[25.16707,70.14617],[25.16632,70.14694],[25.16713,70.14707],[25.16987,70.14632],[25.17197,70.14683],[25.17129,70.14744],[25.16835,70.14774],[25.16934,70.15056],[25.16674,70.15157],[25.1664,70.1525]],[[25.1878,70.15127],[25.18925,70.14617],[25.18872,70.14528],[25.18654,70.14477],[25.18244,70.14993],[25.18121,70.15019],[25.18353,70.15152]],[[25.26971,70.14655],[25.26436,70.14453],[25.26119,70.14226],[25.2542,70.14125],[25.24516,70.14072],[25.242,70.13768],[25.24318,70.13563],[25.24671,70.13416]],[[25.18353,70.15152],[25.18387,70.15269],[25.18759,70.15389],[25.1878,70.15127]],[[25.00088,70.1619],[25.00578,70.16446],[25.00785,70.16491],[25.01002,70.16486],[25.0117,70.16394],[25.01047,70.16233],[25.00801,70.16175],[25.00801,70.16274],[25.0072,70.16285],[25.00621,70.1616]],[[25.26971,70.14655],[25.27353,70.15073]],[[25.08208,70.15731],[25.08022,70.15842],[25.08056,70.1598],[25.07717,70.1591],[25.07604,70.15962],[25.07714,70.16046],[25.08285,70.16256],[25.08421,70.16242],[25.08665,70.1605],[25.08792,70.15892],[25.08689,70.15823],[25.08742,70.15701]],[[25.13479,70.15431],[25.13978,70.15856],[25.14386,70.16025],[25.14376,70.15835],[25.14226,70.15642],[25.13744,70.15416]],[[25.1664,70.1525],[25.17136,70.1547],[25.1723,70.15938],[25.17328,70.15977],[25.17546,70.15718],[25.1739,70.15537],[25.17479,70.15256],[25.17579,70.15196]],[[25.18638,70.15649],[25.18535,70.15646],[25.1834,70.15928],[25.18124,70.16002],[25.18033,70.16176],[25.1815,70.16541],[25.18784,70.1678],[25.18914,70.16568],[25.1878,70.16389],[25.18638,70.15649]],[[25.14994,70.16612],[25.14666,70.16588],[25.14515,70.16637],[25.14352,70.16844],[25.14451,70.16943],[25.14824,70.17043],[25.15027,70.16997],[25.15191,70.1686],[25.15177,70.16713],[25.14994,70.16612]],[[25.15739,70.17039],[25.15506,70.17038],[25.15702,70.1722],[25.15728,70.17141],[25.15833,70.1712],[25.15739,70.17039]],[[25.13375,70.17051],[25.13254,70.17042],[25.13222,70.17116],[25.13485,70.17385],[25.13842,70.17458],[25.13375,70.17051]],[[25.28467,70.16708],[25.28594,70.16586],[25.28553,70.16324],[25.28158,70.16122],[25.27518,70.15923],[25.2738,70.15831],[25.2734,70.15599],[25.2755,70.15366],[25.27353,70.15073]],[[25.15997,70.17409],[25.15832,70.17426],[25.16023,70.17641],[25.16144,70.17513],[25.15997,70.17409]],[[25.16922,70.17625],[25.16665,70.17635],[25.16466,70.17692],[25.16586,70.17857],[25.16747,70.17888],[25.16869,70.18011],[25.17129,70.17846],[25.16922,70.17625]],[[25.19364,70.1776],[25.19184,70.17796],[25.1918,70.17979],[25.19508,70.18058],[25.19495,70.17873],[25.19364,70.1776]],[[25.10278,70.18042],[25.10372,70.18029],[25.1054,70.18113],[25.1079,70.18071],[25.10874,70.17981],[25.10819,70.17853],[25.10994,70.17839],[25.11062,70.17789],[25.10842,70.17446],[25.11002,70.17286],[25.1083,70.17268],[25.10765,70.17327],[25.10278,70.17422],[25.10234,70.1736],[25.10369,70.17307],[25.10389,70.17186],[25.10283,70.1708],[25.09942,70.1693],[25.10095,70.16902],[25.10958,70.17135],[25.11216,70.17116],[25.11261,70.17046],[25.11049,70.17014],[25.10909,70.16805],[25.10692,70.16702],[25.10391,70.16692],[25.10205,70.16814],[25.09834,70.16796],[25.09536,70.16604],[25.09174,70.16546],[25.09038,70.1646],[25.08781,70.16401],[25.08444,70.1651],[25.08467,70.16584],[25.08321,70.16636],[25.07691,70.16691],[25.07651,70.16802],[25.07931,70.16797],[25.08187,70.16979],[25.08592,70.17106],[25.08875,70.17263],[25.08841,70.17355],[25.08627,70.17335],[25.08507,70.17359],[25.08641,70.17692],[25.08759,70.17669],[25.08833,70.17451],[25.08948,70.17448],[25.09065,70.17522],[25.09235,70.17499],[25.09123,70.17695],[25.09264,70.17812],[25.09406,70.17785],[25.09534,70.17814],[25.09665,70.18169],[25.09955,70.18272],[25.10186,70.18425],[25.10583,70.18449],[25.10278,70.18042]],[[25.28467,70.16708],[25.28162,70.16835],[25.27791,70.17166],[25.27937,70.17352],[25.28306,70.17562],[25.28467,70.17609],[25.28672,70.17613]],[[25.2884,70.17712],[25.28672,70.17613]],[[25.16078,70.18332],[25.1598,70.18356],[25.15997,70.18417],[25.1641,70.18697],[25.1647,70.18675],[25.16254,70.18394],[25.16078,70.18332]],[[25.20065,70.18564],[25.1997,70.18546],[25.19881,70.18584],[25.19679,70.18897],[25.2008,70.18994],[25.20182,70.1867],[25.20065,70.18564]],[[25.16364,70.18871],[25.16151,70.18861],[25.16073,70.18918],[25.16295,70.19154],[25.16735,70.19298],[25.1669,70.18965],[25.16364,70.18871]],[[25.00055,70.20729],[25.0025,70.20486],[25.00189,70.2037],[24.99861,70.20264]],[[25.14892,70.19889],[25.14413,70.19262],[25.14224,70.19143],[25.14038,70.19306],[25.14248,70.19408],[25.1413,70.19492],[25.13872,70.19448],[25.13861,70.1958],[25.14003,70.19727],[25.14384,70.19918]],[[25.18549,70.19679],[25.17778,70.19261],[25.17539,70.19026],[25.17151,70.18951],[25.17191,70.19066],[25.17481,70.19252],[25.17629,70.19442],[25.18105,70.19705]],[[25.19984,70.19597],[25.20078,70.19277],[25.19984,70.19244],[25.19849,70.19315],[25.19661,70.19284],[25.19647,70.19202],[25.19377,70.1905],[25.18923,70.18932],[25.18473,70.18911],[25.18054,70.18956],[25.17731,70.18921],[25.17858,70.1912],[25.18049,70.19226],[25.19096,70.19648]],[[25.29316,70.19059],[25.29156,70.18599],[25.28897,70.18315],[25.28454,70.18215],[25.28702,70.18023],[25.2884,70.17712]],[[25.31311,70.18943],[25.31108,70.18796],[25.31067,70.18665]],[[25.32734,70.1886],[25.32182,70.18581],[25.31391,70.18536],[25.31067,70.18665]],[[25.14384,70.19918],[25.14681,70.20076],[25.14892,70.19889]],[[25.32734,70.1886],[25.32902,70.18958]],[[25.30345,70.19211],[25.30637,70.19193],[25.30828,70.19033],[25.31141,70.19045],[25.31311,70.18943]],[[25.30222,70.19345],[25.30187,70.19257],[25.30345,70.19211]],[[25.19096,70.19648],[25.19653,70.19973],[25.19822,70.19973],[25.19933,70.20017],[25.20054,70.19985],[25.19984,70.19597]],[[25.33761,70.19293],[25.34289,70.19406],[25.35668,70.19809],[25.35817,70.19894],[25.35763,70.1995],[25.35986,70.2005]],[[25.18105,70.19705],[25.18437,70.20011],[25.19173,70.20317],[25.19034,70.20103],[25.18549,70.19679]],[[25.29316,70.19059],[25.29836,70.1952],[25.30435,70.19823],[25.30222,70.19345]],[[24.99902,70.21719],[25.00119,70.2164],[24.99973,70.21417]],[[24.99973,70.21417],[25.00071,70.21371],[25.00046,70.21234],[25.00325,70.21064],[25.01227,70.21177],[25.01568,70.21282],[25.01543,70.21116],[25.01258,70.20821],[25.01035,70.20822],[25.00723,70.20723],[25.00396,70.20782],[25.00055,70.20729]],[[25.21803,70.20034],[25.21679,70.20043],[25.21657,70.20084],[25.21641,70.2036],[25.22117,70.20644],[25.22102,70.20483],[25.2194,70.20356],[25.22015,70.20261],[25.21803,70.20034]],[[25.22309,70.20366],[25.22216,70.20371],[25.22239,70.20527],[25.22407,70.20836],[25.2258,70.20953],[25.22309,70.20366]],[[25.07315,70.21803],[25.07143,70.21699],[25.06838,70.21745],[25.06642,70.21728],[25.06527,70.21667],[25.06153,70.21723],[25.0586,70.21596],[25.05577,70.21602],[25.06229,70.21845],[25.064,70.21845],[25.06495,70.21806],[25.06734,70.21908],[25.07021,70.21905],[25.07315,70.21803]],[[25.20761,70.2199],[25.20495,70.21999],[25.21154,70.22346],[25.21394,70.22368],[25.21175,70.22135],[25.20761,70.2199]],[[25.06783,70.22948],[25.06355,70.22877],[25.06246,70.22981],[25.06728,70.23152],[25.07343,70.23196],[25.07226,70.23077],[25.06989,70.22974],[25.06783,70.22948]],[[25.02159,70.23008],[25.01743,70.22727],[25.0093,70.22408],[25.0013,70.2236],[24.99321,70.2217]],[[24.99972,70.23122],[25.00399,70.23268],[25.01044,70.23397],[25.01591,70.23344],[25.02188,70.23525],[25.02563,70.23514],[25.02531,70.23342]],[[25.02531,70.23342],[25.02703,70.23275],[25.02871,70.23283],[25.0275,70.23405],[25.0331,70.23417],[25.03613,70.23551],[25.03702,70.23545],[25.03668,70.23466],[25.03108,70.2323],[25.02159,70.23008]],[[25.08107,70.23127],[25.08812,70.23468]],[[25.08812,70.23468],[25.09274,70.23696],[25.09542,70.23767],[25.09715,70.23751],[25.09596,70.237],[25.0965,70.23667],[25.10283,70.23668],[25.10183,70.23557],[25.10384,70.23516],[25.1037,70.23453],[25.1006,70.23243],[25.09803,70.22875],[25.09188,70.2252],[25.08188,70.22183],[25.07997,70.22179],[25.07789,70.22257],[25.07775,70.2233],[25.07654,70.2235],[25.07178,70.22218],[25.06706,70.22168],[25.06543,70.22265],[25.06872,70.22556],[25.08107,70.23127]],[[25.22864,70.23057],[25.23226,70.2304],[25.22934,70.22796],[25.22618,70.22719],[25.22566,70.22869],[25.224,70.22881],[25.2239,70.22913],[25.2273,70.23126],[25.22864,70.23057]],[[25.10842,70.23359],[25.10627,70.23322],[25.10532,70.23378],[25.10877,70.2365],[25.1085,70.23786],[25.10595,70.23872],[25.10714,70.23954],[25.11122,70.23924]],[[25.20749,70.2304],[25.20841,70.23032],[25.20986,70.23105],[25.21093,70.23097],[25.20996,70.22906],[25.20789,70.22759],[25.20395,70.22666],[25.199,70.22397],[25.19351,70.22189],[25.1903,70.22154],[25.18434,70.2218],[25.18156,70.21958],[25.17846,70.21813],[25.16781,70.21569],[25.16582,70.21564],[25.16285,70.21619],[25.16257,70.21712],[25.15957,70.21801],[25.15936,70.2192],[25.16405,70.22136],[25.16619,70.22196],[25.16831,70.22197],[25.17119,70.22418],[25.17654,70.22658],[25.1852,70.22817],[25.18302,70.22554],[25.18422,70.22523],[25.18512,70.22671],[25.19734,70.23089],[25.19858,70.23074],[25.20064,70.2283],[25.20184,70.22821],[25.2036,70.22895],[25.20435,70.2303],[25.20669,70.23125],[25.20747,70.23309],[25.21053,70.23368],[25.21028,70.23241],[25.20713,70.23115],[25.20749,70.2304]],[[25.11122,70.23924],[25.11474,70.23945],[25.11578,70.23897],[25.11354,70.2365],[25.10842,70.23359]],[[25.02403,70.25134],[25.01841,70.24947],[25.0081,70.24937],[25.00422,70.24744],[24.99737,70.24586]],[[25.13947,70.24481],[25.13492,70.24222],[25.14131,70.24229],[25.1421,70.2417],[25.13821,70.23989],[25.13265,70.23837],[25.12953,70.23653],[25.1234,70.23412],[25.12378,70.2368],[25.12655,70.23902],[25.1227,70.24087],[25.12354,70.24359],[25.122,70.2458]],[[25.15339,70.24402],[25.14834,70.24312],[25.14644,70.24355],[25.14751,70.24435]],[[25.40829,70.22929],[25.40229,70.22187],[25.37335,70.20584],[25.3667,70.20282],[25.35986,70.2005]],[[25.40349,70.23185],[25.40301,70.2338]],[[25.122,70.2458],[25.12241,70.24673],[25.12609,70.24661],[25.13569,70.24908],[25.13923,70.24958],[25.14018,70.24903],[25.14346,70.24853],[25.14328,70.24731],[25.14119,70.24635],[25.13528,70.24683],[25.13627,70.24596],[25.14058,70.24581],[25.13947,70.24481]],[[25.14751,70.24435],[25.15109,70.24657],[25.15486,70.24798],[25.15693,70.24842],[25.16086,70.24855],[25.1622,70.24821],[25.16198,70.24781],[25.15339,70.24402]],[[25.29653,70.24438],[25.29382,70.24382],[25.28985,70.24385],[25.28874,70.24436],[25.28628,70.24362],[25.28467,70.2438],[25.28807,70.24473],[25.28997,70.24476],[25.29566,70.24584],[25.29768,70.24533],[25.29653,70.24438]],[[25.0359,70.26139],[25.03109,70.26053],[25.0303,70.25929],[25.02657,70.25744],[25.02646,70.25558],[25.02958,70.25516],[25.02995,70.25437],[25.02403,70.25134]],[[25.30214,70.25039],[25.29986,70.24949],[25.2985,70.2494],[25.29744,70.24978],[25.2991,70.25057],[25.30214,70.25039]],[[25.40301,70.23513],[25.4025,70.23812],[25.40338,70.23921],[25.40749,70.24061],[25.40889,70.24161],[25.40723,70.24297],[25.40289,70.24464],[25.40552,70.2485],[25.4096,70.25133],[25.41843,70.25187],[25.42299,70.25257]],[[25.36233,70.25417],[25.36296,70.25346],[25.35903,70.25211],[25.35613,70.2519],[25.35514,70.25072],[25.3528,70.25015],[25.35225,70.25067],[25.35559,70.25338],[25.36106,70.25594],[25.364,70.25875],[25.37014,70.26152],[25.37208,70.26184],[25.37046,70.25957],[25.36648,70.2578],[25.36233,70.25417]],[[25.45748,70.26358],[25.45481,70.26321],[25.4471,70.26021],[25.44319,70.25748],[25.44095,70.2569],[25.43812,70.25688],[25.43403,70.25611],[25.43165,70.25482],[25.42299,70.25257]],[[25.11058,70.28474],[25.11743,70.28074],[25.11383,70.27945],[25.11449,70.27858],[25.11274,70.27748],[25.10058,70.27486],[25.09364,70.27162],[25.09251,70.27058],[25.08713,70.26917],[25.07795,70.26789],[25.07725,70.26633],[25.07787,70.26582],[25.08061,70.26536],[25.08086,70.26383],[25.07093,70.26226],[25.07034,70.26187],[25.07159,70.26119],[25.07027,70.26042],[25.06331,70.26029],[25.04726,70.26086],[25.04064,70.26163]],[[25.45748,70.26358],[25.46057,70.26471],[25.46006,70.26654],[25.46198,70.26637],[25.46343,70.26516],[25.46632,70.26507]],[[25.10796,70.2871],[25.11058,70.28474]],[[25.24731,70.2431],[25.23782,70.2429],[25.23201,70.24218],[25.22962,70.24287],[25.22935,70.24363],[25.23356,70.24825],[25.23774,70.25123],[25.23993,70.25217],[25.24617,70.25365],[25.24527,70.25647],[25.24946,70.25855],[25.25049,70.25963],[25.24989,70.26086],[25.25223,70.26228],[25.25106,70.26348],[25.25253,70.26596],[25.25485,70.26702],[25.25492,70.26795],[25.25232,70.26974],[25.25343,70.27081],[25.25511,70.27124],[25.25592,70.2725],[25.25481,70.27394],[25.25008,70.27552],[25.25962,70.27595],[25.26386,70.2788],[25.26551,70.27922]],[[25.3969,70.27322],[25.39712,70.27365]],[[25.3969,70.27322],[25.39964,70.2729],[25.40558,70.27415],[25.4072,70.27209],[25.40539,70.27063],[25.3979,70.27019],[25.39583,70.26967],[25.39715,70.26896],[25.39622,70.26819],[25.3945,70.26852]],[[25.3979,70.27518],[25.39859,70.27414],[25.39712,70.27365]],[[25.15037,70.29225],[25.15099,70.2921]],[[25.11546,70.29156],[25.11391,70.28967],[25.11103,70.28866],[25.10698,70.28947],[25.10491,70.28932],[25.10529,70.28828],[25.10796,70.2871]],[[25.12575,70.29097],[25.12778,70.28908],[25.12373,70.28609],[25.12809,70.28616],[25.13164,70.28567],[25.13444,70.28594]],[[25.14116,70.2901],[25.14035,70.28917],[25.137,70.28845],[25.13683,70.28689],[25.13444,70.28594]],[[25.15672,70.28921],[25.15178,70.28861],[25.14928,70.28887],[25.14969,70.28961]],[[25.2763,70.28236],[25.27118,70.28161],[25.26993,70.28008],[25.26551,70.27922]],[[25.34173,70.27858],[25.3366,70.276],[25.33699,70.27525],[25.33515,70.2742],[25.33617,70.27324],[25.33215,70.26881],[25.33347,70.26804],[25.33919,70.26749],[25.33584,70.26559],[25.3265,70.26219],[25.31766,70.26209],[25.31207,70.26093],[25.3069,70.25757],[25.2975,70.25535],[25.29348,70.25395],[25.28678,70.25266],[25.28502,70.25151],[25.27723,70.25068],[25.27178,70.24947],[25.26909,70.24832],[25.26496,70.24756],[25.26342,70.24703],[25.2598,70.24346],[25.24731,70.2431]],[[25.39537,70.27546],[25.39097,70.27504],[25.38828,70.27389],[25.37991,70.27295],[25.37589,70.2707],[25.37396,70.26855],[25.37547,70.2679],[25.3751,70.26568],[25.37718,70.26504],[25.38153,70.26589],[25.38517,70.26613],[25.38889,70.26783],[25.39052,70.26959],[25.39336,70.26947],[25.3945,70.26852]],[[25.39761,70.27533],[25.3979,70.27518]],[[25.48311,70.27032],[25.47719,70.2673],[25.46632,70.26507]],[[25.39537,70.27546],[25.39761,70.27533]],[[25.11546,70.29156],[25.11461,70.29239]],[[25.11461,70.29239],[25.11652,70.29292],[25.12485,70.29164]],[[25.50275,70.28003],[25.48998,70.27635],[25.48872,70.27342],[25.48311,70.27032]],[[25.2763,70.28236],[25.27715,70.2831],[25.27662,70.28388],[25.27207,70.28552],[25.27154,70.28614],[25.27254,70.28761],[25.2756,70.28913],[25.28328,70.29063],[25.29379,70.29376],[25.29976,70.29346],[25.3033,70.29212],[25.30485,70.29232],[25.30602,70.29303],[25.30399,70.29544],[25.30181,70.2962],[25.30364,70.29735],[25.31154,70.29909],[25.31473,70.2977],[25.31286,70.29618],[25.31325,70.29497],[25.30836,70.29315],[25.30915,70.29127],[25.31332,70.29019],[25.31927,70.28953],[25.32173,70.28806],[25.32507,70.28783],[25.3314,70.28822],[25.33514,70.28724],[25.33672,70.28758],[25.33686,70.28854],[25.33957,70.28851],[25.34137,70.2877],[25.34236,70.28519],[25.34012,70.28454],[25.33683,70.28435],[25.3363,70.28365],[25.33821,70.2829],[25.34056,70.28274],[25.3427,70.28156],[25.34332,70.28001],[25.34173,70.27858]],[[25.43673,70.29371],[25.43503,70.29314],[25.42759,70.29315],[25.42334,70.29078],[25.41837,70.29065],[25.41961,70.29256],[25.42339,70.29464],[25.42948,70.29449],[25.43339,70.29388],[25.4369,70.29459],[25.43673,70.29371]],[[25.50275,70.28003],[25.505,70.28101],[25.50707,70.28311],[25.50441,70.28507],[25.50522,70.28603],[25.49951,70.28663],[25.49566,70.28488],[25.49328,70.28518],[25.49148,70.2862],[25.49273,70.28899],[25.49461,70.29025],[25.49494,70.29196]],[[25.44696,70.29408],[25.44774,70.29387],[25.45288,70.29478],[25.45359,70.29459],[25.44844,70.29329],[25.44439,70.29145],[25.444,70.28981],[25.43708,70.2894],[25.43729,70.28785],[25.43515,70.28688],[25.43181,70.28629],[25.42816,70.28634],[25.42594,70.28594],[25.42755,70.28798],[25.43336,70.28873],[25.43513,70.29121],[25.43915,70.29376],[25.44254,70.29512],[25.44568,70.29544],[25.44815,70.29527],[25.44898,70.29481],[25.44668,70.29452],[25.44696,70.29408]],[[25.40958,70.29799],[25.40875,70.29637]],[[25.40875,70.29637],[25.40455,70.29328],[25.39448,70.29265],[25.39045,70.29181],[25.38724,70.29242],[25.37913,70.2916],[25.37533,70.2922],[25.36857,70.29233],[25.36532,70.2939],[25.36747,70.29501],[25.37178,70.29487],[25.37705,70.29587],[25.39204,70.29761],[25.39626,70.29597],[25.39821,70.29463],[25.40053,70.29461],[25.40599,70.2959],[25.40745,70.29651],[25.40675,70.29722],[25.4075,70.2977],[25.40958,70.29799]],[[25.42709,70.30423],[25.42467,70.30431],[25.42416,70.30484],[25.42766,70.30589],[25.42918,70.30584],[25.42943,70.30534],[25.42709,70.30423]],[[25.20853,70.30797],[25.20815,70.30707],[25.20979,70.30618],[25.21224,70.30618],[25.21258,70.30582],[25.20726,70.30477],[25.20566,70.3038],[25.20581,70.30254],[25.20471,70.3019],[25.20386,70.3018],[25.20133,70.30268],[25.19658,70.30127],[25.19077,70.30131],[25.18487,70.30499],[25.18599,70.3059],[25.19052,70.30671],[25.19228,70.30788],[25.19627,70.30788],[25.19608,70.30859],[25.19244,70.30847],[25.19661,70.30996],[25.19287,70.31182],[25.20248,70.31367],[25.20778,70.31421],[25.20756,70.31321],[25.21012,70.31044],[25.20853,70.30797]],[[25.36232,70.30448],[25.35981,70.3044],[25.35647,70.30329],[25.35338,70.30343],[25.35702,70.30543],[25.35964,70.30614],[25.36698,70.30578],[25.36232,70.30448]],[[25.35005,70.3069],[25.3519,70.30566],[25.353,70.30625],[25.3539,70.30605],[25.35144,70.30385],[25.35287,70.30269],[25.34774,70.30174],[25.3477,70.30588],[25.34839,70.30657],[25.35005,70.3069]],[[25.39531,70.30372],[25.39008,70.30299],[25.38364,70.3031],[25.37812,70.30016],[25.37493,70.29997],[25.38001,70.30316],[25.38267,70.30392],[25.39108,70.30382],[25.39944,70.30462],[25.39904,70.30415],[25.39531,70.30372]],[[25.32918,70.30217],[25.32467,70.30219],[25.32385,70.30347],[25.32746,70.30446],[25.33304,70.30463],[25.33708,70.30572],[25.34352,70.30787],[25.34435,70.30961],[25.34978,70.31096],[25.35009,70.31056],[25.34558,70.30869],[25.34338,70.30645],[25.33647,70.30365],[25.32918,70.30217]],[[25.15675,70.33059],[25.15892,70.33005],[25.16267,70.33003],[25.16534,70.32905],[25.1691,70.32879],[25.17503,70.32981],[25.17538,70.32915],[25.17448,70.32881],[25.17046,70.32799],[25.16822,70.32811],[25.1678,70.32688],[25.17926,70.32706],[25.1784,70.32601],[25.18091,70.32558],[25.18098,70.32508],[25.1742,70.3217],[25.17687,70.32112],[25.18184,70.32194],[25.18362,70.32173],[25.18171,70.3206],[25.1802,70.31773],[25.17475,70.31534],[25.17154,70.31474],[25.16937,70.31326],[25.17086,70.30977],[25.17435,70.30873],[25.17544,70.30645],[25.17733,70.30626],[25.17962,70.30725],[25.18083,70.30703],[25.17927,70.30487],[25.1803,70.30417],[25.17623,70.3027],[25.17681,70.30162],[25.17556,70.30074],[25.17271,70.30063],[25.16442,70.29897],[25.16748,70.29742],[25.1738,70.29751],[25.17388,70.29633],[25.17226,70.29548],[25.17388,70.29402],[25.16277,70.29039],[25.15672,70.28921]],[[25.47721,70.31118],[25.46845,70.30769],[25.46576,70.3076],[25.46164,70.31089],[25.45586,70.31153],[25.44769,70.31352],[25.44652,70.31416]],[[25.10187,70.32301],[25.10753,70.32502],[25.11579,70.32663],[25.12813,70.33044],[25.13658,70.33191],[25.1443,70.3326],[25.15206,70.3324],[25.15675,70.33059]],[[25.50492,70.29678],[25.50597,70.29798],[25.50518,70.29903],[25.50772,70.30079],[25.50382,70.30266],[25.5037,70.3035],[25.50718,70.30385],[25.51006,70.30483],[25.51562,70.30433],[25.51706,70.3045],[25.51775,70.30543],[25.51579,70.30622],[25.52038,70.30752],[25.52359,70.30981],[25.51998,70.30992],[25.51885,70.31049],[25.52089,70.31156],[25.52512,70.31091]],[[25.51426,70.31332],[25.51038,70.31105],[25.49666,70.31184],[25.48784,70.31126],[25.47721,70.31118]],[[25.28126,70.32748],[25.2764,70.32619],[25.27172,70.32269],[25.27268,70.32177],[25.27506,70.32088],[25.27726,70.32081],[25.28146,70.32154],[25.28467,70.32162],[25.28787,70.32341]],[[25.28727,70.32713],[25.28866,70.32656],[25.28814,70.32394]],[[25.07639,70.33915],[25.07365,70.33386],[25.07625,70.33202],[25.07741,70.32944],[25.06995,70.32537],[25.06247,70.32255],[25.05246,70.31969],[25.05073,70.31787],[25.05145,70.31758],[25.05315,70.31768],[25.06158,70.31942],[25.0625,70.3181],[25.06011,70.316],[25.06104,70.31524],[25.06273,70.31484],[25.06697,70.31538],[25.07263,70.31502],[25.08542,70.31888],[25.09508,70.3207],[25.09681,70.32201],[25.10187,70.32301]],[[25.44652,70.31416],[25.44374,70.3151],[25.43702,70.31639],[25.43151,70.31824],[25.42594,70.31909]],[[25.51687,70.31376],[25.51746,70.31345],[25.52531,70.31293],[25.52534,70.31263],[25.52284,70.31229],[25.5262,70.31144]],[[25.42117,70.32057],[25.42594,70.31909]],[[25.51503,70.31387],[25.51755,70.31467],[25.52262,70.31501],[25.52002,70.31434],[25.52008,70.31376],[25.5179,70.31416],[25.51687,70.31376]],[[25.28126,70.32748],[25.28216,70.32896],[25.28634,70.33044],[25.28903,70.32935],[25.28907,70.3285],[25.28698,70.32763],[25.28727,70.32713]],[[25.11724,70.33973],[25.11447,70.34016],[25.11518,70.34131],[25.11778,70.34203],[25.12331,70.34143],[25.12425,70.34085],[25.12334,70.34035],[25.11724,70.33973]],[[25.12531,70.34378],[25.12276,70.34288],[25.11898,70.34283],[25.1156,70.34397],[25.12247,70.34463],[25.12563,70.34702],[25.1273,70.34653],[25.12661,70.34487],[25.12766,70.3443],[25.12531,70.34378]],[[25.05706,70.35987],[25.0471,70.35776],[25.04251,70.35579],[25.03956,70.3529],[25.04084,70.35253],[25.04394,70.35263],[25.04585,70.35224],[25.04658,70.35007],[25.04873,70.34837]],[[25.11429,70.35927],[25.11533,70.35699],[25.11002,70.35673],[25.10826,70.35626],[25.10642,70.35537],[25.10676,70.35471],[25.10036,70.35282],[25.09759,70.35083],[25.08995,70.34937],[25.08935,70.34831],[25.0921,70.34772],[25.08503,70.34666],[25.08451,70.34604],[25.07923,70.34429]],[[25.04961,70.34829],[25.05318,70.35056],[25.05625,70.35154],[25.06514,70.34929],[25.07841,70.35202],[25.0902,70.35737],[25.0953,70.35847],[25.09707,70.3587],[25.10057,70.35839],[25.10963,70.36028],[25.1116,70.35974],[25.11297,70.35995],[25.11429,70.35927]],[[25.13878,70.3551],[25.13669,70.35269],[25.12913,70.35043],[25.12505,70.34983],[25.12321,70.35019],[25.1203,70.35188],[25.12101,70.35337],[25.11728,70.35438],[25.11603,70.35534],[25.11915,70.35631],[25.12287,70.35621],[25.12608,70.35551],[25.14117,70.35881],[25.14233,70.35869],[25.1417,70.35761],[25.13878,70.3551]],[[25.42117,70.32057],[25.407,70.32268],[25.40427,70.32221],[25.40059,70.32256],[25.39645,70.3216],[25.39335,70.32144],[25.39286,70.32188],[25.39431,70.32196],[25.39448,70.32229],[25.39383,70.32273],[25.39195,70.3229],[25.3917,70.32356],[25.39764,70.32326],[25.39906,70.32464],[25.40527,70.32558],[25.40455,70.3266],[25.40203,70.32714],[25.38543,70.32562],[25.38322,70.32628],[25.38237,70.32716],[25.3936,70.33107],[25.39983,70.3377],[25.40519,70.33821],[25.41306,70.34032],[25.43235,70.3423]],[[25.11022,70.36141],[25.10865,70.36168],[25.10903,70.36254],[25.11293,70.36308],[25.11286,70.36241],[25.11022,70.36141]],[[25.1174,70.36122],[25.11478,70.36116],[25.12028,70.36318],[25.12428,70.36333],[25.12622,70.36254],[25.1174,70.36122]],[[25.43444,70.34636],[25.43744,70.34514],[25.43736,70.34415],[25.43549,70.3427],[25.43235,70.3423]],[[25.09308,70.37145],[25.09417,70.3679],[25.09096,70.36617],[25.07863,70.36198],[25.07716,70.36196],[25.07427,70.36364],[25.06465,70.3621],[25.06513,70.36065],[25.05706,70.35987]],[[25.43444,70.34636],[25.43148,70.34766],[25.43029,70.34938],[25.43089,70.35245],[25.43142,70.3533],[25.43444,70.35437],[25.43654,70.35468],[25.43865,70.35452]],[[25.43987,70.35689],[25.44053,70.35555],[25.43865,70.35452]],[[25.10821,70.38273],[25.10475,70.38116],[25.10386,70.3787],[25.09736,70.37619],[25.09556,70.3734],[25.09308,70.37145]],[[25.43657,70.36389],[25.43355,70.36202],[25.43409,70.35891],[25.43987,70.35689]],[[25.43657,70.36389],[25.43784,70.36612],[25.44092,70.36731],[25.44556,70.36792]],[[25.18945,70.38412],[25.18769,70.38418],[25.1873,70.38509],[25.18939,70.38574],[25.19158,70.38511],[25.18945,70.38412]],[[25.50387,70.3808],[25.50695,70.3797],[25.50143,70.38062],[25.49535,70.38072],[25.49665,70.38146],[25.49843,70.38164],[25.50387,70.3808]],[[25.10821,70.38273],[25.11438,70.38502],[25.11879,70.38734],[25.12552,70.39314],[25.13552,70.39909],[25.13888,70.40185],[25.14665,70.40372]],[[25.14665,70.40372],[25.15292,70.40507],[25.16629,70.40639],[25.17004,70.4077],[25.17875,70.40768],[25.18373,70.40679],[25.18423,70.4064],[25.1809,70.4045],[25.18039,70.40253],[25.18568,70.40264],[25.18831,70.40218],[25.18888,70.40144],[25.18728,70.40063],[25.18201,70.40028],[25.17914,70.39921],[25.17536,70.39674],[25.17655,70.39358],[25.1735,70.39233],[25.1714,70.39066],[25.17567,70.38988],[25.18688,70.39056]],[[25.32586,70.39801],[25.32394,70.39993],[25.3214,70.40058],[25.32119,70.40114],[25.32448,70.40183],[25.32183,70.40261],[25.32065,70.40394],[25.32991,70.40592]],[[25.19885,70.41429],[25.20537,70.41342],[25.21509,70.41331],[25.22013,70.41247],[25.22476,70.41233],[25.22822,70.41138],[25.22953,70.40915],[25.23191,70.40871],[25.23429,70.409],[25.23726,70.41054],[25.24413,70.41088],[25.2463,70.40932],[25.24638,70.40665],[25.24421,70.40362],[25.24127,70.4013],[25.24245,70.39575],[25.24023,70.39212],[25.23689,70.39211],[25.23345,70.39155],[25.2312,70.39011],[25.22745,70.39029],[25.22312,70.38829],[25.22348,70.38787],[25.22577,70.38781],[25.22372,70.38697],[25.21606,70.38811],[25.21354,70.38796],[25.20868,70.38851],[25.20804,70.38994],[25.20574,70.39133],[25.20617,70.39319],[25.20334,70.3945],[25.20109,70.39454],[25.19904,70.39405],[25.19794,70.39295],[25.19123,70.39257],[25.18688,70.39056]],[[25.32991,70.40592],[25.33146,70.40628],[25.33253,70.40726],[25.3374,70.40714],[25.33838,70.40482],[25.3359,70.40375],[25.33662,70.40326],[25.33873,70.40317],[25.33685,70.40083],[25.33243,70.39786],[25.32991,70.39704],[25.32859,70.3978],[25.32586,70.39801]],[[25.21629,70.41445],[25.21541,70.41455],[25.21468,70.41691],[25.21612,70.41782],[25.21789,70.41703],[25.21817,70.41569],[25.21629,70.41445]],[[25.44556,70.36792],[25.44901,70.36801],[25.45563,70.36425],[25.46015,70.36283],[25.46402,70.3633],[25.46477,70.36445],[25.46765,70.36545],[25.46601,70.3672],[25.46734,70.36779],[25.46658,70.36899],[25.46423,70.36994],[25.46852,70.37173],[25.46906,70.37246],[25.46815,70.37346],[25.47178,70.37463],[25.4733,70.37611],[25.48055,70.37844],[25.48389,70.38015],[25.48991,70.38072],[25.49113,70.3805],[25.49151,70.3793],[25.49524,70.37976],[25.49296,70.38155],[25.49577,70.38341],[25.49605,70.38592],[25.49385,70.38865],[25.49467,70.39042],[25.49154,70.39447],[25.49213,70.39563],[25.49652,70.39774],[25.49749,70.39897],[25.50182,70.40044],[25.50558,70.40061],[25.5083,70.40124],[25.51407,70.39984],[25.51446,70.39874],[25.51795,70.39816],[25.5171,70.39354],[25.51789,70.39156],[25.51899,70.39088],[25.52674,70.39026],[25.52676,70.38883],[25.52811,70.38783]],[[25.16256,70.42197],[25.16452,70.4202],[25.1697,70.41773],[25.18244,70.41377],[25.18817,70.41297],[25.19172,70.41421],[25.19885,70.41429]],[[25.16786,70.42475],[25.16256,70.42197]],[[25.20454,70.43826],[25.20896,70.44003]],[[25.20896,70.44003],[25.21248,70.44123]],[[25.22388,70.45219],[25.21888,70.44771]],[[25.07131,70.47557],[25.07443,70.47373]],[[25.23817,70.46615],[25.23854,70.46618]],[[25.22575,70.46737],[25.22642,70.46705]],[[25.18968,70.4787],[25.19321,70.47891]],[[25.12963,70.51768],[25.11443,70.5158]],[[25.1996,70.55913],[25.19351,70.55799],[25.18808,70.55642]],[[25.33822,70.62638],[25.33865,70.62635]],[[25.16786,70.42475],[25.17324,70.42698],[25.1805,70.42917]],[[25.24419,70.42201],[25.24021,70.42208],[25.24465,70.4241],[25.246,70.42896],[25.25163,70.42899],[25.25425,70.42811],[25.25038,70.42352],[25.2464,70.42315],[25.24533,70.42218],[25.24419,70.42201]],[[25.20454,70.43826],[25.20102,70.43574],[25.19325,70.43229],[25.19,70.43139],[25.18461,70.43065],[25.1805,70.42917]],[[25.21888,70.44771],[25.21751,70.4465],[25.21674,70.44268],[25.21401,70.44142],[25.21248,70.44123]],[[25.22642,70.46705],[25.23339,70.46642]],[[25.22692,70.4578],[25.23111,70.45896],[25.23292,70.45742],[25.2265,70.4546],[25.22388,70.45219]],[[25.22938,70.46211],[25.2273,70.46099],[25.22692,70.4578]],[[25.07649,70.47282],[25.08255,70.47062],[25.09225,70.47168]],[[25.22938,70.46211],[25.23306,70.46293],[25.23722,70.46323],[25.23854,70.46312],[25.24007,70.46211]],[[25.11166,70.47331],[25.10251,70.47343],[25.09697,70.4721],[25.09225,70.47168]],[[25.23817,70.46615],[25.23339,70.46642]],[[25.25973,70.46492],[25.25792,70.46476],[25.25577,70.46377],[25.25782,70.46236],[25.25646,70.46185],[25.25328,70.46253],[25.25037,70.46229],[25.24844,70.46096],[25.24617,70.4607],[25.24298,70.46097],[25.24007,70.46211]],[[25.11166,70.47331],[25.1168,70.47377],[25.12124,70.47371],[25.12883,70.47456],[25.15353,70.47521],[25.15989,70.4762],[25.16404,70.47634]],[[25.23854,70.46618],[25.23982,70.4666],[25.23851,70.46701],[25.23932,70.46727],[25.24444,70.46642],[25.24761,70.46669],[25.25042,70.46756],[25.25523,70.46762],[25.25859,70.47005],[25.25733,70.47058],[25.25776,70.47119],[25.25964,70.47158],[25.26131,70.47055],[25.26369,70.47051],[25.26424,70.47016],[25.26371,70.46941],[25.26224,70.46905],[25.26575,70.46841],[25.27309,70.46783],[25.27388,70.46725],[25.27778,70.46625],[25.27539,70.46602],[25.27375,70.46648],[25.26732,70.46658],[25.2646,70.46719],[25.25985,70.46701],[25.25952,70.46656],[25.26187,70.46607],[25.25973,70.46492]],[[25.22766,70.47623],[25.22656,70.47325],[25.22474,70.47282],[25.22348,70.47159],[25.22575,70.46737]],[[25.16404,70.47634],[25.18968,70.4787]],[[25.07131,70.47557],[25.06873,70.4797],[25.07956,70.48248],[25.07993,70.48423],[25.07537,70.48563],[25.07194,70.48554],[25.06983,70.487],[25.061,70.48793],[25.05786,70.48727],[25.05678,70.48951]],[[25.19321,70.47891],[25.20806,70.47989],[25.21636,70.4796],[25.2242,70.48015],[25.22715,70.47792],[25.22766,70.47623]],[[25.13807,70.49273],[25.132,70.49336]],[[25.132,70.49336],[25.10397,70.49502]],[[25.10397,70.49502],[25.09857,70.49567]],[[25.05678,70.48951],[25.05804,70.49072],[25.06237,70.49128],[25.0644,70.49204],[25.07023,70.49118],[25.07182,70.49128],[25.07476,70.4924],[25.07839,70.49238],[25.07805,70.49296],[25.07512,70.49292],[25.07303,70.49329],[25.07292,70.49381],[25.07441,70.49374],[25.07487,70.49405],[25.07184,70.49483],[25.07324,70.49584],[25.07741,70.49604],[25.07441,70.49675],[25.07442,70.49861],[25.08076,70.49925]],[[25.08076,70.49925],[25.08297,70.499],[25.08436,70.49817],[25.08877,70.49781],[25.09857,70.49567]],[[25.29244,70.49153],[25.29476,70.48943],[25.29334,70.48832],[25.29253,70.48782],[25.28448,70.48618],[25.28078,70.48413],[25.28131,70.48134],[25.28,70.47993],[25.28145,70.47788],[25.27969,70.47692],[25.27657,70.47639],[25.27377,70.47655],[25.26477,70.47541],[25.26759,70.47788],[25.2646,70.48103],[25.27121,70.48395],[25.27267,70.48729],[25.28311,70.49129],[25.2865,70.49176],[25.29244,70.49153]],[[25.22167,70.50227],[25.2154,70.49925],[25.2113,70.49801],[25.19527,70.49589],[25.19087,70.49459],[25.18164,70.49333],[25.16425,70.49213],[25.14875,70.49223],[25.13807,70.49273]],[[25.22413,70.50414],[25.22167,70.50227]],[[25.32729,70.49185],[25.32552,70.49153],[25.31771,70.49228],[25.3198,70.49498],[25.31828,70.49712],[25.32174,70.49903],[25.32962,70.49952],[25.33156,70.49939],[25.33325,70.49853],[25.33887,70.49782],[25.34009,70.49609],[25.33897,70.49444],[25.33507,70.49247],[25.33188,70.4919],[25.32729,70.49185]],[[25.07114,70.51468],[25.0681,70.51201],[25.06369,70.50988],[25.06262,70.50834],[25.06259,70.50743],[25.06386,70.50698],[25.06302,70.50603],[25.0621,70.50554],[25.0582,70.50541],[25.05623,70.50482],[25.05612,70.50331]],[[25.0579,70.50206],[25.06394,70.50133],[25.07106,70.50254],[25.07364,70.50513],[25.07396,70.50768],[25.07898,70.50974],[25.08626,70.51168],[25.08366,70.51277],[25.08256,70.51416],[25.07692,70.51484],[25.07738,70.51599],[25.07933,70.516],[25.08629,70.51471],[25.09958,70.51443],[25.10454,70.5151],[25.10788,70.51608],[25.11164,70.51566],[25.11443,70.5158]],[[25.07822,70.52056],[25.07785,70.51723],[25.07629,70.51613],[25.07283,70.51558],[25.07114,70.51468]],[[25.23472,70.51174],[25.22413,70.50414]],[[25.23746,70.51429],[25.23472,70.51174]],[[25.23974,70.5183],[25.23956,70.51628],[25.23746,70.51429]],[[25.12963,70.51768],[25.14665,70.51935],[25.15808,70.52114],[25.17651,70.52323],[25.1837,70.52451],[25.19167,70.52456]],[[25.19167,70.52456],[25.1977,70.52507]],[[25.1977,70.52507],[25.21644,70.52863],[25.22285,70.52805],[25.22556,70.5273],[25.22639,70.52532],[25.23011,70.52366],[25.23335,70.52268],[25.23894,70.52215],[25.24116,70.52134],[25.24153,70.52027],[25.23974,70.5183]],[[25.07822,70.52056],[25.07863,70.52141],[25.08268,70.52358],[25.08839,70.52587],[25.09184,70.5257],[25.09424,70.52422],[25.09983,70.52376],[25.10121,70.52317],[25.10621,70.52313],[25.10869,70.52365],[25.1081,70.52459],[25.10608,70.5254],[25.09603,70.52583],[25.09281,70.5292],[25.09583,70.531],[25.10176,70.53305],[25.10709,70.53333],[25.10937,70.53445],[25.11275,70.53499],[25.12442,70.5356]],[[25.18808,70.55642],[25.18048,70.55364],[25.17845,70.55215],[25.17212,70.54973],[25.15463,70.54416],[25.14681,70.54236],[25.14487,70.54088],[25.14109,70.53965],[25.13967,70.53866],[25.1399,70.5378],[25.1385,70.53723],[25.13426,70.5366],[25.12737,70.53621],[25.12442,70.5356]],[[25.23056,70.56497],[25.22155,70.56271],[25.215,70.56223],[25.1996,70.55913]],[[25.23056,70.56497],[25.2365,70.56722],[25.23947,70.57017],[25.24192,70.57121],[25.24357,70.57269],[25.2401,70.57411],[25.23896,70.57562],[25.24086,70.57716],[25.246,70.57821],[25.24541,70.57924],[25.2484,70.58091],[25.24935,70.58583],[25.25212,70.58661],[25.2451,70.58831],[25.24532,70.58916],[25.25594,70.59123],[25.27109,70.59077],[25.28101,70.59285],[25.29145,70.5958]],[[25.3022,70.59871],[25.29145,70.5958]],[[25.33865,70.62635],[25.35606,70.62859],[25.36251,70.62861],[25.35359,70.62331],[25.34249,70.61898],[25.32917,70.61106],[25.3022,70.59871]],[[25.37314,70.64006],[25.37818,70.63886],[25.37331,70.63658],[25.35823,70.63449],[25.33519,70.62885],[25.33529,70.62784],[25.33822,70.62638]],[[25.37314,70.64006],[25.36878,70.64056],[25.36585,70.64287],[25.36252,70.64349],[25.36151,70.64441],[25.36292,70.64583],[25.36629,70.64703],[25.38037,70.64636],[25.38471,70.64724],[25.38995,70.6496],[25.39958,70.65217],[25.40157,70.65526]],[[25.40502,70.65713],[25.40157,70.65526]],[[25.40502,70.65713],[25.40803,70.66092],[25.4001,70.66499],[25.39534,70.66644],[25.39031,70.66702],[25.39108,70.66906],[25.39554,70.67113],[25.39924,70.6717],[25.40786,70.66984],[25.41225,70.66958],[25.41885,70.67059],[25.42363,70.67087],[25.43317,70.67012],[25.44237,70.67061],[25.46213,70.67374],[25.47057,70.67689]],[[25.47909,70.67939],[25.47516,70.6786],[25.47057,70.67689]],[[25.5818,70.71886],[25.57657,70.71756],[25.56542,70.71239],[25.55894,70.70857],[25.54975,70.70555],[25.54485,70.70491],[25.53673,70.70618],[25.52839,70.70624],[25.52409,70.70597],[25.52138,70.70507],[25.51737,70.702],[25.5147,70.69438],[25.51325,70.69399],[25.50899,70.6946],[25.50347,70.69463],[25.49896,70.69297],[25.49239,70.68858],[25.49075,70.68673],[25.49037,70.68403],[25.48818,70.68225],[25.47909,70.67939]],[[25.66488,70.48407],[25.66387,70.48216]],[[25.92604,70.58912],[25.92412,70.58798],[25.92349,70.58507],[25.91749,70.58287],[25.91925,70.58228],[25.91864,70.58103],[25.90304,70.57642],[25.90086,70.57629],[25.90008,70.5768],[25.89688,70.57622],[25.89629,70.57583],[25.89799,70.57534],[25.89759,70.57453],[25.89237,70.57249],[25.88316,70.57117],[25.88021,70.57139],[25.87695,70.5731],[25.87095,70.57299],[25.86313,70.57213],[25.8539,70.56856],[25.8511,70.56655]],[[25.9753,70.60451],[25.98114,70.60716]],[[25.98568,70.60997],[25.98114,70.60716]],[[25.98406,70.61246],[25.98639,70.61202],[25.98642,70.61111]],[[25.99847,70.64859],[25.99447,70.64696],[25.99028,70.64405],[25.98013,70.63554],[25.97515,70.63227],[25.97256,70.62876],[25.97227,70.62452],[25.97432,70.62069],[25.98207,70.61285],[25.98406,70.61246]],[[25.99847,70.64859],[26.00077,70.65009]],[[25.86426,70.67751],[25.86069,70.67607]],[[25.84296,70.8136],[25.84444,70.81338],[25.84219,70.81219]],[[25.87437,70.87052],[25.87976,70.8718],[25.89941,70.87468],[25.9105,70.87609],[25.91206,70.8759],[25.90822,70.87393],[25.90741,70.86971],[25.90482,70.86592],[25.89089,70.8589],[25.88411,70.85627],[25.8774,70.85441],[25.87078,70.85104],[25.86218,70.84847]],[[25.88998,70.89868],[25.89344,70.89891],[25.89412,70.89865],[25.89249,70.89761],[25.88887,70.89668]],[[25.99224,70.97299],[25.98991,70.97166],[25.98795,70.97222],[25.98452,70.97432],[25.98143,70.97496],[25.97833,70.97494],[25.97678,70.97425],[25.97563,70.97424],[25.97512,70.97486],[25.97647,70.97598],[25.97421,70.97697],[25.96873,70.97721],[25.96521,70.97635],[25.96252,70.9764],[25.96184,70.97708],[25.96603,70.97892],[25.97117,70.98001],[25.97399,70.97912],[25.9764,70.97977],[25.97604,70.98067],[25.97295,70.98153],[25.97078,70.98153],[25.96962,70.98089],[25.96799,70.98104],[25.96734,70.98227]],[[25.97021,70.99272],[25.96539,70.99179],[25.962,70.9903],[25.96521,70.98975],[25.96544,70.98878],[25.96658,70.98851],[25.96647,70.98508],[25.96334,70.98377],[25.96734,70.98227]],[[25.99224,70.97299],[25.99875,70.97388],[26.00326,70.97413]],[[25.96988,70.99541],[25.97147,70.99492],[25.97219,70.9936],[25.97021,70.99272]],[[25.74935,70.75448],[25.74569,70.75019],[25.74296,70.74885],[25.74031,70.75006],[25.73929,70.75145],[25.7427,70.75487]],[[25.7427,70.75487],[25.74665,70.7559],[25.74894,70.75559],[25.74935,70.75448]],[[25.83203,70.84051],[25.82645,70.84003],[25.82526,70.84051],[25.826,70.84087]],[[25.83208,70.84051],[25.83401,70.83999]],[[25.83203,70.84051],[25.83208,70.84051]],[[25.826,70.84087],[25.83601,70.84363]],[[25.86556,70.88399],[25.86302,70.88277],[25.86274,70.88045],[25.85476,70.87761]],[[25.70332,70.89356],[25.69219,70.893],[25.68833,70.89216],[25.68602,70.89218],[25.68539,70.89159]],[[25.7596,70.98119],[25.75804,70.98128]],[[25.91614,70.97194],[25.91249,70.96618],[25.90427,70.96675]],[[25.84219,70.81219],[25.84034,70.81178],[25.83146,70.81185],[25.82809,70.81277],[25.82383,70.81175],[25.81902,70.81271]],[[25.84916,70.86748],[25.85168,70.86725],[25.85843,70.86766],[25.8644,70.86839],[25.86733,70.86937],[25.87437,70.87052]],[[25.94232,70.99249],[25.94579,70.99354],[25.95106,70.99313],[25.95262,70.99236],[25.95743,70.99318],[25.95878,70.99374],[25.95795,70.99519],[25.96154,70.99653],[25.96988,70.99541]],[[25.81983,70.81419],[25.82865,70.81527],[25.83171,70.81509],[25.83763,70.81386],[25.84296,70.8136]],[[25.93651,70.98212],[25.93665,70.98237]],[[25.91614,70.97194],[25.91282,70.97587],[25.91441,70.97741],[25.92308,70.97997],[25.92841,70.98096],[25.93551,70.9816],[25.93651,70.98212]],[[25.66387,70.48216],[25.65635,70.47411],[25.65484,70.47138],[25.64661,70.46662],[25.64334,70.46308],[25.63867,70.461],[25.63308,70.45937],[25.62836,70.45862]],[[25.81418,70.76113],[25.82131,70.76201],[25.8284,70.76363],[25.83346,70.76412],[25.83725,70.76534],[25.84382,70.76647],[25.84677,70.76612],[25.84819,70.76442]],[[25.84819,70.76442],[25.85514,70.76365],[25.85822,70.76267],[25.85873,70.76189],[25.85558,70.76027],[25.84754,70.75791],[25.84219,70.75783],[25.82713,70.75402],[25.8252,70.75393],[25.82011,70.75412],[25.81597,70.75544],[25.81582,70.75649],[25.81382,70.75685],[25.81171,70.75661]],[[25.86431,70.89488],[25.8686,70.89504],[25.87835,70.89741],[25.88998,70.89868]],[[25.66228,70.48691],[25.66488,70.48407]],[[25.93665,70.98237],[25.9351,70.98504],[25.93702,70.98761],[25.93498,70.98809],[25.93054,70.9877],[25.92756,70.98826],[25.92581,70.98917],[25.93006,70.99052],[25.93373,70.99269],[25.94232,70.99249]],[[25.88887,70.89668],[25.87789,70.89327],[25.87952,70.8909],[25.88141,70.89053],[25.88141,70.88985],[25.86556,70.88399]],[[25.86218,70.84847],[25.85082,70.84595],[25.84122,70.84478],[25.83601,70.84363]],[[25.77138,70.52586],[25.7684,70.52292],[25.76633,70.52214],[25.75982,70.52152],[25.75883,70.52176],[25.75872,70.52273],[25.75666,70.52296],[25.75378,70.52191],[25.74793,70.51733],[25.74801,70.51459],[25.74412,70.51302],[25.73959,70.5125],[25.73546,70.50959],[25.73066,70.50925],[25.72877,70.50969],[25.72916,70.51033],[25.72743,70.5104],[25.72739,70.50808],[25.72292,70.50735],[25.71575,70.5047],[25.71099,70.50462],[25.71051,70.50529],[25.70744,70.50483],[25.70185,70.50277],[25.69359,70.50098],[25.67707,70.49574],[25.67361,70.49525],[25.66958,70.49291]],[[25.77138,70.52586],[25.77398,70.52882],[25.77309,70.5295],[25.77446,70.52956],[25.77539,70.52865],[25.77724,70.52872],[25.78303,70.53058],[25.78394,70.53139],[25.78345,70.53262],[25.78812,70.53735],[25.79166,70.53738],[25.7985,70.53939],[25.80232,70.54111],[25.80601,70.54421],[25.81134,70.5464]],[[25.8511,70.56655],[25.83945,70.56204],[25.82997,70.55764],[25.82534,70.55419],[25.81134,70.5464]],[[25.9753,70.60451],[25.9703,70.60301],[25.96272,70.60214],[25.9597,70.6026],[25.95968,70.60338],[25.95828,70.60386],[25.95752,70.60333],[25.9597,70.60131],[25.9572,70.5997],[25.94328,70.5957],[25.94092,70.59569],[25.94049,70.59476],[25.93509,70.59271],[25.93111,70.59199],[25.92925,70.59122]],[[25.86069,70.67607],[25.84407,70.66975],[25.83769,70.66795],[25.82604,70.66577],[25.82248,70.66546],[25.82018,70.66595],[25.81665,70.66598],[25.8055,70.66417],[25.79916,70.66557],[25.79317,70.66571],[25.79105,70.66869],[25.78789,70.66936],[25.78333,70.66897],[25.78178,70.6704],[25.77991,70.67103],[25.77758,70.67503],[25.77747,70.67809],[25.7749,70.67956],[25.77422,70.68137],[25.77446,70.68241],[25.77819,70.68457],[25.77848,70.68632],[25.77667,70.68825],[25.7783,70.69211],[25.78329,70.69539],[25.7898,70.69767],[25.8034,70.70106],[25.80547,70.70121],[25.80779,70.7005],[25.81345,70.70135],[25.82217,70.70469]],[[25.86081,70.70238],[25.85964,70.70049],[25.86083,70.7004],[25.86358,70.70112],[25.86747,70.70047],[25.8652,70.69727],[25.86963,70.69798],[25.87081,70.69769],[25.87187,70.69629],[25.87617,70.69596],[25.87949,70.69652],[25.88279,70.69326],[25.88332,70.6916],[25.88028,70.68738],[25.87639,70.68417],[25.87284,70.68174],[25.86426,70.67751]],[[25.82217,70.70469],[25.82719,70.70685],[25.83443,70.70898],[25.84084,70.71],[25.84592,70.71019],[25.85259,70.71173],[25.85645,70.7115],[25.86151,70.713],[25.86377,70.71305],[25.86849,70.71234],[25.86981,70.70998],[25.86716,70.70681],[25.86081,70.70238]],[[25.52811,70.38783],[25.53028,70.38729],[25.53523,70.38743],[25.53977,70.38834]],[[25.54043,70.39053],[25.54219,70.39016],[25.53977,70.38834]],[[25.54043,70.39053],[25.53873,70.39066],[25.53835,70.39127],[25.5394,70.39252],[25.54202,70.39363],[25.55132,70.39503]],[[25.55374,70.39673],[25.5554,70.39597],[25.55132,70.39503]],[[25.55064,70.40263],[25.54767,70.39974],[25.54742,70.39795],[25.55374,70.39673]],[[25.55064,70.40263],[25.5518,70.40384],[25.55099,70.40412],[25.54764,70.40449],[25.5451,70.40423],[25.54166,70.40515],[25.53828,70.40468],[25.53396,70.40579],[25.54464,70.41204],[25.54793,70.41202],[25.54859,70.4106]],[[25.54859,70.4106],[25.55248,70.41051],[25.55339,70.41161],[25.55574,70.41153],[25.56059,70.41221]],[[25.61499,70.44427],[25.61385,70.44135],[25.61726,70.44073],[25.61537,70.4391],[25.61446,70.4388],[25.61238,70.43901],[25.61147,70.43799],[25.6124,70.43736],[25.60873,70.43632],[25.60639,70.43618],[25.6054,70.43722],[25.60342,70.43717],[25.60055,70.43512],[25.59285,70.4328],[25.59167,70.43133],[25.58588,70.4276],[25.57961,70.42594],[25.57994,70.42453],[25.57861,70.4237],[25.57659,70.41734],[25.56978,70.4143],[25.56059,70.41221]],[[25.61499,70.44427],[25.61507,70.44575],[25.61244,70.44714],[25.61048,70.452],[25.61202,70.45456],[25.61371,70.45531],[25.61445,70.4568],[25.61582,70.45668],[25.6163,70.45615],[25.62095,70.4565],[25.62513,70.45741],[25.62545,70.45825],[25.62836,70.45862]],[[25.66958,70.49291],[25.6628,70.48868],[25.66228,70.48691]],[[25.5818,70.71886],[25.58506,70.71965],[25.59449,70.72346],[25.59956,70.7243],[25.60197,70.72517],[25.62122,70.73335],[25.62597,70.73636],[25.63004,70.73807],[25.63878,70.74087],[25.64213,70.74103]],[[25.59299,70.75022],[25.5989,70.74921],[25.60203,70.74926],[25.6054,70.75121],[25.6077,70.75123],[25.61354,70.75288],[25.6147,70.75285],[25.61476,70.75127],[25.61195,70.74742],[25.60782,70.74359],[25.60969,70.74195],[25.61279,70.74151],[25.61635,70.74203],[25.61994,70.74169],[25.62201,70.7419],[25.62984,70.74362],[25.64705,70.7502]],[[25.60802,70.76278],[25.60356,70.76203],[25.60186,70.76119],[25.60185,70.76043],[25.60485,70.75897],[25.60691,70.75692],[25.60293,70.75543],[25.59777,70.75437],[25.59335,70.75092]],[[25.68295,70.75839],[25.67772,70.75575],[25.67781,70.75363],[25.67483,70.75197],[25.67479,70.7506],[25.67112,70.747],[25.67124,70.74469],[25.6676,70.74196],[25.66628,70.74246],[25.66734,70.74502],[25.66541,70.74559],[25.66693,70.74969],[25.66444,70.7506],[25.66378,70.75325],[25.66136,70.75386],[25.6536,70.75305],[25.64705,70.7502]],[[25.69328,70.75778],[25.69403,70.75628],[25.69201,70.75406],[25.6857,70.7504],[25.68673,70.74937],[25.68588,70.74637],[25.68637,70.74584],[25.68946,70.74506],[25.69085,70.74335],[25.69119,70.73894],[25.69022,70.73648],[25.68812,70.73412],[25.68427,70.73152],[25.67554,70.72761],[25.67186,70.72695],[25.66936,70.72545],[25.66719,70.72513],[25.6647,70.72553],[25.6611,70.72639],[25.66035,70.72711],[25.65916,70.73267],[25.66069,70.73801],[25.66013,70.73912],[25.65615,70.74042],[25.65544,70.74132],[25.65381,70.74159],[25.65021,70.74193],[25.64585,70.74079],[25.64213,70.74103]],[[25.68295,70.75839],[25.68574,70.75923],[25.69403,70.76027],[25.69479,70.75943],[25.69328,70.75778]],[[25.81171,70.75661],[25.80832,70.7568],[25.80735,70.75826],[25.81062,70.76024],[25.81418,70.76113]],[[25.60802,70.76278],[25.61659,70.76586],[25.61721,70.7667],[25.61442,70.76825],[25.614,70.76994],[25.61705,70.77213],[25.61778,70.77405],[25.61985,70.77513],[25.63081,70.7762],[25.63717,70.77782],[25.6417,70.77834],[25.64636,70.77941],[25.65743,70.78004],[25.66273,70.77929]],[[25.76132,70.79923],[25.76234,70.79821],[25.76198,70.79625],[25.75751,70.7911],[25.7493,70.78788],[25.74415,70.78733],[25.73977,70.78551],[25.73745,70.78544],[25.73423,70.7878],[25.73097,70.78895],[25.72879,70.789],[25.72242,70.78404],[25.71493,70.7823],[25.71197,70.78292],[25.71105,70.78599],[25.7099,70.78622],[25.70426,70.78581],[25.70267,70.78609],[25.70103,70.78712],[25.69871,70.78722],[25.6951,70.78598],[25.68885,70.78473],[25.67699,70.7815],[25.66273,70.77929]],[[25.76132,70.79923],[25.76167,70.80236],[25.75872,70.80558]],[[25.7574,70.81082],[25.75872,70.80558]],[[25.81902,70.81271],[25.81585,70.81331],[25.80903,70.81271],[25.8065,70.81301],[25.80126,70.81283],[25.80093,70.8148],[25.7993,70.8155],[25.79923,70.81634],[25.80346,70.81856],[25.80907,70.82018],[25.81063,70.82014],[25.81307,70.81385],[25.81983,70.81419]],[[25.7574,70.81082],[25.75862,70.81228],[25.7639,70.81322],[25.76717,70.81555],[25.77138,70.81708],[25.77748,70.822],[25.77767,70.82244],[25.77336,70.82317],[25.77127,70.82439],[25.77671,70.82759],[25.78504,70.82943],[25.79264,70.82884],[25.7972,70.82887],[25.80082,70.8294],[25.80519,70.82836],[25.80631,70.8285],[25.80764,70.82909],[25.80639,70.83026],[25.80965,70.83055],[25.81158,70.83162],[25.80785,70.83195],[25.80782,70.83262],[25.8098,70.83277],[25.81018,70.83361],[25.80964,70.83431],[25.80657,70.83525],[25.80721,70.836],[25.81034,70.83695],[25.81283,70.83685],[25.81925,70.83527],[25.82599,70.83604],[25.83179,70.83595]],[[25.83401,70.83999],[25.83521,70.83924],[25.83479,70.83685],[25.83179,70.83595]],[[25.84916,70.86748],[25.84366,70.86821],[25.83999,70.86774],[25.83323,70.86857],[25.83061,70.86831]],[[25.82893,70.8686],[25.82684,70.86967],[25.82537,70.87171],[25.8275,70.87307],[25.83109,70.874],[25.8392,70.87516],[25.84545,70.87469],[25.84853,70.8751],[25.85476,70.87761]],[[25.72606,70.86377],[25.7253,70.86563],[25.73127,70.86906],[25.73171,70.87258],[25.73413,70.87415],[25.73502,70.87645],[25.73326,70.87768],[25.72869,70.87894],[25.72421,70.88125],[25.72514,70.88413],[25.72056,70.88585]],[[25.68528,70.88964],[25.68693,70.88946],[25.69191,70.88991],[25.6957,70.88889],[25.70799,70.88789],[25.72056,70.88585]],[[25.59115,70.90009],[25.59079,70.89914],[25.58857,70.89829]],[[25.76292,70.89006],[25.76089,70.8897],[25.75524,70.8897],[25.75193,70.88905],[25.75008,70.88817],[25.74911,70.88467],[25.75058,70.87995],[25.75332,70.8762],[25.75212,70.8745],[25.7485,70.87268],[25.74981,70.87002],[25.75175,70.86867],[25.7474,70.86682],[25.74335,70.86599],[25.73693,70.86259],[25.73049,70.86231],[25.72761,70.86273]],[[25.59115,70.90009],[25.59057,70.90149],[25.59697,70.9026],[25.59743,70.90394],[25.59885,70.90462],[25.60819,70.90613],[25.61452,70.9083],[25.62344,70.90745],[25.63754,70.90691],[25.64267,70.906],[25.64598,70.90602],[25.66966,70.90875],[25.68139,70.90864],[25.68638,70.90994],[25.68819,70.91003],[25.69434,70.90953],[25.69886,70.9083],[25.7066,70.9072],[25.70966,70.9063],[25.7094,70.90327],[25.71143,70.90195],[25.71075,70.89844],[25.71199,70.89539],[25.70743,70.89407],[25.70332,70.89356]],[[25.76292,70.89006],[25.76575,70.89222],[25.76951,70.89341],[25.77344,70.89354],[25.78117,70.89512],[25.7842,70.89619],[25.78937,70.89684],[25.79822,70.89888],[25.82654,70.90179],[25.83041,70.90165],[25.83359,70.90106],[25.84298,70.90119],[25.84659,70.90157],[25.85537,70.9037],[25.85883,70.90335],[25.86598,70.90366],[25.86805,70.90333],[25.86538,70.90176],[25.85117,70.89742],[25.85333,70.89573],[25.85737,70.89596],[25.85852,70.8953],[25.86431,70.89488]],[[25.62049,70.94383],[25.62165,70.94227],[25.62023,70.94001],[25.60971,70.93739]],[[25.6148,70.94679],[25.62049,70.94383]],[[25.6148,70.94679],[25.60952,70.94994],[25.61179,70.9509],[25.61421,70.95122],[25.61684,70.95055]],[[25.84805,70.96003],[25.85641,70.95808],[25.86159,70.95792],[25.86458,70.95694],[25.86602,70.95635],[25.8666,70.95465],[25.86918,70.95336],[25.86899,70.95266],[25.86469,70.95245],[25.85747,70.95315],[25.85285,70.95283],[25.83819,70.95301],[25.83377,70.95513],[25.83122,70.9581],[25.82817,70.96013],[25.82889,70.9609],[25.83955,70.9599],[25.84612,70.96043],[25.84805,70.96003]],[[25.82707,70.96873],[25.82268,70.96851],[25.82031,70.96874],[25.81735,70.96944],[25.81573,70.9705],[25.82322,70.96983],[25.82754,70.96907],[25.82707,70.96873]],[[25.72683,70.9831],[25.72641,70.98245],[25.72117,70.98117],[25.71915,70.98018],[25.7224,70.9788],[25.72255,70.97781],[25.71974,70.97736],[25.71417,70.97722],[25.70861,70.97535],[25.7066,70.97283],[25.71127,70.9719],[25.71169,70.97081],[25.70791,70.96865],[25.70538,70.96838],[25.70141,70.967],[25.69974,70.96493],[25.69638,70.96326],[25.69426,70.9614],[25.68996,70.96047],[25.677,70.96162],[25.67431,70.96062],[25.67385,70.95946],[25.67489,70.95862],[25.68191,70.95733],[25.69462,70.95406],[25.69802,70.95487],[25.70001,70.95735],[25.70283,70.95799],[25.70728,70.95756],[25.71018,70.95641],[25.71386,70.95584],[25.71796,70.9562],[25.72396,70.95587],[25.72792,70.9547],[25.72821,70.95416],[25.72485,70.95281],[25.71799,70.9526],[25.71666,70.95122],[25.72054,70.95041],[25.72301,70.94918],[25.72967,70.94785],[25.73299,70.94648],[25.73708,70.94657],[25.73776,70.94602],[25.73551,70.9452],[25.72722,70.94421],[25.71387,70.94366],[25.69479,70.94171],[25.68791,70.94165],[25.66265,70.94572],[25.65314,70.94671],[25.64667,70.94702],[25.64131,70.94616],[25.63754,70.94653],[25.63415,70.9475],[25.62621,70.94848],[25.61684,70.95055]],[[25.76211,70.98104],[25.76537,70.97868],[25.77085,70.97751]],[[25.84583,70.97611],[25.8421,70.97565],[25.83058,70.97531],[25.82231,70.97633],[25.81763,70.97552],[25.81127,70.97511],[25.79699,70.97611],[25.78905,70.9763],[25.7884,70.97539],[25.79372,70.97441],[25.80138,70.97224],[25.80169,70.97178],[25.79861,70.97131],[25.79444,70.97168],[25.79082,70.97299],[25.78509,70.97362],[25.78039,70.97292],[25.77634,70.97304],[25.77552,70.97335],[25.77686,70.97404],[25.77682,70.97514],[25.77085,70.97751]],[[25.85395,70.97563],[25.85386,70.9739],[25.85696,70.97293],[25.86306,70.97258],[25.87889,70.97296],[25.88163,70.97103],[25.88447,70.97005],[25.90427,70.96675]],[[25.7596,70.98119],[25.76211,70.98104]],[[25.84583,70.97611],[25.84656,70.97679],[25.84922,70.97694],[25.85395,70.97563]],[[25.72683,70.9831],[25.72609,70.98439],[25.73548,70.988],[25.73543,70.98981],[25.73896,70.99055],[25.74377,70.99083],[25.746,70.9904],[25.74714,70.98924],[25.74922,70.98846],[25.753,70.9878],[25.75572,70.98673],[25.75726,70.98474],[25.75643,70.98459],[25.7498,70.98598],[25.74572,70.98562],[25.74595,70.98479],[25.75315,70.98307],[25.75494,70.98208],[25.75804,70.98128]],[[25.28739,70.82658],[25.29351,70.8272],[25.3003,70.82585]],[[25.41477,70.85994],[25.4106,70.86004],[25.41021,70.86073],[25.41454,70.86147],[25.41647,70.86088],[25.41477,70.85994]],[[25.22658,70.79877],[25.23218,70.79694],[25.23708,70.79701],[25.23832,70.7974],[25.2402,70.80001],[25.24255,70.80068]],[[25.24031,70.81761],[25.23197,70.81419],[25.23045,70.81297],[25.22915,70.81045],[25.22928,70.80408],[25.22664,70.79911]],[[25.24294,70.80142],[25.23944,70.80721],[25.24018,70.80853],[25.24273,70.80936],[25.24707,70.81197],[25.25049,70.81295],[25.25581,70.81354],[25.25863,70.81284],[25.26176,70.80975],[25.26466,70.80933]],[[25.24191,70.82914],[25.24434,70.82736],[25.24623,70.82484],[25.24611,70.82331],[25.24821,70.82232],[25.24929,70.82046],[25.24843,70.81982],[25.24308,70.81851],[25.24203,70.81764],[25.24097,70.81767]],[[25.28739,70.82658],[25.28607,70.82555],[25.28449,70.82128],[25.27706,70.81494],[25.27008,70.81192],[25.26777,70.8096],[25.26466,70.80933]],[[25.33189,70.82407],[25.33241,70.82259],[25.33434,70.82183],[25.33403,70.82053],[25.33558,70.81873],[25.33276,70.81705],[25.33269,70.81412],[25.33743,70.81214],[25.3384,70.81022],[25.3349,70.80908],[25.33201,70.80987],[25.33163,70.81113],[25.32703,70.81189],[25.32446,70.81275],[25.32192,70.81498],[25.31513,70.8158],[25.31378,70.81979],[25.30727,70.82356],[25.3003,70.82585]],[[25.2765,70.83207],[25.27313,70.83487],[25.27323,70.83714],[25.2794,70.83764]],[[25.2794,70.83764],[25.28851,70.83816],[25.29404,70.83513],[25.29437,70.83398],[25.29247,70.83323],[25.28626,70.83227],[25.28213,70.83085],[25.27994,70.83101],[25.2765,70.83207]],[[25.0227,70.86521],[25.01719,70.8655]],[[25.02146,70.87389],[25.02879,70.87001],[25.0308,70.86815],[25.02896,70.86632],[25.02491,70.86554]],[[24.99911,70.87488],[25.00026,70.87608],[25.0021,70.87643],[25.00815,70.87504],[25.0102,70.87168],[25.01719,70.8655]],[[25.01924,70.88686],[25.01644,70.88413],[25.01552,70.87874],[25.01774,70.87765],[25.02146,70.87389]],[[25.22006,70.87576],[25.22388,70.875],[25.22505,70.87296],[25.23084,70.86941],[25.23296,70.86652],[25.23038,70.86271],[25.23335,70.86046],[25.234,70.85884],[25.2341,70.85642],[25.23235,70.8539],[25.23835,70.85107],[25.23994,70.84795],[25.24022,70.84529],[25.23773,70.84228],[25.23888,70.84083],[25.23659,70.83837],[25.23663,70.83735],[25.24226,70.83224],[25.24097,70.8306],[25.24191,70.82914]],[[25.36228,70.86776],[25.36572,70.86544],[25.36268,70.86381],[25.36408,70.86058],[25.3602,70.85958],[25.35552,70.86031],[25.33432,70.86558],[25.32842,70.86493],[25.3253,70.86498],[25.32381,70.86446],[25.32417,70.86197],[25.32737,70.85964],[25.33147,70.85876],[25.33924,70.85841],[25.34418,70.85729],[25.34876,70.85708],[25.35977,70.85493],[25.36242,70.85345],[25.36192,70.85281],[25.35937,70.85241],[25.359,70.85191],[25.36124,70.85088],[25.36467,70.85053],[25.36536,70.84986],[25.36352,70.84757],[25.35799,70.84534],[25.35623,70.84402],[25.35626,70.84299],[25.3542,70.84259],[25.35131,70.84123],[25.34603,70.83787],[25.34541,70.83668],[25.34717,70.83558],[25.33994,70.83245],[25.34093,70.83004],[25.33568,70.82967],[25.33178,70.8314],[25.32821,70.83155],[25.32928,70.83082],[25.32862,70.82987],[25.33078,70.82824],[25.3274,70.8272],[25.33189,70.82407]],[[25.41205,70.86493],[25.4087,70.86389],[25.41022,70.86235],[25.40976,70.86145],[25.40874,70.86093],[25.4034,70.86002],[25.39918,70.85856],[25.3977,70.85667],[25.39464,70.85505],[25.39942,70.85519],[25.40369,70.85675],[25.40864,70.85714],[25.41326,70.85922],[25.42048,70.86035],[25.42945,70.85991]],[[25.47172,70.86153],[25.46758,70.85844],[25.46742,70.8568],[25.46283,70.85349],[25.46055,70.85045],[25.45839,70.84952],[25.45233,70.84931],[25.45124,70.8485],[25.44502,70.84706],[25.44554,70.84664],[25.44693,70.84684],[25.44849,70.84651],[25.44517,70.84541],[25.43519,70.84659],[25.43443,70.84747],[25.43557,70.84847],[25.43384,70.84963],[25.43612,70.85214],[25.43606,70.85454],[25.44448,70.85852],[25.44487,70.85995],[25.4425,70.86048],[25.43492,70.85946],[25.42945,70.85991]],[[25.49711,70.86007],[25.49769,70.85901],[25.4969,70.85776],[25.49805,70.8572]],[[25.50051,70.85987],[25.50081,70.85957],[25.50275,70.8597],[25.50467,70.85831],[25.50506,70.85776],[25.50315,70.85732]],[[25.01924,70.88686],[25.02031,70.88783],[25.02673,70.89067],[25.02686,70.89153],[25.02919,70.89287],[25.03133,70.89326]],[[25.41205,70.86493],[25.42365,70.86706],[25.42498,70.86811],[25.43273,70.86918],[25.43587,70.87202]],[[25.47172,70.86153],[25.4746,70.86332],[25.48304,70.86679],[25.49175,70.86954],[25.49196,70.87048],[25.49008,70.87268],[25.49232,70.8755],[25.49973,70.88013],[25.50507,70.8812],[25.50689,70.88096],[25.50599,70.87949],[25.50896,70.87842],[25.50901,70.87747],[25.50426,70.87243],[25.50123,70.8715],[25.4959,70.86859],[25.49476,70.86514],[25.49838,70.86252],[25.49711,70.86007]],[[25.17449,70.90215],[25.1767,70.90186],[25.17984,70.90228],[25.18756,70.9017],[25.19556,70.89952],[25.19672,70.89719],[25.20191,70.89514],[25.20211,70.8946],[25.20096,70.89418],[25.20173,70.89308],[25.20372,70.89275],[25.21244,70.88535],[25.21127,70.88384],[25.21244,70.88257],[25.21165,70.88046],[25.21424,70.87898],[25.21977,70.8778],[25.22006,70.87576]],[[25.5617,70.88878],[25.56036,70.88885],[25.56002,70.88953],[25.56081,70.89061],[25.56493,70.89226],[25.56802,70.89237],[25.56954,70.89188],[25.56872,70.89096],[25.5617,70.88878]],[[25.50051,70.85987],[25.50676,70.86054],[25.51757,70.86725],[25.53038,70.8718],[25.544,70.8791],[25.55775,70.88556],[25.5663,70.8887],[25.57747,70.89098],[25.57882,70.89176],[25.57798,70.89305],[25.5809,70.89407],[25.5797,70.89667],[25.58857,70.89829]],[[25.12268,70.92656],[25.13201,70.92242],[25.13598,70.91938],[25.14218,70.91627],[25.15095,70.90972],[25.16021,70.90747],[25.15943,70.90656],[25.1547,70.90458],[25.15402,70.90248],[25.1548,70.90048],[25.16014,70.89962],[25.16339,70.8981],[25.16688,70.89763],[25.16871,70.89832],[25.16762,70.90138],[25.16845,70.90205],[25.17087,70.90255],[25.17449,70.90215]],[[25.27781,70.91793],[25.27057,70.91944],[25.27,70.92051],[25.27058,70.92107],[25.2745,70.92165],[25.27587,70.92263],[25.27548,70.92451],[25.27718,70.925],[25.29542,70.92305],[25.30323,70.92287],[25.30335,70.91842],[25.31307,70.91748],[25.31002,70.91613]],[[25.31002,70.91613],[25.30641,70.91386],[25.29999,70.91289],[25.2908,70.91489],[25.28454,70.91555],[25.2811,70.91737],[25.27781,70.91793]],[[25.03153,70.93157],[25.02743,70.92912],[25.00989,70.92381],[25.00954,70.92236],[25.001,70.92009],[24.99427,70.91747]],[[25.11329,70.92708],[25.11319,70.92424],[25.10515,70.919],[25.1056,70.91793],[25.10188,70.91812],[25.10006,70.91856],[25.09568,70.92176],[25.0938,70.92168],[25.09038,70.92078],[25.08818,70.91847],[25.07467,70.91457],[25.07129,70.91251],[25.063,70.91097],[25.05743,70.90881],[25.05327,70.90895],[25.04837,70.90807],[25.04728,70.90754],[25.04709,70.90354],[25.04536,70.90149],[25.04647,70.89956],[25.03444,70.89494],[25.03349,70.89324],[25.03133,70.89326]],[[25.37067,70.9127],[25.37766,70.9089],[25.38288,70.90683],[25.38418,70.90437],[25.3885,70.90268],[25.39101,70.9007],[25.39204,70.89765],[25.39434,70.89614],[25.39484,70.89479],[25.39371,70.89004],[25.39543,70.88746],[25.39258,70.88411],[25.382,70.88203],[25.38024,70.88122],[25.37944,70.87924],[25.37685,70.87813],[25.3703,70.87655],[25.36661,70.87686],[25.36467,70.87631],[25.36255,70.87713],[25.35995,70.87699],[25.35889,70.87516],[25.36228,70.86776]],[[25.5305,70.90358],[25.52989,70.90174],[25.52739,70.89949],[25.5222,70.89664],[25.51778,70.89641],[25.51395,70.89917],[25.51271,70.89917],[25.51219,70.89876],[25.51346,70.89767],[25.5112,70.89578],[25.49554,70.8906],[25.48546,70.88589],[25.47545,70.88309],[25.45649,70.87577],[25.44985,70.87423],[25.44147,70.87343],[25.43587,70.87202]],[[25.11329,70.92708],[25.11192,70.92983],[25.11476,70.93021],[25.12268,70.92656]],[[25.11274,70.93031],[25.11092,70.93027],[25.10976,70.93067],[25.10974,70.93177],[25.11143,70.93234],[25.11298,70.93219],[25.11412,70.93133],[25.11274,70.93031]],[[25.33158,70.93715],[25.33572,70.93648],[25.34249,70.93454],[25.3442,70.93144],[25.35809,70.92486],[25.36328,70.92098],[25.36294,70.91879],[25.36963,70.9146],[25.36911,70.91375],[25.37067,70.9127]],[[25.47289,70.94152],[25.47676,70.94041],[25.47737,70.93947],[25.48029,70.9382],[25.48538,70.93791],[25.49186,70.93672],[25.50202,70.93215],[25.50908,70.93069],[25.51023,70.92971],[25.51004,70.92819],[25.50809,70.92613],[25.51027,70.92331],[25.51701,70.92306],[25.53573,70.92099],[25.53913,70.91944],[25.54107,70.91775],[25.54496,70.91627],[25.54761,70.91391],[25.54552,70.91185],[25.53708,70.90857],[25.53359,70.90464],[25.5305,70.90358]],[[24.99349,70.97389],[25.0092,70.97338],[25.01618,70.96999],[25.0211,70.96914],[25.02401,70.96592],[25.03129,70.96477],[25.03009,70.96406],[25.03157,70.96208],[25.02944,70.96069],[25.02981,70.95975],[25.02109,70.95897],[25.01886,70.95813],[25.01977,70.95717],[25.02535,70.95799],[25.03559,70.95848],[25.03779,70.95782],[25.03957,70.95578],[25.04345,70.95564],[25.04678,70.95397],[25.04833,70.94947],[25.04683,70.9478],[25.04108,70.94407],[25.03992,70.9425],[25.04042,70.94091],[25.03467,70.93821],[25.03562,70.93587],[25.03153,70.93157]],[[25.30142,70.96202],[25.29935,70.95995],[25.29909,70.95843],[25.30557,70.94923],[25.31146,70.94496],[25.31178,70.94373],[25.31346,70.94319],[25.31146,70.94252],[25.30959,70.94082],[25.32018,70.93891],[25.3262,70.93847],[25.33158,70.93715]],[[25.44731,70.95378],[25.44714,70.95097],[25.44553,70.94863],[25.44633,70.94751],[25.4497,70.94675],[25.45717,70.94618],[25.464,70.94379],[25.46944,70.94281],[25.47289,70.94152]],[[25.49371,70.95113],[25.49706,70.94874],[25.50016,70.94794],[25.51107,70.94636],[25.52132,70.94223],[25.52638,70.94093],[25.53896,70.9366],[25.54642,70.93489],[25.54868,70.93278],[25.55961,70.9321],[25.56707,70.9327],[25.58718,70.93529],[25.59542,70.93556],[25.60137,70.9369],[25.60757,70.93699],[25.60971,70.93739]],[[25.48496,70.96407],[25.48801,70.96342],[25.49043,70.9617],[25.48755,70.95769],[25.49371,70.95113]],[[25.35242,70.9766],[25.36093,70.97411],[25.36479,70.97172],[25.36523,70.97001],[25.36043,70.96692],[25.36303,70.96595],[25.3653,70.96572],[25.36975,70.96617],[25.37242,70.96704],[25.37374,70.96886],[25.37594,70.9693],[25.37906,70.96854],[25.38705,70.96797],[25.41291,70.96446],[25.42113,70.9638],[25.42699,70.96264],[25.43047,70.9625],[25.43422,70.96142],[25.43459,70.96051],[25.44562,70.95601],[25.44731,70.95378]],[[25.30142,70.96202],[25.30272,70.96521],[25.3027,70.96967],[25.30433,70.97168],[25.3062,70.97302],[25.312,70.97513],[25.31481,70.97707],[25.31973,70.97908],[25.32263,70.97987],[25.32698,70.98029],[25.3345,70.98025],[25.34125,70.97944],[25.35242,70.9766]],[[25.00258,71.00128],[25.0014,70.99975],[24.99869,70.99908]],[[25.41822,71.00085],[25.40529,70.99998],[25.40238,70.99939],[25.39941,70.99667],[25.39128,70.99556],[25.3905,70.99452],[25.39216,70.99302],[25.40254,70.98982],[25.41335,70.98784],[25.42682,70.98631],[25.45737,70.97768],[25.46816,70.97564],[25.47462,70.97508],[25.47671,70.97367],[25.47558,70.97162],[25.47355,70.97097],[25.46991,70.9708],[25.46727,70.96883],[25.47068,70.96658],[25.4783,70.96439],[25.48496,70.96407]]]}}]}