{"type":"FeatureCollection","features":[{"type":"Feature","properties":{},"geometry":{"type":"MultiLineString","coordinates":[[[21.25393,70.00932],[21.26049,70.00904],[21.26793,70.00935],[21.28228,70.01142],[21.28681,70.01121]],[[21.3018,70.01531],[21.29946,70.0139],[21.29573,70.01354],[21.29203,70.01181],[21.28874,70.01119],[21.28681,70.01121]],[[21.44314,70.01024],[21.44171,70.00929]],[[21.3018,70.01531],[21.30181,70.01532]],[[21.30181,70.01532],[21.30723,70.0179],[21.3178,70.01821]],[[21.83111,70.01705],[21.82952,70.01747]],[[21.56837,70.02516],[21.55984,70.02642],[21.55802,70.0271],[21.55765,70.02786],[21.55822,70.02861],[21.56341,70.02996],[21.56708,70.03047],[21.56996,70.03018]],[[21.56996,70.03018],[21.57382,70.03037],[21.57788,70.03151],[21.58796,70.03251]],[[21.5711,70.03376],[21.57137,70.03461]],[[21.57137,70.03461],[21.57301,70.03541],[21.57539,70.0356],[21.57523,70.03459],[21.57361,70.03363],[21.5711,70.03376]],[[21.58796,70.03251],[21.58847,70.0339],[21.58264,70.03508],[21.5826,70.03583],[21.59076,70.03923],[21.59526,70.03901],[21.60479,70.04108]],[[21.25393,70.00932],[21.24856,70.00972],[21.24188,70.00937],[21.23873,70.00875],[21.23577,70.00694],[21.23282,70.00622],[21.23215,70.0051],[21.23319,70.00133],[21.23129,69.99993]],[[21.65699,70.00125],[21.66503,70.0007],[21.66963,69.99906]],[[21.44171,70.00929],[21.44105,70.00871],[21.4452,70.00671],[21.44459,70.00545],[21.44287,70.00488],[21.44185,70.00376],[21.442,70.00252],[21.44342,70.00144],[21.44819,70.00065],[21.45634,70.00127],[21.45844,69.99933]],[[21.64433,70.00282],[21.65539,70.00182],[21.65699,70.00125]],[[21.71184,70.00028],[21.70801,69.99884]],[[21.64433,70.00282],[21.6416,70.0037],[21.63527,70.00462],[21.63257,70.00461],[21.62934,70.00399],[21.62773,70.00412],[21.6251,70.00506],[21.62595,70.00596]],[[21.42199,70.01281],[21.42467,70.01387],[21.43336,70.01478]],[[21.43336,70.01478],[21.43912,70.0139],[21.44039,70.01152],[21.44314,70.01024]],[[21.61621,70.00931],[21.61717,70.00871],[21.6163,70.00793],[21.61682,70.00737],[21.62246,70.00654],[21.6249,70.00691],[21.62595,70.00596]],[[21.39137,70.01929],[21.4008,70.01823],[21.4053,70.01698],[21.40926,70.01562],[21.40991,70.01431],[21.41152,70.01356],[21.42199,70.01281]],[[21.3178,70.01821],[21.3195,70.01821],[21.32244,70.01929],[21.32371,70.02056],[21.32951,70.02045],[21.33272,70.02119],[21.33689,70.02058],[21.34597,70.01759],[21.34913,70.01721],[21.3497,70.01742],[21.34867,70.0182],[21.35082,70.01861],[21.35074,70.01959],[21.35802,70.0215],[21.36024,70.0214],[21.36608,70.02023],[21.37084,70.02158],[21.37397,70.02092],[21.37635,70.01935],[21.38023,70.01858],[21.39137,70.01929]],[[21.56503,70.0146],[21.57192,70.01426],[21.57438,70.01372],[21.57762,70.01432],[21.58337,70.01375],[21.59228,70.01175],[21.5977,70.01131],[21.59897,70.01053],[21.59836,70.00978],[21.60087,70.00973],[21.6076,70.01047],[21.61369,70.00993],[21.61621,70.00931]],[[21.28981,70.02279],[21.29107,70.02059],[21.29243,70.01996],[21.29126,70.01895],[21.28907,70.0192],[21.28606,70.02075],[21.28797,70.02201],[21.28542,70.02214],[21.28418,70.02349],[21.2867,70.02487],[21.28842,70.02483],[21.28981,70.02279]],[[21.56503,70.0146],[21.56233,70.01484],[21.55941,70.01585],[21.55782,70.01575],[21.54989,70.01706],[21.54791,70.01788],[21.54945,70.01835],[21.55794,70.01669],[21.55984,70.01668],[21.55995,70.01696],[21.55669,70.01738],[21.55383,70.01829],[21.55391,70.01908],[21.5613,70.02007],[21.5634,70.01963],[21.56443,70.01812],[21.56602,70.01772]],[[21.56837,70.02516],[21.57428,70.02393],[21.57593,70.02281],[21.57556,70.02224],[21.57286,70.02185],[21.57152,70.02108],[21.57313,70.01922],[21.57134,70.01744],[21.56913,70.01713],[21.56602,70.01772]],[[21.69939,70.02266],[21.70334,70.02048],[21.70647,70.02022],[21.71098,70.02051],[21.71435,70.02014],[21.71837,70.01811],[21.72548,70.01694],[21.72738,70.01416],[21.73322,70.01329],[21.73461,70.0123],[21.73295,70.00975],[21.73029,70.00774],[21.71855,70.00554],[21.71534,70.00443],[21.71184,70.00028]],[[21.83111,70.01705],[21.83675,70.01472],[21.84266,70.01328],[21.85986,70.01075],[21.86801,70.01032],[21.87073,70.01044],[21.87089,70.0116],[21.88161,70.01211],[21.90707,70.01147],[21.91208,70.01173],[21.92173,70.01302],[21.94063,70.01656],[21.95409,70.01599],[21.96118,70.01697]],[[21.82952,70.01747],[21.82571,70.01826],[21.82312,70.01947],[21.81743,70.02104],[21.81654,70.02248],[21.81494,70.02298]],[[21.64401,70.03888],[21.64684,70.03837],[21.65138,70.03822],[21.65809,70.03674],[21.66425,70.03643],[21.66495,70.03496],[21.66862,70.03354],[21.6705,70.03021],[21.67905,70.02638],[21.69939,70.02266]],[[21.26013,70.05314],[21.26575,70.05223],[21.26884,70.05224],[21.27008,70.05164],[21.27272,70.04783],[21.27229,70.04665],[21.27341,70.04431],[21.28047,70.03921],[21.27932,70.03727],[21.27789,70.03671],[21.26801,70.03571],[21.26439,70.0341],[21.25368,70.03131],[21.25134,70.02849],[21.24294,70.0279],[21.23796,70.02712],[21.23039,70.02714],[21.22547,70.02584],[21.22255,70.02915],[21.22008,70.03],[21.2127,70.03123],[21.21099,70.03261],[21.20654,70.03406],[21.20313,70.03608],[21.19998,70.03905],[21.19362,70.04149],[21.19335,70.04336],[21.19553,70.04422],[21.19808,70.04407],[21.20916,70.04616],[21.21083,70.04697],[21.21594,70.04767],[21.2183,70.0488],[21.22707,70.04959],[21.22836,70.05008],[21.22854,70.05103],[21.23421,70.05337],[21.24415,70.05376],[21.26013,70.05314]],[[21.60479,70.04108],[21.61344,70.04197],[21.61656,70.04385],[21.62738,70.04474],[21.63653,70.04308],[21.63906,70.04218],[21.64121,70.04007],[21.64401,70.03888]],[[21.79884,70.04204],[21.78093,70.03897],[21.77634,70.03604],[21.77669,70.03521],[21.78396,70.03284],[21.79211,70.02821],[21.80332,70.02553],[21.80753,70.02531],[21.81494,70.02298]],[[22.00429,70.02542],[21.99914,70.02377],[21.9916,70.02267],[21.98499,70.02311],[21.97871,70.02308],[21.9754,70.02237],[21.974,70.02025],[21.97135,70.01866],[21.96628,70.01733],[21.96118,70.01697]],[[21.79884,70.04204],[21.80535,70.04429],[21.81031,70.04366],[21.81748,70.04446],[21.82386,70.04681],[21.84085,70.05185]],[[21.45567,70.09989],[21.45689,70.09931],[21.45954,70.09894]],[[21.58869,70.10841],[21.58974,70.10688],[21.59374,70.10498]],[[21.3338,70.12018],[21.34321,70.1182],[21.35073,70.11514],[21.35529,70.11222],[21.36181,70.11038],[21.36482,70.10819],[21.36329,70.10533],[21.36592,70.10312]],[[21.98992,70.1041],[21.99007,70.10268]],[[21.98992,70.1041],[21.99098,70.10538]],[[21.22443,70.19642],[21.22635,70.19501],[21.22872,70.19427],[21.23671,70.19427]],[[21.22443,70.19642],[21.2247,70.19732]],[[21.72984,70.05209],[21.72717,70.05198],[21.72115,70.05295],[21.71409,70.05505]],[[21.71409,70.05505],[21.71016,70.05597]],[[21.84085,70.05185],[21.84829,70.05402],[21.85186,70.05629],[21.8558,70.05728],[21.86031,70.06069],[21.86395,70.06142],[21.87328,70.06209],[21.87544,70.06195],[21.87758,70.06066],[21.88066,70.06038],[21.88998,70.06043],[21.89701,70.06155],[21.8993,70.06139],[21.90108,70.06057],[21.90992,70.06048]],[[21.90992,70.06048],[21.91379,70.06064],[21.91797,70.06161],[21.91888,70.06102]],[[21.91888,70.06102],[21.92363,70.06112],[21.92958,70.06226],[21.93424,70.06196],[21.93908,70.06256],[21.94069,70.06328],[21.94099,70.06413],[21.94407,70.06498],[21.95172,70.06448],[21.96669,70.06549],[21.97019,70.06622],[21.97442,70.06896],[21.97881,70.06936]],[[21.32244,70.09833],[21.32713,70.09838]],[[21.48401,70.09526],[21.4786,70.09443],[21.47572,70.09466],[21.46743,70.09625],[21.46713,70.09761],[21.46433,70.09781],[21.45954,70.09894]],[[21.2969,70.10558],[21.29833,70.10491],[21.29748,70.10413],[21.29808,70.10292],[21.29718,70.10261],[21.29829,70.10193],[21.30456,70.10089],[21.30531,70.10033],[21.30827,70.09979],[21.31575,70.09926],[21.32244,70.09833]],[[21.36592,70.10312],[21.36852,70.09909],[21.35989,70.09544],[21.35046,70.09546],[21.34999,70.09644],[21.34093,70.09686],[21.33865,70.09777],[21.33602,70.09816],[21.32713,70.09838]],[[21.56343,70.09596],[21.56069,70.09449],[21.56014,70.0921],[21.55895,70.09148],[21.55193,70.09082],[21.54041,70.09096],[21.53803,70.0907],[21.53631,70.08978],[21.53276,70.08965],[21.53035,70.09016],[21.52905,70.09181],[21.52662,70.09228],[21.51155,70.09364],[21.50647,70.09328],[21.4925,70.09384],[21.48401,70.09526]],[[21.59386,70.09483],[21.58875,70.08803],[21.58852,70.0859],[21.59092,70.08393],[21.60773,70.07931],[21.61277,70.07822],[21.62064,70.07741],[21.62584,70.07565],[21.6357,70.07378],[21.64089,70.07223],[21.64453,70.07039],[21.64982,70.06908],[21.65862,70.06724],[21.67196,70.06551],[21.67561,70.0635],[21.67945,70.06329],[21.6832,70.0645],[21.68587,70.06477],[21.68987,70.06446],[21.69294,70.06347],[21.69554,70.06105],[21.70602,70.05786],[21.71016,70.05597]],[[21.80323,70.08695],[21.80099,70.08539],[21.80032,70.08306],[21.80121,70.08119],[21.80023,70.07894],[21.80099,70.07616],[21.80754,70.07256],[21.81361,70.07118],[21.81744,70.06956],[21.81924,70.06822],[21.81897,70.06732],[21.81607,70.06601],[21.80798,70.06403],[21.79635,70.0631],[21.79176,70.06173],[21.78705,70.06155],[21.78001,70.06025],[21.77577,70.06069],[21.76726,70.05993],[21.76465,70.05941],[21.75957,70.05713],[21.75521,70.05584],[21.74527,70.05392],[21.73509,70.05342],[21.72984,70.05209]],[[21.81972,70.08632],[21.82048,70.08381],[21.81848,70.07907],[21.82262,70.07877],[21.8252,70.07814],[21.82798,70.07621],[21.82863,70.07474],[21.8325,70.07455],[21.83735,70.07319],[21.84239,70.07257],[21.84787,70.07308]],[[21.95859,70.08094],[21.9458,70.07735],[21.94064,70.07673],[21.93821,70.07667],[21.9357,70.07745],[21.92281,70.07819],[21.912,70.07706],[21.89193,70.07741],[21.86028,70.07409],[21.85123,70.0737],[21.84787,70.07308]],[[22.00195,70.07474],[21.99223,70.07327],[21.9885,70.07064],[21.97881,70.06936]],[[21.45567,70.09989],[21.45578,70.10111]],[[21.80323,70.08695],[21.80605,70.08834],[21.81207,70.08903],[21.81853,70.08712],[21.81972,70.08632]],[[21.45578,70.10111],[21.45487,70.1022],[21.45604,70.10303],[21.45503,70.10342],[21.45384,70.10321]],[[21.2969,70.10558],[21.29428,70.10663],[21.29692,70.10814],[21.29151,70.11026],[21.29195,70.11084],[21.2951,70.11124]],[[21.59374,70.10498],[21.60154,70.10038],[21.59823,70.09692],[21.59386,70.09483]],[[21.56343,70.09596],[21.56697,70.09741],[21.57278,70.10148],[21.5754,70.10506],[21.57648,70.10856]],[[21.95859,70.08094],[21.96938,70.08932],[21.97902,70.09241],[21.98481,70.09289],[21.98753,70.0952]],[[21.57648,70.10856],[21.57695,70.1107],[21.57908,70.11129],[21.58499,70.11031],[21.58869,70.10841]],[[21.2951,70.11124],[21.29943,70.11157],[21.30284,70.1125],[21.30149,70.11605],[21.30039,70.11678],[21.29632,70.11741],[21.29988,70.11895],[21.30922,70.12021],[21.3338,70.12018]],[[21.44342,70.11945],[21.44836,70.11471],[21.4501,70.10989],[21.45377,70.10764],[21.44992,70.10521],[21.45003,70.1043],[21.45127,70.10312],[21.45384,70.10321]],[[21.99007,70.10268],[21.99302,70.10154],[21.98962,70.09981],[21.98914,70.09692],[21.98753,70.0952]],[[21.99662,70.10701],[21.99544,70.10703],[21.99098,70.10538]],[[21.40977,70.1466],[21.40671,70.14622],[21.4056,70.14541],[21.40807,70.14275],[21.4141,70.13902],[21.42243,70.13554],[21.42157,70.13434],[21.42375,70.13217],[21.42918,70.12966],[21.42979,70.12807],[21.43568,70.1259],[21.43836,70.12252],[21.4416,70.12106],[21.44342,70.11945]],[[22.00046,70.10659],[21.99662,70.10701]],[[21.36818,70.15764],[21.3598,70.15777],[21.34523,70.15736]],[[21.34523,70.15736],[21.32583,70.15673],[21.31105,70.1592],[21.30541,70.15971],[21.30114,70.15958],[21.27976,70.16384]],[[21.27976,70.16384],[21.27355,70.16523],[21.27203,70.16609],[21.27252,70.16734],[21.26915,70.16875]],[[21.40977,70.1466],[21.41679,70.14816],[21.422,70.14851],[21.42917,70.14957],[21.44119,70.15002],[21.44701,70.15066],[21.45465,70.15393],[21.46375,70.15705],[21.4709,70.16091],[21.48025,70.16499]],[[21.48095,70.16719],[21.48272,70.16684],[21.48341,70.16574],[21.48285,70.16517],[21.48025,70.16499]],[[21.48095,70.16719],[21.47681,70.16956],[21.47605,70.17135]],[[21.26915,70.16875],[21.25869,70.17239],[21.25805,70.17445],[21.25581,70.17485],[21.25461,70.17434],[21.25313,70.17442],[21.2511,70.17539],[21.25026,70.17747],[21.2544,70.17901],[21.25989,70.18014],[21.25996,70.18126],[21.25758,70.1822]],[[21.4789,70.17439],[21.47869,70.17407],[21.47479,70.17413],[21.47386,70.17384],[21.47389,70.17296],[21.47605,70.17135]],[[21.36818,70.15764],[21.37677,70.15799],[21.39499,70.16088],[21.41802,70.16512],[21.43007,70.16562],[21.44352,70.16848],[21.44523,70.16915],[21.44463,70.17001],[21.4535,70.17132],[21.45938,70.17312],[21.46783,70.17414],[21.47179,70.17575],[21.4734,70.17578],[21.4789,70.17439]],[[21.23671,70.19427],[21.23851,70.19321],[21.24402,70.19224],[21.2549,70.18887],[21.25588,70.18789],[21.25531,70.18644],[21.25146,70.18513],[21.25141,70.18408],[21.2534,70.18174],[21.25547,70.18157],[21.25758,70.1822]],[[21.22639,70.19813],[21.2247,70.19732]],[[21.22639,70.19813],[21.22757,70.20095]],[[21.2262,70.20226],[21.22757,70.20095]],[[21.2262,70.20226],[21.21967,70.20459],[21.22019,70.20554],[21.21783,70.20639],[21.21681,70.20808]],[[21.21681,70.20808],[21.21559,70.20919],[21.21056,70.20979],[21.20592,70.20641],[21.20149,70.20491],[21.19939,70.20261],[21.20029,70.20148],[21.19522,70.20046],[21.18811,70.20066],[21.18811,70.2017],[21.19017,70.20259],[21.18838,70.20427],[21.18938,70.20477],[21.18797,70.20687],[21.19195,70.20907],[21.1888,70.21004],[21.18903,70.21145],[21.19111,70.21186],[21.19134,70.21257],[21.18806,70.21421],[21.18949,70.21546],[21.18972,70.21701],[21.18731,70.2173],[21.18671,70.21798],[21.18803,70.21951],[21.19117,70.22124]],[[21.04577,70.00796],[21.04181,70.0082],[21.04083,70.00902],[21.04181,70.00994],[21.04615,70.01055],[21.04768,70.00913],[21.04712,70.00832],[21.04577,70.00796]],[[21.03403,70.00001],[21.03683,70.0002],[21.03378,69.99914]],[[21.03403,70.00001],[21.03211,69.99969]],[[21.03211,69.99969],[21.03111,70.00001],[21.03425,70.00077]],[[21.06024,69.99939],[21.06358,70.00065],[21.06775,70.0002],[21.06867,69.99732]],[[21.01482,70],[21.01638,70.00115],[21.02033,70.00175],[21.02686,70.00357],[21.03535,70.00457]],[[21.03535,70.00457],[21.04273,70.00598],[21.04504,70.00587],[21.04431,70.00541],[21.03929,70.00451],[21.03652,70.00306],[21.0385,70.0029],[21.0378,70.0018],[21.03425,70.00077]],[[21.08441,70.02079],[21.08546,70.02052],[21.08824,70.02103],[21.09066,70.01994],[21.09044,70.01728],[21.08895,70.0151],[21.08432,70.01281],[21.08139,70.01197],[21.07929,70.01167],[21.07216,70.0118],[21.07172,70.01338],[21.07292,70.01426],[21.07507,70.01473],[21.07295,70.01579],[21.07261,70.01679],[21.07481,70.01868],[21.07404,70.01938],[21.07833,70.02157],[21.0811,70.02229],[21.0841,70.02234],[21.08441,70.02079]],[[21.00283,70.02567],[20.99747,70.02277]],[[20.9973,70.03045],[21.0028,70.03038],[21.00628,70.02878],[21.00643,70.02815],[21.00546,70.02681],[21.00283,70.02567]],[[20.9977,70.05398],[21.00507,70.05358],[21.00567,70.0522],[21.00485,70.05106],[21.00806,70.04896],[21.00702,70.04661],[21.0131,70.04559],[21.01276,70.0451],[21.00999,70.04466],[21.01035,70.04412],[21.0161,70.04355],[21.01703,70.04305],[21.01141,70.04035],[21.00831,70.04006],[20.99789,70.03661]],[[21.78948,70.17764],[21.79367,70.17547]],[[21.77688,70.19688],[21.77763,70.19626]],[[21.84105,70.21114],[21.83573,70.21084]],[[21.23729,70.2388],[21.23822,70.23854],[21.23785,70.23752]],[[21.77969,70.2432],[21.77961,70.24294]],[[21.66587,70.24908],[21.66954,70.24811],[21.67716,70.2473],[21.68174,70.24584]],[[21.77023,70.25009],[21.77111,70.25009]],[[21.64346,70.2595],[21.65122,70.25673],[21.65806,70.2523],[21.66587,70.24908]],[[21.60516,70.26216],[21.60628,70.26179]],[[21.58832,70.27451],[21.5928,70.27175],[21.59852,70.27088],[21.60375,70.27083],[21.60379,70.26976]],[[21.58724,70.27534],[21.58832,70.27451]],[[21.70336,70.26301],[21.70274,70.26565],[21.69666,70.27128]],[[21.42328,70.32633],[21.41445,70.32419]],[[21.56553,70.28575],[21.57107,70.28471],[21.57579,70.28039],[21.58132,70.27891],[21.58724,70.27534]],[[21.56007,70.29028],[21.56146,70.2892],[21.5621,70.28669],[21.56553,70.28575]],[[21.56493,70.31172],[21.56282,70.30922]],[[21.50798,70.31498],[21.51458,70.31778],[21.52155,70.31757],[21.52371,70.31713],[21.52883,70.31814]],[[21.56579,70.32119],[21.57023,70.31824],[21.5682,70.31552],[21.56613,70.3144],[21.56493,70.31172]],[[21.89733,70.30876],[21.89693,70.30841]],[[21.78094,70.31393],[21.7804,70.31322]],[[21.78231,70.31519],[21.78094,70.31393]],[[21.55068,70.32174],[21.56046,70.32272],[21.56438,70.32398],[21.56556,70.32355],[21.56579,70.32119]],[[21.4269,70.32928],[21.42677,70.32845],[21.42328,70.32633]],[[21.78969,70.3205],[21.78546,70.31671],[21.78231,70.31519]],[[21.39941,70.33172],[21.39547,70.33262],[21.39851,70.33437],[21.40038,70.33483]],[[21.40071,70.33586],[21.40209,70.33527],[21.4017,70.33488],[21.40038,70.33483]],[[21.40071,70.33586],[21.40096,70.33666]],[[21.79334,70.32358],[21.78969,70.3205]],[[21.79334,70.32358],[21.79967,70.32835]],[[21.57375,70.32599],[21.57254,70.32564],[21.57084,70.32604],[21.56987,70.32701],[21.57028,70.32833],[21.57237,70.32911],[21.57943,70.33428],[21.58389,70.33648],[21.58531,70.33651],[21.58436,70.33245],[21.5767,70.32711],[21.57375,70.32599]],[[21.45169,70.35775],[21.44846,70.35376],[21.44064,70.3485],[21.44039,70.34634]],[[21.80709,70.35061],[21.80862,70.3496],[21.80952,70.34294],[21.80172,70.33259],[21.79967,70.32835]],[[21.41318,70.37555],[21.41382,70.37756]],[[21.41404,70.37828],[21.41382,70.37756]],[[21.67878,70.36781],[21.67907,70.36867]],[[21.79367,70.17547],[21.80031,70.17557],[21.80414,70.17478],[21.80692,70.17354],[21.80864,70.1711],[21.81649,70.16943]],[[21.84859,70.17538],[21.85332,70.17316],[21.85632,70.17245],[21.85919,70.1694],[21.85925,70.16759],[21.85622,70.16612],[21.85591,70.1639],[21.85905,70.15806],[21.85863,70.15736],[21.85631,70.1565],[21.85628,70.15498],[21.85302,70.1545],[21.85238,70.15342],[21.85549,70.15139],[21.85493,70.15034],[21.86096,70.14803],[21.86266,70.14592],[21.86328,70.14314],[21.86037,70.13966],[21.85936,70.13961],[21.85479,70.14104],[21.84789,70.14118],[21.84553,70.1416],[21.83992,70.14853],[21.83944,70.1499],[21.84139,70.1524],[21.8409,70.15284],[21.83864,70.15281],[21.83721,70.15335],[21.83874,70.15432],[21.83859,70.15505],[21.83348,70.15811],[21.83399,70.16643],[21.83164,70.16894],[21.82943,70.1694],[21.82678,70.16852],[21.82308,70.1684],[21.81649,70.16943]],[[21.78418,70.18334],[21.78576,70.18024],[21.78948,70.17764]],[[21.49117,70.19962],[21.49518,70.19773],[21.49763,70.19497],[21.49237,70.19347],[21.49038,70.19325],[21.48927,70.19359]],[[21.77763,70.19626],[21.77949,70.19593],[21.78101,70.19473],[21.7821,70.18734],[21.78418,70.18334]],[[21.49117,70.19962],[21.4847,70.20213],[21.48335,70.20368],[21.4804,70.20534],[21.48151,70.20601],[21.49352,70.20706]],[[21.49482,70.21118],[21.49622,70.21085],[21.49861,70.20859],[21.4969,70.2076],[21.49352,70.20706]],[[21.42084,70.23082],[21.42145,70.22945]],[[21.72139,70.22528],[21.71982,70.22273]],[[21.43558,70.21668],[21.44382,70.21344],[21.4474,70.21289],[21.45222,70.213],[21.45405,70.21271],[21.46043,70.20939],[21.46517,70.20782],[21.4689,70.20523],[21.47354,70.20424],[21.47026,70.20197],[21.46999,70.19909],[21.47507,70.19817],[21.48012,70.19842],[21.48473,70.19675],[21.48927,70.19359]],[[21.83703,70.21726],[21.85505,70.21683],[21.8566,70.21716]],[[21.19017,70.227],[21.1937,70.22434],[21.19336,70.22357],[21.18981,70.2235],[21.18488,70.22495],[21.17825,70.22323],[21.1746,70.22335],[21.17376,70.22459],[21.17501,70.22665],[21.17763,70.22746],[21.17981,70.22746],[21.18064,70.22916],[21.18252,70.23009],[21.18816,70.23027],[21.18939,70.2299],[21.19017,70.227]],[[21.75315,70.21867],[21.75923,70.21796],[21.7625,70.21618]],[[21.73552,70.21896],[21.73895,70.21955],[21.74219,70.21957]],[[21.76959,70.21151],[21.77186,70.20956],[21.7707,70.20667],[21.77131,70.20417],[21.77794,70.19837],[21.77688,70.19688]],[[21.42145,70.22945],[21.42546,70.22211],[21.43558,70.21668]],[[21.84859,70.17538],[21.84786,70.17641],[21.84166,70.17756],[21.84097,70.17886],[21.83655,70.17967],[21.83295,70.18216],[21.8264,70.18353],[21.82358,70.18505],[21.82241,70.18936],[21.82587,70.19157],[21.82086,70.19627],[21.82076,70.20017],[21.81649,70.20239],[21.81463,70.20408],[21.81472,70.20536],[21.82078,70.20733],[21.82107,70.20879],[21.82502,70.20973],[21.82756,70.21101],[21.83573,70.21084]],[[21.76494,70.21397],[21.76959,70.21151]],[[21.7625,70.21618],[21.76494,70.21397]],[[21.84105,70.21114],[21.8484,70.21218],[21.8542,70.21255],[21.86512,70.21215]],[[21.86842,70.21267],[21.86512,70.21215]],[[21.71615,70.21921],[21.71465,70.21904],[21.71212,70.21626],[21.71545,70.21526],[21.71838,70.21566]],[[21.71838,70.21566],[21.73552,70.21896]],[[21.24304,70.23778],[21.24196,70.23651],[21.2381,70.23526],[21.23647,70.23562],[21.23785,70.23752]],[[21.74219,70.21957],[21.74797,70.22],[21.75315,70.21867]],[[21.86842,70.21267],[21.87106,70.21363],[21.87095,70.21529],[21.87008,70.21561]],[[21.8566,70.21716],[21.86041,70.21645],[21.86502,70.21634],[21.87008,70.21561]],[[21.71982,70.22273],[21.71604,70.22013]],[[21.19117,70.22124],[21.191,70.22223],[21.19255,70.22291],[21.19418,70.22303],[21.19804,70.22225],[21.20218,70.22244],[21.20381,70.22297],[21.20429,70.22576],[21.20734,70.22779],[21.20851,70.2278],[21.20933,70.22685],[21.21261,70.22695],[21.21237,70.22915],[21.21281,70.23004],[21.21412,70.23034],[21.2122,70.2313],[21.21253,70.23274],[21.21331,70.23292],[21.21578,70.23243],[21.21737,70.23107],[21.21877,70.23116],[21.21957,70.23179],[21.2183,70.23392],[21.21947,70.23492],[21.222,70.23469],[21.2228,70.2335],[21.22461,70.23339],[21.22628,70.23625],[21.22342,70.23625],[21.2232,70.23676],[21.22807,70.23782],[21.22985,70.23962],[21.23283,70.24038],[21.23512,70.24028],[21.23653,70.23987],[21.23729,70.2388]],[[21.25494,70.24218],[21.25376,70.24119],[21.25203,70.2411],[21.25079,70.24218],[21.24926,70.24232],[21.24706,70.24105],[21.24853,70.24],[21.24334,70.23911],[21.24304,70.23778]],[[21.42465,70.23618],[21.42084,70.23082]],[[21.47673,70.2343],[21.4726,70.22964],[21.47348,70.22628],[21.47154,70.2208],[21.47486,70.2193],[21.48488,70.21651],[21.48851,70.21466],[21.49225,70.21381],[21.49482,70.21118]],[[21.8159,70.22171],[21.82543,70.21799],[21.82956,70.21731],[21.83703,70.21726]],[[21.72321,70.22729],[21.72139,70.22528]],[[21.8159,70.22171],[21.8115,70.22329],[21.81043,70.22435]],[[21.42756,70.24246],[21.42844,70.23928],[21.42465,70.23618]],[[21.43455,70.25714],[21.4357,70.25525],[21.43534,70.25115],[21.43258,70.24599],[21.42756,70.24246]],[[21.78584,70.23562],[21.78596,70.23501],[21.78352,70.23437],[21.78357,70.23402],[21.7925,70.23173],[21.79665,70.23001],[21.79657,70.22901],[21.80896,70.22574],[21.81043,70.22435]],[[21.33709,70.2542],[21.33794,70.25443]],[[21.25494,70.24218],[21.25801,70.24363],[21.26048,70.24656],[21.26402,70.2464],[21.26528,70.24674],[21.2643,70.24817],[21.2724,70.24937],[21.27258,70.25074],[21.2741,70.25138],[21.28046,70.25102],[21.28861,70.25412],[21.28464,70.25438],[21.28471,70.25525],[21.289,70.25618],[21.2938,70.25567],[21.29653,70.25738],[21.29872,70.25729],[21.30247,70.2557],[21.30658,70.25517],[21.31949,70.25071],[21.32386,70.25165],[21.32827,70.25176],[21.33122,70.25345],[21.33709,70.2542]],[[21.68174,70.24584],[21.69018,70.2435],[21.69741,70.2379],[21.70425,70.23475],[21.70649,70.23297],[21.70814,70.23285],[21.71009,70.23379],[21.71474,70.2333],[21.72078,70.23445],[21.72249,70.23341],[21.72159,70.23212],[21.72401,70.23052],[21.72321,70.22729]],[[21.78584,70.23562],[21.78353,70.23611],[21.78197,70.2374],[21.77768,70.23805],[21.7784,70.23908],[21.78275,70.23996],[21.78183,70.24083],[21.77935,70.24097],[21.77521,70.23947],[21.77332,70.23976],[21.77961,70.24294]],[[21.77153,70.24356],[21.77475,70.24206],[21.77059,70.24071]],[[21.77059,70.24071],[21.76491,70.24043],[21.76218,70.24083],[21.76588,70.2432],[21.76953,70.24391],[21.77153,70.24356]],[[21.76123,70.24329],[21.75832,70.24308],[21.7577,70.24375],[21.76282,70.24541],[21.7641,70.24398],[21.76123,70.24329]],[[21.21074,70.26413],[21.20927,70.26426],[21.20886,70.26476],[21.21234,70.26629],[21.21235,70.26503],[21.21074,70.26413]],[[21.47673,70.2343],[21.47861,70.23608],[21.48529,70.23741],[21.49146,70.23993],[21.4927,70.2409],[21.49481,70.24596],[21.49529,70.25366],[21.49378,70.25927]],[[21.76887,70.25009],[21.76948,70.24986],[21.77023,70.25009]],[[21.77111,70.25009],[21.77204,70.24794],[21.76887,70.24633],[21.76516,70.24808],[21.76401,70.24935],[21.76444,70.25009]],[[21.76444,70.25009],[21.76735,70.25159],[21.76847,70.25125],[21.76887,70.25009]],[[21.77969,70.2432],[21.77905,70.24405],[21.7747,70.24436],[21.77424,70.24601],[21.77926,70.2477],[21.78177,70.24778],[21.78429,70.2473],[21.78931,70.24813],[21.78858,70.25177],[21.78779,70.25206],[21.78465,70.25181],[21.7829,70.2526],[21.78272,70.25381],[21.7853,70.25441]],[[21.33794,70.25443],[21.33956,70.25549],[21.33858,70.25604],[21.33824,70.26032],[21.33949,70.2613],[21.34182,70.26161],[21.34589,70.26322],[21.34558,70.26485],[21.35377,70.26554],[21.35435,70.26471],[21.35669,70.26436],[21.36518,70.26452],[21.37835,70.26769],[21.37938,70.26764]],[[21.76285,70.2537],[21.76135,70.25371],[21.76163,70.25469],[21.76478,70.25528],[21.76405,70.25398],[21.76285,70.2537]],[[21.72026,70.24641],[21.71594,70.24131],[21.71358,70.241],[21.71027,70.24112],[21.70742,70.24398],[21.71058,70.24552],[21.71221,70.24579],[21.71418,70.24554],[21.71519,70.24605],[21.71261,70.24999],[21.71322,70.25189],[21.71892,70.25484],[21.71279,70.25673],[21.71292,70.25722],[21.71671,70.25779],[21.72361,70.25611],[21.72378,70.25459],[21.72177,70.25227],[21.72264,70.24876],[21.72026,70.24641]],[[21.60628,70.26179],[21.60909,70.26196],[21.61952,70.26094],[21.62731,70.26218],[21.62964,70.26209],[21.63644,70.26051],[21.63951,70.26038],[21.64346,70.2595]],[[21.37938,70.26764],[21.38217,70.26755],[21.38536,70.26797],[21.38545,70.26898],[21.38778,70.26954],[21.39192,70.26958],[21.39929,70.27077],[21.4021,70.27059],[21.40524,70.27276],[21.40691,70.27313],[21.40931,70.27239],[21.41355,70.27327],[21.41471,70.27416],[21.41734,70.27381],[21.41875,70.27343],[21.42452,70.26795],[21.42526,70.26502],[21.42709,70.26263],[21.43236,70.26031],[21.43455,70.25714]],[[21.72703,70.26462],[21.72217,70.26194],[21.71236,70.26133],[21.69938,70.2596],[21.6991,70.2609],[21.70336,70.26301]],[[21.60379,70.26976],[21.60331,70.26863],[21.60737,70.26785],[21.60422,70.26706],[21.60227,70.26598],[21.60554,70.26461],[21.60481,70.26409],[21.60638,70.26238],[21.60516,70.26216]],[[21.73748,70.26976],[21.72815,70.26568],[21.72703,70.26462]],[[21.48739,70.27897],[21.48865,70.27621],[21.48777,70.27439],[21.48829,70.27291],[21.49286,70.26914],[21.49221,70.2657],[21.49475,70.26363],[21.49234,70.26257],[21.49378,70.25927]],[[21.79519,70.26758],[21.7942,70.26645],[21.79102,70.26691],[21.78903,70.26667],[21.78475,70.26337],[21.78632,70.2623],[21.78224,70.25893],[21.78738,70.25773],[21.78986,70.25575],[21.7853,70.25441]],[[21.75945,70.28392],[21.75385,70.27753],[21.74626,70.2735],[21.73748,70.26976]],[[21.76802,70.29048],[21.75945,70.28392]],[[21.39161,70.30681],[21.39275,70.30574],[21.39281,70.30371],[21.39005,70.30181]],[[21.39005,70.30181],[21.38727,70.30111],[21.37613,70.30081],[21.37073,70.30005],[21.36514,70.29983],[21.36354,70.29991],[21.36301,70.30033],[21.35609,70.30063],[21.35357,70.30236],[21.3551,70.30501],[21.35464,70.30653],[21.35274,70.3068],[21.34904,70.30611],[21.34805,70.30646],[21.34824,70.30691],[21.35369,70.30798],[21.35268,70.30849],[21.35019,70.30837]],[[21.77294,70.2945],[21.76802,70.29048]],[[21.96506,70.29252],[21.95661,70.28925]],[[21.35019,70.30837],[21.34717,70.30859],[21.345,70.30948],[21.34298,70.31199],[21.34421,70.31313],[21.3479,70.31457],[21.35132,70.31507],[21.35272,70.31443]],[[21.35272,70.31443],[21.35593,70.31454],[21.36065,70.31541]],[[21.96506,70.29252],[21.96754,70.2934]],[[21.56282,70.30922],[21.56062,70.3078],[21.56074,70.30646],[21.55778,70.30333],[21.55839,70.30277],[21.55672,70.30112],[21.55519,70.29706],[21.55938,70.29329],[21.55859,70.29189],[21.56007,70.29028]],[[21.48739,70.27897],[21.48676,70.28203],[21.4886,70.28313],[21.48742,70.2837],[21.48605,70.28343],[21.48471,70.28367],[21.48401,70.28443],[21.48666,70.28654],[21.48536,70.28949],[21.47888,70.29231],[21.479,70.29493],[21.47428,70.29714],[21.47358,70.29963],[21.47697,70.30318],[21.48453,70.3068],[21.48468,70.30832],[21.48769,70.30952],[21.49053,70.31182],[21.49142,70.31206],[21.49868,70.31188]],[[21.37667,70.31811],[21.38519,70.31756],[21.38901,70.31668],[21.39304,70.315],[21.39309,70.31212],[21.39052,70.30881],[21.39161,70.30681]],[[21.36065,70.31541],[21.36322,70.31644],[21.36345,70.31706],[21.36772,70.31841],[21.36904,70.31842],[21.37165,70.31697],[21.37667,70.31811]],[[21.49868,70.31188],[21.50332,70.3129],[21.50798,70.31498]],[[21.41445,70.32419],[21.41238,70.32321],[21.41011,70.32355],[21.40861,70.32421],[21.4085,70.32521],[21.40562,70.3257],[21.40557,70.32696]],[[22.00051,70.30407],[21.99522,70.3024],[21.98998,70.29959],[21.98586,70.29939],[21.97789,70.29641],[21.96754,70.2934]],[[21.89693,70.30841],[21.88849,70.30243],[21.87234,70.29526],[21.86348,70.29042],[21.85388,70.28648],[21.8407,70.27941],[21.82916,70.27551],[21.82142,70.27348],[21.81614,70.27277],[21.79519,70.26758]],[[21.55068,70.32174],[21.54636,70.31906],[21.54512,70.31942],[21.54263,70.31923],[21.53734,70.31769],[21.53597,70.31792],[21.53552,70.31857],[21.53263,70.31694],[21.53033,70.31709],[21.53035,70.3177],[21.52883,70.31814]],[[21.68497,70.31679],[21.68506,70.3157],[21.68137,70.31294],[21.68224,70.31197],[21.68141,70.3082],[21.67967,70.30582],[21.67994,70.30385],[21.67791,70.302],[21.67881,70.2892],[21.68192,70.28368],[21.68124,70.2826],[21.67819,70.28144],[21.67844,70.28072],[21.68096,70.28043],[21.68249,70.2787],[21.69356,70.27365],[21.69666,70.27128]],[[21.7804,70.31322],[21.78019,70.31054],[21.77733,70.30583],[21.77818,70.30373],[21.77466,70.30045],[21.77757,70.29811],[21.77553,70.29533],[21.77294,70.2945]],[[22.00669,70.29447],[21.99452,70.28987],[21.99326,70.2885],[21.98335,70.2854],[21.97989,70.2853],[21.97145,70.28416],[21.96729,70.28253],[21.9628,70.28169],[21.95793,70.27814],[21.95398,70.27696],[21.95259,70.27729],[21.95254,70.27849],[21.95086,70.27915],[21.952,70.28079],[21.94962,70.28091],[21.94825,70.28151],[21.94911,70.28264],[21.95315,70.28487],[21.95104,70.2865],[21.95395,70.28745],[21.95661,70.28925]],[[21.39941,70.33172],[21.40314,70.33133],[21.41317,70.33157],[21.41848,70.33084],[21.41783,70.33012],[21.41134,70.32948],[21.40726,70.3286],[21.40557,70.32696]],[[21.89733,70.30876],[21.90188,70.31232],[21.90744,70.31397],[21.91355,70.31501]],[[21.91355,70.31501],[21.91795,70.31605],[21.92364,70.3183],[21.93178,70.32329]],[[21.93178,70.32329],[21.94019,70.32711]],[[21.44039,70.34634],[21.44317,70.34452],[21.44474,70.34426],[21.44548,70.3432],[21.44769,70.34291],[21.45186,70.34326],[21.45427,70.34422],[21.45915,70.34477],[21.46034,70.34419],[21.46006,70.34343],[21.46409,70.34368],[21.46516,70.34172],[21.46002,70.33646],[21.45603,70.33423],[21.44629,70.33247],[21.44067,70.33234],[21.43144,70.3311],[21.42811,70.33014],[21.4269,70.32928]],[[21.40448,70.3479],[21.40769,70.34613],[21.40674,70.34542],[21.40752,70.34493],[21.41412,70.34417],[21.41522,70.3433],[21.40786,70.34098],[21.40798,70.33912],[21.40096,70.33666]],[[21.94019,70.32711],[21.94267,70.3279],[21.94618,70.32832],[21.95005,70.32974],[21.95616,70.32922],[21.96198,70.32952],[21.96654,70.32931],[21.97043,70.32853],[21.9762,70.32969],[21.98388,70.32937],[21.98577,70.32828],[21.99091,70.32674],[21.99491,70.3262],[21.99681,70.3265],[22.00629,70.32506]],[[21.68497,70.31679],[21.68543,70.32291],[21.6886,70.33301],[21.6918,70.33634],[21.69344,70.34288],[21.69543,70.34489]],[[21.40448,70.3479],[21.39616,70.34749],[21.38979,70.34773],[21.38782,70.34813],[21.38763,70.34862],[21.38947,70.34965],[21.39354,70.35011],[21.39709,70.35099],[21.39629,70.35133],[21.39262,70.35141],[21.39325,70.35338],[21.38585,70.35331],[21.38452,70.35422],[21.38507,70.35483],[21.38199,70.35521],[21.38749,70.35897],[21.39143,70.36036],[21.39605,70.36536],[21.40591,70.36562],[21.40553,70.36715],[21.40744,70.36787],[21.41086,70.36818]],[[21.41891,70.37154],[21.41952,70.3704],[21.41568,70.36974],[21.41686,70.36893],[21.41572,70.36823],[21.41086,70.36818]],[[21.43895,70.37083],[21.44183,70.36732],[21.4447,70.3658],[21.44971,70.36504],[21.44916,70.36365],[21.45297,70.3618],[21.45385,70.36078],[21.45169,70.35775]],[[21.68278,70.36195],[21.68596,70.36024],[21.68922,70.35927],[21.68904,70.35469],[21.69155,70.35226],[21.69543,70.34489]],[[21.79014,70.35793],[21.79346,70.35743],[21.79538,70.35757],[21.79711,70.35488],[21.80276,70.35305],[21.80709,70.35061]],[[21.41318,70.37555],[21.41369,70.37374],[21.41598,70.37303],[21.41933,70.37279],[21.41906,70.37229],[21.41665,70.37223],[21.41891,70.37154]],[[21.67878,70.36781],[21.68043,70.36676],[21.68105,70.36288],[21.68278,70.36195]],[[21.41404,70.37828],[21.41328,70.38028],[21.41666,70.38659]],[[21.41666,70.38659],[21.4178,70.38762],[21.42246,70.38896],[21.42774,70.38945],[21.43121,70.38883],[21.4325,70.38978],[21.4345,70.38995],[21.43473,70.38831],[21.43849,70.38504],[21.43914,70.38349],[21.43839,70.38159],[21.43894,70.37895],[21.43716,70.37657],[21.43901,70.37372],[21.43801,70.37238],[21.43895,70.37083]],[[21.67907,70.36867],[21.68156,70.36936],[21.68362,70.36905],[21.68681,70.36998],[21.6903,70.37018],[21.69154,70.37007],[21.69169,70.36939],[21.69432,70.36954],[21.69832,70.36921],[21.703,70.36978],[21.70544,70.37088],[21.70583,70.37166],[21.70431,70.37215],[21.70565,70.37428],[21.70448,70.37587],[21.70859,70.37705],[21.7063,70.37835],[21.71203,70.3791],[21.71207,70.38017],[21.71043,70.38118],[21.70756,70.38158],[21.70362,70.38295],[21.70435,70.38645],[21.70232,70.38764],[21.6988,70.38788],[21.69838,70.38929],[21.69877,70.39072],[21.70126,70.39271],[21.70226,70.39302],[21.70574,70.39278],[21.70693,70.39238],[21.70694,70.39155],[21.71288,70.39027],[21.71532,70.38797],[21.72015,70.38604],[21.72038,70.38373],[21.72479,70.38195],[21.72763,70.38013],[21.72897,70.37688],[21.73084,70.37586],[21.73244,70.37532],[21.73606,70.37511],[21.73816,70.37459],[21.74127,70.37336],[21.74416,70.3711],[21.75115,70.36891],[21.75613,70.36677],[21.76444,70.36441],[21.76893,70.36461],[21.77381,70.36268],[21.77726,70.36204],[21.77884,70.35966],[21.79014,70.35793]],[[21.98097,70.59167],[21.9759,70.59211],[21.97554,70.59334],[21.977,70.5941],[21.97867,70.59397],[21.98112,70.59236],[21.98097,70.59167]],[[22.00043,70.5889],[21.99223,70.58917],[21.99177,70.58993],[21.98675,70.5893],[21.98494,70.58958],[21.98533,70.59044],[21.98365,70.59147],[21.98514,70.59302],[21.99017,70.59353],[21.99344,70.59279],[21.99628,70.5929],[21.9989,70.59496],[21.99711,70.59693],[21.99559,70.59717],[21.99417,70.59691],[21.98986,70.59824],[21.99106,70.60066],[21.99235,70.60123],[21.99061,70.60216],[21.98784,70.60245],[21.98644,70.60312],[21.9872,70.60397],[21.9897,70.60468],[21.98415,70.60543],[21.98375,70.60634],[21.98594,70.60878],[21.98928,70.60987],[21.99188,70.60922],[21.99703,70.60924],[22.00285,70.6075]],[[21.94745,70.62677],[21.94598,70.62605],[21.94069,70.62494],[21.94145,70.62703],[21.94745,70.62677]],[[21.94978,70.62906],[21.94599,70.62891],[21.94541,70.6296],[21.94251,70.62981],[21.94796,70.63104],[21.94457,70.63195],[21.9488,70.63272],[21.95434,70.63156],[21.95482,70.63076],[21.95155,70.62929],[21.94978,70.62906]],[[21.98964,70.63256],[21.98697,70.63212],[21.98825,70.63109],[21.98652,70.62968],[21.98291,70.6284],[21.98236,70.62683],[21.97785,70.62733],[21.97567,70.6267],[21.97303,70.62665],[21.9735,70.62742],[21.97608,70.62768],[21.96992,70.62921],[21.97707,70.62929],[21.97788,70.62981],[21.98314,70.63057],[21.98617,70.63166],[21.98538,70.63202],[21.98236,70.63182],[21.97671,70.63051],[21.9729,70.63067],[21.97163,70.63162],[21.97839,70.6329],[21.98568,70.63283]],[[21.98964,70.63256],[21.99426,70.63384],[21.99462,70.63313],[21.99634,70.63291],[21.99991,70.63369],[22.0062,70.63434]],[[21.9633,70.66696],[21.96259,70.66672],[21.9632,70.66605],[21.97063,70.66523],[21.97221,70.66443],[21.96853,70.66288],[21.96674,70.66294],[21.96605,70.66184],[21.95882,70.66101],[21.95462,70.6589],[21.95191,70.65841],[21.94485,70.65809],[21.94247,70.65568],[21.94049,70.65482],[21.94087,70.65439],[21.94993,70.65352],[21.95097,70.65299],[21.95362,70.6531],[21.95781,70.65172],[21.95738,70.65049],[21.946,70.64903],[21.9447,70.64752],[21.94511,70.64676],[21.94731,70.64626],[21.94552,70.64423],[21.94018,70.64362],[21.93038,70.64351],[21.92809,70.64272],[21.93926,70.64156],[21.93976,70.64112],[21.93758,70.64018],[21.93775,70.63962],[21.94339,70.63835],[21.94728,70.63792],[21.95052,70.63679],[21.95826,70.63673],[21.96145,70.6377],[21.96341,70.63776],[21.96545,70.63659],[21.96851,70.63689],[21.97494,70.63621],[21.97776,70.63407],[21.98575,70.63326],[21.98568,70.63283]],[[21.98475,70.66614],[21.98495,70.66417],[21.98741,70.6636],[21.98609,70.66273],[21.98819,70.66106],[21.99005,70.66078],[21.98965,70.65795],[21.99382,70.65541],[21.99642,70.65515],[21.99948,70.65551],[21.99749,70.65443],[21.99098,70.65288],[21.99142,70.6517],[21.99388,70.65068],[22.00218,70.64974]],[[21.9633,70.66696],[21.97407,70.66935],[21.97831,70.66987],[21.97696,70.6705],[21.98064,70.67152],[21.98155,70.66991],[21.98101,70.66841],[21.98475,70.66614]]]}}]}