{"type":"FeatureCollection","features":[{"type":"Feature","properties":{},"geometry":{"type":"MultiLineString","coordinates":[[[26.92567,70.47093],[26.91995,70.46869],[26.91838,70.46641],[26.9134,70.46507],[26.9141,70.46051],[26.92007,70.45924],[26.93017,70.45907],[26.93533,70.45864],[26.94194,70.45685],[26.95163,70.45595],[26.95773,70.45453]],[[26.99626,70.47179],[26.99623,70.47172]],[[26.95773,70.45453],[26.96378,70.45463],[26.9662,70.45518],[26.96664,70.45858],[26.97139,70.46198],[26.97077,70.46285],[26.96845,70.46325],[26.96914,70.46436],[26.97161,70.46488],[26.97249,70.46404],[26.97187,70.46327],[26.97342,70.46294],[26.97975,70.46408],[26.98328,70.46584],[26.98571,70.46811],[26.98606,70.47001],[26.98756,70.47078],[26.99399,70.47123],[26.99623,70.47172]],[[26.99626,70.47179],[26.99662,70.47238]],[[26.99662,70.47238],[26.99912,70.47325],[27.00026,70.47487]],[[26.99492,70.51525],[26.99764,70.51382],[26.99352,70.51081],[26.994,70.50986],[26.99655,70.50948],[27.01316,70.50921]],[[26.99492,70.51525],[26.99108,70.51638],[26.9899,70.51733],[26.99152,70.51847],[26.99099,70.52006],[26.9948,70.52258],[26.99512,70.52419],[26.99427,70.52481],[26.98807,70.52618],[26.98748,70.52855]],[[26.98081,70.53278],[26.98164,70.53139],[26.98625,70.52983],[26.98748,70.52855]],[[26.96086,70.54175],[26.97005,70.53809],[26.97368,70.53583],[26.98081,70.53278]],[[26.96086,70.54175],[26.95108,70.54679],[26.95137,70.54731],[26.95688,70.5482]],[[27.01141,70.55507],[26.99459,70.55242],[26.98345,70.55146],[26.97591,70.54975],[26.96539,70.54991],[26.95762,70.54866],[26.95688,70.5482]],[[26.95148,70.55416],[26.94739,70.55435],[26.93347,70.55647],[26.93109,70.55768],[26.92568,70.55875],[26.92547,70.55929],[26.92973,70.55986],[26.93985,70.55954],[26.95444,70.56048],[26.95906,70.56027],[26.96306,70.55747],[26.96166,70.55515],[26.95824,70.55432],[26.95148,70.55416]],[[26.94741,70.57618],[26.94368,70.57644],[26.94364,70.57735],[26.94729,70.57763],[26.94741,70.57618]],[[26.92537,70.58172],[26.92306,70.58234],[26.92221,70.58341],[26.92694,70.58435]],[[26.92694,70.58435],[26.93144,70.5851],[26.93543,70.58526],[26.94015,70.58414],[26.94081,70.58348],[26.93706,70.58267],[26.93491,70.58125],[26.93332,70.58098],[26.92824,70.58101],[26.92537,70.58172]],[[27.00383,70.57166],[26.99744,70.5724],[26.98868,70.57004],[26.98156,70.57036],[26.97514,70.57017],[26.97141,70.57074],[26.96785,70.57185],[26.96154,70.57254],[26.95967,70.57326],[26.95198,70.57467],[26.95318,70.57525],[26.96129,70.57632],[26.96413,70.57721],[26.96489,70.57851],[26.96693,70.57926],[26.96666,70.58149],[26.96905,70.58281],[26.96815,70.58331]],[[26.96256,70.58724],[26.96282,70.58813]],[[26.96282,70.58813],[26.9635,70.58944],[26.97264,70.58916],[26.97634,70.59004]],[[26.97634,70.59004],[26.97758,70.5909],[26.97704,70.59146]],[[26.9053,70.59104],[26.90761,70.5921],[26.90739,70.59334],[26.90373,70.59568],[26.89902,70.59745],[26.89812,70.59903],[26.89965,70.6],[26.90519,70.60059],[26.90954,70.59978],[26.91069,70.59881],[26.91018,70.59776],[26.91765,70.59723],[26.92175,70.59512],[26.92167,70.59143],[26.91737,70.59024]],[[26.92612,70.61548],[26.92864,70.61516],[26.92716,70.61411],[26.92441,70.61469],[26.92612,70.61548]],[[26.97704,70.59146],[26.97903,70.59436],[26.98693,70.59639],[26.99269,70.59928],[26.99482,70.6019],[27.00678,70.60589]],[[26.86408,70.4788],[26.87447,70.4776],[26.88135,70.47751],[26.88567,70.47782],[26.88716,70.47722],[26.88955,70.47716],[26.89791,70.47862],[26.90166,70.47847],[26.91063,70.47954],[26.91329,70.47931],[26.91291,70.47853],[26.91377,70.47832],[26.92326,70.47913],[26.92703,70.47977],[26.9273,70.48068],[26.93021,70.48186],[26.92949,70.48552],[26.93243,70.48619],[26.93644,70.48635],[26.94494,70.48413],[26.94662,70.48279],[26.94633,70.48151],[26.93879,70.47537],[26.934,70.47333],[26.92567,70.47093]],[[26.88882,70.52047],[26.89231,70.51996],[26.8969,70.51706],[26.89825,70.51676],[26.90086,70.5124],[26.89861,70.51112],[26.89237,70.50991],[26.8914,70.50892],[26.88798,70.50843],[26.88214,70.50924]],[[26.91737,70.59024],[26.91281,70.58774],[26.91,70.58774],[26.9085,70.58823],[26.90574,70.58777],[26.90043,70.58229],[26.8931,70.58251],[26.89054,70.5835],[26.88954,70.58518],[26.89086,70.58632],[26.89,70.58709],[26.89131,70.58841],[26.8937,70.58889],[26.89545,70.58877],[26.89752,70.58939],[26.90187,70.58915],[26.90342,70.5894],[26.9053,70.59104]],[[26.96256,70.58724],[26.96259,70.58524],[26.96507,70.58492],[26.96815,70.58331]],[[26.96678,70.61322],[26.9674,70.61288],[26.97158,70.61263],[26.97557,70.61032],[26.97872,70.60966],[26.98017,70.60882],[26.98032,70.60784],[26.9793,70.60713],[26.97634,70.60655],[26.96989,70.60421],[26.96556,70.60378],[26.96083,70.6048],[26.95686,70.60711],[26.9543,70.60762],[26.95369,70.60912],[26.96456,70.61299],[26.96678,70.61322]],[[26.51524,70.3485],[26.51663,70.34839]],[[26.51867,70.35197],[26.52009,70.34962],[26.51663,70.34839]],[[26.51867,70.35197],[26.51733,70.35271],[26.51726,70.35401],[26.52045,70.35509]],[[26.48142,70.35792],[26.48329,70.35841],[26.48565,70.35799],[26.4885,70.35663],[26.49018,70.35685],[26.49209,70.35635],[26.49489,70.35376],[26.49621,70.35333],[26.49997,70.3534],[26.50186,70.35306],[26.50922,70.34945],[26.50982,70.34766],[26.51173,70.3478]],[[26.52187,70.35759],[26.52208,70.3564],[26.52045,70.35509]],[[26.52988,70.36869],[26.52947,70.36833],[26.52801,70.36833]],[[26.52187,70.35759],[26.52131,70.35931],[26.52546,70.36477],[26.52543,70.36543],[26.52311,70.36638],[26.52366,70.36913],[26.52663,70.36918],[26.52801,70.36833]],[[26.49077,70.3723],[26.47627,70.36894],[26.47803,70.36531],[26.4807,70.36421],[26.47607,70.35947]],[[26.52988,70.36869],[26.52871,70.36951],[26.52963,70.37023],[26.53233,70.37084],[26.53699,70.37334],[26.53805,70.37541],[26.53687,70.37698],[26.53937,70.37741],[26.54019,70.37855],[26.54519,70.37922],[26.54811,70.3802],[26.55945,70.38235]],[[26.56616,70.38534],[26.56448,70.3835],[26.55945,70.38235]],[[26.62641,70.38143],[26.63087,70.38189]],[[26.56616,70.38534],[26.56935,70.3879],[26.58128,70.38894],[26.5815,70.38652],[26.58028,70.38517],[26.58141,70.38464],[26.58513,70.38411]],[[26.58322,70.39018],[26.58116,70.38966],[26.57981,70.39034],[26.57657,70.39019],[26.57062,70.3923],[26.57648,70.3941],[26.57884,70.39414],[26.58483,70.39267],[26.58533,70.3912],[26.58322,70.39018]],[[26.62315,70.39371],[26.62595,70.3948],[26.62829,70.39749]],[[26.62315,70.39371],[26.61688,70.39081],[26.61846,70.39028],[26.621,70.39014],[26.62916,70.38702],[26.62996,70.3841],[26.63135,70.3828],[26.63087,70.38189]],[[26.62251,70.39851],[26.62692,70.40001],[26.62985,70.40047],[26.63064,70.39931],[26.62829,70.39749]],[[26.62251,70.39851],[26.61706,70.39679],[26.61135,70.39576],[26.6074,70.39569],[26.60684,70.39833],[26.60377,70.39982],[26.5942,70.40001],[26.58679,70.4017],[26.5826,70.40218],[26.58463,70.40509]],[[26.58872,70.40636],[26.58867,70.40575],[26.58463,70.40509]],[[26.58872,70.40636],[26.58595,70.408],[26.58642,70.40879],[26.59324,70.41031],[26.59966,70.41118],[26.60167,70.41187]],[[26.68997,70.41397],[26.68927,70.41278]],[[26.50482,70.42199],[26.50459,70.42161],[26.50837,70.42109]],[[26.50837,70.42109],[26.51485,70.42105],[26.51814,70.41813],[26.51901,70.41563],[26.51718,70.41216],[26.51962,70.41037],[26.51739,70.40906]],[[26.6889,70.41214],[26.68927,70.41278]],[[26.68066,70.42346],[26.68127,70.42411],[26.68243,70.42334]],[[26.51183,70.43644],[26.52168,70.43435],[26.52297,70.43368]],[[26.51081,70.43697],[26.51183,70.43644]],[[26.7344,70.41994],[26.7345,70.42134],[26.73806,70.42356]],[[26.73806,70.42356],[26.73824,70.42414]],[[26.61829,70.42752],[26.61881,70.42924],[26.62424,70.4318],[26.62614,70.43207],[26.62835,70.43168],[26.62918,70.42899],[26.63128,70.42883],[26.63441,70.43014],[26.63752,70.4297],[26.64042,70.42859],[26.64239,70.427],[26.64505,70.42653],[26.64626,70.4257]],[[26.56053,70.43126],[26.55864,70.43207],[26.5573,70.43373],[26.56068,70.43569],[26.56704,70.4364]],[[26.62713,70.43265],[26.62546,70.43327],[26.62618,70.43438],[26.62752,70.43428],[26.62834,70.43369],[26.62713,70.43265]],[[26.56704,70.4364],[26.5798,70.43886],[26.57856,70.44034],[26.57372,70.44059],[26.57417,70.4415],[26.57544,70.44163],[26.57848,70.44058],[26.57918,70.44135],[26.58079,70.44168],[26.58243,70.44149],[26.58256,70.44056],[26.58468,70.44083],[26.5887,70.44193],[26.58905,70.44253],[26.58749,70.44391],[26.59025,70.44521],[26.59245,70.44571],[26.59921,70.44616],[26.6012,70.44668],[26.60155,70.4477],[26.60459,70.44801],[26.60613,70.44798],[26.60689,70.44699],[26.60877,70.44662],[26.60939,70.44714],[26.60795,70.44817],[26.60915,70.44895],[26.61351,70.44803],[26.61645,70.44654],[26.62006,70.44635],[26.62423,70.44502],[26.62823,70.44499],[26.62846,70.44369],[26.6238,70.44252],[26.62112,70.44132],[26.61399,70.44206],[26.61189,70.44189],[26.60858,70.44096],[26.6067,70.43949],[26.60366,70.4384],[26.59839,70.43758],[26.58663,70.43659],[26.58447,70.43609],[26.58391,70.43497],[26.58641,70.43409],[26.58582,70.4326],[26.58829,70.43198],[26.58791,70.43116],[26.59001,70.43012],[26.58852,70.42945]],[[26.5654,70.47308],[26.56358,70.47163],[26.56599,70.46789],[26.56258,70.46717],[26.56056,70.46725],[26.55893,70.46672]],[[26.54862,70.4881],[26.55413,70.48817],[26.55986,70.48723],[26.56627,70.48741],[26.57533,70.48571],[26.57767,70.48429],[26.58073,70.48367],[26.58499,70.48095],[26.58305,70.48],[26.58385,70.47754],[26.58003,70.47683],[26.57781,70.4757]],[[26.83544,70.48313],[26.83524,70.48026],[26.83376,70.47907],[26.83762,70.47768],[26.85404,70.47962],[26.86408,70.4788]],[[26.83524,70.48565],[26.83609,70.48395],[26.83544,70.48313]],[[26.76324,70.46362],[26.76614,70.46503],[26.7762,70.46675],[26.77652,70.46759],[26.77378,70.46894],[26.76831,70.46972],[26.76563,70.46967],[26.76369,70.46917],[26.76087,70.46943],[26.75962,70.46991],[26.76042,70.47032],[26.75969,70.47064],[26.75329,70.46969],[26.75365,70.47046],[26.75727,70.47105],[26.75875,70.47212],[26.75798,70.47471],[26.75329,70.47658],[26.74774,70.47703],[26.7432,70.47861],[26.74366,70.47919],[26.74941,70.48043],[26.75305,70.48287],[26.74899,70.48649],[26.74754,70.48704],[26.7456,70.48715],[26.74427,70.48799],[26.74502,70.48873],[26.74919,70.48897],[26.75743,70.48816],[26.76256,70.48809],[26.7649,70.48793],[26.76678,70.48728],[26.77139,70.48812],[26.76934,70.48599],[26.77849,70.48236],[26.78802,70.4807],[26.80235,70.48038],[26.8054,70.48105],[26.80592,70.48179],[26.80412,70.48226],[26.80723,70.48297],[26.80783,70.48355],[26.80531,70.48544],[26.81135,70.48677],[26.81242,70.48764],[26.8126,70.49102],[26.81374,70.49228],[26.81303,70.49399],[26.81423,70.49555],[26.81857,70.49616],[26.8272,70.49451],[26.83481,70.49223],[26.83894,70.48899],[26.83872,70.48715],[26.83524,70.48565]],[[26.7401,70.49986],[26.73866,70.49984],[26.73683,70.50061],[26.73754,70.50393],[26.73047,70.50503],[26.72873,70.50581],[26.7341,70.50668],[26.74404,70.50658]],[[26.74404,70.50658],[26.74958,70.50667],[26.75109,70.50725],[26.75291,70.5072],[26.75423,70.50445],[26.75884,70.5041],[26.76341,70.50437],[26.76223,70.50376],[26.76485,70.5028],[26.76343,70.50203],[26.76446,70.50141],[26.77259,70.50262],[26.77717,70.50148],[26.77805,70.49987],[26.78031,70.49953],[26.781,70.49812],[26.77512,70.49668],[26.7738,70.49569],[26.77103,70.49564],[26.77034,70.49491],[26.77055,70.4946],[26.77676,70.49355],[26.77716,70.49231],[26.77334,70.49177],[26.76766,70.49241],[26.76499,70.4933],[26.76291,70.49315],[26.76005,70.49556],[26.76338,70.49578],[26.76371,70.49636],[26.76128,70.49704],[26.757,70.49709],[26.75602,70.4978],[26.7564,70.49862],[26.75284,70.49964],[26.7401,70.49986]],[[26.75249,70.50851],[26.75009,70.50862],[26.74888,70.5094],[26.75086,70.50986],[26.75499,70.50912],[26.75249,70.50851]],[[26.88214,70.50924],[26.86969,70.50893],[26.85143,70.50689],[26.84603,70.50755],[26.8432,70.50854],[26.84946,70.51092],[26.85587,70.51202],[26.85829,70.51211],[26.86492,70.51095],[26.86556,70.5117],[26.86339,70.51422],[26.8649,70.51534],[26.87432,70.51565],[26.87767,70.51769],[26.88354,70.51844],[26.88374,70.51929],[26.88639,70.52054],[26.88882,70.52047]],[[26.61151,70.55193],[26.60948,70.55109],[26.60643,70.54661],[26.60159,70.54391],[26.59995,70.54093],[26.5944,70.53951],[26.589,70.53694],[26.58095,70.53416],[26.57504,70.53143],[26.57536,70.52971],[26.57053,70.5281],[26.5622,70.52425],[26.55613,70.52266]],[[26.60301,70.56367],[26.60499,70.56253],[26.60464,70.5612],[26.60249,70.56011],[26.60157,70.55816],[26.60492,70.55652],[26.61303,70.5543],[26.61308,70.55282],[26.61151,70.55193]],[[26.60215,70.56525],[26.60301,70.56367]],[[26.61865,70.59432],[26.61514,70.58873],[26.60846,70.58177],[26.60801,70.57918],[26.60138,70.57425],[26.60348,70.57186],[26.60215,70.56525]],[[26.62286,70.61521],[26.62216,70.61444]],[[26.62216,70.61444],[26.62501,70.61213],[26.62301,70.60947]],[[26.33015,70.65252],[26.33274,70.64998],[26.33431,70.65014],[26.33643,70.64967],[26.33884,70.64835]],[[26.34088,70.65857],[26.33661,70.65785],[26.33539,70.65703],[26.33141,70.65582],[26.32693,70.65516],[26.32502,70.65445],[26.32424,70.65349]],[[26.33884,70.64835],[26.36148,70.65065],[26.36847,70.65192],[26.37842,70.65252],[26.39521,70.6546],[26.39816,70.65508],[26.39938,70.65574],[26.40209,70.65572],[26.40418,70.65625],[26.40626,70.65768],[26.40638,70.65815],[26.40445,70.65893],[26.40553,70.65995],[26.41129,70.65837],[26.42194,70.65931]],[[26.42194,70.65931],[26.43152,70.66039],[26.4494,70.66313],[26.45588,70.66489],[26.46146,70.6648]],[[26.38506,70.67018],[26.38574,70.67145]],[[26.56111,70.66229],[26.565,70.66121],[26.56893,70.66067]],[[26.60172,70.65964],[26.60344,70.66005],[26.60451,70.65984],[26.60559,70.65756],[26.60829,70.65643],[26.61145,70.65578]],[[26.56893,70.66067],[26.57417,70.66092],[26.581,70.66342],[26.58484,70.66215],[26.58932,70.65983],[26.59357,70.66058],[26.59285,70.66091],[26.58955,70.66081],[26.58979,70.66125],[26.59363,70.66198],[26.5955,70.66319],[26.59835,70.66343],[26.59997,70.66293],[26.59797,70.66123],[26.60049,70.66003]],[[26.54198,70.66805],[26.54323,70.66696],[26.55271,70.66531],[26.56111,70.66229]],[[26.4005,70.67828],[26.39443,70.67609],[26.3907,70.67189],[26.38976,70.67191],[26.39008,70.67285],[26.38903,70.67297],[26.38574,70.67145]],[[26.46504,70.66513],[26.47005,70.66615],[26.47266,70.66593],[26.48106,70.6666],[26.48889,70.66645],[26.49156,70.66708],[26.50608,70.66847],[26.51236,70.67073],[26.53052,70.67043],[26.54035,70.66876],[26.54198,70.66805]],[[26.40206,70.67813],[26.40407,70.67916],[26.40048,70.68038],[26.40061,70.68143]],[[26.56615,70.67094],[26.56548,70.67218],[26.56165,70.67255],[26.56083,70.6732],[26.56816,70.67439]],[[26.40061,70.68143],[26.40914,70.68237],[26.42076,70.6829],[26.42895,70.68391],[26.43406,70.68539],[26.43698,70.68543]],[[26.47628,70.69073],[26.47094,70.68995],[26.46123,70.68772],[26.46024,70.68615],[26.45605,70.68605],[26.44709,70.68417],[26.44558,70.68422],[26.44595,70.68477],[26.4501,70.68574],[26.44978,70.68659],[26.44852,70.68693],[26.44286,70.68677],[26.4399,70.6856],[26.43698,70.68543]],[[26.49938,70.6943],[26.49657,70.69376],[26.49526,70.69294],[26.49128,70.69307],[26.47628,70.69073]],[[26.56816,70.67439],[26.57485,70.67466],[26.58172,70.6739],[26.58789,70.67383],[26.59015,70.6732],[26.5963,70.67379],[26.59955,70.67509],[26.60092,70.67632],[26.60209,70.67966],[26.60688,70.68159],[26.61366,70.68696],[26.61768,70.68898],[26.62385,70.68916],[26.62676,70.6884],[26.62711,70.68745],[26.62584,70.68634],[26.62859,70.68415],[26.62795,70.68339],[26.62575,70.6828],[26.62439,70.68137],[26.62512,70.67879],[26.62086,70.67426],[26.62152,70.67243],[26.61833,70.67083],[26.61124,70.6701],[26.60889,70.67062],[26.60722,70.67029],[26.60359,70.67213],[26.60031,70.672],[26.59534,70.67043],[26.59083,70.66722],[26.58958,70.66673],[26.5869,70.66648],[26.58692,70.6681],[26.58516,70.66976],[26.5854,70.67255],[26.57983,70.67183],[26.57736,70.67232],[26.57141,70.67248],[26.56887,70.6718],[26.57062,70.6703],[26.5681,70.67039],[26.56615,70.67094]],[[26.54775,70.70542],[26.51515,70.69655],[26.50452,70.69463],[26.49938,70.6943]],[[26.54775,70.70542],[26.55362,70.70933],[26.56314,70.71007],[26.57447,70.71304],[26.58443,70.7144]],[[26.58443,70.7144],[26.59263,70.71624]],[[26.67345,70.76632],[26.67904,70.76478],[26.68034,70.76402],[26.68061,70.76009],[26.68253,70.75875],[26.68425,70.7553],[26.68419,70.74978],[26.6805,70.74604],[26.66918,70.74321]],[[26.67263,70.76696],[26.67345,70.76632]],[[26.73166,70.77693],[26.73571,70.77655],[26.73462,70.77441],[26.73149,70.7742],[26.7274,70.77468],[26.723,70.77464],[26.72701,70.77701],[26.73015,70.77728],[26.73166,70.77693]],[[26.72025,70.77928],[26.72171,70.77904],[26.72085,70.77827],[26.71962,70.7787],[26.71891,70.77855],[26.71854,70.77462],[26.71263,70.77509],[26.71012,70.77628],[26.71693,70.77952],[26.71967,70.7796],[26.72025,70.77928]],[[26.6546,70.83265],[26.65461,70.83091],[26.65888,70.82864]],[[26.65997,70.83495],[26.66284,70.83531]],[[26.66574,70.84018],[26.66831,70.84051],[26.66914,70.84001],[26.66856,70.83783],[26.66589,70.83587],[26.66448,70.83531],[26.66284,70.83531]],[[26.68365,70.83343],[26.68459,70.83412],[26.68764,70.83476],[26.69291,70.83477],[26.69467,70.8343],[26.7004,70.83472],[26.70586,70.83715],[26.71426,70.83901],[26.71734,70.84042],[26.72249,70.84157],[26.72504,70.84284],[26.72884,70.8431],[26.7305,70.84273],[26.73154,70.84159],[26.72885,70.83617],[26.7322,70.83441],[26.73217,70.83306],[26.73086,70.83194],[26.73164,70.83035]],[[26.78469,70.83452],[26.7755,70.8347],[26.77421,70.83363],[26.77154,70.83326],[26.76772,70.83352],[26.76614,70.83451],[26.77652,70.84063],[26.78612,70.84183],[26.79115,70.83689],[26.78945,70.83582],[26.78469,70.83452]],[[26.66574,70.84018],[26.66317,70.84083],[26.66363,70.84445],[26.6617,70.84586],[26.66313,70.84715],[26.66979,70.84974],[26.67065,70.8524],[26.6684,70.85328],[26.66517,70.85354],[26.65466,70.85313],[26.65061,70.85368],[26.65443,70.85556],[26.66181,70.85685],[26.66352,70.8576],[26.66435,70.85947],[26.66332,70.8622],[26.66491,70.86352],[26.66774,70.86386],[26.67253,70.86332],[26.67384,70.86442],[26.67166,70.86552],[26.67212,70.86623],[26.67597,70.8669],[26.67974,70.86689],[26.68211,70.86772]],[[26.33511,70.85545],[26.33657,70.85697],[26.33909,70.85783],[26.34659,70.86231],[26.35191,70.86428],[26.36805,70.87375],[26.37949,70.87875],[26.39345,70.88413],[26.39844,70.88462],[26.40133,70.88616],[26.40706,70.88701],[26.40655,70.88762],[26.4087,70.88856],[26.41637,70.88848]],[[26.6954,70.87826],[26.69619,70.87714],[26.6938,70.87495],[26.68953,70.87296],[26.68581,70.86971],[26.68211,70.86772]],[[26.71013,70.91464],[26.71415,70.91365],[26.72355,70.9146],[26.72436,70.91414],[26.72385,70.91337],[26.72991,70.91236],[26.73113,70.90912],[26.73006,70.90757],[26.73046,70.90434],[26.72868,70.90233],[26.72146,70.90111],[26.71894,70.90014],[26.71684,70.89563],[26.71262,70.89393],[26.71506,70.89139],[26.71417,70.8905],[26.71213,70.89037],[26.71405,70.88815],[26.71439,70.88629],[26.71321,70.88304],[26.71119,70.88126],[26.70751,70.87981],[26.6983,70.87971],[26.69543,70.87898],[26.6954,70.87826]],[[26.70407,70.92328],[26.70041,70.91985],[26.70021,70.91873],[26.70655,70.9166],[26.71013,70.91464]],[[26.70407,70.92328],[26.7098,70.92617],[26.71207,70.9283],[26.71451,70.92866],[26.71953,70.93033]],[[26.72178,70.93409],[26.72302,70.93364],[26.71953,70.93033]],[[26.72178,70.93409],[26.72191,70.9343]],[[26.72311,70.93631],[26.72366,70.9358],[26.72191,70.9343]],[[26.51456,70.93532],[26.51991,70.93742],[26.52473,70.93871],[26.53409,70.94298],[26.54073,70.94528],[26.54587,70.94608],[26.55053,70.94762],[26.55204,70.94877],[26.56095,70.9515],[26.56468,70.95329],[26.56633,70.95304],[26.57387,70.95433],[26.57381,70.95081],[26.57642,70.95035],[26.57993,70.95028],[26.58968,70.95465],[26.59489,70.9552]],[[26.49484,70.38005],[26.4981,70.3783],[26.50175,70.37726],[26.50057,70.37592],[26.49683,70.37449],[26.4964,70.3731],[26.49469,70.3725],[26.49077,70.3723]],[[26.50041,70.38958],[26.49844,70.38721],[26.49822,70.38501],[26.49397,70.38105],[26.49484,70.38005]],[[26.60867,70.37933],[26.60668,70.3797],[26.60423,70.381],[26.59814,70.38223],[26.59574,70.38321],[26.58956,70.38301],[26.58513,70.38411]],[[26.62641,70.38143],[26.60867,70.37933]],[[26.51739,70.40906],[26.51679,70.40827],[26.5177,70.40742],[26.52232,70.40496],[26.51989,70.40447],[26.51915,70.40333],[26.52486,70.40243],[26.52821,70.40106],[26.52967,70.39968],[26.53064,70.39644],[26.53307,70.39526],[26.52915,70.39378],[26.52603,70.39388],[26.5228,70.39346],[26.51864,70.39186],[26.5069,70.38993],[26.50265,70.38953],[26.50221,70.3903],[26.5,70.39042],[26.50041,70.38958]],[[26.61993,70.42476],[26.61492,70.41973],[26.60281,70.41447],[26.60282,70.41268],[26.60167,70.41187]],[[26.52297,70.43368],[26.52284,70.43169],[26.51051,70.42943],[26.5103,70.42833],[26.50839,70.42761],[26.50776,70.42644],[26.50937,70.42568],[26.50851,70.42483],[26.50973,70.42398],[26.50798,70.42278],[26.50482,70.42199]],[[26.56053,70.43126],[26.56206,70.43017],[26.55689,70.42793],[26.55226,70.42746],[26.55039,70.42605],[26.55013,70.4222],[26.54899,70.42079],[26.54957,70.41871],[26.55248,70.41627],[26.55546,70.41626]],[[26.58852,70.42945],[26.58222,70.4287],[26.58067,70.42705],[26.58304,70.42369],[26.58829,70.42192],[26.58717,70.42041],[26.58381,70.41959],[26.57918,70.41944],[26.57173,70.41732],[26.55761,70.41606],[26.55546,70.41626]],[[26.61829,70.42752],[26.61993,70.42476]],[[26.68066,70.42346],[26.6814,70.42176],[26.68046,70.42049],[26.67438,70.41745],[26.67174,70.41717],[26.66976,70.41866],[26.6667,70.41902],[26.66474,70.41856],[26.65817,70.4239],[26.65504,70.42455],[26.65168,70.42339],[26.64889,70.4233],[26.64688,70.42413],[26.64626,70.4257]],[[26.68243,70.42334],[26.68325,70.42219],[26.68582,70.42256],[26.68652,70.42156],[26.68457,70.42068],[26.68327,70.41763],[26.68401,70.41714],[26.68599,70.41731],[26.6854,70.41604],[26.68792,70.41444],[26.68997,70.41397]],[[26.7344,70.41994],[26.73075,70.4179],[26.72404,70.4164],[26.72178,70.4151],[26.71538,70.41368],[26.70502,70.4139],[26.7038,70.41472],[26.7054,70.41578],[26.70542,70.41686],[26.70438,70.41772],[26.70287,70.4177],[26.70027,70.41469],[26.69533,70.4134],[26.69409,70.41188],[26.69145,70.41164],[26.6889,70.41214]],[[26.53264,70.45419],[26.5278,70.45326],[26.52607,70.45149],[26.52663,70.4496]],[[26.52663,70.4496],[26.52697,70.44751],[26.52249,70.44439],[26.5224,70.44272],[26.51917,70.44198],[26.5146,70.43927],[26.51416,70.43839],[26.51128,70.43759],[26.51081,70.43697]],[[26.6608,70.44947],[26.65818,70.44966],[26.65772,70.45001],[26.65874,70.45145],[26.65714,70.45239],[26.6594,70.45393],[26.66205,70.45246],[26.66229,70.45044],[26.6608,70.44947]],[[26.55893,70.46672],[26.55949,70.46504],[26.56591,70.46267],[26.56596,70.46194],[26.56143,70.46171],[26.55735,70.46077],[26.54934,70.45599],[26.54678,70.4555],[26.54356,70.4561],[26.54127,70.45552],[26.53881,70.45447],[26.54013,70.45357],[26.53891,70.45297],[26.53803,70.45295],[26.53618,70.4541],[26.53264,70.45419]],[[26.57781,70.4757],[26.57191,70.47453],[26.57073,70.47337],[26.5654,70.47308]],[[26.76324,70.46362],[26.76071,70.46304],[26.7594,70.46211],[26.7604,70.46167],[26.76361,70.46157],[26.76516,70.46042],[26.76281,70.45884],[26.76251,70.45597],[26.76026,70.45478],[26.7577,70.45087],[26.7602,70.44726],[26.75847,70.44624],[26.75562,70.44558],[26.75679,70.44508],[26.75926,70.44485],[26.76405,70.44289],[26.76532,70.43945],[26.76304,70.43831],[26.75006,70.43512],[26.74697,70.43472],[26.74161,70.43489],[26.74217,70.43664],[26.74113,70.43718],[26.73911,70.437],[26.73657,70.436],[26.73491,70.43617],[26.734,70.43704],[26.7317,70.43699],[26.72946,70.43462],[26.72559,70.43249],[26.72885,70.4312],[26.72892,70.42936],[26.73236,70.42841],[26.73824,70.42414]],[[26.55613,70.52266],[26.55318,70.52186],[26.54974,70.51965],[26.54949,70.51517],[26.54635,70.51342],[26.55132,70.5102],[26.54748,70.5047],[26.55543,70.50159],[26.55597,70.49976],[26.55947,70.49786],[26.55484,70.49378],[26.54789,70.49162],[26.54804,70.49066],[26.55,70.49005],[26.54802,70.48974],[26.54862,70.4881]],[[26.62301,70.60947],[26.61879,70.60391],[26.62068,70.602],[26.62006,70.60034],[26.62199,70.60007],[26.62394,70.60052],[26.6246,70.59985],[26.61989,70.59672],[26.61865,70.59432]],[[26.38506,70.67018],[26.38233,70.66869],[26.38221,70.66753],[26.3756,70.666],[26.37407,70.66502],[26.36945,70.6642],[26.36905,70.66334],[26.36705,70.66276],[26.35511,70.66058],[26.35013,70.66024],[26.34088,70.65857]],[[26.46504,70.66513],[26.46146,70.6648]],[[26.61145,70.65578],[26.6185,70.65404],[26.62129,70.65174],[26.6247,70.65035],[26.62842,70.64968],[26.63743,70.6497],[26.64074,70.64658],[26.6385,70.64091],[26.63594,70.63834],[26.63543,70.63592],[26.63102,70.63042],[26.62637,70.62822],[26.61805,70.62714],[26.60959,70.62473],[26.60988,70.62308],[26.61725,70.62189],[26.62425,70.6201],[26.62765,70.61812],[26.6275,70.61723],[26.62545,70.61596],[26.62286,70.61521]],[[26.65997,70.83495],[26.65483,70.83295]],[[26.66918,70.74321],[26.66612,70.74127],[26.65867,70.74029],[26.65398,70.73895],[26.65359,70.73767],[26.6575,70.7365],[26.65543,70.73507],[26.65175,70.73529],[26.64687,70.73456],[26.63669,70.73081],[26.63425,70.72797],[26.63172,70.72746],[26.62373,70.72428],[26.59263,70.71624]],[[26.68447,70.7878],[26.68436,70.78633],[26.68079,70.78334],[26.68144,70.782],[26.67699,70.78062],[26.67155,70.77802],[26.6726,70.7762],[26.67085,70.77044],[26.67263,70.76696]],[[26.33511,70.85545],[26.33124,70.85365],[26.32856,70.85042],[26.32599,70.84975],[26.32409,70.8497],[26.32143,70.84884],[26.31936,70.84704],[26.3154,70.8453],[26.3155,70.84222],[26.30839,70.83875],[26.30865,70.83622],[26.30559,70.83537],[26.30023,70.83543],[26.29439,70.83493],[26.27639,70.82578],[26.27475,70.82329],[26.27606,70.81966],[26.27429,70.81758],[26.27034,70.81673],[26.26576,70.81731],[26.26025,70.81713],[26.25412,70.81603],[26.25178,70.81508]],[[26.68365,70.83343],[26.68249,70.8325],[26.6756,70.83201],[26.66323,70.8286],[26.65888,70.82864]],[[26.73164,70.83035],[26.7346,70.82551],[26.7306,70.82347],[26.72651,70.82328],[26.71619,70.82455],[26.71303,70.8238],[26.71118,70.82264],[26.71091,70.81956],[26.71347,70.81764],[26.71245,70.81628],[26.71578,70.81294],[26.71799,70.80886],[26.71716,70.80388],[26.71138,70.79987],[26.70369,70.7982],[26.70029,70.79594],[26.69309,70.79258],[26.69149,70.79091],[26.68533,70.7889],[26.68447,70.7878]],[[26.42693,70.89526],[26.42296,70.89235],[26.42762,70.89058],[26.42837,70.88881],[26.42237,70.8871],[26.41945,70.88726],[26.41637,70.88848]],[[26.51456,70.93532],[26.50712,70.93334],[26.50268,70.93089],[26.49531,70.92819],[26.48919,70.92469],[26.4843,70.92328],[26.47717,70.9204],[26.47654,70.91974],[26.47747,70.91811],[26.46674,70.9155],[26.4638,70.91308],[26.45264,70.90773],[26.45411,70.90419],[26.45345,70.90376],[26.45166,70.90325],[26.44394,70.90295],[26.43896,70.90323],[26.43479,70.90122],[26.43473,70.90006],[26.43218,70.89773],[26.42693,70.89526]],[[26.59489,70.9552],[26.59996,70.95511],[26.60231,70.95575],[26.61586,70.95393],[26.62469,70.95442],[26.63412,70.95671],[26.64287,70.96036],[26.64651,70.96119],[26.65741,70.96123],[26.6619,70.96225],[26.66328,70.96335],[26.66069,70.96546],[26.66119,70.96631],[26.66411,70.96763],[26.66923,70.96892],[26.67493,70.96999],[26.67773,70.96965],[26.68241,70.96835],[26.68452,70.96854],[26.6852,70.96938],[26.68711,70.96923],[26.68797,70.96841],[26.69163,70.9677],[26.69248,70.96716],[26.69536,70.9679],[26.6992,70.96694],[26.70115,70.96712],[26.70488,70.9663],[26.70352,70.96534],[26.70031,70.96446],[26.70014,70.96382],[26.69357,70.96347],[26.6873,70.96234],[26.6839,70.96022],[26.68544,70.95948],[26.69052,70.95866],[26.69287,70.95871],[26.69485,70.95808],[26.697,70.95666],[26.69742,70.95453],[26.70046,70.95297],[26.69897,70.9522],[26.7022,70.95189],[26.70345,70.94965],[26.70475,70.94903],[26.70493,70.94817],[26.70249,70.94702],[26.70367,70.94648],[26.70828,70.94617],[26.70947,70.94477],[26.71464,70.94531],[26.71938,70.94204],[26.72081,70.93869],[26.72036,70.93638],[26.72311,70.93631]],[[25.99847,70.64859],[26.00077,70.65009]],[[26.00077,70.65009],[26.00715,70.65426]],[[26.01533,70.6618],[26.01508,70.65959],[26.00715,70.65426]],[[26.01533,70.6618],[26.01437,70.6648],[26.0157,70.66926],[26.01907,70.67335],[26.0224,70.67548]],[[26.02369,70.67724],[26.0224,70.67548]],[[26.0212,70.6796],[26.01891,70.68051],[26.01917,70.68308],[26.02179,70.68629],[26.02573,70.68777]],[[26.03363,70.70197],[26.03068,70.70213],[26.02866,70.70298],[26.03175,70.7099],[26.03036,70.7135],[26.03409,70.71621],[26.03958,70.71781],[26.04163,70.72155],[26.0458,70.72382]],[[26.16157,70.77512],[26.15903,70.77443],[26.15664,70.77445],[26.15375,70.77394],[26.15056,70.77251],[26.1407,70.77095],[26.13614,70.76931],[26.12953,70.76601],[26.12889,70.76461],[26.13306,70.76373],[26.13731,70.76092],[26.14115,70.76044],[26.14251,70.75855],[26.13934,70.75614],[26.13288,70.7537],[26.12995,70.74874],[26.13034,70.74393],[26.127,70.74119],[26.11822,70.73629],[26.11641,70.7343],[26.11774,70.73348],[26.11789,70.73229]],[[26.16157,70.77512],[26.16867,70.77704],[26.17926,70.77805],[26.18762,70.77959],[26.18905,70.77929],[26.19052,70.77808],[26.19327,70.77768],[26.1955,70.77782],[26.20464,70.78117],[26.20964,70.78484],[26.21948,70.78722]],[[26.22629,70.78929],[26.21948,70.78722]],[[26.22447,70.79599],[26.22623,70.79421],[26.22909,70.79309],[26.22828,70.79055]],[[26.22447,70.79599],[26.22572,70.7982]],[[26.25178,70.81508],[26.24395,70.8113],[26.23414,70.8019],[26.23098,70.80001],[26.22572,70.7982]],[[26.02525,70.97506],[26.02435,70.97491],[26.02335,70.97524],[26.02298,70.97687],[26.0266,70.97675],[26.02729,70.97637],[26.02525,70.97506]],[[25.99875,70.97388],[26.00326,70.97413],[26.01335,70.97385],[26.01779,70.9745],[26.01845,70.97496],[26.01665,70.984],[26.0174,70.98552],[26.02173,70.98787],[26.03005,70.98983],[26.03133,70.98974],[26.03213,70.98896],[26.03175,70.98782],[26.02921,70.98641],[26.02883,70.98509],[26.02892,70.98385],[26.03091,70.98216],[26.02991,70.98059],[26.02674,70.97921],[26.02697,70.97887],[26.03409,70.97903],[26.03544,70.98034],[26.03805,70.98106],[26.05264,70.98264]],[[26.0212,70.6796],[26.02326,70.67835],[26.02369,70.67724]],[[26.03675,70.69175],[26.03281,70.68948],[26.02573,70.68777]],[[26.03363,70.70197],[26.04268,70.70063],[26.04616,70.69785],[26.04704,70.69603],[26.04622,70.69465],[26.0435,70.69308],[26.03963,70.69298],[26.03675,70.69175]],[[26.11789,70.73229],[26.11516,70.73018],[26.11159,70.7287],[26.11092,70.72707],[26.11233,70.72547],[26.10781,70.72419],[26.10736,70.72331],[26.10895,70.72262],[26.10579,70.72152],[26.10841,70.71948],[26.10579,70.71881],[26.10017,70.71853],[26.09709,70.71912],[26.09813,70.72118],[26.09557,70.72041],[26.09344,70.71899],[26.09027,70.71896],[26.08674,70.71975],[26.08673,70.72018],[26.09105,70.72206],[26.0905,70.72405],[26.08738,70.72652],[26.08107,70.72935],[26.07907,70.73086],[26.07292,70.73072],[26.06918,70.72972],[26.06411,70.72958],[26.05923,70.72863],[26.0458,70.72382]],[[26.11887,71.00028],[26.12333,70.9994],[26.12347,70.9989],[26.122,70.99864],[26.12212,70.99816],[26.12347,70.99789],[26.1226,70.99703],[26.12588,70.99604],[26.12464,70.99448],[26.12266,70.99353],[26.11611,70.99192],[26.11107,70.9914],[26.10685,70.9904],[26.0981,70.9899],[26.0925,70.98895],[26.07859,70.98547],[26.07144,70.98535],[26.06446,70.98403],[26.05264,70.98264]]]}}]}