{"type":"FeatureCollection","features":[{"type":"Feature","properties":{},"geometry":{"type":"MultiLineString","coordinates":[[[22.03209,69.99923],[22.02653,70.00245],[22.02289,70.00356]],[[22.07281,70.03134],[22.05874,70.02875],[22.04791,70.02842],[22.03833,70.02897],[22.02218,70.02765],[22.00429,70.02542],[21.99914,70.02377]],[[22.08052,70.03103],[22.08461,70.03034],[22.08928,70.02892],[22.08678,70.0278],[22.0862,70.02626],[22.07946,70.02586],[22.0741,70.02468],[22.06168,70.02001],[22.04414,70.01943],[22.03491,70.01853],[22.03064,70.01749],[22.02111,70.01669],[22.01564,70.01557],[22.00793,70.01329],[22.00742,70.01274],[22.01064,70.01056],[22.01494,70.00839],[22.01931,70.005],[22.02289,70.00356]],[[22.07281,70.03134],[22.07627,70.03156],[22.08052,70.03103]],[[22.07225,70.12156],[22.07082,70.12045]],[[22.00243,70.07922],[22.00415,70.0768],[22.00195,70.07474],[21.99223,70.07327]],[[22.00243,70.07922],[22.0036,70.08226],[22.0116,70.08563],[22.0164,70.08844],[22.02223,70.09045],[22.02864,70.09559],[22.03369,70.09678],[22.04805,70.09873],[22.05097,70.09939],[22.05313,70.10086],[22.05861,70.10222],[22.06459,70.1082],[22.06483,70.11076],[22.06665,70.11317],[22.06614,70.11585],[22.07082,70.12045]],[[22.05087,70.12241],[22.04831,70.12017],[22.04802,70.11708],[22.04457,70.11278],[22.03535,70.10602],[22.03324,70.10516],[22.02502,70.10297],[22.007,70.09921],[22.00568,70.09985],[22.00489,70.10338],[22.00196,70.1057],[22.00046,70.10659],[21.99662,70.10701]],[[22.05805,70.12606],[22.05591,70.12387],[22.05228,70.12314],[22.05087,70.12241]],[[22.06913,70.12771],[22.06505,70.12664],[22.0646,70.12564],[22.06601,70.12505],[22.06983,70.12591],[22.07105,70.12581],[22.0734,70.12293],[22.07225,70.12156]],[[22.06818,70.12856],[22.06985,70.12805],[22.06913,70.12771]],[[22.05805,70.12606],[22.06077,70.1286],[22.06483,70.12897],[22.06818,70.12856]],[[22.7843,70.09183],[22.7807,70.09135]],[[22.71237,70.09497],[22.73319,70.09785],[22.73607,70.09782],[22.74754,70.09917],[22.76016,70.09918],[22.76424,70.09964],[22.77276,70.09966],[22.78423,70.10072]],[[22.50393,70.12415],[22.50162,70.12383],[22.50103,70.12471],[22.50392,70.12508],[22.50459,70.12484],[22.50393,70.12415]],[[22.94574,70.12985],[22.93129,70.12379],[22.92512,70.12233]],[[22.98897,70.12785],[22.98903,70.12792]],[[22.37194,70.15453],[22.37281,70.15449]],[[22.98925,70.13751],[22.99451,70.13715]],[[22.33536,70.20115],[22.33518,70.19861]],[[22.93923,70.15892],[22.93906,70.15849]],[[22.34391,70.23165],[22.34793,70.23036]],[[22.52125,70.23879],[22.5214,70.23855]],[[22.46886,70.32922],[22.46929,70.32883]],[[22.46938,70.33099],[22.46886,70.32922]],[[22.87642,70.31359],[22.87432,70.31334]],[[22.8737,70.31424],[22.87366,70.31417]],[[22.48129,70.3305],[22.48339,70.33513]],[[22.43301,70.3479],[22.43381,70.3478]],[[22.41607,70.35641],[22.41351,70.35648],[22.41076,70.35772],[22.41194,70.35804],[22.41576,70.35781],[22.41607,70.35641]],[[22.99354,70.33931],[22.99342,70.33933]],[[22.58047,70.37148],[22.5781,70.36377]],[[22.73159,70.36505],[22.73193,70.36709]],[[22.66068,70.36808],[22.66087,70.36935],[22.65956,70.3708]],[[22.89316,70.38512],[22.89366,70.38493]],[[22.29646,70.02277],[22.3041,70.0241],[22.31889,70.03252],[22.32503,70.0338],[22.33103,70.03565],[22.3352,70.03716],[22.34087,70.04024],[22.36823,70.04902]],[[22.32129,70.0519],[22.31389,70.0514],[22.30131,70.04759],[22.29589,70.04647]],[[22.32667,70.04957],[22.32296,70.05052],[22.32129,70.0519]],[[22.97576,70.032],[22.98401,70.03036],[22.9923,70.03056],[23.00048,70.0292]],[[22.36501,70.06457],[22.35816,70.06247],[22.36314,70.05915],[22.36091,70.0571],[22.36378,70.05673],[22.36276,70.05521],[22.36101,70.0557],[22.35763,70.05569],[22.35264,70.05363],[22.34264,70.05202],[22.33502,70.04997],[22.33071,70.04932],[22.32667,70.04957]],[[22.49031,70.05933],[22.47533,70.05884],[22.46404,70.05726],[22.45894,70.05782],[22.45196,70.05781],[22.44616,70.0567],[22.43745,70.05686],[22.42857,70.05576],[22.42146,70.05537],[22.39585,70.05582],[22.3863,70.05384],[22.36823,70.04902]],[[22.96917,70.03846],[22.97187,70.03812],[22.9722,70.0363],[22.97488,70.03499],[22.97863,70.0341],[22.97699,70.03334],[22.97363,70.03342],[22.9733,70.03289],[22.9751,70.03247]],[[22.95399,70.04014],[22.95561,70.04061],[22.96087,70.04074]],[[22.96087,70.04074],[22.96464,70.0402],[22.96917,70.03846]],[[22.49031,70.05933],[22.49793,70.05942],[22.49951,70.06026],[22.50468,70.06089]],[[22.36501,70.06457],[22.37173,70.06634],[22.37448,70.06656]],[[22.40837,70.06968],[22.39658,70.06894],[22.39125,70.069],[22.38618,70.06776],[22.37448,70.06656]],[[22.97074,70.04478],[22.96773,70.0455],[22.96289,70.04567],[22.95439,70.04505],[22.95262,70.04425],[22.95188,70.04314],[22.95399,70.04014]],[[22.40837,70.06968],[22.42036,70.07327],[22.42358,70.07521],[22.43444,70.07798]],[[22.50468,70.06089],[22.51765,70.06204],[22.52242,70.06353],[22.525,70.06283],[22.53808,70.06371],[22.55385,70.06565],[22.59229,70.06833],[22.59646,70.06906],[22.60552,70.06972],[22.62038,70.07217],[22.64206,70.07474]],[[22.46981,70.08209],[22.47285,70.08105],[22.46894,70.0796],[22.47141,70.07801],[22.48188,70.07705],[22.48655,70.07693],[22.49059,70.07735],[22.49706,70.07743],[22.51031,70.07637]],[[22.46634,70.08279],[22.46981,70.08209]],[[22.43444,70.07798],[22.43849,70.07945],[22.44394,70.08072],[22.45014,70.08143],[22.45644,70.08168],[22.46316,70.08301],[22.46634,70.08279]],[[22.64206,70.07474],[22.64736,70.07533],[22.65401,70.0755],[22.66761,70.07439]],[[22.66761,70.07439],[22.66961,70.07442],[22.67118,70.07532],[22.67335,70.07559],[22.68045,70.07523]],[[22.51031,70.07637],[22.52082,70.07542],[22.54336,70.07514],[22.55381,70.07535],[22.59586,70.07752],[22.60361,70.07843],[22.61505,70.08098],[22.62514,70.08579],[22.62891,70.0892],[22.63165,70.09008],[22.63573,70.09032],[22.64745,70.0893]],[[22.68045,70.07523],[22.68668,70.07614],[22.69935,70.07915],[22.71083,70.08138],[22.72446,70.08601],[22.73523,70.08766]],[[22.73523,70.08766],[22.74294,70.08957],[22.74465,70.08959],[22.74836,70.08855],[22.75278,70.08896],[22.75993,70.08896]],[[22.75993,70.08896],[22.7727,70.09018],[22.7807,70.09135]],[[22.71237,70.09497],[22.7081,70.09415],[22.69477,70.09034],[22.68268,70.08823],[22.67369,70.08776],[22.64745,70.0893]],[[22.98401,70.08297],[22.98543,70.07943],[22.98366,70.07659],[22.9841,70.07403],[22.98805,70.07069],[22.99163,70.0697],[22.99434,70.06677],[22.99403,70.06475],[22.99662,70.06319],[22.9978,70.06144],[22.99783,70.05744],[22.99393,70.0559],[22.98601,70.05496],[22.98478,70.05343],[22.98794,70.05194],[22.98415,70.0499],[22.97832,70.04807],[22.97848,70.04612],[22.97619,70.04435],[22.97215,70.04419],[22.97074,70.04478]],[[22.52644,70.12067],[22.53054,70.11951],[22.53459,70.11896],[22.5404,70.1153],[22.54089,70.1129],[22.53908,70.11271],[22.53046,70.11603],[22.52519,70.11724]],[[22.82838,70.10727],[22.82651,70.10763],[22.82719,70.10855],[22.83157,70.10971],[22.83339,70.10979],[22.83336,70.1092],[22.82838,70.10727]],[[22.33483,70.12532],[22.33514,70.12766],[22.33374,70.13001],[22.33921,70.13166],[22.34046,70.13654]],[[22.81267,70.11357],[22.81929,70.11314],[22.82881,70.11435],[22.83949,70.11268],[22.8396,70.11215],[22.83086,70.1108],[22.8254,70.10925],[22.82051,70.10909],[22.81528,70.10658],[22.81209,70.10586],[22.80586,70.10523],[22.80322,70.10454],[22.80167,70.10341],[22.79676,70.10228],[22.78423,70.10072]],[[22.79762,70.11621],[22.80334,70.11561],[22.81267,70.11357]],[[22.99121,70.11116],[22.99329,70.11062],[22.99614,70.10823],[22.99999,70.1068],[22.99922,70.10603],[22.99563,70.10645],[22.9927,70.10607],[22.99037,70.10547],[22.98909,70.10434],[22.99151,70.09927],[22.9889,70.09853],[22.98744,70.09663],[22.98939,70.09341],[22.98901,70.09075],[22.98763,70.08921],[22.98863,70.08791],[22.98723,70.08682],[22.98835,70.0856],[22.98401,70.08297]],[[22.34046,70.13654],[22.33861,70.13866],[22.33934,70.13994],[22.34354,70.14],[22.34826,70.13843]],[[22.34826,70.13843],[22.35393,70.13796],[22.36041,70.13817],[22.36478,70.1375],[22.36896,70.13741],[22.3703,70.13768],[22.37082,70.1384],[22.37589,70.13918],[22.383,70.13898],[22.39283,70.13778],[22.39746,70.1393],[22.40068,70.13977]],[[22.40068,70.13977],[22.40394,70.13997],[22.40727,70.13937],[22.42289,70.13378],[22.43139,70.13352],[22.43338,70.13301],[22.43492,70.13186],[22.44124,70.13044],[22.44884,70.12999],[22.45513,70.12826],[22.4578,70.12792],[22.46647,70.12789],[22.47202,70.12591],[22.47621,70.12522],[22.48142,70.12591],[22.48561,70.12493],[22.48875,70.12497],[22.49412,70.1227],[22.49942,70.12163],[22.50104,70.11973],[22.50691,70.11702],[22.50782,70.11608],[22.51098,70.1161],[22.51216,70.11816],[22.51899,70.11913],[22.5216,70.11881],[22.52519,70.11724]],[[22.98869,70.11754],[22.99128,70.11559],[22.98828,70.11361],[22.98803,70.11252],[22.99121,70.11116]],[[22.7843,70.09183],[22.79528,70.09276],[22.80003,70.09338],[22.80263,70.09419],[22.82529,70.0958],[22.84035,70.09758],[22.84361,70.09883],[22.86191,70.10239],[22.87996,70.10723],[22.88532,70.10934],[22.88899,70.1116],[22.88978,70.11338],[22.8939,70.11494],[22.91991,70.1216],[22.92512,70.12233]],[[22.98539,70.12226],[22.98571,70.12078],[22.98904,70.12],[22.99048,70.11906],[22.98869,70.11754]],[[22.98897,70.12785],[22.98539,70.12226]],[[22.37194,70.15453],[22.3588,70.15454],[22.35541,70.15403],[22.34165,70.15345],[22.33204,70.15226],[22.32715,70.15203],[22.32058,70.15268],[22.3186,70.1544],[22.31597,70.15509],[22.30974,70.15468]],[[22.37645,70.15434],[22.37281,70.15449]],[[22.42697,70.15224],[22.42834,70.15167],[22.43384,70.15156],[22.43969,70.15014],[22.44003,70.1493],[22.43895,70.14829],[22.44361,70.146],[22.45919,70.14537],[22.46462,70.14386],[22.47485,70.14319],[22.47705,70.14191],[22.47615,70.14034],[22.47907,70.13872],[22.48186,70.13784],[22.48927,70.13734],[22.4928,70.13601],[22.4944,70.13605],[22.49608,70.1356],[22.49627,70.1334],[22.49792,70.13328],[22.50132,70.13402],[22.50318,70.1339],[22.51343,70.13044],[22.5147,70.12819],[22.51954,70.12733],[22.51774,70.12568],[22.51788,70.12516],[22.52004,70.12438],[22.51992,70.12295],[22.52445,70.12222],[22.52644,70.12067]],[[22.87526,70.13299],[22.87139,70.13081],[22.8642,70.12901],[22.85752,70.12603],[22.84857,70.12458],[22.84555,70.12249],[22.83759,70.12156],[22.83612,70.12027],[22.82883,70.11758],[22.82157,70.11687],[22.81855,70.11826],[22.81325,70.11914],[22.80714,70.11828],[22.79828,70.11782],[22.79762,70.11621]],[[22.37645,70.15434],[22.38906,70.15512],[22.39393,70.15472],[22.39533,70.15383],[22.40595,70.15442]],[[22.40595,70.15442],[22.41068,70.15444],[22.42697,70.15224]],[[22.9987,70.13225],[22.99029,70.12934],[22.98903,70.12792]],[[22.99451,70.13715],[22.99755,70.13686],[23.00257,70.13321]],[[23.00257,70.13321],[22.9987,70.13225]],[[22.94574,70.12985],[22.94763,70.13139],[22.95308,70.13373],[22.95687,70.13479],[22.95977,70.13645],[22.96472,70.1372],[22.97135,70.13988],[22.98094,70.13994],[22.98925,70.13751]],[[22.87526,70.13299],[22.87825,70.13521],[22.878,70.13665],[22.88054,70.13994],[22.87968,70.14091],[22.88018,70.14171],[22.88746,70.14469],[22.88701,70.14536],[22.8886,70.14565],[22.88926,70.145],[22.89071,70.14486],[22.89281,70.14605],[22.90806,70.15004],[22.91288,70.15089],[22.91402,70.15151],[22.90771,70.15472],[22.90483,70.15769],[22.9044,70.15852],[22.90605,70.1603],[22.90332,70.16183],[22.90383,70.16318],[22.91011,70.16414],[22.91932,70.16359],[22.92208,70.16288],[22.92565,70.15923],[22.92787,70.15832],[22.93579,70.15803],[22.93906,70.15849]],[[22.93923,70.15892],[22.93683,70.1598],[22.9365,70.16078],[22.93779,70.16267],[22.94149,70.16478]],[[22.33518,70.19861],[22.33239,70.19744],[22.33119,70.19582],[22.33247,70.19406]],[[22.95985,70.1744],[22.95962,70.17364],[22.95774,70.17273],[22.95411,70.17209],[22.95138,70.17097],[22.95136,70.17027],[22.94767,70.16876],[22.94149,70.16478]],[[22.58547,70.20984],[22.57766,70.20533],[22.58049,70.20333],[22.58196,70.20296]],[[22.95456,70.19854],[22.96042,70.19699],[22.9613,70.19506],[22.96558,70.19236],[22.96717,70.18932],[22.96594,70.18814],[22.96595,70.18374],[22.96709,70.18253],[22.9662,70.18049],[22.96538,70.17912],[22.95868,70.17563],[22.95985,70.1744]],[[22.61001,70.22034],[22.60123,70.21362],[22.59121,70.21161],[22.58897,70.21147],[22.58547,70.20984]],[[22.80611,70.20669],[22.81363,70.206]],[[22.81363,70.206],[22.81827,70.20655],[22.82425,70.20619]],[[22.33536,70.20115],[22.33612,70.20498],[22.33838,70.20695],[22.33634,70.20855],[22.33846,70.21075],[22.33298,70.21938],[22.33292,70.22053],[22.3351,70.22174],[22.33578,70.22298],[22.33305,70.22382],[22.33254,70.22448],[22.33277,70.22744]],[[22.86998,70.20691],[22.8721,70.20698]],[[22.82425,70.20619],[22.82811,70.20572],[22.83239,70.20594],[22.8384,70.20543],[22.84527,70.20679],[22.85181,70.20687],[22.85418,70.20737],[22.86759,70.20752],[22.86998,70.20691]],[[22.8721,70.20698],[22.87882,70.20768],[22.91135,70.20623],[22.91514,70.20478],[22.92061,70.20511],[22.92404,70.20465],[22.92742,70.205],[22.92961,70.20473],[22.9308,70.20369],[22.93301,70.20301],[22.94169,70.20242],[22.94203,70.20104],[22.94347,70.20048],[22.94733,70.19981],[22.94907,70.19999],[22.95083,70.19969],[22.95456,70.19854]],[[22.74424,70.2138],[22.74767,70.21314],[22.75741,70.21251],[22.76441,70.21117],[22.76948,70.21127],[22.7744,70.21073],[22.77901,70.21133],[22.78004,70.21125],[22.78131,70.21022],[22.78972,70.21017],[22.80611,70.20669]],[[22.36105,70.23041],[22.35076,70.22985],[22.34793,70.23036]],[[22.72639,70.21249],[22.73371,70.21245],[22.73882,70.21467],[22.74424,70.2138]],[[22.70221,70.21775],[22.71143,70.21446],[22.71805,70.21431],[22.72296,70.2134],[22.72443,70.21255],[22.72639,70.21249]],[[22.33277,70.22744],[22.33265,70.22919],[22.33572,70.23272],[22.33956,70.2331],[22.34246,70.23288],[22.34391,70.23165]],[[22.69558,70.21837],[22.70221,70.21775]],[[22.58196,70.20296],[22.58342,70.20301],[22.6002,70.20748],[22.60604,70.20775],[22.61513,70.20659],[22.61771,70.20643],[22.61959,70.20671],[22.62535,70.20842],[22.63639,70.21647],[22.64204,70.21891],[22.64884,70.22045],[22.65465,70.21977]],[[22.65465,70.21977],[22.66653,70.21888],[22.67342,70.21937],[22.68775,70.21941],[22.69558,70.21837]],[[22.51697,70.23155],[22.51772,70.23002],[22.51479,70.22925],[22.51269,70.22583],[22.51747,70.22423],[22.52192,70.22344],[22.52696,70.22453],[22.53129,70.2276],[22.54004,70.22961]],[[22.567,70.23111],[22.57408,70.22954],[22.59981,70.22597],[22.6037,70.22472],[22.61304,70.22348],[22.6133,70.2227],[22.61001,70.22034]],[[22.54004,70.22961],[22.55233,70.23265],[22.55631,70.23282]],[[22.55631,70.23282],[22.55939,70.23282],[22.567,70.23111]],[[22.34715,70.24579],[22.34828,70.24446],[22.34741,70.24381],[22.35042,70.24219],[22.34931,70.24084],[22.34605,70.24038],[22.34491,70.23902],[22.34908,70.23832],[22.35089,70.23601],[22.36174,70.23125],[22.36105,70.23041]],[[22.5214,70.23855],[22.5227,70.23756],[22.52228,70.23663],[22.51697,70.23155]],[[22.34715,70.24579],[22.34475,70.2493],[22.35052,70.25219]],[[22.45372,70.25303],[22.46091,70.25211],[22.46763,70.25024],[22.47062,70.24552],[22.47328,70.2446],[22.48114,70.24401],[22.4901,70.24528],[22.49199,70.24591],[22.49785,70.24541],[22.50059,70.2447],[22.50529,70.2449],[22.51085,70.24341],[22.51483,70.24112],[22.51805,70.24095],[22.52148,70.24016],[22.52125,70.23879]],[[22.44194,70.2539],[22.4486,70.25288],[22.45372,70.25303]],[[22.41958,70.25459],[22.42134,70.25507],[22.43183,70.25504],[22.44194,70.2539]],[[22.35052,70.25219],[22.3535,70.25434],[22.35399,70.25558],[22.35348,70.25653],[22.3508,70.25757],[22.34919,70.25887],[22.35554,70.25972],[22.3572,70.26087],[22.35883,70.25993],[22.36281,70.26028],[22.37231,70.25894],[22.37563,70.25788],[22.37954,70.25536],[22.38423,70.25466],[22.38704,70.2547],[22.39343,70.2559],[22.3984,70.25548],[22.41247,70.25584],[22.41529,70.25487],[22.41958,70.25459]],[[22.83982,70.24691],[22.84244,70.24711],[22.84736,70.2484],[22.84865,70.2481]],[[22.84865,70.2481],[22.84994,70.24741],[22.85137,70.24734],[22.85353,70.2485],[22.86051,70.24932],[22.86213,70.24829],[22.85908,70.24831],[22.8575,70.24751],[22.86058,70.24704],[22.8628,70.24785],[22.86524,70.24816],[22.86822,70.24808],[22.86958,70.24759],[22.87762,70.24776]],[[22.87762,70.24776],[22.88795,70.24924],[22.89186,70.24891],[22.89818,70.24771],[22.8999,70.24666],[22.90555,70.24553],[22.91649,70.24545],[22.92288,70.24485],[22.93413,70.24299],[22.93869,70.24175],[22.94991,70.24056],[22.95652,70.23929],[22.96143,70.23976],[22.9654,70.24215],[22.97177,70.24281]],[[22.70986,70.25632],[22.71334,70.2571],[22.71576,70.25718],[22.71946,70.25564],[22.71443,70.25281],[22.71318,70.25172],[22.71389,70.25111],[22.71793,70.25043],[22.72554,70.25028],[22.73002,70.24918],[22.73829,70.24824],[22.73976,70.24723],[22.74273,70.24668],[22.75065,70.24668],[22.76933,70.24577],[22.78607,70.24642],[22.79852,70.24546],[22.80898,70.2461],[22.82229,70.24596],[22.82918,70.24664],[22.83982,70.24691]],[[22.57824,70.26151],[22.60028,70.26067],[22.60986,70.26081],[22.61359,70.26146],[22.61561,70.26298],[22.62156,70.26353],[22.62796,70.26244],[22.63147,70.25993],[22.63556,70.25862],[22.64012,70.25979],[22.64417,70.26166],[22.64599,70.26177],[22.64737,70.26105],[22.64711,70.25685],[22.64937,70.25595],[22.65394,70.25524],[22.65749,70.25526],[22.66449,70.25599],[22.6715,70.25786],[22.67597,70.25701],[22.67646,70.25454],[22.67934,70.25411],[22.68228,70.25426],[22.68327,70.25346],[22.68559,70.25303],[22.69574,70.25333],[22.70303,70.25458],[22.70986,70.25632]],[[22.46768,70.28593],[22.47067,70.28471],[22.47544,70.28379],[22.47535,70.28275],[22.48175,70.28165],[22.48838,70.28143],[22.49435,70.28036],[22.51141,70.27596],[22.5189,70.27523],[22.53259,70.273],[22.53925,70.27245],[22.54798,70.2736],[22.55391,70.27294],[22.55815,70.27121],[22.5603,70.26697],[22.56395,70.26472],[22.56294,70.26399],[22.56016,70.26332],[22.56944,70.26165],[22.57824,70.26151]],[[23.00017,70.24342],[22.99696,70.2417],[22.99271,70.24128],[22.99043,70.23722],[22.98602,70.23824],[22.9759,70.24259],[22.97177,70.24281]],[[22.45486,70.28939],[22.4657,70.28689],[22.46768,70.28593]],[[22.98672,70.28112],[22.98919,70.28002],[22.99457,70.27465],[22.99788,70.27285],[22.99791,70.27114],[22.99441,70.26935],[22.99606,70.26546],[22.99869,70.26433],[23.0036,70.2642]],[[22.34621,70.33512],[22.34787,70.33463],[22.34839,70.32982],[22.35298,70.3245],[22.3542,70.32389],[22.35697,70.32364],[22.35913,70.32196],[22.36637,70.32056],[22.37381,70.31682],[22.3759,70.31416],[22.37778,70.31376],[22.37926,70.31282],[22.38254,70.31017],[22.38329,70.30852],[22.38464,70.3075],[22.38625,70.30732],[22.38661,70.30605],[22.3886,70.305],[22.38789,70.30298],[22.38878,70.3014],[22.39147,70.30092],[22.39824,70.2964],[22.40056,70.29606],[22.40425,70.2962],[22.40863,70.29473],[22.41611,70.29411],[22.41965,70.29329],[22.42627,70.29326],[22.42925,70.29261],[22.4374,70.29227],[22.44345,70.2916],[22.45486,70.28939]],[[22.34339,70.33619],[22.34621,70.33512]],[[22.48129,70.3305],[22.48002,70.32656],[22.48739,70.32413],[22.48932,70.3225],[22.48783,70.32173],[22.48381,70.32225],[22.47831,70.32488],[22.47375,70.32553],[22.47221,70.32743],[22.46929,70.32883]],[[22.93688,70.31093],[22.93464,70.30904],[22.93004,70.30733],[22.92799,70.30568],[22.92033,70.30332],[22.91824,70.30221],[22.91146,70.29419],[22.90986,70.29066],[22.91364,70.28997],[22.91603,70.29059],[22.91906,70.29076],[22.92236,70.29235],[22.92439,70.29548],[22.93038,70.29682],[22.93525,70.29952],[22.94451,70.30138],[22.94692,70.30243],[22.9499,70.30268],[22.95041,70.30172],[22.95226,70.30127],[22.95604,70.30128],[22.95816,70.29997],[22.95692,70.29606],[22.95841,70.2952],[22.9656,70.29312],[22.9744,70.293],[22.97747,70.29215],[22.97707,70.29106],[22.97329,70.29076],[22.97179,70.28987],[22.97629,70.28708],[22.97588,70.28563],[22.97417,70.28495],[22.98672,70.28112]],[[22.9446,70.31772],[22.94268,70.31532],[22.94241,70.31327],[22.93688,70.31093]],[[22.34339,70.33619],[22.34248,70.33826],[22.3455,70.3412],[22.34458,70.34158],[22.34461,70.34298],[22.34528,70.34347],[22.34821,70.34388]],[[22.87642,70.31359],[22.88043,70.3145],[22.88578,70.315],[22.88864,70.31669],[22.8954,70.31883],[22.89857,70.3187],[22.90167,70.31793],[22.91158,70.31772],[22.91262,70.31958],[22.91569,70.32068]],[[22.45079,70.34549],[22.45157,70.34421],[22.45481,70.34252]],[[22.70393,70.33031],[22.70209,70.32781],[22.7023,70.3255],[22.70342,70.32443],[22.70745,70.3236],[22.70903,70.32367],[22.7099,70.32568]],[[22.47779,70.34059],[22.48339,70.33513]],[[22.45481,70.34252],[22.45796,70.339],[22.45946,70.33848],[22.46329,70.33833],[22.46506,70.3379],[22.46809,70.33639],[22.46671,70.33346],[22.46938,70.33099]],[[22.47465,70.34346],[22.47779,70.34059]],[[22.43381,70.3478],[22.43836,70.3476],[22.44851,70.34965],[22.45231,70.34754],[22.45079,70.34549]],[[22.87982,70.33262],[22.88026,70.33204],[22.88331,70.33118],[22.88793,70.33068],[22.89161,70.32958],[22.89368,70.32723],[22.8915,70.32529],[22.88099,70.32302],[22.87874,70.32202],[22.87682,70.31981],[22.86974,70.31826],[22.87019,70.31769],[22.87486,70.31657],[22.8737,70.31424]],[[22.34821,70.34388],[22.35483,70.34649],[22.35664,70.34666],[22.35767,70.34628],[22.36047,70.3463],[22.36324,70.34915],[22.37267,70.35127],[22.37555,70.35281],[22.38002,70.35186],[22.38253,70.35182],[22.38967,70.3541]],[[22.91569,70.32068],[22.91736,70.32168],[22.92607,70.32465],[22.93088,70.32417],[22.93205,70.32436],[22.93248,70.32544],[22.93566,70.32758],[22.94076,70.32947],[22.94298,70.33107],[22.94485,70.33085],[22.95001,70.32911],[22.95287,70.3292],[22.95594,70.32987],[22.95678,70.32931],[22.95418,70.32797],[22.95381,70.32581],[22.94712,70.32087],[22.94715,70.31888],[22.9446,70.31772]],[[22.91822,70.33157],[22.91643,70.33192],[22.91593,70.33278],[22.91651,70.33368],[22.91938,70.33433],[22.92111,70.33399],[22.92239,70.33246],[22.92177,70.33206],[22.91822,70.33157]],[[22.38967,70.3541],[22.392,70.35515],[22.39506,70.35571],[22.40707,70.3547],[22.41211,70.35491],[22.41112,70.35565],[22.41235,70.35614],[22.41381,70.3562],[22.41485,70.35565],[22.4181,70.3559],[22.41898,70.35489],[22.41713,70.35341],[22.41771,70.35285],[22.42783,70.35024],[22.43133,70.35033],[22.4329,70.34995],[22.43443,70.34915],[22.43247,70.34852],[22.43301,70.3479]],[[22.82212,70.33064],[22.82036,70.33079],[22.81665,70.33239],[22.81457,70.33405],[22.81561,70.33964],[22.81678,70.34013],[22.82058,70.34003],[22.82347,70.33912],[22.82637,70.33634],[22.82361,70.3343],[22.82519,70.33366],[22.82515,70.33289],[22.8236,70.33259],[22.8263,70.33196],[22.82682,70.33142],[22.82212,70.33064]],[[22.87486,70.33794],[22.88244,70.33494],[22.88269,70.33383],[22.88,70.33381],[22.87982,70.33262]],[[22.82797,70.33344],[22.82819,70.3354],[22.83125,70.33568],[22.83313,70.33639],[22.83142,70.33797],[22.83201,70.34061],[22.82758,70.34136],[22.8282,70.34164],[22.83034,70.34127],[22.83157,70.3421],[22.83727,70.34208],[22.83949,70.34075],[22.83804,70.34005],[22.84332,70.33929],[22.84651,70.33797],[22.84902,70.33888],[22.85318,70.33843],[22.86218,70.33961],[22.86799,70.33944],[22.86847,70.3398],[22.86592,70.34048],[22.86767,70.34176],[22.87174,70.34055],[22.87128,70.33901],[22.87486,70.33794]],[[23.00087,70.33555],[22.99736,70.33846],[22.99354,70.33931]],[[22.52043,70.35861],[22.52307,70.35574],[22.52577,70.35499],[22.52985,70.35481],[22.53622,70.35701],[22.54027,70.35932],[22.54254,70.35982],[22.54507,70.35943]],[[22.73461,70.35296],[22.73514,70.34827],[22.73072,70.34285],[22.72721,70.34044],[22.7206,70.33889],[22.71856,70.33876],[22.71577,70.33738],[22.71181,70.33361],[22.71099,70.33065],[22.71196,70.32823],[22.7099,70.32568]],[[22.47465,70.34346],[22.47144,70.34547],[22.47315,70.34715],[22.47187,70.34833],[22.46846,70.34961],[22.4674,70.35091],[22.46127,70.35404],[22.4537,70.35599],[22.44972,70.35828],[22.44277,70.35861],[22.4413,70.36008],[22.44308,70.36069],[22.44781,70.36078],[22.45179,70.36191],[22.45888,70.36725]],[[22.45888,70.36725],[22.46082,70.36789],[22.47123,70.36774],[22.47293,70.36807]],[[22.98257,70.34814],[22.9811,70.34687],[22.98103,70.34513],[22.97525,70.34319],[22.975,70.34211],[22.97806,70.34203],[22.9805,70.34047],[22.98528,70.34038],[22.99342,70.33933]],[[22.94183,70.34863],[22.93928,70.35025],[22.93374,70.35072],[22.92618,70.35197]],[[22.47293,70.36807],[22.48483,70.37116]],[[22.48483,70.37116],[22.49238,70.37194],[22.50236,70.37428],[22.50665,70.37434],[22.51192,70.37043],[22.51508,70.36977],[22.51491,70.36821],[22.51705,70.36687],[22.52102,70.36596],[22.52157,70.36545],[22.52131,70.36228],[22.51997,70.36033],[22.52043,70.35861]],[[22.53784,70.37327],[22.5429,70.36877],[22.55149,70.36325],[22.55132,70.36226],[22.5476,70.36127],[22.54811,70.35993],[22.54705,70.35938],[22.54507,70.35943]],[[22.59288,70.37096],[22.59242,70.36853],[22.59035,70.36735],[22.59247,70.36556],[22.5908,70.36405],[22.59301,70.36193],[22.5909,70.35944],[22.59343,70.35583],[22.59149,70.35076],[22.58878,70.34911],[22.58693,70.3496],[22.58436,70.35258],[22.58301,70.35829],[22.58147,70.36047],[22.57872,70.36222],[22.5781,70.36377]],[[22.66068,70.36808],[22.65903,70.36379],[22.65929,70.36123],[22.65666,70.35675],[22.65812,70.3551],[22.65749,70.35292],[22.65027,70.35655],[22.64937,70.35824],[22.64663,70.36015],[22.6467,70.36115],[22.64943,70.36167],[22.64842,70.36266],[22.64976,70.36658],[22.64873,70.36748],[22.64484,70.36876]],[[22.70183,70.36632],[22.70375,70.36407],[22.70932,70.36202],[22.70982,70.36086],[22.70822,70.35731],[22.71342,70.35334],[22.71457,70.34893],[22.7144,70.34526],[22.71068,70.33973],[22.70937,70.3393],[22.70457,70.33471],[22.70393,70.33031]],[[22.73159,70.36505],[22.73398,70.35999],[22.73228,70.35823],[22.73198,70.35602],[22.73249,70.35461],[22.73461,70.35296]],[[22.79425,70.36234],[22.79709,70.36141],[22.79994,70.35814],[22.7989,70.35599],[22.79658,70.3547],[22.79931,70.35305],[22.79507,70.35004],[22.78901,70.34834],[22.78887,70.34745],[22.7924,70.34676],[22.79434,70.34552],[22.79394,70.3433],[22.7963,70.33939],[22.79775,70.33869],[22.80433,70.33798],[22.80901,70.33669],[22.81087,70.33522],[22.8109,70.33242],[22.80482,70.32951],[22.8055,70.32554],[22.80699,70.32428],[22.80985,70.32318],[22.81289,70.32307],[22.8155,70.32439],[22.82417,70.32532],[22.82609,70.32615],[22.82899,70.32824],[22.82919,70.33166],[22.82797,70.33344]],[[22.92618,70.35197],[22.92246,70.35412],[22.91653,70.35498],[22.91313,70.35715]],[[22.96418,70.35489],[22.96551,70.348],[22.96445,70.34486],[22.96273,70.34435],[22.95355,70.34423],[22.95016,70.34524],[22.94937,70.34488],[22.9513,70.34337],[22.94917,70.3431],[22.94513,70.34347],[22.94201,70.34436],[22.93987,70.34567],[22.94098,70.34639],[22.94268,70.34663],[22.94306,70.34782],[22.94183,70.34863]],[[22.97882,70.35424],[22.98248,70.34972],[22.98257,70.34814]],[[22.9637,70.35824],[22.96418,70.35489]],[[22.59288,70.37096],[22.59186,70.37267],[22.59323,70.37451]],[[22.79447,70.368],[22.7931,70.36362],[22.79425,70.36234]],[[22.9637,70.35824],[22.96501,70.36123],[22.96597,70.36159],[22.96976,70.36171],[22.97317,70.35811],[22.97882,70.35424]],[[22.59323,70.37451],[22.59663,70.37996]],[[22.53784,70.37327],[22.53693,70.37546],[22.53979,70.37984],[22.53936,70.38108],[22.54251,70.3811],[22.54607,70.38181],[22.55619,70.38278]],[[22.88681,70.36878],[22.88877,70.36803],[22.88804,70.36756],[22.89073,70.3637],[22.89334,70.36297],[22.89549,70.36164],[22.90755,70.35895],[22.91313,70.35715]],[[22.55619,70.38278],[22.56836,70.38317],[22.57565,70.38285],[22.5803,70.38355],[22.58334,70.3827],[22.58322,70.37798],[22.57989,70.37499],[22.58047,70.37148]],[[22.88681,70.36878],[22.8841,70.3696],[22.88444,70.37044],[22.88274,70.37176],[22.88377,70.37238],[22.88822,70.37241]],[[22.88887,70.37407],[22.88976,70.37313],[22.88822,70.37241]],[[22.59663,70.37996],[22.59611,70.38323],[22.60081,70.38512]],[[22.73193,70.36709],[22.73062,70.36883],[22.73197,70.37105],[22.73133,70.37236],[22.73246,70.37617],[22.72945,70.38145]],[[22.88887,70.37407],[22.88803,70.37509],[22.88938,70.37539]],[[22.62508,70.38709],[22.63158,70.38634],[22.63503,70.38502],[22.63763,70.38174],[22.6376,70.37994],[22.63992,70.37773],[22.64098,70.37281],[22.64525,70.37177],[22.64484,70.36876]],[[22.60081,70.38512],[22.60527,70.38628],[22.61165,70.38651],[22.61989,70.38759],[22.62508,70.38709]],[[22.69815,70.38494],[22.69751,70.38402],[22.7004,70.38209],[22.70068,70.38082],[22.69985,70.36955],[22.70183,70.36632]],[[22.88997,70.3769],[22.89198,70.37591],[22.89145,70.37536],[22.88938,70.37539]],[[22.79388,70.38103],[22.79797,70.3811],[22.80129,70.37958],[22.80142,70.3765],[22.80311,70.37475],[22.80235,70.37358],[22.80008,70.37327],[22.79722,70.37114],[22.79447,70.368]],[[22.88997,70.3769],[22.89007,70.37718]],[[22.78773,70.38246],[22.78761,70.38205],[22.79109,70.38068],[22.79388,70.38103]],[[22.65956,70.3708],[22.65799,70.37134],[22.6566,70.3729],[22.65796,70.37513],[22.65489,70.38073],[22.65517,70.38242],[22.65111,70.3857],[22.65389,70.38713],[22.65453,70.38826],[22.65382,70.38922]],[[22.72945,70.38145],[22.72758,70.38309],[22.73151,70.38453],[22.73133,70.38518],[22.73804,70.38685],[22.74023,70.38694]],[[22.68791,70.39192],[22.69297,70.39001],[22.69972,70.38844],[22.70021,70.38669],[22.69815,70.38494]],[[22.65382,70.38922],[22.65366,70.38998],[22.65603,70.39109],[22.67401,70.39095],[22.67859,70.39153],[22.68015,70.39262],[22.68231,70.39287],[22.6845,70.39277],[22.68791,70.39192]],[[22.74023,70.38694],[22.74083,70.38808],[22.74733,70.38888],[22.75099,70.38977],[22.76079,70.3905]],[[22.89366,70.38493],[22.89301,70.38417],[22.89383,70.38246],[22.89748,70.38117],[22.89812,70.37989],[22.89583,70.37933],[22.89762,70.37853],[22.89699,70.3781],[22.89175,70.37792],[22.89007,70.37718]],[[22.76079,70.3905],[22.76465,70.39155],[22.76849,70.39128],[22.77216,70.39174],[22.77676,70.39138],[22.78128,70.38924],[22.78525,70.38614],[22.78918,70.38481],[22.78953,70.38332],[22.78773,70.38246]],[[22.89316,70.38512],[22.8923,70.38621],[22.89333,70.38664]],[[22.89333,70.38664],[22.89147,70.3893],[22.8901,70.38974],[22.88557,70.3898],[22.88096,70.39058],[22.87953,70.39047],[22.87879,70.38994],[22.87694,70.38994],[22.87343,70.3907],[22.87086,70.39201],[22.8684,70.39238]],[[22.83434,70.40203],[22.83348,70.40171],[22.83081,70.4017],[22.83091,70.40107],[22.83591,70.39844],[22.83913,70.39785],[22.84097,70.39598],[22.84291,70.39547],[22.84654,70.3953],[22.84772,70.39429],[22.8499,70.3939],[22.85907,70.39339],[22.86179,70.39266],[22.8684,70.39238]],[[22.89957,70.40159],[22.90327,70.40127],[22.91145,70.39962],[22.91858,70.39954]],[[22.8241,70.40621],[22.82546,70.40553],[22.82783,70.40515],[22.83293,70.40516],[22.83358,70.40441],[22.83278,70.40287],[22.83434,70.40203]],[[22.85919,70.40468],[22.86137,70.40372],[22.86747,70.4026],[22.86926,70.40288],[22.87172,70.40272],[22.87919,70.40094],[22.88836,70.40005],[22.89045,70.40035],[22.88814,70.40172],[22.88905,70.4025],[22.89548,70.40128],[22.89957,70.40159]],[[22.92746,70.40168],[22.92691,70.40011],[22.91858,70.39954]],[[22.95042,70.40289],[22.9385,70.4015],[22.93266,70.40258],[22.92746,70.40168]],[[22.84668,70.4107],[22.85064,70.40845],[22.85307,70.40818],[22.85384,70.40632],[22.85919,70.40468]],[[22.90431,70.41376],[22.90884,70.41391],[22.91318,70.41322]],[[22.91318,70.41322],[22.91985,70.41287],[22.92083,70.41246],[22.92058,70.41171],[22.92547,70.41173],[22.92817,70.41132],[22.93126,70.41003],[22.93075,70.409],[22.93189,70.40821],[22.93377,70.40781],[22.9377,70.40774],[22.94157,70.40667],[22.94467,70.40679],[22.94645,70.40516],[22.95147,70.40323]],[[22.8241,70.40621],[22.82521,70.40698],[22.81721,70.41005],[22.81551,70.41158],[22.82155,70.41057],[22.82645,70.4116],[22.83117,70.41049],[22.83642,70.41085],[22.8338,70.41216],[22.82986,70.41284],[22.82751,70.41668],[22.83289,70.41714],[22.83806,70.4152],[22.84162,70.41449],[22.84585,70.41208],[22.84668,70.4107]],[[22.90431,70.41376],[22.8991,70.41348],[22.88903,70.41465],[22.88738,70.41516],[22.88749,70.41597],[22.87797,70.41981],[22.87451,70.4261]],[[22.0823,70.25982],[22.08139,70.25845],[22.08422,70.25639]],[[22.16725,70.28718],[22.17178,70.28719],[22.17988,70.28888],[22.18342,70.28884],[22.1875,70.28935]],[[22.1875,70.28935],[22.19312,70.28986],[22.20702,70.28977],[22.21807,70.28818],[22.22088,70.28661]],[[22.08923,70.30621],[22.09353,70.30343],[22.09328,70.30113]],[[22.12778,70.50113],[22.12584,70.50096],[22.1246,70.50137],[22.1263,70.5018],[22.12799,70.50173]],[[22.22303,70.61174],[22.22649,70.61198],[22.22783,70.61155]],[[22.22525,70.12697],[22.23349,70.12821],[22.242,70.12822],[22.24777,70.13053],[22.25335,70.13202],[22.2661,70.13445]],[[22.2661,70.13445],[22.27064,70.13492],[22.27811,70.13397],[22.28282,70.1341],[22.28741,70.13282],[22.29478,70.13281],[22.30073,70.13148],[22.3028,70.13172],[22.30343,70.13273],[22.30503,70.13273],[22.30779,70.1322],[22.30969,70.13102],[22.31316,70.13139],[22.31652,70.13338],[22.31847,70.13337],[22.32347,70.13025],[22.32757,70.12666],[22.33369,70.1253]],[[22.23908,70.15997],[22.2341,70.15826],[22.22795,70.1553],[22.22807,70.15269],[22.23077,70.15169],[22.23405,70.15182],[22.23644,70.15111],[22.23808,70.15106],[22.2423,70.15356],[22.24508,70.15416],[22.25047,70.15414],[22.25325,70.15345],[22.25382,70.15237],[22.25234,70.15072],[22.25425,70.14921],[22.24113,70.14333],[22.23667,70.14274],[22.22988,70.1407],[22.21778,70.13935],[22.21161,70.13754],[22.21014,70.13639],[22.20739,70.13561],[22.20725,70.13429],[22.20863,70.13377],[22.21888,70.13331],[22.21959,70.13092],[22.21818,70.12918],[22.2207,70.12821],[22.22179,70.12687]],[[22.30974,70.15468],[22.30434,70.15396],[22.30306,70.15447],[22.30393,70.15519],[22.30019,70.15588],[22.29842,70.15755]],[[22.29842,70.15755],[22.29769,70.15859],[22.29878,70.15924]],[[22.29878,70.15924],[22.30171,70.15986],[22.30181,70.16032],[22.29939,70.16102],[22.29133,70.16152],[22.29074,70.16209],[22.29163,70.16339],[22.29688,70.16475],[22.30586,70.16471],[22.30808,70.16525],[22.3083,70.16624],[22.31138,70.16718],[22.31079,70.1688],[22.31248,70.1692],[22.31382,70.16885],[22.31448,70.16916],[22.31493,70.17061],[22.31207,70.17095],[22.30938,70.1735],[22.31245,70.17513],[22.3136,70.17464],[22.3141,70.17327],[22.31629,70.17331],[22.32421,70.17725],[22.32431,70.17864],[22.32667,70.18054],[22.32442,70.18088],[22.32406,70.18147],[22.32729,70.1823],[22.32763,70.18445],[22.32961,70.18671],[22.33313,70.18803],[22.33132,70.18967],[22.33254,70.19096],[22.33247,70.19406]],[[22.27061,70.2038],[22.2692,70.20038],[22.2664,70.19754],[22.2672,70.19661],[22.26237,70.19117],[22.26129,70.18875],[22.256,70.18551],[22.25535,70.18451],[22.25154,70.1828],[22.2511,70.18149],[22.24894,70.18069],[22.25136,70.17875],[22.24884,70.17552],[22.24435,70.17345],[22.24594,70.16982],[22.24421,70.16812],[22.24435,70.16599],[22.24182,70.16433],[22.23908,70.15997]],[[22.07563,70.23134],[22.0699,70.23246],[22.06977,70.23302],[22.07196,70.23425],[22.07085,70.23473],[22.06914,70.23478],[22.07472,70.23657],[22.08482,70.24136],[22.08788,70.2437],[22.08559,70.24464]],[[22.08422,70.25639],[22.08834,70.25317],[22.08559,70.24464]],[[22.10703,70.25548],[22.10669,70.24944],[22.10841,70.24685],[22.10842,70.24443],[22.11159,70.2398],[22.10346,70.23821],[22.09722,70.23839],[22.09443,70.23802],[22.08003,70.23158],[22.07773,70.23106],[22.07563,70.23134]],[[22.26836,70.24901],[22.26943,70.2473],[22.26792,70.24401],[22.27091,70.24312],[22.2757,70.24333],[22.27623,70.24302],[22.27553,70.239],[22.27635,70.23679],[22.27169,70.23539],[22.26895,70.23331],[22.27088,70.23052],[22.26854,70.23021],[22.26328,70.23124],[22.25946,70.23066],[22.25534,70.22931],[22.24741,70.22553],[22.23505,70.22374],[22.2349,70.22293],[22.2364,70.22183],[22.2348,70.22107],[22.23083,70.22022],[22.22456,70.21997],[22.22361,70.21879],[22.2257,70.2171],[22.22872,70.21651],[22.23178,70.21661],[22.23796,70.21774],[22.24764,70.22116],[22.25378,70.2221],[22.25816,70.22213],[22.26575,70.22286],[22.26748,70.22433],[22.26972,70.22418],[22.27265,70.22073],[22.2708,70.21818],[22.27256,70.21554],[22.26998,70.214],[22.26964,70.21067],[22.27048,70.20964],[22.26823,70.20708],[22.27058,70.20612],[22.27061,70.2038]],[[22.27871,70.26361],[22.27802,70.26257],[22.27446,70.26094],[22.27667,70.25725],[22.27485,70.25553],[22.27645,70.2552],[22.27663,70.25458],[22.27356,70.25318],[22.27278,70.2509],[22.26846,70.24991],[22.26836,70.24901]],[[22.10703,70.25548],[22.10761,70.2567],[22.10608,70.26337],[22.10914,70.26693],[22.11229,70.26892]],[[22.13004,70.27152],[22.13745,70.27265],[22.13795,70.2733]],[[22.11229,70.26892],[22.11372,70.27154],[22.10949,70.27466],[22.11001,70.27662],[22.11296,70.27598],[22.11345,70.27334],[22.11533,70.27276],[22.11959,70.27291],[22.12077,70.27321],[22.12117,70.27401],[22.1225,70.27407],[22.12301,70.27261],[22.12725,70.27245]],[[22.09465,70.28339],[22.08933,70.27946],[22.08307,70.27281],[22.08205,70.26896],[22.08468,70.26513],[22.08508,70.26288],[22.0823,70.25982]],[[22.09219,70.28771],[22.09422,70.28646],[22.09596,70.28405],[22.09465,70.28339]],[[22.28276,70.28184],[22.28644,70.282],[22.29131,70.2813],[22.29464,70.27998],[22.29862,70.27686],[22.29631,70.27383],[22.28819,70.26806],[22.28683,70.26579],[22.28089,70.26494],[22.27871,70.26361]],[[22.09166,70.28998],[22.09065,70.28884],[22.09219,70.28771]],[[22.22088,70.28661],[22.22784,70.28428],[22.22976,70.2845]],[[22.13795,70.2733],[22.13546,70.27719],[22.1364,70.27984],[22.13418,70.28257],[22.13574,70.28402],[22.14572,70.28612],[22.14856,70.288],[22.15483,70.28822],[22.1581,70.28911],[22.15986,70.2889],[22.16197,70.28768],[22.16725,70.28718]],[[22.22976,70.2845],[22.22888,70.28683],[22.23051,70.28823],[22.23216,70.28838],[22.23347,70.2879],[22.23767,70.28752],[22.24255,70.28615],[22.25034,70.28556],[22.25527,70.28404],[22.26008,70.28376],[22.26146,70.28399],[22.2613,70.28454],[22.26443,70.28465],[22.26843,70.28182],[22.27316,70.28017],[22.27489,70.28028],[22.27893,70.28208],[22.28162,70.28222],[22.28276,70.28184]],[[22.08901,70.29439],[22.09278,70.29265],[22.09296,70.29101],[22.09166,70.28998]],[[22.00051,70.30407],[21.99522,70.3024]],[[22.00647,70.30454],[22.00051,70.30407]],[[22.0254,70.3038],[22.01807,70.29864],[22.00848,70.29642],[22.00669,70.29447],[21.99452,70.28987]],[[22.09328,70.30113],[22.08813,70.29602],[22.08901,70.29439]],[[22.00602,70.31113],[22.00541,70.30941],[22.00862,70.30551],[22.00851,70.30481],[22.00647,70.30454]],[[22.08041,70.31068],[22.08339,70.30995],[22.08923,70.30621]],[[22.0254,70.3038],[22.02541,70.30413],[22.02753,70.30454],[22.03163,70.30486],[22.04034,70.30736],[22.04372,70.3093],[22.04293,70.31086],[22.05642,70.31271],[22.05832,70.31335],[22.06208,70.31312]],[[22.00893,70.31626],[22.00602,70.31113]],[[22.06208,70.31312],[22.06755,70.31373],[22.06841,70.31425],[22.07035,70.31411],[22.08041,70.31068]],[[21.99681,70.3265],[22.00629,70.32506],[22.00929,70.32422],[22.01146,70.32246],[22.01214,70.31769],[22.01199,70.31707],[22.01004,70.31707],[22.00893,70.31626]],[[22.0824,70.48197],[22.08107,70.48137],[22.08117,70.4803],[22.08384,70.4804],[22.08578,70.48006],[22.08773,70.47911],[22.0873,70.4781],[22.08879,70.47741],[22.08583,70.47648],[22.08601,70.47558],[22.08873,70.47534],[22.09128,70.47584],[22.09944,70.47951],[22.10305,70.48032],[22.10775,70.47988],[22.10933,70.47743],[22.11855,70.47495]],[[22.16423,70.47874],[22.16646,70.47733],[22.16819,70.47701],[22.16646,70.47536],[22.16794,70.4748],[22.16873,70.47336],[22.16628,70.47258],[22.16411,70.47269],[22.16213,70.47231],[22.16049,70.47135],[22.15594,70.4702],[22.14957,70.47059],[22.14614,70.4701],[22.14254,70.47018],[22.13745,70.47121],[22.13641,70.47295],[22.13487,70.47372],[22.12725,70.47305],[22.12281,70.47356],[22.11855,70.47495]],[[22.0824,70.48197],[22.08571,70.48277],[22.08722,70.48253],[22.0898,70.48323],[22.10165,70.48398],[22.10573,70.48589],[22.11794,70.48484],[22.12182,70.48582],[22.12276,70.48691]],[[22.12456,70.492],[22.12545,70.4916],[22.13037,70.49107],[22.12719,70.48968],[22.12617,70.48859],[22.13184,70.48711],[22.12662,70.48747],[22.12276,70.48691]],[[22.12456,70.492],[22.12459,70.4921]],[[22.13456,70.52033],[22.13529,70.5224]],[[22.12553,70.49477],[22.12736,70.49474],[22.1293,70.49415],[22.13405,70.49403],[22.1368,70.49334],[22.13438,70.49322],[22.13506,70.49261],[22.14086,70.49162],[22.13922,70.49146],[22.12536,70.49243],[22.12459,70.4921]],[[22.13589,70.5241],[22.13686,70.52336],[22.13529,70.5224]],[[22.29016,70.48941],[22.28595,70.48967],[22.28527,70.49066],[22.28656,70.49133],[22.29049,70.48999],[22.29016,70.48941]],[[22.12553,70.49477],[22.12025,70.49461],[22.11792,70.49556],[22.11946,70.49752],[22.12172,70.49881],[22.1235,70.49919],[22.12711,70.49923]],[[22.12799,70.50173],[22.13329,70.50173],[22.13249,70.50126],[22.13074,70.50146],[22.12778,70.50113]],[[22.1294,70.50573],[22.13106,70.50522],[22.13306,70.50528],[22.13818,70.50665],[22.13447,70.50441],[22.13381,70.50377],[22.1345,70.5036],[22.13922,70.50457],[22.1444,70.50488],[22.13404,70.50209],[22.13342,70.50152],[22.13454,70.50114],[22.14318,70.50157],[22.14302,70.50126],[22.13867,70.50101],[22.13833,70.50065],[22.14038,70.50016],[22.14482,70.50112],[22.14763,70.50125],[22.14912,70.50084],[22.14851,70.5005],[22.13773,70.49916],[22.13356,70.49893],[22.12711,70.49923]],[[22.27471,70.49902],[22.27306,70.49915],[22.27438,70.50159],[22.27597,70.50099],[22.27471,70.49902]],[[22.24155,70.50697],[22.2395,70.49809],[22.24201,70.49479],[22.24187,70.49223],[22.24353,70.49123],[22.24132,70.48891],[22.24259,70.48786],[22.24779,70.48714],[22.24797,70.48648],[22.24543,70.48525],[22.24603,70.48375],[22.24289,70.48324],[22.24109,70.48161],[22.23297,70.47993],[22.23142,70.47901],[22.22738,70.47864],[22.22521,70.47939],[22.22087,70.47908],[22.21933,70.48053],[22.21264,70.48207],[22.21078,70.48288],[22.21029,70.48474],[22.20781,70.48567],[22.20208,70.48455],[22.19832,70.48479],[22.1964,70.48426],[22.1961,70.48353],[22.19044,70.48198],[22.1857,70.4826],[22.18177,70.48244],[22.17748,70.48395],[22.17499,70.48398],[22.17026,70.48304],[22.16905,70.48335],[22.16662,70.48318],[22.16292,70.48372],[22.15991,70.48517],[22.15673,70.48538],[22.15536,70.48512],[22.15242,70.4831],[22.15863,70.48158],[22.15826,70.48057],[22.16423,70.47874]],[[22.36964,70.49962],[22.36685,70.49939],[22.36402,70.49963],[22.36281,70.49883],[22.36153,70.49895],[22.36023,70.50137],[22.36094,70.50343],[22.36208,70.50396],[22.36535,70.50387],[22.36685,70.5033],[22.3701,70.50011],[22.36964,70.49962]],[[22.1294,70.50573],[22.12254,70.5053],[22.12496,70.50656],[22.12324,70.50753],[22.11446,70.50687],[22.11343,70.50891],[22.11535,70.51077],[22.1206,70.513],[22.12208,70.51331],[22.12534,70.51319],[22.12743,70.51257],[22.12918,70.51319],[22.12627,70.51405],[22.12545,70.51655],[22.12728,70.51756],[22.12405,70.51875],[22.12421,70.51917],[22.12718,70.51967],[22.13426,70.51949]],[[22.13456,70.52033],[22.1352,70.51994],[22.13426,70.51949]],[[22.24844,70.51775],[22.24195,70.5146],[22.23925,70.51088],[22.23907,70.50971],[22.24155,70.50697]],[[22.26931,70.51915],[22.27487,70.51817],[22.27484,70.51733],[22.2734,70.51585],[22.27021,70.51489],[22.26995,70.51281],[22.26677,70.5121]],[[22.26677,70.5121],[22.26354,70.51088],[22.26308,70.5092],[22.261,70.50885],[22.25951,70.50904],[22.25821,70.50673],[22.25693,70.50642],[22.25546,70.50704],[22.25408,70.50688],[22.25169,70.50218],[22.25245,70.50122],[22.25163,70.49997],[22.24877,70.49948],[22.24593,70.49949],[22.24513,70.50039],[22.24574,70.50219],[22.24821,70.50403],[22.24664,70.50537],[22.24778,70.50596],[22.25079,70.50609],[22.2531,70.50852],[22.25549,70.50881],[22.25709,70.51008],[22.25304,70.51088],[22.25195,70.51188],[22.25265,70.51247],[22.25837,70.51579],[22.26019,70.51626],[22.26047,70.51792],[22.26183,70.51893],[22.266,70.51958],[22.26931,70.51915]],[[22.13351,70.52506],[22.13589,70.5241]],[[22.14373,70.52466],[22.14169,70.52474]],[[22.25629,70.52019],[22.24993,70.51858],[22.24844,70.51775]],[[22.39057,70.51476],[22.38961,70.51346],[22.38673,70.51313],[22.37809,70.51045],[22.37905,70.50863],[22.38207,70.50905],[22.3833,70.50864],[22.38412,70.50639],[22.38338,70.50588],[22.38041,70.50617],[22.37924,70.50769],[22.37602,70.50755],[22.37541,70.50839],[22.37178,70.50682],[22.36907,70.50682],[22.36358,70.50816],[22.3618,70.50709],[22.35977,70.50808],[22.35389,70.50633],[22.35286,70.50288],[22.35421,70.50142],[22.35375,70.49907],[22.35457,70.49851],[22.36013,70.49786],[22.36059,70.4961],[22.35965,70.49589],[22.35812,70.49719],[22.35686,70.49711],[22.35541,70.49628],[22.35586,70.49461],[22.35448,70.49421],[22.35398,70.49481],[22.35302,70.49479],[22.34964,70.49186],[22.34629,70.49135],[22.34394,70.49046],[22.34331,70.48881],[22.34003,70.48774],[22.33889,70.48663],[22.33449,70.48586],[22.32923,70.4871],[22.3263,70.48728],[22.31843,70.48452],[22.31688,70.48441],[22.31522,70.48476],[22.31095,70.48738],[22.30784,70.48853],[22.306,70.48852],[22.30512,70.48761],[22.30321,70.48789],[22.30554,70.48927],[22.30383,70.49055],[22.30161,70.49047],[22.30007,70.48944],[22.30022,70.48826],[22.29727,70.48803],[22.29654,70.48872],[22.29777,70.48956],[22.29649,70.49102],[22.29793,70.49237],[22.29354,70.49322],[22.29036,70.49461],[22.28755,70.49477],[22.2865,70.49569],[22.28632,70.49625],[22.29034,70.49806],[22.28834,70.50008],[22.29009,70.50244],[22.28674,70.50406],[22.28852,70.5076],[22.29185,70.5114],[22.29027,70.5129],[22.29063,70.51631],[22.29264,70.51873]],[[22.13647,70.52574],[22.14074,70.5256],[22.14169,70.52474]],[[22.13351,70.52506],[22.13524,70.52575],[22.13647,70.52574]],[[22.25629,70.52019],[22.25907,70.52072],[22.2644,70.52091],[22.26565,70.52284],[22.26436,70.52325],[22.2617,70.52332],[22.26014,70.52429],[22.26288,70.52617],[22.26996,70.5283],[22.27338,70.53044]],[[22.27338,70.53044],[22.28015,70.53132],[22.28248,70.53208],[22.29639,70.54014],[22.30001,70.53961],[22.29998,70.53834],[22.29763,70.53594],[22.29248,70.53397],[22.28569,70.5299],[22.28653,70.52927],[22.29136,70.52964],[22.29894,70.52884],[22.30255,70.52808],[22.29482,70.52491],[22.29253,70.52299],[22.29224,70.52176],[22.29354,70.52059],[22.29264,70.51873]],[[22.21193,70.56707],[22.21037,70.56597],[22.20651,70.56566],[22.20492,70.56605],[22.20447,70.56737]],[[22.24737,70.56566],[22.24577,70.56499],[22.2424,70.56586]],[[22.25826,70.56522],[22.25874,70.56461],[22.26352,70.5633],[22.25784,70.5609],[22.25671,70.55989],[22.25696,70.55878],[22.26029,70.55664],[22.26,70.55615],[22.25461,70.55382],[22.2522,70.55369],[22.2482,70.55427],[22.24548,70.55363],[22.24402,70.55293],[22.24578,70.55258],[22.24595,70.55216],[22.24052,70.5513],[22.23886,70.54852],[22.23491,70.54763],[22.23282,70.54619],[22.22864,70.54467],[22.22801,70.54379],[22.22373,70.54317],[22.21722,70.54428],[22.20963,70.54379],[22.20332,70.54166],[22.19596,70.54226],[22.19451,70.54304],[22.18957,70.54301],[22.18169,70.54004],[22.17466,70.53989],[22.17275,70.53918],[22.17097,70.53723],[22.16554,70.53571],[22.16359,70.53462],[22.16343,70.5328],[22.16416,70.53252],[22.16655,70.5326],[22.16706,70.53222],[22.16252,70.52889],[22.16116,70.52854],[22.15203,70.52878],[22.1487,70.52796],[22.14373,70.52466]],[[22.24737,70.56566],[22.25325,70.56598],[22.25826,70.56522]],[[22.21193,70.56707],[22.21376,70.5688],[22.21875,70.56839],[22.2252,70.56912],[22.22885,70.56891],[22.23318,70.56929],[22.23417,70.56815],[22.23701,70.56681],[22.2424,70.56586]],[[22.2418,70.58604],[22.2384,70.58618],[22.23868,70.58701],[22.23919,70.58748],[22.24383,70.58817],[22.24502,70.58766],[22.24492,70.58636],[22.2418,70.58604]],[[22.20447,70.56737],[22.20847,70.57471],[22.2119,70.57709],[22.21692,70.57791],[22.21818,70.57902],[22.22454,70.5787],[22.22806,70.5793],[22.23197,70.58187],[22.23301,70.58215],[22.23483,70.58177],[22.23677,70.58275],[22.24138,70.58174],[22.24873,70.58193],[22.25026,70.58319],[22.25057,70.58544],[22.25575,70.58717],[22.2634,70.58712],[22.26926,70.58793],[22.27302,70.58795],[22.27511,70.58874]],[[22.27511,70.58874],[22.27822,70.59007],[22.28124,70.5906],[22.28329,70.58948],[22.28578,70.58936],[22.28675,70.58983]],[[22.28675,70.58983],[22.28761,70.59129],[22.28892,70.59118],[22.29078,70.59006],[22.29581,70.59243]],[[22.02086,70.58197],[22.01676,70.58318],[22.01522,70.58299],[22.01388,70.58196],[22.01067,70.58226],[22.00728,70.5858],[22.0031,70.5882],[22.00043,70.5889],[21.99223,70.58917]],[[21.99703,70.60924],[22.00285,70.6075],[22.0113,70.6081],[22.01196,70.60878],[22.00898,70.61024],[22.00095,70.61174],[22.00402,70.61316],[22.00222,70.61351],[22.00327,70.61541],[22.00837,70.61604],[22.01225,70.61538],[22.01595,70.61324],[22.02436,70.61325],[22.02924,70.61383],[22.03272,70.61588]],[[22.02086,70.58197],[22.02368,70.58178],[22.02701,70.58223],[22.03008,70.58182],[22.03174,70.581],[22.03625,70.58237],[22.03801,70.5875],[22.04147,70.58966],[22.0447,70.59036],[22.04632,70.5923],[22.04999,70.59466],[22.04953,70.59613],[22.04673,70.59675],[22.04851,70.59741],[22.04939,70.59698],[22.05507,70.59705],[22.06087,70.59242],[22.06341,70.5925],[22.06497,70.59184],[22.07091,70.59164],[22.07598,70.59261],[22.07911,70.59263],[22.08742,70.59091],[22.08784,70.58966],[22.08501,70.58717],[22.08837,70.58304],[22.08695,70.58089],[22.09288,70.57987],[22.09675,70.58037],[22.09943,70.581],[22.1002,70.58174],[22.10209,70.58744],[22.10725,70.59626],[22.11094,70.59659],[22.11055,70.59771],[22.10886,70.59856],[22.10921,70.59911],[22.11133,70.59958],[22.11541,70.59918],[22.11788,70.60004],[22.1207,70.59951],[22.12068,70.5985],[22.12315,70.59805],[22.12475,70.5982],[22.12765,70.60024],[22.13267,70.59987],[22.13561,70.60028],[22.14138,70.60186],[22.14299,70.60373],[22.14582,70.60428],[22.15383,70.60454],[22.16002,70.60771],[22.16162,70.60935],[22.16666,70.61069]],[[22.30118,70.60721],[22.30475,70.60691],[22.30598,70.60615],[22.30548,70.60569],[22.30256,70.60546],[22.30243,70.60506],[22.30392,70.60484],[22.3052,70.60528],[22.30888,70.60492],[22.3082,70.60295],[22.3104,70.60217],[22.31046,70.60016],[22.30909,70.59909],[22.3066,70.59848],[22.30304,70.59653],[22.30067,70.59629],[22.29725,70.59506],[22.29719,70.59453],[22.29889,70.59442],[22.29916,70.5939],[22.29869,70.59316],[22.29581,70.59243]],[[22.03632,70.61906],[22.03585,70.61788],[22.03989,70.61659],[22.03722,70.61609],[22.03272,70.61588]],[[22.22303,70.61174],[22.21416,70.61029],[22.21043,70.61134],[22.20482,70.6108],[22.19966,70.61076],[22.19628,70.60932],[22.19294,70.60946],[22.18755,70.60814],[22.18471,70.60824],[22.17655,70.60621],[22.17389,70.60644],[22.17311,70.60742],[22.17408,70.60885],[22.17606,70.6093],[22.17609,70.61093],[22.17267,70.61209],[22.16666,70.61069]],[[22.22783,70.61155],[22.22763,70.61026],[22.23011,70.61026],[22.23266,70.60889],[22.23594,70.60819],[22.23934,70.60818],[22.24401,70.60725],[22.25255,70.60668],[22.25603,70.60563],[22.26485,70.60671],[22.26776,70.60552],[22.27079,70.60621],[22.272,70.6061],[22.27206,70.60547],[22.26906,70.60424],[22.2695,70.60398],[22.27444,70.60451],[22.27868,70.60687],[22.30118,70.60721]],[[22.03831,70.6318],[22.03959,70.6315],[22.0387,70.63008],[22.04164,70.62955],[22.04626,70.62703],[22.04297,70.62595],[22.0404,70.62436],[22.04028,70.62305],[22.04283,70.6215],[22.04113,70.62075],[22.03799,70.62027],[22.03632,70.61906]],[[21.99991,70.63369],[22.0062,70.63434],[22.01194,70.63451],[22.01636,70.63387],[22.01662,70.63238],[22.01945,70.6328],[22.02489,70.63141],[22.02849,70.63171],[22.02674,70.63119],[22.02803,70.63043],[22.03003,70.63059],[22.03571,70.63212],[22.03831,70.6318]],[[22.04474,70.65013],[22.04678,70.64973],[22.04895,70.65152],[22.05016,70.6511],[22.04948,70.6502],[22.05056,70.65003],[22.05719,70.65333],[22.05912,70.65324],[22.06336,70.65184],[22.06565,70.65049],[22.07113,70.65213],[22.07305,70.65168],[22.076,70.64885],[22.0762,70.64718],[22.08032,70.64645],[22.08153,70.64655],[22.08716,70.64889],[22.08873,70.64831],[22.08745,70.64745],[22.08893,70.64572],[22.08986,70.64585],[22.09104,70.64726],[22.09542,70.64825],[22.10008,70.64821],[22.10529,70.64921],[22.1098,70.64873],[22.11854,70.64953],[22.12089,70.64892],[22.12055,70.64774],[22.1225,70.64646],[22.12394,70.646],[22.12873,70.64597],[22.1299,70.64528],[22.12675,70.64331],[22.12613,70.64168],[22.12272,70.63998],[22.12386,70.63901],[22.11924,70.63636],[22.11966,70.63476],[22.12302,70.63507],[22.13445,70.63315],[22.14795,70.63176],[22.1499,70.63178],[22.15213,70.63274],[22.15838,70.63402],[22.16556,70.63703],[22.1661,70.63789],[22.16864,70.63824],[22.17351,70.64035],[22.17382,70.64117],[22.17817,70.64286]],[[21.99388,70.65068],[22.00218,70.64974],[22.00408,70.65031],[22.0035,70.65154],[22.00435,70.65293],[22.00584,70.6533],[22.00694,70.65227],[22.01057,70.65204],[22.01496,70.65105],[22.01946,70.65229],[22.02113,70.65223],[22.0231,70.65278],[22.02541,70.6524],[22.02936,70.65357],[22.03136,70.6536],[22.03269,70.65301],[22.03401,70.65353],[22.03519,70.65349],[22.0359,70.65218],[22.03848,70.65152],[22.0431,70.65214],[22.04474,70.65013]],[[22.2252,70.65677],[22.22496,70.65596],[22.22679,70.65454],[22.2285,70.65416],[22.22743,70.65281],[22.2282,70.65201],[22.23294,70.65103],[22.23362,70.65054],[22.23276,70.64973],[22.23594,70.64896],[22.23165,70.64708],[22.23175,70.64534],[22.23688,70.64471],[22.23651,70.64404],[22.23856,70.64339],[22.23008,70.63873],[22.23315,70.63833],[22.23567,70.6386],[22.23612,70.63804],[22.2281,70.63699],[22.21759,70.63833],[22.21103,70.6403],[22.20388,70.64079],[22.20034,70.64049],[22.19858,70.64119],[22.19274,70.64221],[22.19088,70.64308],[22.18754,70.64257],[22.1845,70.64261],[22.18033,70.64342],[22.17817,70.64286]],[[22.282,70.65451],[22.28322,70.65321],[22.28833,70.65291],[22.29628,70.6511],[22.29907,70.64843],[22.3004,70.64795],[22.30195,70.64806],[22.30396,70.64677],[22.30759,70.64619],[22.31074,70.64612],[22.31505,70.64524]],[[22.37589,70.65073],[22.37969,70.64887],[22.3819,70.6486],[22.38233,70.64781],[22.38429,70.64709],[22.39418,70.64499],[22.38909,70.6431],[22.38921,70.64227],[22.39228,70.64085],[22.39281,70.63951],[22.38862,70.63514],[22.39075,70.63407],[22.39388,70.63376],[22.39743,70.63099],[22.40103,70.63094],[22.40339,70.63],[22.40305,70.62919],[22.39383,70.6268],[22.39044,70.62523],[22.3857,70.62537],[22.37979,70.62658],[22.37745,70.62831],[22.37752,70.63013],[22.37638,70.63137],[22.36989,70.63195],[22.36635,70.63075],[22.36101,70.62997],[22.35781,70.63074],[22.35438,70.6326],[22.35515,70.63374],[22.34993,70.6378],[22.34841,70.63816],[22.34596,70.63801],[22.33965,70.63929],[22.33319,70.64139],[22.33226,70.6422],[22.32864,70.64257],[22.326,70.64397],[22.3191,70.64434],[22.31505,70.64524]],[[22.2252,70.65677],[22.22933,70.65953],[22.23392,70.66102],[22.23361,70.66226],[22.23147,70.66336],[22.22866,70.66344],[22.22663,70.66441],[22.22914,70.66595],[22.22635,70.66751],[22.21897,70.66857],[22.21103,70.66721],[22.21128,70.66846],[22.20081,70.67189],[22.19756,70.67429],[22.19419,70.67479],[22.19533,70.67615],[22.19404,70.67692],[22.20073,70.67874],[22.20687,70.6791],[22.21516,70.67815],[22.23778,70.67387],[22.24759,70.67403],[22.24926,70.67261],[22.24454,70.67162],[22.24427,70.66941],[22.24232,70.66781],[22.24304,70.667],[22.24561,70.6664],[22.24897,70.66637],[22.25261,70.66523],[22.25266,70.66411],[22.25423,70.66279],[22.25915,70.66261],[22.26151,70.6621],[22.26198,70.66127],[22.26866,70.65763],[22.27548,70.65648],[22.28198,70.65595],[22.28295,70.65543],[22.282,70.65451]],[[22.62242,70.64057],[22.62224,70.64053]],[[22.71962,70.63648],[22.72087,70.63889]],[[22.58798,70.6473],[22.58805,70.64749]],[[22.74846,70.71017],[22.75169,70.71011],[22.75341,70.70954],[22.74758,70.7079]],[[22.94007,70.72774],[22.93712,70.72825],[22.93753,70.7292],[22.94,70.72875],[22.94007,70.72774]],[[22.70073,70.61443],[22.70463,70.61249],[22.70329,70.6118],[22.70593,70.61086],[22.70937,70.61037]],[[22.62242,70.64057],[22.62439,70.64161]],[[22.71174,70.61517],[22.71854,70.61443],[22.71998,70.61312],[22.71967,70.61241],[22.71349,70.61148],[22.71128,70.61071]],[[22.71174,70.61517],[22.70935,70.61603],[22.70889,70.61722],[22.71305,70.61859]],[[22.56469,70.63514],[22.56753,70.63417],[22.56543,70.633]],[[22.71661,70.62782],[22.7193,70.62812],[22.72294,70.62952],[22.726,70.62961],[22.727,70.62912],[22.72567,70.62782],[22.72587,70.62626],[22.72159,70.62409],[22.72217,70.62277],[22.72086,70.62208],[22.71551,70.62245],[22.7143,70.62158],[22.71758,70.62103],[22.71794,70.6204],[22.71305,70.61859]],[[22.56543,70.633],[22.5673,70.63213],[22.57034,70.63255],[22.57527,70.63428],[22.57401,70.63525],[22.58079,70.63605],[22.58417,70.63724]],[[22.56661,70.6429],[22.56469,70.63514]],[[22.69037,70.63772],[22.68919,70.63587],[22.69175,70.63505],[22.69227,70.63425],[22.68852,70.63226],[22.68769,70.62992],[22.69024,70.62861],[22.68962,70.62651],[22.69152,70.6218],[22.69945,70.6182],[22.70474,70.61752],[22.70322,70.61468],[22.7012,70.61481],[22.70073,70.61443]],[[22.62224,70.64053],[22.61538,70.63966],[22.61149,70.63981],[22.60798,70.63908],[22.59028,70.63872],[22.58417,70.63724]],[[22.71302,70.63676],[22.70968,70.63562],[22.70686,70.63608],[22.70466,70.63586],[22.70005,70.63375],[22.69988,70.63309],[22.70079,70.63246],[22.7045,70.63198],[22.70932,70.63056],[22.70867,70.62924],[22.70992,70.62817],[22.71661,70.62782]],[[22.71962,70.63648],[22.71886,70.63536],[22.7169,70.63524],[22.71492,70.63668]],[[22.71302,70.63676],[22.71424,70.63712],[22.71492,70.63668]],[[22.59712,70.64243],[22.5902,70.6436],[22.59039,70.6445],[22.59629,70.64563],[22.6027,70.64526],[22.6017,70.6442],[22.59712,70.64243]],[[22.58914,70.65036],[22.59178,70.65013],[22.59255,70.64965],[22.58805,70.64749]],[[22.58914,70.65036],[22.58659,70.6512],[22.58777,70.65197],[22.58983,70.65218]],[[22.58983,70.65218],[22.604,70.65217],[22.60076,70.64981],[22.60683,70.6489],[22.60568,70.64811],[22.60189,70.64746],[22.5984,70.64787],[22.59583,70.64873],[22.59055,70.64725],[22.58798,70.6473]],[[22.64576,70.65006],[22.63904,70.6474],[22.63627,70.64796],[22.63161,70.64772],[22.62754,70.64801],[22.62615,70.64933],[22.62141,70.64912],[22.61821,70.6485],[22.60918,70.6491],[22.6103,70.65033],[22.60793,70.65151],[22.61183,70.6528],[22.61779,70.6536],[22.61896,70.65276],[22.62402,70.65284],[22.62487,70.65217],[22.62286,70.65088],[22.62347,70.65036],[22.62668,70.64984],[22.6304,70.65048],[22.62841,70.6529],[22.6291,70.65333],[22.63501,70.65327],[22.64107,70.65253],[22.64607,70.65048],[22.64576,70.65006]],[[22.62439,70.64161],[22.62849,70.64357],[22.62726,70.64481],[22.62917,70.64608],[22.63488,70.64689],[22.63574,70.64619],[22.64343,70.64685],[22.65382,70.64972],[22.66038,70.65209],[22.66314,70.65406],[22.67444,70.65698],[22.67574,70.65769],[22.67963,70.65833],[22.68058,70.65794],[22.68051,70.65573],[22.68469,70.6533],[22.68579,70.65066],[22.68505,70.64971],[22.68253,70.6488],[22.68279,70.64743],[22.68493,70.64595],[22.68874,70.64529],[22.68884,70.64246],[22.69074,70.63993],[22.69037,70.63772]],[[22.56661,70.6429],[22.56816,70.64696],[22.56483,70.64749],[22.5645,70.64807],[22.56834,70.64981],[22.56883,70.65065],[22.56202,70.65151],[22.56019,70.6526],[22.55769,70.65308],[22.55037,70.65351],[22.54884,70.65492],[22.5528,70.65716],[22.56894,70.66017],[22.56871,70.66135],[22.576,70.66322],[22.57563,70.6635],[22.57151,70.6635],[22.57302,70.66441],[22.57608,70.66497],[22.57245,70.66535],[22.57117,70.66591],[22.57164,70.66643],[22.58441,70.66769],[22.58641,70.66847],[22.58496,70.66882],[22.58521,70.66917],[22.5964,70.6695]],[[22.59711,70.67136],[22.60142,70.67165],[22.60872,70.67085],[22.60603,70.66993],[22.5964,70.6695]],[[22.59711,70.67136],[22.59539,70.67168],[22.59047,70.67172],[22.59294,70.67263],[22.59781,70.67321]],[[22.34866,70.69695],[22.34606,70.69528],[22.34933,70.69479],[22.34939,70.69291],[22.3521,70.69123],[22.35066,70.69027],[22.35313,70.68818],[22.34913,70.68665],[22.34713,70.68512],[22.34131,70.68416],[22.33987,70.68281],[22.34107,70.68241],[22.34886,70.68212],[22.35048,70.68106],[22.35579,70.67993],[22.35751,70.67843],[22.36283,70.67751],[22.363,70.67641],[22.36521,70.67559],[22.37035,70.67493],[22.37036,70.67433],[22.3724,70.67373],[22.37877,70.67269],[22.37503,70.6703],[22.37928,70.67017],[22.37951,70.66864],[22.38491,70.66843],[22.38731,70.66738],[22.38434,70.6661],[22.37169,70.66509],[22.3695,70.66459],[22.37218,70.66346],[22.36835,70.65934],[22.37063,70.65887],[22.36978,70.6568],[22.37044,70.65598],[22.37409,70.65494],[22.37589,70.65073]],[[22.41646,70.69421],[22.42046,70.69286],[22.41958,70.69207],[22.41355,70.69086],[22.4094,70.69077],[22.4068,70.69161],[22.4064,70.69462]],[[22.43101,70.69362],[22.43205,70.6928],[22.4374,70.69194],[22.43986,70.69062],[22.44488,70.68997],[22.44651,70.68906],[22.44396,70.68803],[22.43455,70.68884],[22.43215,70.68798],[22.42811,70.68802],[22.42682,70.68728],[22.4273,70.68684],[22.43315,70.68497],[22.4372,70.68249],[22.43931,70.68224],[22.44099,70.68074],[22.44849,70.6788],[22.44983,70.67677],[22.45495,70.67571],[22.46222,70.67506]],[[22.48512,70.69141],[22.48713,70.68984],[22.48721,70.68885],[22.49508,70.68683],[22.49383,70.68569],[22.4858,70.68574],[22.48246,70.68486],[22.48205,70.6841],[22.49098,70.6819],[22.49164,70.68139],[22.50395,70.6808],[22.51531,70.67946],[22.5155,70.6791],[22.50715,70.67889],[22.50819,70.67811],[22.50718,70.67751],[22.51127,70.67651],[22.51022,70.67602],[22.49704,70.6778],[22.49501,70.67717],[22.50153,70.6755],[22.50056,70.67509],[22.49424,70.67474],[22.49178,70.67425],[22.47805,70.67449],[22.47599,70.67412],[22.47591,70.67368],[22.47975,70.67251],[22.48517,70.67196],[22.48613,70.67108],[22.48316,70.66936],[22.48106,70.66891],[22.47514,70.66894],[22.47221,70.67003],[22.46998,70.67213],[22.47391,70.67389],[22.46222,70.67506]],[[22.64684,70.6847],[22.6421,70.68377],[22.64328,70.68304],[22.6412,70.68255],[22.63081,70.68224],[22.62969,70.68274],[22.63226,70.68531]],[[22.65731,70.68426],[22.65578,70.68285],[22.65112,70.68365],[22.64796,70.68333],[22.64751,70.68295],[22.64916,70.6822],[22.64816,70.68022],[22.64129,70.67936],[22.63913,70.67798],[22.6398,70.67719],[22.64433,70.67616],[22.64725,70.67601],[22.64721,70.6757],[22.64195,70.67562],[22.62827,70.6741],[22.60926,70.67454],[22.60417,70.67306],[22.60245,70.67334],[22.59781,70.67321]],[[22.76638,70.67964],[22.76689,70.6788],[22.7736,70.6778],[22.77273,70.67528],[22.7763,70.6744],[22.7769,70.67356],[22.78004,70.67248],[22.78208,70.67015],[22.7849,70.67004],[22.78707,70.6694],[22.78606,70.66831],[22.7895,70.66675],[22.79349,70.66388],[22.79749,70.66232],[22.79672,70.66091],[22.79858,70.66024],[22.79828,70.65929],[22.79987,70.65839],[22.81404,70.65627],[22.8309,70.65653],[22.83347,70.65527],[22.83541,70.65297],[22.8324,70.65159],[22.82234,70.65051],[22.81728,70.64763],[22.81432,70.64717],[22.80741,70.64679],[22.80518,70.6488],[22.79959,70.64831],[22.79194,70.64885],[22.78824,70.64834],[22.78315,70.64625],[22.77843,70.64578],[22.77206,70.64617],[22.76795,70.6457],[22.76612,70.64596],[22.76354,70.64838],[22.75964,70.64949],[22.75857,70.65335],[22.75572,70.65402],[22.74837,70.65368],[22.74526,70.65315],[22.74152,70.65186],[22.73974,70.65066],[22.74099,70.64958],[22.73775,70.64795],[22.73933,70.64699],[22.73741,70.64362],[22.73293,70.64238],[22.7311,70.6407],[22.72406,70.64046],[22.72087,70.63889]],[[22.94377,70.672],[22.94211,70.67073],[22.94286,70.66912],[22.94786,70.66769],[22.95332,70.66799],[22.9549,70.66838],[22.95621,70.66822],[22.95633,70.66521],[22.95732,70.66459],[22.9608,70.66383],[22.96542,70.66538],[22.97053,70.66563],[22.97889,70.66538],[22.99493,70.66707],[22.99933,70.66801],[23.00122,70.66682]],[[22.95426,70.67154],[22.95433,70.67055],[22.94941,70.6706],[22.94607,70.67102],[22.94651,70.67154],[22.9484,70.67179]],[[22.41646,70.69421],[22.41569,70.69534],[22.41821,70.69574],[22.42841,70.6947],[22.43101,70.69362]],[[22.64684,70.6847],[22.65404,70.68601],[22.65443,70.68521],[22.65731,70.68426]],[[22.9484,70.67179],[22.9502,70.67226],[22.95072,70.67362],[22.95283,70.67388],[22.95576,70.67287],[22.95426,70.67154]],[[22.46994,70.69574],[22.47454,70.69501],[22.48412,70.69434],[22.48553,70.69377],[22.48456,70.69305],[22.48512,70.69141]],[[22.46994,70.69574],[22.46919,70.69605],[22.47018,70.69637]],[[22.47059,70.69747],[22.47241,70.6971],[22.47018,70.69637]],[[22.60386,70.68911],[22.60086,70.69068],[22.60348,70.69108],[22.60507,70.6923]],[[22.47059,70.69747],[22.46649,70.6975],[22.46493,70.69896],[22.46626,70.69936],[22.47135,70.69949]],[[22.60578,70.69415],[22.60787,70.69336],[22.60507,70.6923]],[[22.60386,70.68911],[22.60748,70.68864],[22.61064,70.689],[22.61633,70.69186],[22.62181,70.69309],[22.63101,70.69425],[22.63843,70.694],[22.64042,70.69311],[22.64561,70.69271],[22.64636,70.69236],[22.64146,70.69133],[22.63395,70.68585],[22.63226,70.68531]],[[22.60578,70.69415],[22.60101,70.69474],[22.59991,70.69606],[22.60102,70.69682],[22.6037,70.69744],[22.60693,70.69717]],[[22.94293,70.68165],[22.94121,70.67804],[22.94412,70.67707],[22.94871,70.67797],[22.95011,70.67702],[22.94439,70.67584],[22.94527,70.67438],[22.94377,70.672]],[[22.94037,70.68608],[22.94149,70.6842],[22.94386,70.6826],[22.94293,70.68165]],[[22.88084,70.69052],[22.88243,70.68854],[22.88333,70.68816],[22.88624,70.68802]],[[22.60932,70.70345],[22.61301,70.70334],[22.61696,70.70072],[22.61345,70.69901],[22.60854,70.69728],[22.60693,70.69717]],[[22.9319,70.69026],[22.93747,70.68847],[22.94037,70.68608]],[[22.88624,70.68802],[22.89485,70.68862],[22.90278,70.68767],[22.90581,70.68796],[22.91871,70.69061],[22.93002,70.69104],[22.9319,70.69026]],[[22.90108,70.69626],[22.89609,70.6956],[22.89243,70.69481],[22.89024,70.69381],[22.8806,70.69186],[22.88084,70.69052]],[[23.00322,70.68059],[22.99402,70.68184],[22.99336,70.68354],[22.99192,70.68372],[22.98947,70.6833],[22.98686,70.68334],[22.98464,70.68492],[22.98325,70.68731],[22.9853,70.68923],[22.99048,70.68966],[22.99187,70.68939],[22.9932,70.68825],[22.99441,70.68546],[22.99681,70.68544],[23.00258,70.68773]],[[22.74548,70.7025],[22.73922,70.70153],[22.73335,70.70212],[22.73095,70.70181],[22.729,70.7021],[22.72764,70.70376],[22.73304,70.70541],[22.74049,70.70509],[22.74329,70.7067],[22.74758,70.7079]],[[22.34866,70.69695],[22.34825,70.69732],[22.34579,70.6975],[22.34997,70.69849],[22.35127,70.69925],[22.35173,70.70012],[22.34946,70.70097],[22.35219,70.70189],[22.35534,70.70224],[22.35861,70.70553],[22.36439,70.70707],[22.36528,70.70797],[22.36366,70.70821],[22.36408,70.70897],[22.36963,70.70986],[22.36825,70.71043],[22.36899,70.71083],[22.37591,70.71115],[22.3814,70.71199],[22.38983,70.712],[22.39114,70.71246],[22.39134,70.71297],[22.38615,70.71481],[22.38547,70.71566],[22.38066,70.71706],[22.37191,70.71857],[22.37295,70.71997],[22.36906,70.72101],[22.37196,70.72157],[22.37383,70.72099],[22.38608,70.71984],[22.38955,70.71912],[22.39312,70.71918],[22.39937,70.71858],[22.40253,70.71719],[22.40071,70.71654],[22.40138,70.71476],[22.3967,70.71161],[22.39711,70.71056],[22.39884,70.70936],[22.40246,70.70847],[22.40305,70.70595],[22.40811,70.70479],[22.41203,70.70257],[22.40805,70.70022],[22.41081,70.69838],[22.41127,70.69691],[22.4064,70.69462]],[[22.74548,70.7025],[22.74931,70.7025],[22.75238,70.70194],[22.75847,70.70286],[22.78063,70.70486],[22.7825,70.70432],[22.78339,70.70295],[22.78165,70.70229],[22.77798,70.70205],[22.77546,70.70236],[22.76446,70.70105],[22.76168,70.69797],[22.76273,70.69689],[22.76059,70.69607],[22.76218,70.69547],[22.7707,70.69549],[22.77425,70.69485],[22.7755,70.69427],[22.77474,70.69336],[22.77662,70.69058],[22.77444,70.69046],[22.77228,70.69102],[22.77146,70.6901],[22.76622,70.68867],[22.75143,70.68891],[22.74918,70.68768],[22.74635,70.68751],[22.74167,70.68652],[22.7428,70.68498],[22.75086,70.68472],[22.75523,70.68364],[22.75799,70.68349],[22.76638,70.67964]],[[22.91454,70.69951],[22.9095,70.69788],[22.90108,70.69626]],[[22.47135,70.69949],[22.47841,70.69901],[22.48366,70.69775],[22.4859,70.69881],[22.48868,70.69939],[22.48841,70.70052],[22.48969,70.70188],[22.497,70.70161],[22.5019,70.70204],[22.50573,70.70325],[22.50825,70.70522],[22.51527,70.70579],[22.52034,70.707],[22.51999,70.70766],[22.52225,70.70818],[22.52192,70.70882],[22.51217,70.71148],[22.51069,70.71244],[22.5131,70.71277],[22.52097,70.71603],[22.52105,70.71672],[22.51733,70.71805],[22.5153,70.71828],[22.51518,70.71916],[22.51345,70.71969],[22.51368,70.72044],[22.51679,70.72124],[22.52064,70.72061],[22.52159,70.72011],[22.521,70.71947],[22.52511,70.71892],[22.52748,70.71896],[22.53013,70.72047],[22.53211,70.7207],[22.53432,70.72015],[22.53783,70.72017],[22.53843,70.71901],[22.54383,70.71832],[22.55192,70.71029],[22.55618,70.7097],[22.5572,70.70896],[22.5623,70.70791],[22.56251,70.7074],[22.56846,70.70613],[22.56885,70.7052],[22.56796,70.70479],[22.57455,70.70274],[22.57534,70.70222],[22.57471,70.70165],[22.58224,70.6992],[22.58624,70.69942],[22.59505,70.70202],[22.59749,70.7039],[22.59722,70.70452],[22.59571,70.70481],[22.59642,70.70559],[22.59833,70.70555],[22.5993,70.70504],[22.60511,70.70499],[22.60932,70.70345]],[[22.92772,70.70628],[22.91567,70.70475],[22.91135,70.70468],[22.9107,70.70348],[22.91178,70.70259],[22.91312,70.70191],[22.91863,70.70063],[22.91454,70.69951]],[[22.70125,70.71787],[22.6959,70.717],[22.6937,70.71699],[22.69137,70.71621],[22.68838,70.71591],[22.68254,70.7172],[22.68476,70.71843],[22.69068,70.71838],[22.68977,70.71966],[22.69046,70.72024],[22.68895,70.72078],[22.69201,70.7212],[22.69502,70.72109],[22.70199,70.71979],[22.70305,70.71866],[22.70125,70.71787]],[[22.6907,70.72149],[22.68494,70.72179],[22.68141,70.72306],[22.68555,70.72325],[22.69035,70.72272],[22.69267,70.72172],[22.6907,70.72149]],[[22.74331,70.72578],[22.73848,70.72215],[22.73508,70.72106],[22.73118,70.72097],[22.73009,70.72055],[22.72977,70.71865],[22.73312,70.71664],[22.73125,70.71492],[22.73076,70.7127],[22.73294,70.71228],[22.73482,70.71131],[22.73892,70.71085],[22.74044,70.70942],[22.74846,70.71017]],[[22.93349,70.71527],[22.93097,70.71294],[22.93206,70.7125],[22.93429,70.71267],[22.93523,70.71224],[22.93027,70.70965],[22.93009,70.70884],[22.93214,70.70872],[22.93141,70.7072],[22.92772,70.70628]],[[22.73293,70.72622],[22.72842,70.72483],[22.72636,70.72337],[22.72035,70.72249],[22.71926,70.72098],[22.71717,70.7204],[22.71655,70.72123],[22.71432,70.72189],[22.70877,70.72242],[22.70335,70.72237],[22.70176,70.72344],[22.7035,70.72359],[22.7037,70.72399],[22.70067,70.72516],[22.6966,70.72578],[22.69193,70.72573],[22.68977,70.72683],[22.69056,70.72752],[22.68759,70.72813]],[[22.85547,70.72099],[22.85045,70.72065],[22.85071,70.72036],[22.8532,70.72046],[22.85302,70.71982],[22.84937,70.71816],[22.84605,70.71795],[22.83655,70.71935],[22.83552,70.71987],[22.83632,70.72181]],[[22.93676,70.71747],[22.93416,70.71636],[22.93349,70.71527]],[[22.73293,70.72622],[22.73883,70.72826],[22.74214,70.7303],[22.74331,70.73041],[22.74688,70.72921],[22.74331,70.72578]],[[22.85547,70.72099],[22.86113,70.72417],[22.86754,70.72607],[22.86793,70.72709],[22.86935,70.72764],[22.87076,70.72696],[22.86876,70.72361],[22.86994,70.72195],[22.87342,70.72078],[22.87874,70.72101],[22.87965,70.72193],[22.88443,70.72314],[22.88966,70.72622],[22.8916,70.72668]],[[22.8916,70.72668],[22.90125,70.72781],[22.9065,70.7281],[22.91074,70.72777],[22.91507,70.72857],[22.92205,70.728],[22.9275,70.7269],[22.93232,70.7272],[22.93451,70.727],[22.9389,70.72749],[22.93982,70.72692],[22.93836,70.72424],[22.94134,70.72398],[22.94182,70.72355],[22.93594,70.72248],[22.93341,70.72131],[22.93281,70.72007],[22.9346,70.7191],[22.94066,70.7194],[22.94003,70.7186],[22.93676,70.71747]],[[22.96033,70.74083],[22.95888,70.74083],[22.95687,70.74164],[22.96074,70.74447],[22.96262,70.74496],[22.96526,70.74438],[22.96672,70.74269],[22.96471,70.74166],[22.9611,70.74133],[22.96033,70.74083]],[[22.68759,70.72813],[22.68662,70.72895],[22.6876,70.72959],[22.69049,70.72972],[22.69434,70.72873],[22.69473,70.72976],[22.69355,70.731],[22.69435,70.73166],[22.68913,70.73356],[22.6877,70.73462],[22.68901,70.73718],[22.68589,70.73796],[22.67991,70.74045],[22.68058,70.74293],[22.67982,70.74342],[22.68314,70.7446],[22.68341,70.74534],[22.68644,70.74674],[22.69011,70.74533],[22.69225,70.746],[22.69014,70.75016],[22.69256,70.75065],[22.69755,70.74863],[22.70099,70.74877],[22.70171,70.74944],[22.70045,70.75044],[22.70529,70.75049],[22.70666,70.75121],[22.70614,70.7528],[22.70397,70.75437],[22.70934,70.75507],[22.71266,70.75484],[22.7153,70.756],[22.71761,70.75616],[22.72103,70.75577],[22.72527,70.75641],[22.73331,70.75618],[22.73859,70.7553],[22.74425,70.75564],[22.74587,70.75665],[22.74174,70.75815],[22.73936,70.75853],[22.73859,70.75895],[22.73946,70.7595],[22.74812,70.76021],[22.74969,70.76081],[22.74983,70.76151],[22.75414,70.76209],[22.75791,70.76325],[22.75614,70.76392],[22.76015,70.76375],[22.75905,70.76535],[22.75785,70.76564],[22.75884,70.76618],[22.76079,70.76622],[22.76751,70.76495],[22.76978,70.76488]],[[22.78996,70.76896],[22.79013,70.76805],[22.78689,70.76629],[22.77913,70.76576],[22.77566,70.76613],[22.77028,70.7653],[22.76978,70.76488]],[[22.80862,70.76816],[22.81088,70.76632],[22.8108,70.76285],[22.80546,70.76004],[22.80362,70.75758],[22.79324,70.75381],[22.7872,70.74926],[22.78778,70.74822],[22.78376,70.7463],[22.78649,70.74492],[22.79107,70.74546],[22.80085,70.74188],[22.80178,70.73912],[22.79673,70.73637],[22.79643,70.73566],[22.79779,70.73472],[22.7999,70.73406],[22.80497,70.73341],[22.80649,70.7327],[22.80837,70.73296],[22.80679,70.73388],[22.81522,70.73836],[22.81713,70.74062],[22.81615,70.74537],[22.82107,70.74862],[22.82192,70.75026],[22.82308,70.75088],[22.82458,70.75099],[22.82666,70.75078],[22.82967,70.74967],[22.83839,70.74868],[22.8462,70.74584],[22.85104,70.74491],[22.85489,70.74052],[22.85777,70.7402],[22.86211,70.74042],[22.86419,70.73966],[22.86756,70.73939],[22.86984,70.73798],[22.86919,70.73597],[22.86669,70.7335],[22.86204,70.73191],[22.84278,70.7274],[22.83986,70.72456],[22.83747,70.72353],[22.83632,70.72181]],[[22.96285,70.76151],[22.96104,70.76027],[22.96248,70.7597],[22.96085,70.75828],[22.96141,70.75708],[22.95782,70.7548],[22.95721,70.75387],[22.95824,70.75327],[22.95604,70.75244],[22.95801,70.7516],[22.96045,70.75236],[22.96123,70.7502],[22.96001,70.75003],[22.95975,70.75056],[22.95782,70.7511],[22.95464,70.75113],[22.95386,70.7481],[22.95011,70.74641],[22.94131,70.74433],[22.93343,70.7441],[22.93196,70.74426],[22.92887,70.74568],[22.92555,70.74812],[22.92682,70.74911],[22.92846,70.74891],[22.93048,70.74925],[22.93446,70.75088],[22.93392,70.75239],[22.93077,70.75425],[22.93048,70.75571],[22.93721,70.75754],[22.94022,70.75777],[22.94035,70.75834],[22.93821,70.75866],[22.937,70.75942],[22.93673,70.76116],[22.93475,70.76273]],[[22.78996,70.76896],[22.79101,70.76935],[22.7989,70.77019],[22.80593,70.76908],[22.80862,70.76816]],[[22.93475,70.76273],[22.93543,70.7645],[22.93879,70.76521],[22.94187,70.765],[22.9417,70.76645],[22.94491,70.76815],[22.95427,70.76851],[22.95663,70.76772],[22.96302,70.76374],[22.96367,70.76253],[22.96285,70.76151]],[[23.00344,70.83362],[22.99975,70.83391],[22.99884,70.83479],[22.99592,70.83573],[22.99598,70.83747],[22.99126,70.83787],[22.99248,70.83876],[22.99251,70.84017],[22.98825,70.84479],[22.98528,70.84545],[22.98169,70.84546],[22.98025,70.84626],[22.98492,70.84743],[22.98923,70.84791],[22.98954,70.84842],[22.9945,70.8495],[22.99831,70.84744],[23.00481,70.84615]],[[22.90794,70.87213],[22.90486,70.86976],[22.89932,70.86857],[22.89619,70.86658],[22.89299,70.86608],[22.89257,70.86534],[22.88934,70.8647],[22.88815,70.86561],[22.88856,70.86647],[22.89128,70.86753],[22.89295,70.87055],[22.89693,70.8726],[22.89919,70.87244],[22.90314,70.87407],[22.90781,70.87428],[22.90855,70.87387],[22.90794,70.87213]],[[22.4001,70.49452],[22.40214,70.49661]],[[22.46493,70.49943],[22.46375,70.49958],[22.46417,70.50011],[22.46558,70.50011],[22.46493,70.49943]],[[22.48059,70.51106],[22.47881,70.51061],[22.47816,70.51116]],[[22.81294,70.52597],[22.81111,70.52731],[22.81498,70.53123]],[[22.67597,70.54422],[22.67468,70.54416],[22.67382,70.54469],[22.67412,70.54513],[22.67657,70.54559],[22.67746,70.54479],[22.67597,70.54422]],[[22.93236,70.53698],[22.93302,70.53621]],[[22.87337,70.4335],[22.87413,70.43295],[22.87271,70.43259],[22.87298,70.4323],[22.87875,70.43188],[22.87917,70.4314],[22.87894,70.43106],[22.87694,70.43084],[22.87845,70.42989],[22.8775,70.42908],[22.86869,70.42912],[22.87116,70.4282],[22.87197,70.4269],[22.87451,70.4261]],[[22.87082,70.44933],[22.86489,70.44399],[22.86481,70.44055],[22.86856,70.4357],[22.87167,70.43481],[22.87337,70.4335]],[[22.87082,70.44933],[22.87627,70.45257],[22.88465,70.45578],[22.90258,70.46105],[22.90537,70.46118]],[[22.90537,70.46118],[22.91712,70.46182],[22.92299,70.46155]],[[22.94256,70.45962],[22.94074,70.45769],[22.93563,70.4571],[22.93324,70.45563],[22.92805,70.45532],[22.92736,70.45663],[22.92964,70.45848],[22.92817,70.4622],[22.92299,70.46155]],[[22.39344,70.48897],[22.39412,70.49081]],[[22.4001,70.49452],[22.39412,70.49081]],[[22.94256,70.45962],[22.94279,70.46186],[22.94546,70.46361],[22.94549,70.4652],[22.94068,70.47091],[22.9408,70.47232],[22.95063,70.47631],[22.95937,70.47776],[22.96416,70.47756]],[[22.9853,70.47285],[22.98305,70.47257],[22.98112,70.47277],[22.97761,70.47364],[22.97526,70.47548],[22.97238,70.47596],[22.97032,70.47703],[22.96524,70.47774],[22.96416,70.47756]],[[22.49779,70.49731],[22.49598,70.49681],[22.49353,70.4974],[22.49397,70.49587],[22.49265,70.49563],[22.49114,70.49595],[22.49107,70.4972],[22.49274,70.49771],[22.49481,70.49979],[22.49779,70.49731]],[[22.9853,70.47285],[22.99492,70.4733],[22.99726,70.4737],[22.99216,70.47473],[22.99026,70.47589],[22.98986,70.47698],[22.98403,70.47935],[22.98393,70.48133]],[[22.58856,70.49116],[22.58352,70.49167],[22.58412,70.4929],[22.58675,70.49435],[22.58541,70.49638],[22.58685,70.49689],[22.58805,70.49672],[22.58829,70.49446],[22.59011,70.4926],[22.58856,70.49116]],[[22.46539,70.50127],[22.4637,70.50102],[22.46227,70.50229],[22.46292,70.50388],[22.46474,70.50363],[22.46539,70.50127]],[[22.39846,70.50913],[22.39614,70.50877],[22.39659,70.51126],[22.39992,70.51183],[22.40081,70.51138],[22.39846,70.50913]],[[22.40083,70.51434],[22.40032,70.51317],[22.4026,70.51395]],[[22.40299,70.51425],[22.4026,70.51395]],[[22.9812,70.48966],[22.9794,70.48849],[22.97911,70.48725],[22.98393,70.48133]],[[22.41003,70.51396],[22.40991,70.51302],[22.40661,70.51152],[22.40498,70.50942],[22.40202,70.50853],[22.40222,70.50788],[22.40374,70.50736],[22.40149,70.50475],[22.4042,70.50454],[22.40521,70.50352],[22.40423,70.50275],[22.39982,70.50136],[22.40254,70.49789],[22.40214,70.49661]],[[22.45207,70.51223],[22.45086,70.51077],[22.45091,70.50789],[22.45232,70.5066],[22.45045,70.50367],[22.45164,70.50216],[22.4508,70.49956],[22.45196,70.49684],[22.45605,70.49545],[22.45641,70.49601],[22.45856,70.49659],[22.45781,70.49816],[22.4588,70.49872],[22.46118,70.49879],[22.46593,70.49812],[22.46855,70.49974],[22.46945,70.49961],[22.46978,70.4983],[22.46871,70.4971],[22.46356,70.49726],[22.45915,70.49619],[22.45997,70.49561],[22.45766,70.49361],[22.45891,70.49113],[22.45773,70.49024],[22.45503,70.48947],[22.44807,70.48894],[22.44238,70.48712],[22.4375,70.48686],[22.42801,70.48491],[22.42121,70.48641],[22.41084,70.48603],[22.40672,70.48685],[22.40139,70.48658],[22.39663,70.48855],[22.39344,70.48897]],[[22.52235,70.50933],[22.52183,70.50872],[22.52314,70.50658],[22.5224,70.50578],[22.52651,70.50597],[22.52714,70.50552],[22.5262,70.50455],[22.52489,70.50489],[22.52322,70.50478],[22.52185,70.50337],[22.52422,70.50111],[22.52924,70.49876],[22.52431,70.49646],[22.51914,70.49588],[22.51617,70.49661],[22.51254,70.49641],[22.51136,70.49669],[22.51193,70.49835],[22.50898,70.5016],[22.50848,70.50427],[22.50311,70.50838],[22.49892,70.50885],[22.49851,70.50931],[22.49994,70.51026]],[[22.52834,70.50908],[22.52944,70.50416],[22.53419,70.5043]],[[22.58012,70.50692],[22.5764,70.50617],[22.57109,70.50265],[22.56974,70.50023],[22.57108,70.49918],[22.56553,70.49774],[22.56203,70.49621],[22.5591,70.49402],[22.55391,70.49464],[22.54819,70.49466],[22.54323,70.49635],[22.54137,70.50115],[22.5379,70.50371],[22.53419,70.5043]],[[22.40303,70.51512],[22.40299,70.51425]],[[22.52235,70.50933],[22.52645,70.51045],[22.52763,70.51021],[22.52834,70.50908]],[[22.40303,70.51512],[22.40368,70.51691]],[[22.47816,70.51116],[22.47529,70.51287],[22.47715,70.51428],[22.47852,70.51399],[22.48001,70.51273],[22.48059,70.51106]],[[22.39057,70.51476],[22.39062,70.51751],[22.39259,70.51802],[22.39855,70.51718],[22.40078,70.51537],[22.40083,70.51434]],[[22.9812,70.48966],[22.98291,70.49074],[22.98811,70.49229],[22.98946,70.49363],[22.99328,70.4942],[22.99853,70.49364],[23.00045,70.49383]],[[22.40368,70.51691],[22.40843,70.51994],[22.4104,70.52208],[22.41349,70.52247],[22.41417,70.52133],[22.4125,70.5204],[22.4122,70.5191],[22.41316,70.51812],[22.41189,70.5174],[22.41003,70.51396]],[[22.81938,70.51111],[22.81763,70.51115],[22.81723,70.51172],[22.82046,70.51278],[22.82636,70.51433],[22.82987,70.51409],[22.8259,70.51222],[22.81938,70.51111]],[[22.45207,70.51223],[22.45359,70.5169],[22.45907,70.51995],[22.45764,70.52207],[22.45971,70.52551],[22.46706,70.52823],[22.4715,70.53109],[22.47398,70.52829],[22.47218,70.52542],[22.47612,70.52208],[22.47684,70.5217],[22.47801,70.52188],[22.48038,70.52276],[22.48255,70.52465],[22.48558,70.52525],[22.48629,70.52416],[22.48513,70.52261],[22.48688,70.52125],[22.48945,70.52146],[22.48946,70.5196],[22.49309,70.51655],[22.49953,70.51368],[22.49994,70.51026]],[[22.6886,70.52312],[22.69204,70.52455],[22.69148,70.52734]],[[22.83711,70.52205],[22.83825,70.52083],[22.83766,70.51819],[22.83337,70.51674],[22.82058,70.51463],[22.81574,70.51489],[22.81457,70.51532],[22.81732,70.5163],[22.81511,70.51723],[22.81387,70.51723],[22.80893,70.51562]],[[22.65983,70.52591],[22.66341,70.52538],[22.66448,70.52351],[22.66547,70.52351],[22.66646,70.52428],[22.66747,70.52371],[22.6676,70.52175],[22.66363,70.52041],[22.6608,70.52223],[22.65879,70.52199],[22.65843,70.5208],[22.65681,70.52114],[22.65528,70.52384],[22.65811,70.52719],[22.65722,70.52777],[22.65794,70.52881],[22.65954,70.52971],[22.66151,70.52939],[22.65972,70.52806],[22.65983,70.52591]],[[22.80893,70.51562],[22.80271,70.51466],[22.80006,70.51388],[22.79817,70.51406],[22.7992,70.51561],[22.80134,70.51662],[22.80728,70.51785],[22.8071,70.51865],[22.80531,70.51947],[22.80598,70.52058],[22.81189,70.52324]],[[22.75337,70.52668],[22.75156,70.52439],[22.74861,70.52278],[22.74818,70.51927],[22.74367,70.51688],[22.74454,70.51596],[22.74248,70.51479],[22.74516,70.51158],[22.74406,70.50954],[22.74609,70.50954],[22.74883,70.51038],[22.75515,70.51141],[22.76251,70.51171],[22.76569,70.51248],[22.77029,70.5145],[22.7748,70.51564],[22.77857,70.51797],[22.78055,70.52056],[22.78934,70.52337],[22.79272,70.52309],[22.79914,70.52182],[22.80316,70.52058],[22.80488,70.52109],[22.80361,70.522],[22.80571,70.52267],[22.80833,70.52468],[22.81022,70.52413],[22.81247,70.52476]],[[22.81189,70.52324],[22.81986,70.52732],[22.82273,70.528]],[[22.81294,70.52597],[22.81247,70.52476]],[[22.65125,70.53175],[22.64995,70.53176],[22.64946,70.53262],[22.64956,70.53337],[22.65123,70.5342],[22.65202,70.53339],[22.65125,70.53175]],[[22.93248,70.5208],[22.931,70.52073],[22.9281,70.52134],[22.92757,70.522],[22.92883,70.5227],[22.93268,70.52254],[22.93248,70.5208]],[[22.75337,70.52668],[22.75522,70.53161]],[[22.81743,70.53321],[22.81498,70.53123]],[[22.67923,70.53368],[22.67884,70.5332],[22.67609,70.53382],[22.67535,70.5354],[22.67706,70.53719],[22.6765,70.53822],[22.67929,70.53961],[22.68155,70.53879],[22.68107,70.53539],[22.67923,70.53368]],[[22.85251,70.52906],[22.85263,70.53211],[22.85049,70.53308],[22.84756,70.53303],[22.84405,70.53173],[22.8445,70.53075],[22.83903,70.52824],[22.83475,70.52541],[22.83462,70.52329],[22.83711,70.52205]],[[22.73729,70.54542],[22.73463,70.54553]],[[22.75798,70.54453],[22.75078,70.54103],[22.74882,70.54096],[22.74843,70.54283],[22.74436,70.54171],[22.74142,70.54239],[22.74099,70.54419],[22.73927,70.54533]],[[22.93302,70.53621],[22.93686,70.53356],[22.93488,70.53316],[22.93224,70.53364],[22.92966,70.53287],[22.92975,70.53209],[22.93231,70.53155],[22.93332,70.5307],[22.93326,70.52998],[22.93169,70.52944],[22.9258,70.52989],[22.91969,70.52843],[22.91784,70.52841],[22.91408,70.52875],[22.9135,70.52923],[22.91061,70.52976],[22.905,70.52978],[22.90286,70.52927],[22.89854,70.52659],[22.89433,70.52665],[22.88938,70.52541],[22.87938,70.52419],[22.8718,70.52227],[22.86682,70.52216],[22.86041,70.52107],[22.8592,70.52143],[22.85929,70.52194],[22.86257,70.52355],[22.86255,70.52423],[22.86041,70.52507],[22.85402,70.52499],[22.85185,70.52531],[22.8552,70.52665],[22.85251,70.52906]],[[22.81743,70.53321],[22.81899,70.53477],[22.82256,70.5353],[22.82684,70.53762],[22.83064,70.53797],[22.83558,70.54065],[22.83772,70.5409],[22.83926,70.54061],[22.83948,70.53938],[22.83655,70.5374],[22.8289,70.53506],[22.82864,70.53407],[22.83117,70.53389],[22.83307,70.53323],[22.82835,70.53226],[22.82273,70.528]],[[22.76619,70.54418],[22.76029,70.54019],[22.75225,70.53619],[22.7556,70.53397],[22.75522,70.53161]],[[22.60471,70.55103],[22.60546,70.54896],[22.61201,70.54765],[22.60944,70.54601],[22.61195,70.54311],[22.61087,70.54158],[22.61139,70.53992],[22.60773,70.53747],[22.609,70.53258],[22.60844,70.5315],[22.60945,70.53091],[22.61237,70.53139],[22.614,70.53264],[22.61545,70.5328],[22.61649,70.5312],[22.61901,70.52956],[22.61832,70.52724],[22.61918,70.52371],[22.61862,70.52319],[22.6168,70.52323],[22.61494,70.52271],[22.61362,70.52154],[22.62102,70.5152],[22.6176,70.50859],[22.61173,70.50732],[22.60554,70.50737],[22.60391,70.50954],[22.60443,70.51155],[22.60037,70.51342],[22.59798,70.51601],[22.59614,70.51684],[22.59174,70.5237],[22.59067,70.52405],[22.58837,70.52337],[22.58754,70.52448],[22.58522,70.52459],[22.58114,70.52377],[22.57793,70.51982],[22.58139,70.51384],[22.5806,70.51208],[22.58238,70.50771],[22.58012,70.50692]],[[22.63683,70.54968],[22.63677,70.54576],[22.64038,70.54467],[22.64247,70.54289],[22.63974,70.54231],[22.63542,70.54293],[22.6299,70.54738],[22.62458,70.55019]],[[22.67428,70.5481],[22.67058,70.54709],[22.6681,70.54836]],[[22.69148,70.52734],[22.69355,70.52883],[22.69202,70.53002],[22.68548,70.52983],[22.68263,70.52872],[22.68035,70.52898],[22.68026,70.52944],[22.68183,70.53196],[22.68088,70.53451],[22.68297,70.53561],[22.68682,70.53503],[22.68882,70.53568],[22.6893,70.53976],[22.68775,70.54266],[22.69321,70.54729]],[[22.71417,70.5464],[22.71214,70.54599],[22.71204,70.54488],[22.71895,70.54076],[22.71943,70.53954],[22.71842,70.53929],[22.71652,70.54],[22.71553,70.53955],[22.71637,70.53385],[22.71482,70.53113],[22.71495,70.52874],[22.713,70.52616],[22.71499,70.5226],[22.71226,70.51764],[22.71236,70.51429],[22.70321,70.50601],[22.70337,70.50504],[22.70499,70.50453],[22.70392,70.50309],[22.70229,70.50305],[22.70089,70.50439],[22.69673,70.50443],[22.69142,70.50389],[22.68426,70.50855],[22.68534,70.51073],[22.68441,70.51479],[22.68645,70.51542],[22.68708,70.5164],[22.68074,70.51805],[22.67931,70.51906],[22.68395,70.52203],[22.68623,70.52284],[22.6886,70.52312]],[[22.73729,70.54542],[22.73927,70.54533]],[[22.75798,70.54453],[22.76309,70.54565],[22.76615,70.54472],[22.76619,70.54418]],[[22.60471,70.55103],[22.60421,70.55216],[22.6054,70.55363],[22.60764,70.55387],[22.61099,70.55302],[22.61681,70.55333],[22.62237,70.55165],[22.62458,70.55019]],[[22.67428,70.5481],[22.67683,70.54966],[22.68042,70.55001],[22.68741,70.55169]],[[22.71417,70.5464],[22.71727,70.5476],[22.71731,70.55115],[22.71918,70.55225],[22.72625,70.55269],[22.72963,70.55327],[22.73776,70.55159],[22.73768,70.55053],[22.73282,70.54922],[22.73131,70.54826],[22.73463,70.54553]],[[22.63683,70.54968],[22.63894,70.55214],[22.63878,70.55439],[22.63613,70.55516],[22.63671,70.55562],[22.64165,70.55628],[22.64492,70.55554],[22.64949,70.55746],[22.6531,70.5578],[22.65477,70.5575],[22.65527,70.55535],[22.65726,70.55352],[22.6622,70.55194],[22.66449,70.55004],[22.6681,70.54836]],[[22.68741,70.55169],[22.6917,70.55057],[22.69559,70.55148],[22.70002,70.55339],[22.70553,70.55452],[22.70613,70.55607],[22.70849,70.55784],[22.71291,70.55846],[22.71637,70.55758],[22.71647,70.55695],[22.70771,70.55208],[22.69321,70.54729]],[[22.98429,70.56173],[22.97056,70.56457],[22.96393,70.56544]],[[23.00149,70.55839],[22.99845,70.55824],[22.98688,70.5607],[22.98429,70.56173]],[[22.89868,70.56528],[22.89664,70.56534],[22.89574,70.56596],[22.8969,70.56787],[22.90307,70.56984],[22.90317,70.56798],[22.89868,70.56528]],[[22.93236,70.53698],[22.93213,70.53801],[22.93916,70.54211],[22.93959,70.54572],[22.93658,70.54718],[22.93663,70.54945],[22.93227,70.55208],[22.93011,70.55441],[22.9218,70.55831],[22.92004,70.55826],[22.91733,70.55709],[22.9112,70.55927],[22.90445,70.55911],[22.90135,70.55996],[22.89804,70.55865],[22.89523,70.55924],[22.89101,70.55933],[22.89229,70.56025],[22.89182,70.56118],[22.8819,70.56312],[22.88043,70.56381],[22.88102,70.56512],[22.8858,70.5675],[22.89025,70.56809],[22.8919,70.56877],[22.89039,70.5694],[22.88704,70.56937],[22.88576,70.57127],[22.88326,70.57208],[22.88207,70.57318],[22.88544,70.5749],[22.88714,70.57514],[22.89347,70.57376],[22.89502,70.57304],[22.89581,70.57171],[22.90022,70.57139],[22.90173,70.57274],[22.90986,70.57302],[22.91162,70.57648],[22.91371,70.57761],[22.9202,70.57908],[22.92119,70.57875],[22.92062,70.57787],[22.92616,70.57655],[22.92846,70.5742],[22.9275,70.57258],[22.92209,70.5693],[22.91965,70.56871],[22.9198,70.56803],[22.92364,70.56869],[22.92677,70.56792],[22.92919,70.56841],[22.93279,70.56848],[22.93819,70.56729],[22.96393,70.56544]],[[22.97836,70.59588],[22.9777,70.59517],[22.97947,70.59428],[22.98052,70.5939],[22.98443,70.59395],[22.98503,70.5928],[22.98703,70.59219],[22.98895,70.59265],[22.99003,70.59411],[22.9921,70.59484],[22.9936,70.59508],[22.99703,70.59484],[22.99926,70.59417],[22.99727,70.59378],[22.99727,70.59312],[23.00362,70.59286]],[[22.98262,70.59845],[22.98206,70.59754],[22.97836,70.59588]],[[22.98262,70.59845],[22.98319,70.59934],[22.98625,70.59979],[22.99604,70.59939],[23.00289,70.59801]],[[22.27594,70.03968],[22.27148,70.03859],[22.2758,70.03498],[22.28116,70.0324],[22.28704,70.02468],[22.29056,70.02331],[22.29557,70.02276]],[[22.29589,70.04647],[22.28409,70.04337],[22.27854,70.04031],[22.27594,70.03968]]]}}]}