{"type":"FeatureCollection","features":[{"type":"Feature","properties":{},"geometry":{"type":"MultiLineString","coordinates":[[[31.16055,70.38329],[31.16158,70.38266],[31.16312,70.38261],[31.16285,70.38166],[31.16126,70.38133],[31.15895,70.38233],[31.15928,70.38307],[31.16055,70.38329]],[[31.14702,70.3892],[31.14537,70.3894],[31.14662,70.39059],[31.14824,70.39078],[31.14886,70.38993],[31.14702,70.3892]],[[31.04812,70.31144],[31.0445,70.30925],[31.04146,70.30872],[31.04006,70.30789],[31.03886,70.30561],[31.0405,70.30175],[31.04174,70.30008],[31.04442,70.29852],[31.04838,70.29721],[31.05485,70.29387],[31.05522,70.2917],[31.06108,70.29043],[31.06376,70.2894],[31.06376,70.28876],[31.06023,70.28739],[31.06181,70.28664],[31.0581,70.28612],[31.05806,70.28515],[31.05201,70.28354],[31.03481,70.28213],[31.02862,70.28093],[31.0177,70.28043],[31.00898,70.28031],[31.00363,70.28078],[31.00417,70.28132],[31.00079,70.28243],[30.9979,70.28502]],[[31.05385,70.35716],[31.0531,70.35536],[31.05578,70.34985],[31.05327,70.34928],[31.05038,70.35],[31.04711,70.34949],[31.04551,70.34872],[31.04543,70.34545],[31.04661,70.34315],[31.04398,70.3365],[31.04972,70.33322],[31.04981,70.33248],[31.05182,70.33178],[31.05243,70.33014],[31.05617,70.3288],[31.05569,70.32673],[31.05653,70.3257],[31.05934,70.32459],[31.05798,70.32025],[31.05874,70.31787],[31.05078,70.31223],[31.04812,70.31144]],[[31.02806,70.36504],[31.02949,70.36491],[31.02626,70.36194],[31.0274,70.36149],[31.03171,70.36162],[31.03471,70.36224],[31.0339,70.36337],[31.04129,70.36333],[31.04207,70.36178],[31.04724,70.36123],[31.05036,70.36175],[31.04978,70.3631],[31.05072,70.36323],[31.0531,70.36204],[31.05431,70.35999],[31.05385,70.35716]],[[31.11134,70.36624],[31.10866,70.36824],[31.10812,70.36976],[31.10678,70.36962],[31.10426,70.36788]],[[31.10426,70.36788],[31.10326,70.36458],[31.10146,70.36445],[31.1,70.36488],[31.09861,70.36312],[31.09662,70.36357],[31.09451,70.3634],[31.09439,70.36696],[31.09054,70.37068],[31.0918,70.37166],[31.09071,70.37215],[31.08914,70.37208],[31.08712,70.37256],[31.08567,70.3736],[31.08632,70.37439]],[[31.08632,70.37439],[31.08406,70.37603]],[[31.09502,70.37807],[31.0974,70.37653],[31.09915,70.37643],[31.10073,70.37582],[31.10093,70.37481],[31.103,70.37492],[31.10413,70.37446],[31.10467,70.37383],[31.10294,70.37305],[31.10426,70.37225],[31.10634,70.37215],[31.10542,70.37081],[31.10829,70.37062],[31.10995,70.37425],[31.11524,70.37838]],[[31.11524,70.37838],[31.11636,70.38015],[31.11873,70.38115],[31.12208,70.37848],[31.12335,70.37584],[31.12621,70.37399],[31.1269,70.37249],[31.12972,70.37218],[31.13057,70.37171],[31.13127,70.36831],[31.13252,70.36702],[31.13045,70.36459],[31.126,70.3634],[31.12229,70.36375],[31.11895,70.3656],[31.118,70.36423],[31.11455,70.36332],[31.1124,70.36447],[31.11134,70.36624]],[[31.04668,70.38816],[31.04678,70.38716],[31.04535,70.38651]],[[31.04535,70.38651],[31.04296,70.38613],[31.04197,70.38643],[31.04109,70.38777],[31.04306,70.38863],[31.04191,70.38927],[31.04384,70.38955],[31.04668,70.38816]],[[31.16411,70.3885],[31.16507,70.38796],[31.16839,70.38749],[31.1646,70.38434],[31.16284,70.38434],[31.16043,70.38528],[31.15626,70.38518],[31.15366,70.38324],[31.1502,70.38362],[31.14925,70.38718],[31.14965,70.38826],[31.15184,70.38943],[31.15781,70.39074],[31.16215,70.39068],[31.16411,70.3885]],[[31.08607,70.39626],[31.08502,70.39613],[31.08435,70.39642],[31.08474,70.39823],[31.0872,70.3997],[31.0881,70.39946],[31.0884,70.39789],[31.08607,70.39626]],[[31.01062,70.40734],[31.01078,70.40657],[31.00926,70.40578],[31.01452,70.40196],[31.01515,70.39748],[31.01938,70.39684],[31.02128,70.39782],[31.02334,70.39624],[31.02565,70.3959],[31.03092,70.39594],[31.03317,70.39297],[31.03228,70.3916],[31.0336,70.39102],[31.03237,70.39007],[31.03321,70.38744],[31.03252,70.38579],[31.03577,70.38334],[31.03579,70.37985],[31.03119,70.37982],[31.02786,70.37411],[31.02457,70.37361],[31.0209,70.37216],[31.01898,70.36852],[31.01972,70.36586],[31.0208,70.36524],[31.02244,70.36482],[31.02806,70.36504]],[[31.08406,70.37603],[31.07662,70.37785],[31.07909,70.38232],[31.0778,70.38359],[31.07835,70.38497],[31.0736,70.38804],[31.07323,70.39004],[31.07021,70.39168],[31.07198,70.39261],[31.06656,70.39678],[31.06603,70.39934],[31.06359,70.40095],[31.0631,70.40257]],[[31.0773,70.40128],[31.07684,70.40066],[31.07878,70.40002],[31.08126,70.3973],[31.08177,70.39222],[31.08427,70.39288],[31.08682,70.39269],[31.09125,70.38838],[31.09103,70.38315],[31.09358,70.38244],[31.09502,70.37807]],[[31.15051,70.39459],[31.1494,70.39315],[31.14512,70.39071],[31.14007,70.38656],[31.13779,70.38673],[31.13473,70.3884],[31.13361,70.38831],[31.1313,70.3868],[31.13026,70.38676],[31.12583,70.38796],[31.11807,70.38892],[31.11646,70.38965],[31.11802,70.3937],[31.12038,70.39516],[31.12335,70.39554],[31.12621,70.39681]],[[31.12621,70.39681],[31.13011,70.39756],[31.13732,70.39737],[31.13877,70.39832],[31.14028,70.39857],[31.14522,70.3983],[31.1473,70.39779],[31.14586,70.39611],[31.14887,70.39575],[31.15051,70.39459]],[[31.0631,70.40257],[31.06176,70.40492],[31.06224,70.40583],[31.06417,70.40674],[31.06833,70.40659],[31.07694,70.40524],[31.07929,70.4034],[31.0773,70.40128]],[[30.99915,70.41309],[31.00033,70.4126],[31.00157,70.41293],[31.003,70.41278],[31.00341,70.41178],[31.0055,70.41111],[31.00459,70.4104],[31.00533,70.4095],[31.01062,70.40734]]]}}]}