{"type":"FeatureCollection","features":[{"type":"Feature","properties":{},"geometry":{"type":"MultiLineString","coordinates":[[[30.26394,70.08414],[30.26378,70.08392]],[[30.32569,70.16941],[30.32647,70.16685]],[[30.33988,70.18554],[30.34038,70.18515]],[[30.21148,70.55444],[30.21132,70.55424]],[[30.21148,70.55444],[30.21238,70.55562]],[[30.21677,70.56132],[30.22147,70.55991],[30.21943,70.5587],[30.22294,70.5571],[30.22064,70.55607],[30.21238,70.55562]],[[30.22288,70.56907],[30.22262,70.56891]],[[30.18749,70.66429],[30.1821,70.6638],[30.17528,70.66168],[30.17008,70.66123],[30.16536,70.66022],[30.15858,70.65958],[30.1538,70.65968]],[[30.17401,70.68586],[30.17667,70.68525],[30.17927,70.68379],[30.18726,70.68216],[30.18778,70.67969],[30.19344,70.67745],[30.20181,70.67592],[30.20439,70.67577],[30.21086,70.67618],[30.2138,70.67568],[30.21203,70.67485],[30.20633,70.67389],[30.20222,70.67175],[30.20175,70.66992],[30.20297,70.6688],[30.19377,70.66689],[30.19201,70.66543],[30.18749,70.66429]],[[30.05238,70.70884],[30.06862,70.70722],[30.07171,70.7072],[30.0736,70.70788],[30.07619,70.7081],[30.08135,70.70791],[30.08345,70.707],[30.08913,70.70607],[30.09308,70.70434],[30.09445,70.70041],[30.09829,70.69872],[30.10397,70.69708],[30.10866,70.69619],[30.1243,70.69499],[30.12768,70.69361],[30.12915,70.6936],[30.14082,70.69107],[30.14415,70.68922],[30.1535,70.68822],[30.15542,70.68745],[30.16632,70.6861],[30.17401,70.68586]],[[30.05412,70.0766],[30.04085,70.07342],[30.03579,70.07378],[30.03311,70.07303],[30.02766,70.07243],[30.02232,70.07077],[30.00884,70.0701],[30.00589,70.06954],[30.0059,70.0686],[30.00382,70.06791],[29.99752,70.06828]],[[30.10207,70.07245],[30.09687,70.06951],[30.09711,70.06856],[30.09949,70.06772],[30.10576,70.06748],[30.10882,70.06956],[30.11833,70.07016]],[[30.12702,70.07029],[30.11833,70.07016]],[[30.05412,70.0766],[30.06356,70.07831],[30.07889,70.07877],[30.08096,70.0793],[30.08482,70.0792],[30.09196,70.07817],[30.0997,70.07616],[30.10199,70.07501],[30.10207,70.07245]],[[30.1236,70.07723],[30.13268,70.07798],[30.1392,70.078],[30.14288,70.07748],[30.14854,70.07632],[30.16443,70.07136],[30.1682,70.07066],[30.17065,70.06955],[30.16941,70.06901],[30.16313,70.06878],[30.15367,70.06969],[30.13825,70.07047],[30.12702,70.07029]],[[30.1236,70.07723],[30.11921,70.07717],[30.11246,70.07823],[30.10432,70.07668],[30.10055,70.07714],[30.0971,70.07897],[30.09519,70.081],[30.0936,70.08363],[30.09401,70.0855],[30.09809,70.087],[30.10014,70.08878],[30.10809,70.09101],[30.11286,70.09286],[30.11508,70.09311],[30.11684,70.09275],[30.1192,70.09286],[30.12019,70.09352],[30.11765,70.09391],[30.11776,70.09488],[30.1202,70.09726],[30.12252,70.0983],[30.12512,70.09867],[30.13009,70.09856],[30.14025,70.09955]],[[30.26378,70.08392],[30.26073,70.08423],[30.25853,70.08586],[30.25492,70.08726],[30.25292,70.08724],[30.25083,70.08646],[30.23899,70.08862],[30.23301,70.09073],[30.2326,70.09154],[30.24081,70.0917],[30.24492,70.09094],[30.24895,70.09078],[30.25393,70.08945],[30.25723,70.08917],[30.26136,70.08666],[30.26394,70.08414]],[[30.15313,70.10215],[30.15349,70.10186],[30.15006,70.10067],[30.14025,70.09955]],[[30.20182,70.10988],[30.20323,70.10703],[30.2022,70.10603],[30.20123,70.10557],[30.19768,70.10514],[30.19486,70.10327],[30.19044,70.10235],[30.18516,70.10264],[30.18089,70.10542],[30.17296,70.10619],[30.15952,70.10493],[30.15234,70.10235]],[[30.20182,70.10988],[30.2025,70.11092],[30.20561,70.11203],[30.20777,70.11381],[30.21372,70.11546],[30.2214,70.11685],[30.22795,70.11666],[30.23197,70.11778],[30.24008,70.11883],[30.25818,70.11941],[30.2653,70.12054],[30.27,70.12064],[30.29337,70.12316]],[[30.35621,70.14249],[30.36232,70.13999],[30.3616,70.13856],[30.35171,70.13748],[30.3395,70.13716],[30.33617,70.13675],[30.32864,70.1337],[30.31651,70.13091],[30.31121,70.12825],[30.30506,70.12739],[30.29987,70.12442],[30.29337,70.12316]],[[30.32647,70.16685],[30.33103,70.16059],[30.3367,70.15738],[30.34745,70.15493],[30.35363,70.15645],[30.35524,70.15606],[30.3531,70.15508],[30.3526,70.15399],[30.3534,70.15285],[30.35569,70.15197],[30.35583,70.14955],[30.35857,70.14728],[30.35564,70.14578],[30.35655,70.14472],[30.35621,70.14249]],[[30.33842,70.18556],[30.3342,70.18394],[30.33152,70.18136],[30.33026,70.17903],[30.33088,70.17453],[30.32697,70.17264],[30.32585,70.17049]],[[30.34939,70.18921],[30.34505,70.18756],[30.34547,70.1867],[30.34373,70.18447],[30.34189,70.18441],[30.34038,70.18515]],[[30.35674,70.19335],[30.35732,70.19041],[30.35958,70.18882],[30.35845,70.18857],[30.35275,70.18952],[30.34939,70.18921]],[[30.04312,70.52966],[30.03919,70.52961],[30.03856,70.53001],[30.03947,70.53072],[30.04286,70.53046],[30.04312,70.52966]],[[30.01455,70.53126],[30.01721,70.53263],[30.01952,70.53317],[30.02512,70.53341],[30.02791,70.53189],[30.03051,70.53136],[30.03452,70.52882],[30.03443,70.52632],[30.03617,70.52412],[30.03939,70.52345],[30.0491,70.52288]],[[30.0491,70.52288],[30.0578,70.52349],[30.0641,70.52177],[30.0707,70.5214],[30.0747,70.51933],[30.07731,70.51879],[30.08334,70.51877],[30.08969,70.51813],[30.09365,70.51828],[30.10225,70.51736],[30.10847,70.51756],[30.11588,70.51527],[30.11683,70.5126],[30.11541,70.51026],[30.11856,70.50755],[30.12585,70.5052],[30.13227,70.50451],[30.13684,70.5047],[30.14116,70.50566],[30.1443,70.50738],[30.15401,70.50992],[30.16968,70.51591],[30.18159,70.51933],[30.18496,70.51992]],[[30.00158,70.5365],[30.01075,70.53672],[30.01274,70.53483],[30.0102,70.53453],[30.0085,70.53319],[30.01085,70.53168]],[[30.00313,70.53888],[29.99932,70.53779]],[[29.99894,70.53631],[30.00158,70.5365]],[[30.01392,70.54071],[30.00633,70.53974],[30.00313,70.53888]],[[30.02754,70.53956],[30.03155,70.53757],[30.03206,70.53596],[30.03394,70.5345],[30.03752,70.5338],[30.04149,70.53211],[30.04542,70.53139],[30.05085,70.52939],[30.0542,70.52959]],[[30.10176,70.53328],[30.09091,70.53276],[30.08108,70.53377],[30.07629,70.53239],[30.06671,70.53256],[30.06425,70.53232],[30.05939,70.53132],[30.05621,70.52987],[30.0542,70.52959]],[[30.12179,70.53158],[30.11848,70.53047],[30.11468,70.53021],[30.11207,70.53051],[30.10606,70.53292]],[[30.20169,70.52477],[30.19636,70.52272],[30.19,70.52184],[30.18496,70.51992]],[[30.10176,70.53328],[30.10606,70.53292]],[[30.01392,70.54071],[30.0169,70.54079],[30.02086,70.5402],[30.02472,70.54034],[30.02754,70.53956]],[[30.12179,70.53158],[30.12519,70.53254],[30.12951,70.53187],[30.13538,70.53214],[30.14313,70.53172],[30.14861,70.53266],[30.14746,70.53376],[30.148,70.53434],[30.14161,70.53575],[30.12586,70.53693],[30.12219,70.53819],[30.1136,70.53957],[30.10724,70.53949],[30.10415,70.53876],[30.09676,70.53966],[30.09268,70.54102],[30.08518,70.54258],[30.08513,70.54349],[30.08695,70.5442],[30.08756,70.54529],[30.08078,70.54827],[30.08043,70.54869],[30.08174,70.54921],[30.0808,70.54984],[30.08445,70.55062],[30.08839,70.55078],[30.09455,70.55012],[30.10471,70.55041],[30.11162,70.54931],[30.13072,70.54883],[30.14466,70.54989],[30.15306,70.5491],[30.15744,70.54965],[30.17094,70.55012],[30.17983,70.55188],[30.18972,70.55214],[30.19551,70.5529],[30.20577,70.55295],[30.2101,70.55338],[30.21132,70.55424]],[[30.20169,70.52477],[30.21819,70.52718],[30.22731,70.52913],[30.23433,70.53015],[30.23842,70.53015],[30.25055,70.53116],[30.25254,70.53163],[30.25841,70.53126],[30.25991,70.53199],[30.27253,70.53441],[30.27689,70.53496],[30.28152,70.53504],[30.2872,70.53773],[30.29099,70.53784],[30.29453,70.53896],[30.29998,70.53936],[30.30737,70.54086],[30.31356,70.54145],[30.31517,70.54216],[30.32226,70.54364],[30.33674,70.5455],[30.34028,70.54483],[30.34254,70.54495]],[[30.21677,70.56132],[30.21245,70.56307],[30.21233,70.56391],[30.21885,70.56589],[30.22262,70.56891]],[[30.32695,70.60627],[30.32574,70.60508],[30.3226,70.60468],[30.32193,70.60379],[30.32269,70.60267],[30.32496,70.60243],[30.32558,70.60192],[30.32409,70.6017],[30.32266,70.60079],[30.32295,70.59872],[30.32146,70.59828],[30.32425,70.59484],[30.32427,70.59321],[30.32277,70.59159],[30.32142,70.59092],[30.31819,70.59061],[30.30954,70.58783],[30.30822,70.58669],[30.30889,70.58451],[30.29923,70.58325],[30.294,70.58297],[30.28877,70.5815],[30.28701,70.57935],[30.29027,70.57777],[30.28754,70.57719],[30.28752,70.57615],[30.28491,70.57606],[30.28284,70.57477],[30.27713,70.57356],[30.26411,70.57191],[30.25552,70.57205],[30.24259,70.57023],[30.23019,70.57133],[30.22664,70.57066],[30.22288,70.56907]],[[30.27073,70.63112],[30.27802,70.62878],[30.28483,70.62858],[30.28652,70.62766],[30.28671,70.6264],[30.29084,70.62365],[30.2937,70.62246],[30.29909,70.6213],[30.30178,70.6194],[30.30648,70.6191],[30.3114,70.6169],[30.31392,70.61703],[30.31574,70.61782],[30.31967,70.61813],[30.32161,70.61676],[30.32792,70.61574],[30.3298,70.61508],[30.33011,70.61434],[30.33358,70.61356],[30.3341,70.61145],[30.33283,70.61022],[30.33525,70.60946],[30.33514,70.60894],[30.33137,70.60684],[30.32906,70.60679],[30.32695,70.60627]],[[30.14433,70.64739],[30.15116,70.64766],[30.15726,70.64834],[30.18841,70.64792],[30.19407,70.64735],[30.19996,70.64514],[30.21216,70.6436],[30.21796,70.64349],[30.22589,70.64414],[30.24505,70.64204],[30.25163,70.64002],[30.25329,70.63862],[30.25329,70.63698],[30.25663,70.63479],[30.26825,70.63221],[30.27073,70.63112]],[[30.14433,70.64739],[30.12561,70.64727],[30.11551,70.64772],[30.10969,70.64851],[30.10772,70.64939],[30.10763,70.65272],[30.10942,70.65318],[30.11823,70.65373],[30.12304,70.65518],[30.12565,70.65515],[30.13263,70.65609],[30.14688,70.65947],[30.1538,70.65968]],[[29.99845,70.70782],[30.00191,70.70719],[30.00832,70.70715],[30.00959,70.70769],[30.00724,70.70877],[30.00896,70.71013],[30.014,70.71107],[30.01801,70.71063],[30.02064,70.70966],[30.02846,70.70845],[30.0302,70.70844],[30.03088,70.70913],[30.03364,70.7096],[30.03947,70.70859],[30.05238,70.70884]],[[30.4885,70.22311],[30.49313,70.22735],[30.50337,70.23435],[30.51301,70.2387],[30.51903,70.24056]],[[30.52224,70.24123],[30.51903,70.24056]],[[30.9979,70.28502],[30.99546,70.28505]],[[30.80122,70.4262],[30.80194,70.42658]],[[30.61221,70.53576],[30.6133,70.53524]],[[30.40677,70.20366],[30.3971,70.2015],[30.38899,70.20076],[30.38332,70.19955],[30.37666,70.19967],[30.36565,70.19883],[30.36084,70.19651],[30.35674,70.19335]],[[30.4885,70.22311],[30.48783,70.22203],[30.48894,70.21975],[30.49375,70.21859],[30.49239,70.21808],[30.48575,70.21724],[30.47846,70.21443],[30.47725,70.21136],[30.47816,70.21026],[30.47976,70.2097],[30.48002,70.20706],[30.46859,70.20613],[30.45573,70.2065],[30.4485,70.20715],[30.44101,70.20663],[30.43732,70.20598],[30.42825,70.20565],[30.41131,70.20377],[30.40677,70.20366]],[[30.527,70.24183],[30.5344,70.24211],[30.5436,70.23909],[30.55078,70.23824],[30.55648,70.23819],[30.55773,70.23834],[30.55857,70.23905],[30.55896,70.2405],[30.55538,70.24339],[30.56202,70.24622],[30.5711,70.24792],[30.58475,70.24882],[30.58927,70.24876],[30.59417,70.24789],[30.5955,70.24558],[30.60947,70.24658],[30.61642,70.24577],[30.62098,70.24603],[30.6301,70.24791],[30.63938,70.24822],[30.64614,70.24987],[30.65508,70.2501],[30.66045,70.25089],[30.66359,70.25098]],[[30.71131,70.24946],[30.71022,70.24816],[30.71197,70.24594],[30.71134,70.24534],[30.70797,70.24482],[30.70445,70.24533],[30.70144,70.24477],[30.69782,70.24538],[30.68647,70.24579],[30.68155,70.24829],[30.67642,70.25002],[30.66359,70.25098]],[[30.71131,70.24946],[30.71431,70.25145],[30.71386,70.25315],[30.72177,70.25659],[30.72998,70.25837],[30.73529,70.25777],[30.741,70.25876],[30.74408,70.26003],[30.74646,70.26042]],[[30.89966,70.24839],[30.89974,70.24804],[30.89795,70.24777],[30.89376,70.24891],[30.89114,70.24904],[30.89097,70.24944],[30.89412,70.25],[30.89966,70.24839]],[[30.92268,70.25324],[30.92043,70.25313],[30.91996,70.25368],[30.92343,70.25446],[30.92425,70.25416],[30.92268,70.25324]],[[30.75049,70.26087],[30.75621,70.2615],[30.76255,70.26144],[30.77259,70.25926],[30.78409,70.25797],[30.79116,70.25665],[30.79527,70.25643],[30.79825,70.25727],[30.79751,70.25833],[30.79856,70.25928],[30.79747,70.2606],[30.80042,70.26303],[30.80401,70.26479],[30.81222,70.26625]],[[30.81222,70.26625],[30.82138,70.26664],[30.82998,70.26595],[30.83517,70.26308],[30.83568,70.26006],[30.8418,70.25877],[30.84366,70.25872],[30.84734,70.26001],[30.84831,70.26112],[30.84756,70.26212],[30.84897,70.26331],[30.85298,70.26549],[30.85529,70.26607],[30.8596,70.26551],[30.86108,70.26458],[30.86819,70.26503],[30.88495,70.26859],[30.89531,70.26949],[30.9005,70.26788],[30.92262,70.27188],[30.92645,70.27341],[30.92952,70.2739],[30.93838,70.2742],[30.942,70.27369],[30.94448,70.27264],[30.94298,70.27132],[30.94553,70.27041],[30.94538,70.2695],[30.94723,70.26941],[30.95238,70.27051]],[[30.96217,70.27303],[30.95987,70.27235],[30.95777,70.2724],[30.95238,70.27051]],[[30.99546,70.28505],[30.98633,70.28561],[30.98158,70.28536],[30.97778,70.28465],[30.9772,70.2843],[30.97811,70.28325],[30.97439,70.28212],[30.97119,70.28025],[30.97117,70.27968],[30.97357,70.27926],[30.97412,70.27864],[30.96772,70.27576],[30.96837,70.27521],[30.96217,70.27303]],[[31.00079,70.28243],[30.9979,70.28502]],[[30.72345,70.42892],[30.71894,70.43192],[30.721,70.43335]],[[30.74206,70.43148],[30.73886,70.42946],[30.73373,70.42812],[30.72948,70.42868],[30.72777,70.42982],[30.72543,70.42902]],[[30.76804,70.42916],[30.76718,70.42879],[30.76786,70.42789],[30.7749,70.42672],[30.76926,70.42473],[30.7699,70.42358],[30.77312,70.42211],[30.77997,70.42065],[30.7849,70.4205],[30.79305,70.42095]],[[30.80122,70.4262],[30.79471,70.42399],[30.79617,70.42186],[30.79485,70.42107]],[[30.74206,70.43148],[30.75044,70.43176],[30.7576,70.43287],[30.76022,70.43119],[30.7665,70.43066],[30.76804,70.42916]],[[30.80194,70.42658],[30.80567,70.43049],[30.80809,70.43105],[30.8168,70.43096],[30.82028,70.43136],[30.82108,70.4329],[30.82663,70.4332],[30.82772,70.43353],[30.82856,70.43505],[30.83558,70.43596],[30.83642,70.43639],[30.83522,70.43839],[30.83724,70.4392],[30.83951,70.43925],[30.84594,70.44074],[30.8455,70.4413],[30.84704,70.4419],[30.84924,70.44159],[30.85475,70.44266],[30.85933,70.44257],[30.87103,70.43898],[30.8757,70.43906]],[[30.95406,70.44432],[30.96133,70.44138],[30.96356,70.4409],[30.96731,70.44088],[30.96724,70.43994],[30.9652,70.43859],[30.96915,70.4372],[30.96853,70.4365],[30.96612,70.4364],[30.96513,70.43691],[30.96305,70.43631],[30.96309,70.43493],[30.96432,70.43419],[30.96364,70.43315],[30.966,70.43188],[30.96226,70.43109],[30.96172,70.43043],[30.96252,70.42902],[30.9651,70.42821],[30.9648,70.42728],[30.96624,70.42691],[30.96925,70.42727],[30.97215,70.42695],[30.97358,70.42626],[30.97124,70.42572],[30.97107,70.42509],[30.97452,70.42344],[30.97961,70.42298],[30.98562,70.42181],[30.98824,70.42071],[30.99104,70.42112],[30.99278,70.42064],[30.99907,70.41461],[30.99915,70.41309],[31.00033,70.4126]],[[30.87866,70.43998],[30.8807,70.44161],[30.8872,70.44301],[30.88843,70.44365],[30.88849,70.44467],[30.89351,70.4449],[30.90407,70.44753],[30.90563,70.44695],[30.90731,70.44691],[30.91018,70.4478],[30.91495,70.44771],[30.91967,70.44861],[30.92329,70.4487],[30.92672,70.45028],[30.93185,70.44935],[30.93577,70.44808],[30.94397,70.44743],[30.94826,70.44543],[30.95396,70.4448],[30.95406,70.44432]],[[30.70242,70.475],[30.70537,70.47381],[30.715,70.47351],[30.72223,70.47248],[30.72647,70.47027],[30.72545,70.46971],[30.72657,70.46921],[30.73805,70.46811],[30.74212,70.46821],[30.74538,70.46702],[30.74319,70.46685],[30.74378,70.46554],[30.7413,70.46488],[30.74102,70.46418],[30.73726,70.4627],[30.73696,70.46206],[30.73916,70.46144],[30.73914,70.4608],[30.7327,70.45919],[30.7339,70.45664],[30.7235,70.44781],[30.7242,70.44634],[30.72547,70.44606],[30.72846,70.4464],[30.73155,70.44535],[30.73334,70.44354],[30.72968,70.44224],[30.73119,70.4401],[30.72888,70.43924],[30.72807,70.437],[30.72898,70.43635],[30.72406,70.43485],[30.721,70.43335]],[[30.68981,70.48231],[30.69365,70.48149],[30.69358,70.48011],[30.6952,70.47937],[30.69474,70.47678],[30.69559,70.47588],[30.70242,70.475]],[[30.58778,70.5048],[30.5899,70.50375],[30.59799,70.50405],[30.60196,70.50263],[30.60648,70.50256],[30.60937,70.50214],[30.61234,70.50271],[30.61219,70.50213],[30.61538,70.50175],[30.61549,70.50083],[30.61864,70.49996],[30.61899,70.49916],[30.62191,70.49865],[30.63214,70.49893],[30.6343,70.49759],[30.62897,70.49563],[30.63167,70.49249],[30.63387,70.49228],[30.64383,70.49478],[30.6483,70.49463],[30.64956,70.49299],[30.65302,70.4926],[30.65553,70.49143],[30.66881,70.49006],[30.67837,70.48688],[30.68046,70.48682],[30.68053,70.48518],[30.68981,70.48231]],[[30.57023,70.50385],[30.57208,70.50746],[30.57123,70.5089],[30.57499,70.51075],[30.57752,70.51125],[30.57954,70.51123],[30.5818,70.51013],[30.58778,70.5048]],[[30.56751,70.50472],[30.56803,70.5064],[30.567,70.50987],[30.57395,70.5119],[30.58426,70.51153],[30.5873,70.51178],[30.59192,70.51263],[30.59234,70.51441],[30.59584,70.51503]],[[30.59768,70.51736],[30.60127,70.5172],[30.60272,70.51653],[30.60091,70.51519],[30.59584,70.51503]],[[30.59768,70.51736],[30.59566,70.51783],[30.59547,70.51878],[30.59647,70.51941],[30.59985,70.52012]],[[30.41753,70.55232],[30.41542,70.55195],[30.41289,70.5525],[30.4103,70.55169],[30.40525,70.54825],[30.4027,70.54756],[30.40032,70.54762],[30.39911,70.54851],[30.39573,70.54898],[30.39408,70.54973],[30.39391,70.55094],[30.39532,70.55199],[30.38648,70.55232],[30.38146,70.55197],[30.38135,70.55105],[30.37787,70.54914],[30.3723,70.54917],[30.37142,70.54866],[30.3681,70.54847],[30.36398,70.54896],[30.35292,70.54872],[30.34861,70.54793],[30.34792,70.5457],[30.34254,70.54495]],[[30.46311,70.54836],[30.45922,70.54821],[30.45309,70.54923]],[[30.47213,70.54758],[30.47819,70.5458],[30.48135,70.54545]],[[30.49834,70.5453],[30.49302,70.54549],[30.49049,70.5448],[30.48135,70.54545]],[[30.542,70.54149],[30.5409,70.54097],[30.53612,70.54091],[30.52711,70.54279]],[[30.6133,70.53524],[30.6168,70.53274],[30.61747,70.53072],[30.6201,70.52963],[30.61781,70.52686],[30.61798,70.52315],[30.61308,70.52134],[30.59985,70.52012]],[[30.46311,70.54836],[30.4656,70.54876],[30.46807,70.54866],[30.4712,70.54821],[30.47213,70.54758]],[[30.61221,70.53576],[30.60853,70.53695],[30.60727,70.53832],[30.61146,70.54004],[30.61539,70.5398]],[[30.49834,70.5453],[30.50414,70.54638],[30.50447,70.54923],[30.50602,70.54969],[30.5088,70.54865],[30.51209,70.54902],[30.5192,70.54819],[30.52204,70.54681],[30.52165,70.54537],[30.52368,70.54462],[30.5251,70.54318],[30.52711,70.54279]],[[30.41753,70.55232],[30.41784,70.55263],[30.42007,70.55273],[30.42468,70.55243],[30.42766,70.55301],[30.42948,70.5519],[30.43117,70.55185],[30.43352,70.5523],[30.43639,70.55417],[30.44051,70.55385],[30.44713,70.55403],[30.45096,70.55451],[30.45349,70.55321],[30.44947,70.55141],[30.45309,70.54923]],[[30.62294,70.54934],[30.62475,70.54893],[30.62547,70.54636],[30.62777,70.54507],[30.63054,70.54515],[30.63314,70.54468],[30.63057,70.54285],[30.63184,70.54041],[30.63623,70.53835],[30.63396,70.5376],[30.62802,70.53888],[30.62698,70.53956],[30.61805,70.53951],[30.61539,70.5398]],[[30.542,70.54149],[30.54466,70.5419],[30.54753,70.54131],[30.54992,70.54167],[30.55562,70.54157],[30.55702,70.54143],[30.55832,70.54055],[30.56212,70.54038],[30.5653,70.5409],[30.57532,70.54152],[30.5879,70.54195],[30.58954,70.54268],[30.58574,70.5448],[30.58432,70.54684],[30.58817,70.54825],[30.59924,70.54954],[30.60041,70.55112],[30.60149,70.55137],[30.60359,70.55146],[30.60611,70.55084],[30.61147,70.55167],[30.61836,70.55126],[30.62165,70.55053],[30.6216,70.54967],[30.62294,70.54934]]]}}]}