{"type":"FeatureCollection","features":[{"type":"Feature","properties":{},"geometry":{"type":"MultiLineString","coordinates":[[[23.98962,71.03593],[23.98901,71.03462]],[[23.99972,71.05787],[24.00005,71.05858]],[[23.93552,71.0706],[23.93261,71.07013],[23.93135,71.07058],[23.93208,71.07116],[23.93508,71.07142],[23.93673,71.0712],[23.93552,71.0706]],[[23.98786,71.03212],[23.98752,71.03328],[23.98901,71.03462]],[[24.00045,71.02403],[23.99561,71.02454],[23.99449,71.0271],[23.99107,71.02746],[23.9896,71.0282],[23.99095,71.02919],[23.99381,71.02926],[23.98995,71.0307]],[[23.95359,71.03246],[23.95478,71.03271],[23.95462,71.03323],[23.96061,71.03343],[23.96184,71.03401],[23.97699,71.03474],[23.98546,71.03667],[23.98826,71.03656],[23.98962,71.03593]],[[23.95359,71.03246],[23.94504,71.03197],[23.93579,71.03258],[23.93005,71.03182],[23.92642,71.0319],[23.92187,71.03084],[23.91921,71.03097],[23.91283,71.03009],[23.90826,71.02854],[23.9031,71.02847],[23.89455,71.02606],[23.8917,71.02424],[23.88756,71.02362],[23.89711,71.02124],[23.89695,71.02074],[23.88925,71.02042],[23.89015,71.01958],[23.88482,71.01938],[23.88306,71.01898],[23.88485,71.01852],[23.89055,71.01877],[23.89492,71.02009],[23.90028,71.02008],[23.9044,71.02073],[23.90999,71.02019],[23.91758,71.02012],[23.92466,71.01936],[23.92839,71.01888],[23.92999,71.01791],[23.93367,71.01791],[23.93399,71.01687],[23.9327,71.01655],[23.9325,71.01585],[23.93547,71.01383],[23.94099,71.01213],[23.93661,71.01115],[23.9322,71.01111],[23.92262,71.00998],[23.89639,71.00999],[23.89502,71.00971],[23.89462,71.00904],[23.89114,71.00923],[23.89178,71.00845],[23.89568,71.00898],[23.89676,71.0085],[23.89203,71.00721],[23.89007,71.00602],[23.893,71.00522],[23.88885,71.00435],[23.88306,71.00454],[23.88016,71.00404],[23.88114,71.00284],[23.88568,71.00177],[23.88539,71.00107],[23.89202,71.00146],[23.89403,71.00312],[23.89367,71.00388],[23.89629,71.00469],[23.90537,71.00516],[23.90942,71.00395],[23.91295,71.00381],[23.9169,71.0044],[23.91656,71.00527],[23.91879,71.00575],[23.92481,71.00503],[23.93228,71.00309],[23.9323,71.0024],[23.92919,71.00161],[23.93078,71.00076],[23.93432,71.0011],[23.93843,71.00062],[23.94367,71.00168],[23.944,71.00089],[23.94156,70.99931]],[[23.92176,70.99964],[23.91273,71.00143],[23.90772,71.00116],[23.90492,71.00145],[23.90319,71.00114],[23.90775,70.9993]],[[23.87562,70.99993],[23.86446,71.00005],[23.86218,70.99942]],[[23.98786,71.03212],[23.98995,71.0307]],[[23.99384,71.04511],[23.98478,71.0433],[23.98182,71.04412],[23.97743,71.04381],[23.97125,71.04419],[23.96585,71.04398],[23.96173,71.04468],[23.96138,71.04573],[23.95451,71.04565],[23.95823,71.04644],[23.9605,71.04623],[23.96259,71.04653],[23.96299,71.04774],[23.95797,71.04903],[23.95758,71.05037],[23.95086,71.05072],[23.94748,71.05139],[23.94717,71.05237],[23.94312,71.05387],[23.94444,71.05421],[23.94748,71.05397],[23.94848,71.05435],[23.94888,71.05673],[23.95174,71.05794],[23.94886,71.05985],[23.94513,71.06092],[23.94544,71.06323],[23.9496,71.06455],[23.9498,71.06532],[23.94809,71.0665],[23.94937,71.06878],[23.94564,71.06934],[23.94284,71.07041],[23.93806,71.07034],[23.93736,71.07093],[23.93809,71.07141],[23.94041,71.07221],[23.95094,71.07363],[23.95628,71.07578],[23.95894,71.07562],[23.96037,71.07487],[23.96814,71.07397],[23.97366,71.07172],[23.97653,71.07137],[23.97939,71.07152],[23.98052,71.07124],[23.98041,71.07052],[23.98332,71.06994],[23.98499,71.07003],[23.98666,71.07089],[23.98732,71.07208],[23.99072,71.07236],[23.99212,71.07031],[23.99114,71.06855],[23.99321,71.06379],[23.99406,71.06303],[23.99574,71.06304],[23.99931,71.06184],[23.99891,71.06066],[24.00064,71.05986]],[[24.01403,71.05284],[23.99972,71.05787]],[[24.01115,71.04918],[23.99384,71.04511]],[[23.983,71.08172],[23.98415,71.08114],[23.98764,71.08135],[23.99054,71.08079],[23.99081,71.07868],[23.9885,71.07862],[23.98566,71.07932],[23.9826,71.07885],[23.97984,71.07916],[23.97981,71.08147],[23.98199,71.08198],[23.983,71.08172]],[[24.00055,71.07939],[23.99866,71.07922],[23.99602,71.07977],[23.99801,71.08024],[24.00187,71.08252]],[[24.00187,71.08252],[23.9992,71.0831],[23.99913,71.08349],[24.00153,71.08572]],[[23.98859,71.08652],[23.99157,71.08673],[23.99454,71.08612],[23.99392,71.0848],[23.99167,71.08434],[23.98755,71.08466],[23.98419,71.08388],[23.98177,71.08382],[23.98257,71.08514],[23.97937,71.08565],[23.98024,71.0864],[23.98334,71.08709],[23.98704,71.08736],[23.98859,71.08652]],[[23.98782,71.09133],[23.98627,71.09067],[23.98223,71.09011],[23.98025,71.09142],[23.97784,71.09113],[23.97551,71.09148],[23.9741,71.09084],[23.97328,71.0912],[23.97414,71.09202],[23.98655,71.09234],[23.98814,71.09209],[23.98782,71.09133]],[[23.99119,71.09044],[23.98973,71.09063],[23.9893,71.09142],[23.99126,71.09327],[23.99254,71.09292],[23.99266,71.09185],[23.99119,71.09044]],[[23.985,71.0946],[23.98626,71.0932],[23.98098,71.09277],[23.97569,71.09326],[23.97436,71.09455],[23.97619,71.09518],[23.9799,71.09485],[23.98253,71.0957],[23.98384,71.09556],[23.985,71.0946]]]}}]}