{"type":"FeatureCollection","features":[{"type":"Feature","properties":{},"geometry":{"type":"MultiLineString","coordinates":[[[25.96923,71.00924],[25.96213,71.00854],[25.95911,71.00887],[25.95718,71.00976],[25.9551,71.00972],[25.95403,71.00929],[25.95183,71.00942]],[[25.96923,71.00924],[25.96846,71.00984],[25.9694,71.01023],[25.97605,71.01066],[25.98856,71.01028],[25.99903,71.01122]],[[26.00053,71.0095],[25.99903,71.01122]],[[25.97716,71.0544],[25.98711,71.05493],[25.99294,71.05502],[25.99419,71.05473],[25.98907,71.05413],[25.98674,71.05436],[25.98585,71.0539],[25.97618,71.05267]],[[25.77101,71.11692],[25.77208,71.11709],[25.773,71.1168]],[[25.52669,71.15479],[25.52348,71.15433],[25.52182,71.15455],[25.52164,71.15503],[25.5225,71.1555],[25.52683,71.15517],[25.52669,71.15479]],[[25.92344,71.15345],[25.92492,71.15383],[25.92497,71.15336]],[[25.73324,71.16458],[25.73543,71.16659]],[[25.94214,71.03438],[25.94618,71.03393],[25.94958,71.03288],[25.95156,71.03359],[25.9532,71.03365],[25.95484,71.03263],[25.96082,71.03163],[25.96361,71.03038]],[[25.99773,71.09075],[25.99706,71.08957]],[[25.96174,71.02705],[25.96409,71.02545],[25.96071,71.02522]],[[26.00048,71.0956],[25.99512,71.09613],[25.98925,71.09478],[25.98988,71.0933],[25.9947,71.09236],[25.99773,71.09075]],[[25.96361,71.03038],[25.96557,71.02961],[25.96579,71.0289],[25.96197,71.02745]],[[25.96071,71.02522],[25.95739,71.02397],[25.95925,71.02354],[25.95944,71.02303],[25.95629,71.02204],[25.95132,71.02135],[25.95002,71.02149],[25.94998,71.02385],[25.94908,71.02442],[25.94319,71.02373],[25.94057,71.02241],[25.93637,71.02287],[25.93555,71.02265]],[[25.99706,71.08957],[25.99526,71.08761],[25.98631,71.0853],[25.98606,71.08475],[25.9873,71.08414],[25.98302,71.0825],[25.96852,71.08118]],[[25.96197,71.02745],[25.96174,71.02705]],[[25.97618,71.05267],[25.96787,71.05152],[25.96734,71.05085],[25.95026,71.0488]],[[25.95361,71.05475],[25.95921,71.05479],[25.96382,71.054],[25.96857,71.05414],[25.97347,71.0538],[25.97716,71.0544]],[[25.89581,71.00964],[25.90506,71.01037],[25.90939,71.00969],[25.91646,71.0111],[25.92217,71.01148],[25.92901,71.01098]],[[25.95183,71.00942],[25.93918,71.00965],[25.93193,71.01092],[25.92901,71.01098]],[[25.88264,71.01941],[25.88284,71.01534],[25.88384,71.01493],[25.88628,71.01483],[25.89127,71.01521],[25.89324,71.01253],[25.89507,71.01174],[25.89413,71.01015]],[[25.9345,71.02078],[25.93568,71.01991],[25.93398,71.01985]],[[25.93398,71.01985],[25.93025,71.02007],[25.9294,71.02098],[25.93205,71.02113],[25.9345,71.02078]],[[25.93535,71.02229],[25.93627,71.02189],[25.93484,71.02139]],[[25.93535,71.02229],[25.93555,71.02265]],[[25.91935,71.02261],[25.91724,71.02277],[25.91755,71.0237],[25.92213,71.02342],[25.92252,71.02273],[25.91935,71.02261]],[[25.88264,71.01941],[25.88257,71.02064],[25.8889,71.02382],[25.89082,71.02426],[25.89407,71.0243],[25.89882,71.02376],[25.90056,71.02198],[25.90615,71.02033],[25.90946,71.02017],[25.91246,71.02085],[25.91707,71.02121],[25.91725,71.02236],[25.91309,71.02376],[25.91464,71.02488],[25.91928,71.02435],[25.93042,71.02385],[25.93135,71.02257],[25.92979,71.02159],[25.93484,71.02139]],[[25.90908,71.05271],[25.90558,71.05322],[25.90528,71.0541],[25.90574,71.05555],[25.90791,71.05703],[25.90944,71.0573],[25.91802,71.05554],[25.91891,71.05478],[25.91561,71.05433],[25.9121,71.05283],[25.90908,71.05271]],[[25.95026,71.0488],[25.94253,71.04758],[25.93709,71.04754],[25.92559,71.04928],[25.92096,71.0505],[25.9313,71.05283],[25.93331,71.05259],[25.93657,71.0529],[25.94132,71.05432],[25.95361,71.05475]],[[25.70338,71.0672],[25.70516,71.07098],[25.71104,71.07236],[25.71025,71.07357],[25.70545,71.07527]],[[25.73759,71.0734],[25.73394,71.07082],[25.72894,71.06939],[25.71836,71.06772],[25.71405,71.06775],[25.70979,71.06839],[25.70759,71.06825],[25.70593,71.06763],[25.70537,71.06653]],[[25.84755,71.06696],[25.84359,71.06544],[25.84539,71.0638],[25.85044,71.06304],[25.85855,71.06393],[25.86968,71.06425],[25.87539,71.06263],[25.87178,71.06064],[25.87168,71.05926],[25.87995,71.05867],[25.88564,71.05883],[25.89672,71.0576],[25.89893,71.05661],[25.89789,71.05578],[25.89,71.05475],[25.88855,71.05387],[25.88806,71.05247],[25.88954,71.05124],[25.89297,71.05042],[25.88728,71.04901],[25.88906,71.04673],[25.88727,71.04439],[25.88915,71.04318],[25.88701,71.04231],[25.88192,71.04179],[25.87843,71.0419],[25.87486,71.04074],[25.87416,71.03946],[25.87501,71.03824],[25.87793,71.03693],[25.88012,71.0372],[25.88229,71.03847],[25.88814,71.03903],[25.89126,71.03986],[25.89352,71.0422],[25.8962,71.04335],[25.89593,71.04725],[25.89802,71.04816],[25.90051,71.04803],[25.90314,71.0486],[25.90387,71.05015],[25.90778,71.05064],[25.91211,71.04953],[25.91149,71.04845],[25.90926,71.04882],[25.90596,71.04864],[25.90852,71.04702],[25.91541,71.04668],[25.92088,71.04491],[25.93001,71.04406],[25.93479,71.04289],[25.93618,71.04004],[25.93383,71.03851],[25.93548,71.03568],[25.94214,71.03438]],[[25.68854,71.08178],[25.6958,71.07871],[25.69692,71.07725],[25.70545,71.07527]],[[25.77821,71.1165],[25.773,71.1168]],[[25.69522,71.09391],[25.69779,71.09139],[25.70864,71.08826],[25.71318,71.08573],[25.72022,71.08322],[25.72702,71.0813],[25.73816,71.07946],[25.73926,71.07837],[25.73759,71.0734]],[[25.55368,71.0927],[25.55241,71.09483],[25.55595,71.09557]],[[25.55431,71.09254],[25.55795,71.09237],[25.56226,71.0929],[25.5693,71.09264],[25.57585,71.0935],[25.5786,71.0946],[25.58096,71.09663],[25.60124,71.09697],[25.60287,71.09754],[25.60238,71.0993],[25.60346,71.10174],[25.60911,71.10239],[25.61308,71.10125],[25.61979,71.10037],[25.62322,71.09926],[25.62864,71.09849],[25.63037,71.09861],[25.64755,71.09444],[25.65844,71.09266],[25.66261,71.09004],[25.66724,71.08809],[25.67401,71.08647],[25.68062,71.08378],[25.68854,71.08178]],[[25.84755,71.06696],[25.84235,71.06789],[25.83933,71.06757],[25.83774,71.06787],[25.8396,71.06997],[25.83901,71.07179],[25.84033,71.07269],[25.86378,71.07421],[25.86702,71.07369],[25.87055,71.07388],[25.87144,71.07417],[25.87131,71.07516],[25.8738,71.07565],[25.88692,71.07454],[25.90046,71.07401],[25.90431,71.07426],[25.9091,71.07483],[25.91086,71.0755],[25.91303,71.07752],[25.91284,71.08075],[25.91845,71.08086],[25.92154,71.08148],[25.9315,71.07988],[25.94075,71.07965],[25.94676,71.08087],[25.95172,71.08324],[25.95823,71.08159],[25.96852,71.08118]],[[25.56416,71.11064],[25.56835,71.10895],[25.5734,71.10881],[25.57407,71.10787],[25.56975,71.10586],[25.56431,71.10451],[25.56458,71.10381],[25.56812,71.10239],[25.56763,71.10179],[25.56353,71.10045],[25.56395,71.10002],[25.567,71.09978],[25.56549,71.09826],[25.56597,71.09762],[25.55939,71.09599],[25.55595,71.09557]],[[25.60406,71.12657],[25.60819,71.12552],[25.61171,71.12359],[25.60813,71.12199],[25.61004,71.12114],[25.62661,71.11815],[25.63467,71.1173],[25.63661,71.11644],[25.65759,71.11371],[25.66039,71.11229],[25.66671,71.11119],[25.67393,71.10824],[25.67448,71.10748],[25.67326,71.10681],[25.66685,71.10656],[25.66657,71.10622],[25.6743,71.1047],[25.68342,71.10137],[25.68437,71.09987],[25.68921,71.09861],[25.68892,71.0978],[25.69522,71.09391]],[[25.77101,71.11692],[25.76912,71.11634],[25.76822,71.11532],[25.7645,71.11408],[25.75494,71.11294],[25.75193,71.11457],[25.75736,71.11771]],[[25.80474,71.11495],[25.79705,71.11207],[25.79305,71.10801],[25.78949,71.10749],[25.78672,71.10836],[25.78697,71.1103],[25.78477,71.11064],[25.7843,71.11114],[25.78846,71.1159]],[[25.8311,71.1134],[25.82165,71.11173],[25.82263,71.11042],[25.8271,71.11179],[25.83083,71.11163],[25.82784,71.1103],[25.82699,71.10919],[25.82837,71.10791],[25.82813,71.10586],[25.83086,71.10571],[25.8381,71.10722],[25.84289,71.10723]],[[25.87695,71.11071],[25.87575,71.11001],[25.86881,71.10918],[25.86214,71.10936],[25.85497,71.10805],[25.85198,71.10677],[25.84969,71.10643],[25.84289,71.10723]],[[25.77821,71.1165],[25.78801,71.11656],[25.78846,71.1159]],[[25.8311,71.1134],[25.83481,71.11414],[25.83646,71.1141],[25.84624,71.11727],[25.84936,71.1188]],[[25.5811,71.1417],[25.5886,71.14114],[25.59738,71.13806],[25.60198,71.13795],[25.61059,71.13575],[25.61011,71.13511],[25.60833,71.13486],[25.59419,71.13522],[25.58912,71.13582],[25.58277,71.13513],[25.58096,71.13453],[25.57974,71.13331],[25.58441,71.13205],[25.58745,71.13183],[25.58935,71.13125],[25.58942,71.13033],[25.60406,71.12657]],[[25.80474,71.11495],[25.80566,71.11577],[25.81066,71.1173],[25.81375,71.11777],[25.81821,71.11916],[25.82537,71.12023],[25.83406,71.12321],[25.83626,71.12448],[25.83875,71.12499],[25.84717,71.12526],[25.85344,71.12607]],[[25.85344,71.12607],[25.86311,71.12971],[25.86503,71.12974],[25.86415,71.12913],[25.86625,71.12853],[25.8655,71.12765],[25.87161,71.12905],[25.87298,71.12895],[25.86723,71.12596],[25.86139,71.12416],[25.8607,71.12254],[25.84936,71.1188]],[[25.99899,71.13495],[26.01786,71.13064]],[[25.87695,71.11071],[25.8793,71.11198],[25.88232,71.11174],[25.8846,71.11335],[25.89083,71.11569],[25.89567,71.11983],[25.89732,71.12235],[25.89892,71.12304],[25.89953,71.12474],[25.90197,71.12617],[25.90367,71.12633],[25.90452,71.126],[25.90509,71.12443],[25.90823,71.12441],[25.91501,71.12541],[25.91728,71.12745],[25.91737,71.12868],[25.91247,71.12992],[25.91391,71.13044],[25.9224,71.13078],[25.92433,71.13057],[25.92183,71.1288],[25.92463,71.12715],[25.92422,71.12595],[25.92863,71.12502],[25.92852,71.12033],[25.92615,71.11816],[25.92613,71.11709],[25.93164,71.11418],[25.93325,71.11137],[25.93538,71.11104],[25.93854,71.11112],[25.9416,71.11226],[25.9439,71.11557],[25.94774,71.11881],[25.94899,71.12237],[25.95256,71.12551],[25.95547,71.12998],[25.95524,71.13359],[25.95641,71.13449],[25.9756,71.14039],[25.98218,71.14132],[25.9933,71.14021],[25.9952,71.13971],[25.99617,71.13663],[25.99899,71.13495]],[[25.5811,71.1417],[25.5682,71.14564],[25.56355,71.14641],[25.55736,71.14644],[25.55036,71.14789],[25.55051,71.14906],[25.54664,71.15007],[25.54381,71.15012],[25.54012,71.14874],[25.53671,71.14867],[25.53321,71.15075],[25.53316,71.15242],[25.52937,71.15379],[25.52768,71.15553],[25.52933,71.15619],[25.53205,71.15616],[25.53284,71.15816],[25.53629,71.15958],[25.53549,71.16052],[25.53755,71.16185],[25.54391,71.16392],[25.54746,71.16449],[25.54703,71.16479],[25.54348,71.16477],[25.54764,71.16744],[25.54992,71.1667],[25.55382,71.16795],[25.55846,71.16588],[25.55715,71.16549],[25.5568,71.16464],[25.55882,71.1634],[25.55775,71.1624],[25.55845,71.15879],[25.5596,71.15826],[25.56302,71.15803],[25.56519,71.15729],[25.56769,71.15412],[25.56912,71.15363],[25.57237,71.15326],[25.57608,71.15381],[25.59121,71.16018]],[[25.73206,71.16052],[25.73174,71.15995]],[[25.64105,71.1699],[25.63697,71.16864],[25.63346,71.16836],[25.62968,71.1689],[25.62135,71.16877],[25.61919,71.16789],[25.61485,71.1646],[25.60926,71.16448],[25.60622,71.16503],[25.60438,71.16479],[25.60183,71.16217],[25.59121,71.16018]],[[25.68734,71.16723],[25.68329,71.167],[25.68191,71.16755]],[[25.68907,71.16713],[25.68933,71.16644],[25.68557,71.16224],[25.68012,71.15983],[25.67885,71.15842],[25.68085,71.1554],[25.67966,71.15183],[25.68162,71.14928],[25.68445,71.14965],[25.68728,71.15085],[25.69423,71.15669],[25.69838,71.15772],[25.70163,71.15741],[25.70579,71.15947],[25.70835,71.15967],[25.70852,71.15793],[25.71042,71.1567],[25.71081,71.1554],[25.71517,71.15365],[25.72413,71.15609],[25.72545,71.15663],[25.72613,71.15866],[25.72897,71.15967],[25.73174,71.15995]],[[25.73324,71.16458],[25.73162,71.16197],[25.73206,71.16052]],[[25.81023,71.1601],[25.80818,71.15909],[25.80439,71.15826],[25.79475,71.15852],[25.79296,71.15805],[25.79364,71.15722],[25.799,71.15488],[25.8063,71.15356],[25.80613,71.1521],[25.80076,71.14745],[25.79698,71.14609],[25.7914,71.14495],[25.78882,71.14365],[25.78845,71.14229],[25.79271,71.14159],[25.79302,71.13801],[25.79155,71.1358],[25.78966,71.1349],[25.78621,71.13423],[25.78709,71.1303],[25.77642,71.12488],[25.77382,71.12483],[25.76728,71.12245],[25.76346,71.12183],[25.75736,71.11771]],[[25.92497,71.15336],[25.91925,71.1512],[25.91978,71.15201],[25.92344,71.15345]],[[25.68734,71.16723],[25.68907,71.16713]],[[25.73543,71.16659],[25.73927,71.16853],[25.7407,71.16873],[25.7429,71.16849],[25.74838,71.16646],[25.75088,71.16615],[25.75709,71.1669],[25.76463,71.16642],[25.76691,71.16751],[25.7667,71.16948],[25.76796,71.17035],[25.78248,71.17251],[25.7941,71.17178],[25.79703,71.17088],[25.79844,71.16989],[25.80195,71.16929],[25.80516,71.16986],[25.80781,71.16985],[25.81159,71.16956],[25.81279,71.16885],[25.81484,71.16539],[25.81738,71.1649],[25.81685,71.16255],[25.81023,71.1601]],[[25.64105,71.1699],[25.64514,71.17165],[25.65048,71.17116],[25.65232,71.1723],[25.65641,71.17311],[25.65786,71.1759],[25.66337,71.17924],[25.66482,71.17954],[25.66754,71.17905],[25.66742,71.18211],[25.66933,71.18452],[25.67123,71.18514],[25.67635,71.18552],[25.67876,71.18486],[25.67943,71.1841],[25.67954,71.18102],[25.67577,71.17555],[25.67183,71.17213],[25.6719,71.17078],[25.6722,71.1704],[25.67844,71.16908],[25.68191,71.16755]],[[25.03558,71.01892],[25.03246,71.019],[25.03149,71.02001],[25.03529,71.02023],[25.03558,71.01892]],[[25.52107,71.03119],[25.52126,71.03155]],[[25.26674,71.04574],[25.26464,71.04576],[25.26476,71.04664],[25.26883,71.0466],[25.26816,71.04592],[25.26674,71.04574]],[[25.22871,71.0514],[25.22731,71.05144],[25.22773,71.05191],[25.23348,71.05247],[25.23285,71.05158],[25.22982,71.05172],[25.22871,71.0514]],[[25.34704,71.0957],[25.3384,71.09514],[25.33759,71.09623]],[[25.31772,71.09734],[25.32047,71.09719]],[[25.3507,71.0955],[25.3565,71.09589],[25.35845,71.09562],[25.35895,71.09504]],[[25.43124,71.09097],[25.43457,71.09188],[25.43708,71.09156],[25.43921,71.09052]],[[25.36685,71.09532],[25.36459,71.09531],[25.35952,71.09699],[25.36128,71.09729],[25.36323,71.09696],[25.36731,71.0957],[25.36685,71.09532]],[[25.29965,71.10402],[25.2966,71.1039],[25.29654,71.10458],[25.30343,71.105],[25.30229,71.10438],[25.29965,71.10402]],[[25.55431,71.09254],[25.55429,71.09254]],[[25.435,71.09958],[25.43619,71.09878],[25.43495,71.09846],[25.43069,71.09976],[25.435,71.09958]],[[25.35537,71.1164],[25.35043,71.11706],[25.34986,71.11755],[25.3558,71.11758],[25.35693,71.11717],[25.35537,71.1164]],[[25.56416,71.11064],[25.56446,71.1112]],[[25.32429,71.09698],[25.32205,71.09637],[25.32047,71.09719]],[[25.0348,71.02215],[25.03041,71.02043],[25.02207,71.01914],[25.01788,71.01762],[25.01898,71.01334],[25.01519,71.01252],[25.01832,71.01147],[25.0212,71.01198],[25.02354,71.01021],[25.03048,71.0093],[25.03459,71.00844],[25.03484,71.00795],[25.03307,71.00754],[25.03046,71.00756],[25.02422,71.00869],[25.01851,71.00875],[25.01741,71.0098],[25.01582,71.01007],[25.0084,71.00979],[25.00585,71.0086],[25.00516,71.00698],[25.00672,71.00627],[25.01553,71.00517],[25.01769,71.00553],[25.02017,71.0044],[25.01968,71.00228],[25.00626,71.00229],[25.00258,71.00128],[25.0014,70.99975]],[[25.41822,71.00085],[25.40529,70.99998]],[[24.99896,71.03378],[25.00182,71.03373],[25.00868,71.03473],[25.01465,71.03469],[25.02219,71.03669],[25.02374,71.03779],[25.02185,71.03827],[25.02743,71.03983],[25.03525,71.04014],[25.03715,71.03954],[25.04255,71.04109],[25.04652,71.04166],[25.0472,71.04138],[25.04598,71.04077],[25.0426,71.04007],[25.04212,71.03959],[25.04882,71.03932],[25.04957,71.03861],[25.05545,71.03773],[25.04249,71.03288],[25.04224,71.02856],[25.04447,71.02795],[25.03531,71.02652],[25.02893,71.02444],[25.02971,71.02378],[25.0326,71.02371],[25.03244,71.0225],[25.0348,71.02215]],[[25.41822,71.00085],[25.42917,71.0017],[25.4492,71.00622],[25.46777,71.00968],[25.47433,71.01043],[25.47785,71.01216],[25.48958,71.01234],[25.49259,71.01328],[25.5,71.01728],[25.51042,71.01932],[25.51558,71.02102]],[[25.5221,71.0331],[25.52126,71.03155]],[[25.52107,71.03119],[25.52249,71.03017],[25.52483,71.03008],[25.53194,71.03111],[25.53957,71.03393],[25.54038,71.0338],[25.54026,71.03272],[25.54187,71.03318],[25.54371,71.03308],[25.54627,71.03214],[25.54283,71.02937],[25.54425,71.02732],[25.54373,71.02532],[25.54689,71.02409],[25.55669,71.02242],[25.55814,71.02103],[25.55639,71.02061],[25.55386,71.02068],[25.54029,71.02275],[25.53667,71.023],[25.52946,71.02282],[25.52097,71.02197],[25.51558,71.02102]],[[25.23485,71.04796],[25.22945,71.04758],[25.2298,71.04813],[25.23329,71.0489],[25.23401,71.04994],[25.23087,71.05076],[25.23301,71.05128],[25.24105,71.05],[25.23485,71.04796]],[[25.37599,71.02101],[25.38008,71.02205],[25.3831,71.02443],[25.39072,71.02355],[25.39002,71.0247],[25.39358,71.02532],[25.40094,71.02343],[25.40306,71.02334],[25.41131,71.02488],[25.41638,71.0269],[25.42501,71.02766],[25.42629,71.02835],[25.42672,71.03167],[25.4286,71.03265],[25.42283,71.03449],[25.42165,71.0363],[25.42781,71.03563],[25.43281,71.03442],[25.4389,71.03256],[25.44265,71.03035],[25.45127,71.03181],[25.45556,71.0333],[25.45774,71.03341],[25.462,71.03468],[25.46443,71.03624],[25.46444,71.03812],[25.46731,71.03869],[25.46977,71.03866],[25.47694,71.03739],[25.48333,71.03707],[25.48322,71.03531],[25.48475,71.03491],[25.48442,71.03425],[25.48596,71.03313],[25.49451,71.03527],[25.49759,71.03528],[25.50171,71.03469],[25.50687,71.03536],[25.508,71.03243],[25.51243,71.03361],[25.51379,71.03349],[25.51401,71.03297],[25.51573,71.03303],[25.52043,71.0344],[25.5221,71.0331]],[[25.25148,71.0496],[25.27052,71.05057],[25.28158,71.04975],[25.28174,71.04921],[25.27601,71.04846],[25.27589,71.04806],[25.28372,71.04749],[25.29456,71.04732],[25.30206,71.04653],[25.28683,71.04427],[25.2824,71.04412],[25.27551,71.04479],[25.27157,71.04459],[25.26419,71.04327],[25.2611,71.04351],[25.25832,71.04312],[25.25962,71.04184],[25.2503,71.0394],[25.24908,71.0385],[25.24827,71.03636],[25.25267,71.03585],[25.25613,71.03433],[25.25584,71.03367],[25.25055,71.03105],[25.25222,71.0305],[25.2556,71.03022],[25.25916,71.02915],[25.26089,71.02793],[25.26398,71.02715],[25.26415,71.02598],[25.26202,71.02426],[25.26814,71.02186],[25.26976,71.02019],[25.27641,71.0179],[25.30104,71.01405],[25.3138,71.01373],[25.32992,71.01443],[25.34314,71.01576],[25.34658,71.0166],[25.35148,71.01706],[25.35303,71.01812],[25.35252,71.02],[25.35421,71.02052],[25.35603,71.0206],[25.36157,71.01919],[25.36465,71.0189],[25.37004,71.01948],[25.37599,71.02101]],[[25.25148,71.0496],[25.24766,71.04947],[25.24363,71.05013],[25.24201,71.05082],[25.24372,71.0514],[25.25174,71.05123],[25.25186,71.05152],[25.24909,71.05193],[25.24769,71.05264],[25.25075,71.05297],[25.25311,71.05269]],[[25.25912,71.0552],[25.25892,71.05476],[25.25705,71.05441],[25.25951,71.05398],[25.25976,71.05355],[25.25311,71.05269]],[[25.25776,71.06151],[25.25739,71.06069],[25.2592,71.05966],[25.25872,71.05769],[25.26155,71.05708],[25.25912,71.0552]],[[25.25776,71.06151],[25.25682,71.06256],[25.25837,71.06267]],[[25.27207,71.08863],[25.27539,71.08791],[25.27727,71.08657],[25.27264,71.08598],[25.27046,71.0851],[25.27599,71.08504],[25.27962,71.08566],[25.28302,71.08544],[25.28851,71.08457],[25.28852,71.08341],[25.29422,71.0825],[25.29363,71.08044],[25.29045,71.07979],[25.29009,71.07937],[25.29502,71.07923],[25.29846,71.07985],[25.30386,71.08003],[25.30897,71.07917],[25.30787,71.07807],[25.30844,71.07756],[25.3146,71.07717],[25.31726,71.07653],[25.32626,71.07597],[25.33187,71.07634],[25.33711,71.07725],[25.34319,71.07691],[25.34373,71.07658],[25.34163,71.07604],[25.33693,71.07567],[25.33067,71.07561],[25.32829,71.07481],[25.31833,71.07533],[25.31677,71.07395],[25.32178,71.07374],[25.31726,71.07216],[25.31946,71.07177],[25.32044,71.07092],[25.31836,71.07023],[25.30222,71.06851],[25.29971,71.06783],[25.29425,71.0681],[25.28661,71.06673],[25.28365,71.0666],[25.28292,71.06709],[25.28037,71.06706],[25.27835,71.06664],[25.27939,71.06618],[25.27813,71.06575],[25.2703,71.06522],[25.26984,71.06442],[25.26597,71.06359],[25.26486,71.06248],[25.26047,71.06233],[25.25837,71.06267]],[[25.27207,71.08863],[25.26836,71.08944],[25.27305,71.09048]],[[25.27468,71.09356],[25.276,71.09341],[25.27744,71.09191],[25.27565,71.09093],[25.27305,71.09048]],[[25.26964,71.10002],[25.26866,71.09893],[25.27024,71.09774],[25.26948,71.09657],[25.27288,71.0938],[25.27468,71.09356]],[[25.31772,71.09734],[25.31507,71.097],[25.31264,71.09566],[25.31491,71.09408],[25.31147,71.09388],[25.28198,71.09934]],[[25.3507,71.0955],[25.34198,71.09444],[25.33937,71.09496],[25.335,71.09398],[25.33052,71.09397],[25.32831,71.09343],[25.32673,71.09353],[25.32607,71.09403],[25.32011,71.09461],[25.32136,71.09512],[25.33345,71.09646]],[[25.37396,71.09419],[25.37207,71.09393],[25.36894,71.09431],[25.36619,71.09394],[25.36724,71.09312],[25.36612,71.09288],[25.36312,71.09351],[25.35375,71.09299],[25.35411,71.09368],[25.35853,71.09453],[25.35895,71.09504]],[[25.41159,71.09208],[25.41341,71.09107]],[[25.43124,71.09097],[25.43193,71.08882],[25.42536,71.08868],[25.41934,71.08923],[25.41341,71.09107]],[[25.46133,71.08927],[25.46102,71.08893],[25.4583,71.08875],[25.45557,71.08668],[25.44749,71.08583],[25.44597,71.08628],[25.4457,71.08732],[25.43921,71.09052]],[[25.27825,71.10031],[25.28198,71.09934]],[[25.33759,71.09623],[25.33862,71.09664],[25.34473,71.09638],[25.34683,71.09669],[25.34865,71.09631],[25.34704,71.0957]],[[25.32429,71.09698],[25.33107,71.097],[25.33444,71.09747],[25.33558,71.09706],[25.33345,71.09646]],[[25.26964,71.10002],[25.27056,71.10051],[25.27415,71.10094],[25.27825,71.10031]],[[25.42075,71.10475],[25.41798,71.10531],[25.41912,71.10612],[25.4215,71.10616]],[[25.41648,71.09679],[25.41483,71.09746],[25.4066,71.09813],[25.40455,71.10014],[25.40859,71.10089],[25.40688,71.10121],[25.40509,71.1023],[25.40905,71.10248],[25.4112,71.10164],[25.41081,71.10081],[25.41864,71.10081]],[[25.37396,71.09419],[25.3745,71.0946],[25.37123,71.09619],[25.3718,71.0975],[25.36901,71.09735],[25.36713,71.09681],[25.35711,71.09844],[25.35541,71.09902],[25.36003,71.09913],[25.36124,71.10007],[25.35187,71.10132],[25.35172,71.10199],[25.35351,71.10226],[25.35654,71.10178],[25.36106,71.10197],[25.35911,71.1025],[25.3598,71.10383],[25.35854,71.1046],[25.36156,71.10534],[25.36446,71.10514],[25.36666,71.10425],[25.37243,71.10407],[25.3798,71.10235],[25.37887,71.10163],[25.37556,71.10082],[25.37939,71.10042],[25.37866,71.09962],[25.37986,71.09917],[25.38758,71.09989],[25.39184,71.09921],[25.39653,71.09769],[25.39854,71.09746],[25.40327,71.09783],[25.40546,71.09725],[25.39625,71.09682],[25.38595,71.09784],[25.37687,71.09696],[25.37397,71.09699],[25.37247,71.09631],[25.37494,71.09589],[25.37683,71.09498],[25.39451,71.09468],[25.39689,71.09549],[25.40691,71.09561],[25.41052,71.09433],[25.41007,71.09332],[25.41159,71.09208]],[[25.38396,71.10398],[25.38147,71.10404],[25.37938,71.10467],[25.38173,71.10537],[25.38434,71.10548],[25.38396,71.10398]],[[25.39305,71.10508],[25.3949,71.10462],[25.40721,71.10422],[25.40976,71.10336],[25.40343,71.10261],[25.38898,71.10362],[25.38569,71.10425],[25.38722,71.10526],[25.39305,71.10508]],[[25.41864,71.10081],[25.4249,71.10127],[25.42202,71.10315],[25.4247,71.10371],[25.42665,71.10354],[25.42837,71.10241],[25.42765,71.10193],[25.42867,71.10116],[25.42791,71.10071],[25.4262,71.10061],[25.4264,71.09926],[25.42742,71.09854],[25.43297,71.09683],[25.43619,71.09446],[25.43408,71.09371],[25.43003,71.09396],[25.42429,71.09548],[25.41875,71.09598],[25.41648,71.09679]],[[25.35947,71.10854],[25.35159,71.10609],[25.34327,71.10603],[25.33777,71.10691],[25.33837,71.1072],[25.34336,71.10706],[25.34434,71.10761],[25.34364,71.10828],[25.34755,71.10906],[25.35191,71.10882],[25.35676,71.10942],[25.35947,71.10854]],[[25.4215,71.10616],[25.42372,71.10592],[25.42532,71.10519],[25.42075,71.10475]],[[25.38021,71.11233],[25.38503,71.11197],[25.38579,71.1116],[25.3784,71.11168],[25.37432,71.11091],[25.37088,71.11219],[25.37784,71.11277],[25.38021,71.11233]],[[25.3484,71.11492],[25.34383,71.11497],[25.34123,71.11563],[25.34768,71.11592],[25.34967,71.11534],[25.3484,71.11492]],[[25.3077,71.11874],[25.3051,71.11804],[25.30211,71.1179],[25.30004,71.11852],[25.29327,71.11881],[25.29048,71.11951],[25.29648,71.11953],[25.29508,71.12034],[25.29596,71.12059],[25.3077,71.11874]],[[25.31509,71.1193],[25.31238,71.11876],[25.30353,71.12049],[25.30827,71.12097],[25.31104,71.12082],[25.31719,71.11946],[25.31509,71.1193]],[[25.33077,71.12012],[25.33712,71.11983],[25.33775,71.11947],[25.3303,71.11865],[25.32607,71.11904],[25.32569,71.11946],[25.32854,71.12059],[25.33077,71.12012]],[[25.38064,71.11719],[25.37786,71.11704],[25.37506,71.11767],[25.37566,71.1192],[25.3813,71.11897],[25.38348,71.11778],[25.38064,71.11719]],[[25.33967,71.12358],[25.33578,71.12383],[25.33532,71.12448],[25.34082,71.12457],[25.34185,71.12375],[25.33967,71.12358]],[[25.56527,71.11268],[25.56589,71.11175],[25.56446,71.1112]],[[25.32239,71.12493],[25.31852,71.12463],[25.31643,71.1255],[25.31706,71.12691],[25.31858,71.12709],[25.32151,71.12646],[25.32346,71.12555],[25.32239,71.12493]],[[25.4458,71.11795],[25.44374,71.11775],[25.44079,71.11821],[25.44218,71.11928],[25.44877,71.12054],[25.45258,71.12019],[25.45251,71.11947],[25.4458,71.11795]],[[25.46133,71.08927],[25.45917,71.09248],[25.45519,71.09442],[25.45118,71.09881],[25.44893,71.09988],[25.44669,71.10001],[25.44548,71.1007],[25.44724,71.10119],[25.4481,71.10271],[25.44719,71.10325],[25.44528,71.10346],[25.44527,71.10414],[25.44864,71.1044],[25.44908,71.10496],[25.44876,71.10685],[25.4476,71.10769],[25.44882,71.10904],[25.45028,71.11796],[25.45252,71.11796],[25.45488,71.11731],[25.45554,71.11608],[25.45725,71.11553],[25.46856,71.11544],[25.46909,71.11468],[25.46608,71.11407],[25.46714,71.11213],[25.46946,71.11137],[25.4719,71.11159],[25.47681,71.1094],[25.47871,71.1093],[25.47974,71.10689],[25.48258,71.10644],[25.48185,71.10441],[25.48526,71.10362],[25.48789,71.10482],[25.4871,71.10563],[25.48832,71.10653],[25.49664,71.10736],[25.49233,71.10976],[25.49253,71.1114],[25.4945,71.11165],[25.49752,71.11142],[25.50034,71.11344],[25.50866,71.11442],[25.5141,71.11465],[25.51596,71.11412],[25.51831,71.11448],[25.52128,71.11578],[25.52364,71.11603],[25.52622,71.11528],[25.53057,71.11561],[25.53278,71.11486],[25.54346,71.11376],[25.54873,71.1154],[25.55092,71.11528],[25.55186,71.11405],[25.55486,71.11416],[25.557,71.11364],[25.55767,71.11223],[25.56102,71.11226],[25.56224,71.11081],[25.56333,71.11106],[25.56253,71.11233],[25.56319,71.11309],[25.56527,71.11268]],[[25.3695,71.1322],[25.37766,71.13113],[25.37854,71.13004],[25.3838,71.12971],[25.38539,71.12893],[25.37744,71.12688],[25.37426,71.12814],[25.36739,71.12941],[25.36358,71.13085],[25.36373,71.1316],[25.3651,71.13205],[25.3695,71.1322]],[[25.36558,71.13715],[25.36906,71.13676],[25.37193,71.13536],[25.37476,71.13501],[25.37457,71.13419],[25.37241,71.13433],[25.36382,71.13307],[25.3525,71.13295],[25.35319,71.13364],[25.34958,71.13431],[25.35681,71.13696],[25.36179,71.13779],[25.36361,71.13774],[25.36558,71.13715]],[[25.32042,71.14261],[25.31844,71.14235],[25.31641,71.14283]],[[25.35031,71.14094],[25.35157,71.13965],[25.35081,71.13852],[25.33414,71.13679],[25.33164,71.1381],[25.32683,71.13831],[25.32559,71.13935],[25.31836,71.14023],[25.31773,71.14184],[25.31517,71.14221],[25.30976,71.14208],[25.30677,71.14256],[25.30549,71.14344]],[[25.30549,71.14344],[25.30247,71.14398],[25.30536,71.14511],[25.30802,71.14546],[25.30925,71.14498],[25.31397,71.14446],[25.31641,71.14283]],[[25.32042,71.14261],[25.32614,71.14432],[25.33118,71.14481],[25.33242,71.14527],[25.33507,71.14656],[25.33475,71.14697],[25.33285,71.147],[25.3323,71.14756],[25.3338,71.14844],[25.34373,71.14868],[25.34413,71.14824],[25.34172,71.14739],[25.34776,71.1458],[25.34896,71.14498],[25.35031,71.14094]]]}}]}