{"type":"FeatureCollection","features":[{"type":"Feature","properties":{},"geometry":{"type":"MultiLineString","coordinates":[[[27.21321,71.02688],[27.21326,71.02565],[27.21526,71.02496],[27.2149,71.02343],[27.21678,71.02314],[27.21677,71.02269],[27.21513,71.02207],[27.20837,71.02203],[27.20777,71.02105],[27.20501,71.0198],[27.20551,71.01824],[27.20198,71.01777],[27.20039,71.01672],[27.20038,71.0144],[27.20504,71.01329],[27.20603,71.01187],[27.21321,71.00999],[27.21672,71.00736],[27.21835,71.00698],[27.221,71.00521],[27.22628,71.00535],[27.22904,71.00428],[27.23168,71.00394],[27.23946,71.00414],[27.24617,71.00382],[27.25823,71.00067],[27.2636,71.00026],[27.26748,70.99597]],[[27.47029,71.01313],[27.47399,71.01247],[27.48298,71.01341],[27.48627,71.01334],[27.49114,71.01237],[27.49855,71.01169],[27.50213,71.01043],[27.5092,71.00982],[27.51203,71.00764],[27.51195,71.00672]],[[27.34058,71.02978],[27.34797,71.02824],[27.35096,71.02699],[27.35877,71.02698],[27.36432,71.02573],[27.36939,71.02609],[27.37235,71.02538],[27.37359,71.02342],[27.37618,71.02169],[27.36905,71.01827],[27.37192,71.01624]],[[27.37884,71.01577],[27.38253,71.01832],[27.38387,71.01841],[27.38644,71.01785],[27.39208,71.0178],[27.39415,71.01849],[27.39542,71.02028],[27.39825,71.02176],[27.40033,71.02101],[27.40055,71.01874],[27.40183,71.01856],[27.40624,71.02104],[27.41154,71.02158],[27.41304,71.02234],[27.41939,71.02365],[27.42293,71.0234],[27.42951,71.02387],[27.43293,71.02361],[27.43678,71.02231],[27.44582,71.02136],[27.46438,71.01834],[27.46654,71.01685],[27.46778,71.0142],[27.47029,71.01313]],[[27.21321,71.02688],[27.21566,71.02832],[27.21708,71.02857],[27.21903,71.02822],[27.22285,71.02969],[27.22409,71.0297],[27.22542,71.02916],[27.22759,71.0295],[27.22852,71.03215],[27.23386,71.0327],[27.23329,71.03507],[27.23452,71.03566],[27.23598,71.03584],[27.23773,71.03548],[27.24002,71.03409],[27.24659,71.03417],[27.24898,71.03455],[27.25171,71.03612],[27.24986,71.03709],[27.24963,71.03833],[27.25326,71.04056],[27.25516,71.04094],[27.2549,71.04166],[27.25642,71.04274],[27.25913,71.04336],[27.26068,71.04305],[27.26397,71.04378],[27.26958,71.04436],[27.27826,71.04462],[27.28134,71.04504],[27.28391,71.04422],[27.28418,71.04298],[27.28843,71.04156],[27.29006,71.04144],[27.2913,71.0423],[27.29286,71.04235],[27.29215,71.04089],[27.29614,71.03979],[27.29923,71.0395],[27.29937,71.0381],[27.30103,71.03749],[27.30335,71.03762],[27.30284,71.03542],[27.30427,71.03423],[27.30993,71.03406],[27.31009,71.03501],[27.31149,71.03556],[27.31748,71.03622],[27.32023,71.0332],[27.32513,71.03302],[27.32615,71.03231],[27.33277,71.03205],[27.34058,71.02978]],[[27.49615,71.05349],[27.49625,71.05346]],[[27.49625,71.05346],[27.49815,71.05191],[27.49581,71.05065],[27.49614,71.04993],[27.49788,71.0496],[27.49681,71.04648],[27.4989,71.0443],[27.50132,71.0439],[27.50123,71.04335],[27.49759,71.04259],[27.4972,71.04193],[27.50216,71.0409],[27.50897,71.04035],[27.51899,71.03758],[27.52649,71.03614],[27.5292,71.03455],[27.53297,71.0338],[27.53653,71.03217],[27.54226,71.0307],[27.54285,71.02988],[27.53873,71.0285],[27.53896,71.02816],[27.5408,71.02777],[27.547,71.02795],[27.54922,71.02689],[27.55703,71.0255],[27.55942,71.02243],[27.57399,71.01352],[27.57483,71.01267],[27.57371,71.01122],[27.56725,71.01024],[27.56377,71.00702],[27.56239,71.00428],[27.56032,71.00341]],[[27.78875,71.0703],[27.7883,71.07071],[27.78921,71.07099]],[[27.49615,71.05349],[27.49053,71.0542],[27.48757,71.05576],[27.48852,71.05802],[27.49132,71.05793],[27.49243,71.05854],[27.49124,71.06018],[27.48791,71.06148],[27.48658,71.0627],[27.48794,71.06373],[27.49141,71.06379],[27.49356,71.06511],[27.49609,71.0654],[27.49487,71.06617],[27.49654,71.06768],[27.50064,71.06778],[27.50136,71.0683],[27.49796,71.07044],[27.50007,71.07318],[27.49722,71.07535],[27.49775,71.07675],[27.49671,71.07775],[27.49777,71.07893],[27.50116,71.07964],[27.503,71.07935],[27.50486,71.07959],[27.50659,71.08024],[27.50303,71.08336],[27.50343,71.08384],[27.50639,71.08391],[27.50724,71.08426],[27.50073,71.08522],[27.50003,71.0859],[27.50893,71.08999],[27.51288,71.08998],[27.51765,71.09138],[27.52058,71.09109]],[[27.54161,71.09609],[27.54012,71.09459],[27.5362,71.09366],[27.52772,71.09216],[27.52624,71.09148],[27.52058,71.09109]],[[27.82479,71.0308],[27.82434,71.02979],[27.82175,71.02963],[27.82044,71.0301]],[[27.83696,71.02994],[27.8362,71.02961],[27.83675,71.02863]],[[27.82479,71.0308],[27.82599,71.03482],[27.82937,71.03564],[27.83279,71.03557]],[[27.83696,71.02994],[27.83629,71.03319],[27.83764,71.03503],[27.83513,71.03601],[27.8294,71.03698],[27.82821,71.03837],[27.83277,71.04007],[27.84087,71.03981],[27.83405,71.0379],[27.83337,71.0372],[27.83474,71.0366],[27.83964,71.0359],[27.84089,71.03433],[27.84443,71.03438],[27.84631,71.03646],[27.8491,71.03733]],[[27.8491,71.03733],[27.85046,71.03853],[27.84956,71.03972],[27.84045,71.04231]],[[27.78875,71.0703],[27.79084,71.06968],[27.79136,71.06806],[27.78569,71.06566]],[[27.78986,71.07196],[27.79116,71.07157],[27.79046,71.071],[27.78921,71.07099]],[[27.78986,71.07196],[27.78885,71.07243],[27.79043,71.07284]],[[27.79043,71.07284],[27.79993,71.07294],[27.80343,71.07212],[27.80355,71.07025],[27.80008,71.06884],[27.80223,71.06684],[27.80604,71.06666],[27.81164,71.06149],[27.81761,71.05963],[27.81588,71.05816],[27.81211,71.05741],[27.80855,71.0555],[27.80863,71.05401],[27.81325,71.05311],[27.8117,71.05147],[27.80988,71.05107],[27.80204,71.05229],[27.8,71.05197],[27.79695,71.05038],[27.79108,71.0456],[27.78464,71.04233],[27.78359,71.04102],[27.78542,71.04055],[27.79553,71.04173],[27.80005,71.04303],[27.80855,71.04671],[27.8112,71.04526],[27.81178,71.04386],[27.80896,71.04109],[27.80934,71.03825],[27.80978,71.03775],[27.8113,71.038],[27.81213,71.03765],[27.81214,71.03566]],[[27.72189,71.08369],[27.72028,71.08227],[27.7177,71.08152],[27.7159,71.07918],[27.71205,71.07751],[27.70913,71.07452],[27.70496,71.07195],[27.6991,71.06927],[27.68871,71.06556],[27.6855,71.06376],[27.68567,71.06282],[27.68337,71.06118],[27.68446,71.06019],[27.68891,71.0594],[27.69706,71.06144],[27.69858,71.06154],[27.70009,71.06114],[27.70444,71.06131],[27.71076,71.06317],[27.71262,71.0644],[27.72047,71.0654],[27.72197,71.06591],[27.72329,71.06582],[27.72432,71.06352],[27.71912,71.06347],[27.71862,71.06305],[27.72011,71.0626],[27.71894,71.06074],[27.72165,71.0593],[27.72219,71.05829],[27.72147,71.05598],[27.72378,71.0557],[27.71889,71.05197],[27.71396,71.0509],[27.71576,71.04885],[27.71927,71.0479],[27.7244,71.04811],[27.72978,71.0492],[27.73195,71.05102],[27.7379,71.05308],[27.74058,71.05282],[27.74279,71.05153],[27.74532,71.05238],[27.74664,71.05234],[27.74717,71.05191],[27.7444,71.05007],[27.74478,71.04969],[27.74641,71.04971],[27.75074,71.05109],[27.75525,71.05136],[27.7649,71.05677],[27.76912,71.0576],[27.77103,71.05899],[27.77723,71.06138],[27.77905,71.06358],[27.78569,71.06566]],[[27.68083,71.12052],[27.68721,71.11966],[27.68739,71.11892],[27.69152,71.1179],[27.69302,71.11691],[27.70575,71.11363],[27.71012,71.11302],[27.71325,71.11295],[27.72043,71.11408],[27.73011,71.11282],[27.73627,71.11515],[27.73802,71.11533],[27.73854,71.11341],[27.74298,71.11199],[27.74453,71.1121],[27.74571,71.11151],[27.74809,71.11121],[27.75058,71.11181],[27.75326,71.11152],[27.75282,71.11014],[27.74799,71.10868],[27.74714,71.10742],[27.74114,71.10661],[27.74037,71.1062],[27.74288,71.10406],[27.74241,71.10214],[27.74114,71.1011],[27.73852,71.10097],[27.74031,71.09966],[27.738,71.09889],[27.73837,71.09775],[27.73386,71.09614],[27.7313,71.09276],[27.72378,71.08919],[27.71899,71.08815],[27.71767,71.08596],[27.71819,71.08547],[27.72204,71.08484],[27.72189,71.08369]],[[27.54161,71.09609],[27.54417,71.0971],[27.54667,71.09703],[27.54812,71.09771],[27.54769,71.09908],[27.54618,71.09962],[27.54666,71.10042],[27.54942,71.1016],[27.55717,71.10348],[27.55681,71.1042],[27.56079,71.10555],[27.5642,71.10599],[27.57582,71.1053],[27.57874,71.10716],[27.57794,71.10797],[27.57996,71.10877],[27.5839,71.10845],[27.5841,71.10784],[27.58669,71.10727],[27.59508,71.10705],[27.59945,71.10586],[27.61126,71.10217],[27.61321,71.10034],[27.62161,71.09669],[27.63028,71.09705],[27.64277,71.09877],[27.64697,71.10169],[27.64808,71.10596],[27.64525,71.10904],[27.64551,71.11139],[27.64325,71.11372],[27.63504,71.1171],[27.63387,71.11825],[27.63208,71.11832],[27.63266,71.12004],[27.63478,71.1202],[27.63566,71.12086],[27.63223,71.12195],[27.63382,71.12426],[27.63133,71.12481],[27.63059,71.12556],[27.63073,71.12646],[27.63252,71.12743],[27.6371,71.12762],[27.63819,71.12824],[27.63582,71.12962],[27.63706,71.13074],[27.63886,71.13127],[27.64318,71.13141],[27.64449,71.13203],[27.64329,71.13256],[27.64482,71.13299],[27.64796,71.13293],[27.64858,71.13235],[27.65408,71.13313],[27.65803,71.13282],[27.65871,71.12816],[27.67278,71.12344],[27.67348,71.12285],[27.67755,71.12205],[27.68083,71.12052]],[[27.37884,71.01577],[27.37829,71.01503],[27.37192,71.01624]],[[27.51195,71.00672],[27.51264,71.00422],[27.50524,70.9927]],[[27.56032,71.00341],[27.55844,70.99968]],[[27.82044,71.0301],[27.81748,71.03131]],[[27.83526,71.02836],[27.83379,71.02876],[27.83324,71.0302]],[[27.8137,71.0354],[27.81625,71.03533],[27.81723,71.03448],[27.81647,71.03361],[27.81748,71.03131]],[[27.83279,71.03557],[27.83441,71.03463],[27.8329,71.03252],[27.83324,71.0302]],[[27.85248,71.04405],[27.85479,71.04379],[27.85786,71.04432]],[[27.84045,71.04231],[27.83847,71.04271],[27.83612,71.04423],[27.83757,71.04532],[27.84448,71.046],[27.84725,71.04472],[27.85061,71.04454],[27.85248,71.04405]],[[27.85786,71.04432],[27.85768,71.04524],[27.85501,71.0471],[27.85529,71.05129],[27.85958,71.05217],[27.86221,71.05152],[27.86518,71.05236],[27.87087,71.05211],[27.87138,71.05096],[27.86852,71.04929],[27.86706,71.04667],[27.86914,71.04597],[27.8702,71.04447],[27.86783,71.04122],[27.87039,71.03847],[27.87403,71.03721],[27.87307,71.03657],[27.86932,71.03583],[27.8689,71.03501],[27.87029,71.03428],[27.87413,71.03406],[27.87895,71.03579],[27.88103,71.03631],[27.88418,71.03645],[27.88531,71.03741],[27.888,71.03781],[27.88928,71.03935],[27.89261,71.04079],[27.89259,71.04197],[27.89064,71.04304],[27.89054,71.04383],[27.8962,71.04506],[27.90522,71.04917],[27.91616,71.05187],[27.91729,71.05319],[27.91493,71.05438],[27.91483,71.05556],[27.92003,71.05589]],[[27.89388,71.05768],[27.89604,71.05708],[27.89935,71.05732],[27.90006,71.05616],[27.89822,71.05599],[27.89575,71.05656],[27.89076,71.05638],[27.8894,71.05661],[27.89079,71.05802],[27.89233,71.05832],[27.89388,71.05768]],[[27.92428,71.06225],[27.92919,71.0611],[27.93564,71.06077],[27.93779,71.05984],[27.93847,71.0587],[27.93186,71.05721],[27.92905,71.05574],[27.92003,71.05589]],[[27.92428,71.06225],[27.92272,71.06299],[27.92299,71.06356],[27.92387,71.06457],[27.92569,71.06435]],[[27.94241,71.06827],[27.93828,71.06826],[27.93671,71.06782],[27.93792,71.06682],[27.93552,71.06498],[27.93334,71.06449],[27.92569,71.06435]],[[28.00064,71.06317],[27.98991,71.06145],[27.98968,71.0611],[27.99134,71.0607],[27.99076,71.05961],[27.98671,71.05782],[27.98088,71.05672],[27.98246,71.05584],[27.98002,71.05501],[27.97602,71.05627],[27.97003,71.05698],[27.96883,71.05808],[27.97018,71.05857],[27.96976,71.0603],[27.96593,71.06024],[27.9644,71.06133],[27.962,71.06153],[27.96021,71.06247],[27.96088,71.06337],[27.96788,71.06647]],[[27.94241,71.06827],[27.94448,71.06913],[27.95067,71.07038],[27.95084,71.07262],[27.95929,71.07315],[27.95904,71.07382],[27.96366,71.07497],[27.96391,71.07543],[27.96034,71.07653],[27.96545,71.07922],[27.9632,71.08126],[27.96529,71.08194],[27.96202,71.08364],[27.96504,71.08405],[27.96813,71.08351],[27.97692,71.08557],[27.97834,71.08497],[27.97817,71.08322],[27.98151,71.08215],[27.98155,71.08166],[27.97825,71.08022],[27.97797,71.07933],[27.97406,71.07703],[27.97545,71.07538],[27.9719,71.07425],[27.97298,71.07314],[27.97254,71.07223],[27.97008,71.06963],[27.97004,71.06813],[27.96788,71.06647]],[[27.98246,71.08709],[27.98105,71.08703],[27.97794,71.08781],[27.97767,71.08831],[27.97851,71.08961],[27.98202,71.09061],[27.98505,71.08985],[27.98531,71.0892],[27.98397,71.08846],[27.9839,71.08746],[27.98246,71.08709]]]}}]}