{"type":"FeatureCollection","features":[{"type":"Feature","properties":{},"geometry":{"type":"MultiLineString","coordinates":[[[28.05619,71.04949],[28.05644,71.04929]],[[28.06356,71.05983],[28.06413,71.05964]],[[28.19135,71.00473],[28.18862,71.00314],[28.18116,71.00147],[28.17451,70.99673]],[[28.20854,71.00349],[28.19768,71.00044],[28.19273,71.00113],[28.18947,71.00085],[28.18728,70.9974]],[[28.22404,71.00237],[28.22364,71.00048],[28.22014,70.9964]],[[28.20854,71.00349],[28.20966,71.00544],[28.21464,71.00852],[28.21661,71.00888],[28.21851,71.01055],[28.21987,71.01067],[28.22135,71.01015],[28.22166,71.00938],[28.22082,71.00742],[28.22442,71.00613],[28.22404,71.00237]],[[28.30767,71.00486],[28.30948,71.00457],[28.30631,71.00245],[28.30709,71.00065],[28.3038,70.99921]],[[28.29144,70.99747],[28.29559,71.00087],[28.30068,71.00223],[28.30332,71.00349],[28.30315,71.00539],[28.30402,71.00556],[28.30767,71.00486]],[[28.22139,71.01095],[28.21941,71.0111],[28.2197,71.01169],[28.22225,71.01261],[28.22355,71.01261],[28.22398,71.01135],[28.22139,71.01095]],[[28.25728,71.01064],[28.25837,71.01045],[28.25691,71.00977],[28.25689,71.00904],[28.25862,71.00856],[28.25871,71.00784],[28.25598,71.00575],[28.25363,71.00612],[28.25276,71.00743],[28.25001,71.00896],[28.25138,71.01084],[28.25443,71.01264],[28.25543,71.01252],[28.25575,71.01131],[28.25728,71.01064]],[[28.31695,70.99986],[28.3188,71.00177],[28.32467,71.00328],[28.32609,71.00295],[28.32586,71.00215],[28.33081,71.00245],[28.33275,71.00173],[28.33282,71.00087],[28.33536,71.00047],[28.34108,71.00159],[28.34759,71.00208],[28.35325,71.00328],[28.35809,71.00299],[28.36321,71.00364],[28.37006,71.00229],[28.37346,71.00313],[28.37848,71.00332],[28.38514,71.00266],[28.39076,71.0038],[28.39284,71.00343],[28.39383,71.00274],[28.39704,71.00226],[28.40317,71.00203],[28.40648,71.00151],[28.40847,71.00182],[28.4109,71.00162],[28.41019,71.00075],[28.41245,71.00011],[28.41608,70.99799]],[[28.18399,71.02975],[28.18995,71.02914],[28.20127,71.02942],[28.20598,71.02901],[28.20613,71.02863],[28.20399,71.02846],[28.20638,71.02675],[28.20577,71.02472],[28.20667,71.02436],[28.21055,71.02419],[28.20895,71.02348],[28.20511,71.02386],[28.20032,71.02225],[28.19822,71.02095],[28.19653,71.01824],[28.19818,71.01705],[28.1998,71.0166],[28.20239,71.01667],[28.20334,71.01619],[28.19906,71.01398],[28.19581,71.01398],[28.19213,71.01288],[28.1881,71.00845],[28.18955,71.00805],[28.19432,71.0078],[28.19135,71.00473]],[[28.18399,71.02975],[28.17529,71.03192],[28.16934,71.03276],[28.16735,71.03335],[28.16728,71.03391],[28.17104,71.03486],[28.17962,71.03578],[28.18743,71.03479]],[[28.05873,71.05268],[28.06028,71.05173],[28.05715,71.04996]],[[28.05873,71.05268],[28.05723,71.05312],[28.05964,71.05402]],[[28.25611,71.04584],[28.25532,71.04409],[28.25221,71.04322],[28.24428,71.04336],[28.24054,71.0442],[28.23859,71.044],[28.23448,71.04137],[28.22904,71.04073],[28.23057,71.03878],[28.2224,71.03778],[28.2156,71.03625],[28.21318,71.03591],[28.20547,71.03575],[28.20267,71.03469],[28.20018,71.0343],[28.18743,71.03479]],[[28.06082,71.05578],[28.06165,71.05553],[28.06098,71.05439],[28.05964,71.05402]],[[28.06082,71.05578],[28.06029,71.05643],[28.06154,71.05684]],[[28.00654,71.06374],[28.00505,71.06334],[28.00064,71.06317],[27.98991,71.06145]],[[28.06413,71.05964],[28.06671,71.05874],[28.06777,71.05731],[28.06692,71.05695],[28.06154,71.05684]],[[28.09415,71.0575],[28.09107,71.05528],[28.09086,71.05389],[28.08557,71.05137],[28.08123,71.05088],[28.07637,71.04765],[28.06471,71.04672],[28.0584,71.04803],[28.05644,71.04929]],[[28.24748,71.05759],[28.25395,71.05601],[28.25742,71.05628],[28.26004,71.05546],[28.26343,71.05508],[28.26394,71.05444],[28.26182,71.05432],[28.2606,71.05268],[28.25582,71.05301],[28.25501,71.05264],[28.26392,71.05028],[28.26626,71.05039],[28.26802,71.04978],[28.26727,71.04914],[28.25979,71.04905],[28.2567,71.04797],[28.24886,71.04727],[28.2491,71.04689],[28.25436,71.04646],[28.25611,71.04584]],[[28.2363,71.07165],[28.24368,71.0688],[28.24599,71.06878],[28.2518,71.06752],[28.25484,71.0675],[28.2572,71.06663],[28.26421,71.06714],[28.2674,71.06413],[28.26976,71.06344],[28.26899,71.06272],[28.26604,71.0635],[28.26273,71.06317],[28.261,71.06335],[28.25993,71.06296],[28.25288,71.06357],[28.2467,71.06343],[28.24532,71.0628],[28.24608,71.06187],[28.25122,71.06127],[28.25228,71.06009],[28.25165,71.05955],[28.25376,71.05983],[28.25533,71.05942],[28.25529,71.05888],[28.25285,71.0581],[28.24717,71.05833]],[[28.23652,71.07192],[28.2363,71.07165]],[[28.00654,71.06374],[28.00725,71.06432],[28.00374,71.06579],[28.00656,71.0669],[28.00721,71.06771],[28.01201,71.06879],[28.01367,71.06965],[28.01415,71.07025],[28.01206,71.07058],[28.01194,71.07095],[28.01443,71.0714],[28.01467,71.07221],[28.01898,71.07445],[28.01869,71.07551],[28.01601,71.07615],[28.01789,71.07797],[28.02142,71.07716],[28.02503,71.08038],[28.0319,71.08137],[28.03466,71.08132],[28.037,71.08267],[28.04367,71.08379],[28.04434,71.08473],[28.04031,71.0852],[28.04233,71.08689],[28.04723,71.08712],[28.05028,71.08673],[28.05202,71.0878],[28.05524,71.08813],[28.0603,71.08638],[28.06218,71.08628],[28.06577,71.08691],[28.06672,71.08633],[28.06465,71.08338],[28.06157,71.08223],[28.0622,71.07984],[28.06124,71.07848],[28.06259,71.07608],[28.06492,71.07515],[28.06566,71.07302],[28.06157,71.07175],[28.06035,71.06887],[28.05866,71.06848],[28.05831,71.06776],[28.05999,71.06698],[28.06386,71.06673],[28.0648,71.06598],[28.0639,71.06454],[28.06256,71.06401],[28.06294,71.06227],[28.06142,71.06103],[28.06356,71.05983]],[[28.26874,71.0713],[28.26666,71.0712],[28.26123,71.07186],[28.26404,71.07312],[28.26391,71.07367],[28.26539,71.07367],[28.26633,71.07297],[28.26842,71.07256],[28.26874,71.0713]],[[28.2398,71.08141],[28.24461,71.0809],[28.24787,71.07982],[28.2516,71.07763],[28.25216,71.07575],[28.2489,71.07453],[28.25015,71.07403],[28.24883,71.07257],[28.24969,71.07195],[28.24857,71.07145],[28.23652,71.07192]],[[28.23965,71.0817],[28.2398,71.08141]],[[28.22421,71.0886],[28.22767,71.08748],[28.22935,71.0879],[28.23813,71.08797],[28.23992,71.08665],[28.24474,71.08634],[28.24781,71.08421],[28.24796,71.08316],[28.24442,71.08178],[28.23965,71.0817]],[[28.09415,71.0575],[28.09677,71.05888],[28.10394,71.06072],[28.10254,71.0639],[28.10364,71.06518],[28.10758,71.06683],[28.11189,71.06778],[28.11269,71.07008],[28.11721,71.07341],[28.12329,71.07536],[28.12543,71.07687],[28.13059,71.07802],[28.13232,71.0789],[28.13227,71.07934],[28.12948,71.07981],[28.13204,71.08188],[28.13183,71.08298],[28.13544,71.08405],[28.13993,71.0841],[28.14313,71.08484],[28.1472,71.08476],[28.14799,71.08516],[28.15195,71.08539],[28.15,71.08682],[28.14633,71.08786],[28.15195,71.08729],[28.15258,71.08757],[28.14934,71.08848],[28.14406,71.08917],[28.14365,71.08982],[28.15242,71.09015],[28.15453,71.08973],[28.15558,71.09042],[28.16056,71.08976],[28.16024,71.09093],[28.15758,71.09182],[28.15978,71.09257],[28.15893,71.09324],[28.16489,71.09362],[28.17244,71.09259],[28.17413,71.09286],[28.17474,71.09378],[28.17704,71.09415],[28.17942,71.09401],[28.1825,71.09568],[28.18694,71.09629],[28.1934,71.09536],[28.19467,71.0935],[28.19874,71.09146],[28.20951,71.09071],[28.211,71.09091],[28.21452,71.09003],[28.21891,71.09014],[28.2206,71.08942],[28.22304,71.08937],[28.22421,71.0886]]]}}]}