{"type":"FeatureCollection","features":[{"type":"Feature","properties":{},"geometry":{"type":"MultiLineString","coordinates":[[[26.00265,71.01227],[26.00514,71.00932],[26.00327,71.0091],[26.00053,71.0095],[25.99903,71.01122]],[[26.13597,71.04975],[26.13856,71.05064],[26.13776,71.0514],[26.14461,71.05241],[26.14953,71.05378],[26.1523,71.05511],[26.15476,71.05744],[26.15688,71.05791],[26.15951,71.05781],[26.16504,71.05843],[26.16837,71.05726],[26.17188,71.05729],[26.18507,71.0597],[26.19753,71.06039],[26.20969,71.06233],[26.21023,71.06109],[26.21513,71.06114],[26.21621,71.06188],[26.22001,71.06283],[26.22198,71.06282],[26.22581,71.0612],[26.22278,71.05908],[26.22318,71.05814],[26.2221,71.05742],[26.2226,71.05582],[26.22403,71.05546],[26.2245,71.05471],[26.22151,71.05217],[26.22229,71.05136],[26.22155,71.05],[26.22312,71.04796],[26.22167,71.04454]],[[26.02034,71.13056],[26.02215,71.13039],[26.02342,71.12936],[26.03081,71.12801],[26.03144,71.127],[26.03042,71.12284],[26.03896,71.1183],[26.03983,71.11478],[26.04113,71.11353],[26.04485,71.11319],[26.04418,71.11259],[26.04506,71.11102],[26.04408,71.11009],[26.04201,71.10931],[26.03828,71.10888],[26.03295,71.10418],[26.02805,71.10174]],[[26.00048,71.0956],[25.99512,71.09613]],[[26.02805,71.10174],[26.02163,71.09974],[26.01845,71.0982],[26.00974,71.09592],[26.00547,71.09534],[26.00048,71.0956]],[[26.12358,71.00499],[26.1157,71.00367],[26.11452,71.00281],[26.11431,71.00089],[26.11559,71.0002],[26.11887,71.00028],[26.12333,70.9994]],[[26.00265,71.01227],[26.00451,71.01576],[26.01169,71.01761],[26.0125,71.01843],[26.0114,71.02084],[26.01511,71.02178],[26.019,71.02135],[26.01957,71.01883],[26.0159,71.01528],[26.01048,71.01496],[26.00922,71.01445],[26.01219,71.01327],[26.01414,71.01462],[26.01563,71.01467],[26.01647,71.01392],[26.01425,71.01296],[26.01082,71.01273],[26.01063,71.01196],[26.0122,71.01179],[26.01774,71.01251],[26.02257,71.01211],[26.02488,71.01252],[26.02529,71.01319],[26.02296,71.01443],[26.02463,71.01557],[26.03222,71.01763],[26.03491,71.01682],[26.03413,71.01526],[26.03778,71.01533],[26.03939,71.01501],[26.03902,71.01348],[26.03682,71.01236],[26.0374,71.0118],[26.04259,71.01076],[26.04307,71.01008],[26.04473,71.0098],[26.05223,71.00981],[26.05457,71.01028],[26.05802,71.01189],[26.06387,71.01334],[26.06425,71.01691],[26.06881,71.01938],[26.06777,71.0202],[26.0702,71.02355],[26.06908,71.02488],[26.07476,71.02799],[26.07905,71.02915]],[[26.13597,71.04975],[26.13846,71.04874],[26.13703,71.04767],[26.13104,71.04807],[26.12899,71.04903],[26.12207,71.04902],[26.11935,71.04791],[26.11423,71.04674],[26.1149,71.04586],[26.11212,71.04385],[26.10638,71.04322],[26.1036,71.04329],[26.10178,71.04286],[26.09765,71.04124],[26.09491,71.03901],[26.09189,71.03849],[26.08907,71.03613],[26.08428,71.0335],[26.07905,71.02915]],[[26.22167,71.04454],[26.22577,71.04395],[26.22605,71.04319],[26.22453,71.04301],[26.22191,71.04168],[26.22385,71.04035],[26.22252,71.03861],[26.21998,71.03752],[26.22014,71.03656],[26.21733,71.03615],[26.21659,71.0354],[26.21953,71.03268],[26.21428,71.03063],[26.20954,71.02703],[26.20375,71.0248],[26.19714,71.01956],[26.19577,71.01886],[26.1923,71.01819],[26.19058,71.01624],[26.18835,71.01527],[26.1853,71.01468],[26.18645,71.0139],[26.18487,71.01298],[26.18312,71.01263],[26.1806,71.01298],[26.17898,71.01255],[26.16819,71.00808],[26.14503,71.0058],[26.13557,71.0065],[26.12949,71.00622],[26.12358,71.00499]],[[25.99899,71.13495],[26.01786,71.13064],[26.02034,71.13056]]]}}]}