{"type":"FeatureCollection","features":[{"type":"Feature","properties":{},"geometry":{"type":"MultiLineString","coordinates":[[[23.99972,71.05787],[24.00005,71.05858]],[[24.12725,71.06925],[24.12402,71.06858],[24.1241,71.0694]],[[24.15887,71.09995],[24.16035,71.09974],[24.1582,71.09852]],[[24.1241,71.0694],[24.1265,71.07006],[24.12848,71.07009],[24.12854,71.06958],[24.12725,71.06925]],[[24.01041,71.08102],[24.01026,71.08068]],[[24.14013,71.06004],[24.14632,71.06075],[24.14736,71.06043],[24.14647,71.05977],[24.1396,71.0589]],[[24.11449,71.00517],[24.11749,71.00541],[24.12136,71.00478],[24.12556,71.00479],[24.12688,71.00435],[24.12636,71.00361],[24.13173,71.00393],[24.13785,71.00369],[24.13849,71.00406],[24.14073,71.00417],[24.14464,71.00377],[24.14742,71.00435],[24.15324,71.00373],[24.15405,71.00317],[24.15646,71.00324],[24.15682,71.00284],[24.15427,71.00214],[24.15475,71.00062],[24.15731,70.99874]],[[24.16138,70.99908],[24.16336,71.00034],[24.16024,71.00152],[24.16035,71.00257],[24.16784,71.00311],[24.17722,71.00305],[24.18009,71.00286],[24.18616,71.00144],[24.18678,71.00088],[24.18582,70.99882]],[[24.15101,70.99913],[24.14857,71.0006],[24.14474,71.00097],[24.14068,71.00046],[24.13952,70.99929]],[[24.01162,71.02964],[24.01128,71.02794],[24.01376,71.02501],[24.01188,71.0243],[24.00824,71.02437],[24.00899,71.02279],[24.0075,71.02247],[24.00613,71.02307],[24.00579,71.02442],[24.00045,71.02403],[23.99561,71.02454]],[[24.06493,71.02703],[24.0632,71.02614],[24.06774,71.02561],[24.06498,71.02537],[24.06455,71.02492],[24.06588,71.02413],[24.06181,71.02367],[24.06015,71.02227],[24.0603,71.02182],[24.06407,71.02088],[24.06242,71.01968],[24.05771,71.01781],[24.04965,71.01572],[24.04388,71.0128],[24.0417,71.01272],[24.04047,71.01225],[24.04076,71.01119],[24.03747,71.00982],[24.0412,71.00768],[24.04796,71.00583],[24.05315,71.007],[24.05157,71.00592],[24.05442,71.00419],[24.05856,71.00447],[24.06511,71.00587],[24.06518,71.00539],[24.06096,71.0043],[24.06399,71.0031],[24.06963,71.00431],[24.07102,71.00568],[24.07853,71.00718],[24.08094,71.00711],[24.08144,71.00631],[24.08731,71.00661],[24.08825,71.00627],[24.09271,71.0064],[24.09658,71.00721],[24.10637,71.00698],[24.10979,71.00584],[24.11044,71.00514],[24.11449,71.00517]],[[24.01162,71.02964],[24.00843,71.03259],[24.00927,71.03281],[24.01277,71.03252],[24.01411,71.0338],[24.01806,71.03449],[24.01855,71.03606],[24.02168,71.03685],[24.02503,71.03592],[24.03767,71.03392],[24.0471,71.03346],[24.04897,71.03301],[24.04972,71.03161],[24.05406,71.02953],[24.0551,71.02818],[24.06493,71.02703]],[[24.00064,71.05986],[24.00141,71.05925],[24.00005,71.05858]],[[24.1396,71.0589],[24.13148,71.05837],[24.13399,71.06003],[24.13595,71.06029],[24.13711,71.05989],[24.14013,71.06004]],[[23.99891,71.06066],[24.00064,71.05986]],[[24.07947,71.07733],[24.08196,71.07661],[24.07782,71.07573],[24.07694,71.07794],[24.07855,71.07858],[24.07939,71.07842],[24.07947,71.07733]],[[24.02665,71.07418],[24.02744,71.07366],[24.03251,71.07268],[24.03499,71.07139],[24.03982,71.07056],[24.04075,71.06994],[24.03811,71.06867],[24.04009,71.06844],[24.04106,71.06676],[24.03724,71.06559],[24.04093,71.06549],[24.03932,71.06366],[24.04279,71.06196],[24.04762,71.06088],[24.04887,71.05977],[24.05139,71.05957],[24.05607,71.06004],[24.05734,71.05974],[24.05876,71.05879],[24.05721,71.0575],[24.05541,71.05693],[24.05101,71.05666],[24.04899,71.05697],[24.04957,71.05751],[24.04864,71.05819],[24.0434,71.05817],[24.03712,71.05963],[24.03187,71.05971],[24.02575,71.06083],[24.02285,71.06055],[24.02242,71.06165],[24.02075,71.06164],[24.01941,71.06102],[24.01345,71.06057],[24.01773,71.0591],[24.01878,71.05785],[24.0262,71.05478],[24.02481,71.05296],[24.01704,71.05265],[24.01403,71.05284],[23.99972,71.05787]],[[24.12181,71.06951],[24.12102,71.06821],[24.1152,71.06698],[24.10978,71.06654],[24.10567,71.06534],[24.09765,71.06433],[24.09551,71.06451],[24.09566,71.06496],[24.09794,71.06556],[24.09704,71.06662],[24.09447,71.06733],[24.09014,71.06715],[24.08903,71.06675],[24.09262,71.06523],[24.09197,71.06445],[24.08959,71.06431],[24.08352,71.06282],[24.07855,71.06085],[24.07542,71.06028],[24.07406,71.059],[24.0747,71.05703],[24.07745,71.05572],[24.07582,71.05495],[24.0761,71.0536],[24.07831,71.05203],[24.08072,71.05125],[24.08463,71.05076],[24.08826,71.05164],[24.09332,71.05181],[24.09472,71.05277],[24.09794,71.05314],[24.1,71.05283],[24.09967,71.05222],[24.10101,71.05181],[24.10635,71.05283],[24.10906,71.05287],[24.11066,71.05249],[24.1112,71.05063],[24.11044,71.05037],[24.09767,71.05098],[24.09498,71.04925],[24.09122,71.04884],[24.08821,71.04748],[24.07965,71.04602],[24.07554,71.04598],[24.0728,71.04486],[24.06974,71.04491],[24.06677,71.0445],[24.05805,71.04215],[24.05092,71.04216],[24.04297,71.04328],[24.03752,71.04336],[24.03643,71.04432],[24.03918,71.04694],[24.03114,71.04715],[24.02393,71.04612],[24.0236,71.04662],[24.02517,71.04748],[24.02799,71.04827],[24.02728,71.04857],[24.02375,71.04858],[24.02349,71.04989],[24.01999,71.04967],[24.01848,71.05058],[24.01629,71.0496],[24.01115,71.04918],[23.99384,71.04511]],[[24.00916,71.07831],[24.01139,71.07878],[24.01334,71.07863],[24.01554,71.07896],[24.01382,71.07769],[24.01556,71.0771],[24.01498,71.07646],[24.02072,71.07601],[24.01911,71.07486],[24.02665,71.07418]],[[24.12181,71.06951],[24.13696,71.07432],[24.13801,71.07402],[24.1368,71.07297],[24.13767,71.07235],[24.14289,71.07194],[24.14585,71.07224]],[[24.00916,71.07831],[24.00752,71.07835],[24.00671,71.07884],[24.01026,71.08068]],[[24.14691,71.0745],[24.14977,71.07466],[24.15226,71.07401],[24.14585,71.07224]],[[24.08529,71.07873],[24.0829,71.07883],[24.08233,71.07953],[24.08354,71.07988],[24.0877,71.0796],[24.08768,71.07895],[24.08529,71.07873]],[[24.08101,71.07931],[24.07881,71.07908],[24.07747,71.07947],[24.08242,71.08096],[24.08215,71.07955],[24.08101,71.07931]],[[24.16078,71.07612],[24.15819,71.07624],[24.15787,71.07669],[24.16097,71.07734],[24.16262,71.07696],[24.16078,71.07612]],[[24.01041,71.08102],[24.00765,71.08082],[24.0065,71.08142],[24.00746,71.0833],[24.00989,71.08503],[24.01187,71.08418]],[[24.00055,71.07939],[23.99866,71.07922]],[[23.99801,71.08024],[24.00187,71.08252],[23.9992,71.0831]],[[23.99913,71.08349],[24.00153,71.08572],[24.00347,71.08619],[24.00601,71.08355],[24.00452,71.08284],[24.00439,71.08073],[24.00055,71.07939]],[[24.11099,71.07984],[24.10955,71.08012],[24.11189,71.08111],[24.11579,71.08121],[24.11548,71.0807],[24.11099,71.07984]],[[24.11522,71.08283],[24.11261,71.08262],[24.11121,71.08317],[24.1151,71.08379],[24.11594,71.08358],[24.11522,71.08283]],[[24.05641,71.08778],[24.05254,71.08774],[24.05132,71.08842],[24.05171,71.08887],[24.05666,71.08917],[24.0581,71.08846],[24.05641,71.08778]],[[24.08235,71.08671],[24.07822,71.08551],[24.07893,71.08461],[24.07601,71.08433],[24.07536,71.08455],[24.07681,71.08484],[24.07666,71.08517],[24.07458,71.08509],[24.0711,71.0858],[24.07347,71.08699],[24.07258,71.08747],[24.07324,71.08799],[24.07589,71.08742],[24.07564,71.08684],[24.07664,71.08677],[24.08347,71.08741],[24.084,71.08805],[24.08577,71.08789],[24.08615,71.08723],[24.08235,71.08671]],[[24.10943,71.08895],[24.10554,71.08928],[24.1079,71.09126],[24.11508,71.09196],[24.11862,71.09164],[24.11905,71.09125],[24.11688,71.09003],[24.10943,71.08895]],[[24.01187,71.08418],[24.01326,71.08172],[24.01841,71.08199],[24.01974,71.08142],[24.0235,71.08128],[24.0283,71.08308],[24.03701,71.08477],[24.03705,71.08527],[24.03479,71.08556],[24.03818,71.08755],[24.04575,71.08797],[24.04993,71.08778],[24.05332,71.08659],[24.0578,71.0875],[24.05563,71.08616],[24.06288,71.0845],[24.05846,71.084],[24.05629,71.08277],[24.05905,71.0819],[24.06261,71.08241],[24.06192,71.08136],[24.06313,71.0807],[24.06953,71.07959],[24.06951,71.07761],[24.07048,71.077],[24.07541,71.07685],[24.07318,71.07403],[24.07658,71.07354],[24.0855,71.07452],[24.08999,71.0758],[24.09146,71.07697],[24.0892,71.07746],[24.09304,71.07817],[24.09132,71.07945],[24.09873,71.08126],[24.1011,71.08112],[24.098,71.07962],[24.09717,71.07894],[24.09785,71.07871],[24.10483,71.07986],[24.10547,71.08114],[24.10775,71.08066],[24.10977,71.0814],[24.11159,71.08115],[24.11304,71.08167],[24.11544,71.08174],[24.1159,71.08125],[24.11801,71.08154],[24.1178,71.08183],[24.11561,71.0818],[24.11575,71.08208],[24.12291,71.08443],[24.11894,71.08427],[24.11728,71.08462],[24.11893,71.08564],[24.11563,71.08585],[24.11539,71.08683],[24.11887,71.08724],[24.12098,71.08699],[24.12069,71.08584],[24.11969,71.08568],[24.12063,71.08555],[24.12299,71.08655],[24.13085,71.08745],[24.13516,71.08654],[24.13018,71.08423],[24.13077,71.08363],[24.13396,71.08323],[24.13414,71.08291],[24.13233,71.08229],[24.12943,71.08215],[24.12643,71.0805],[24.12629,71.07972],[24.12917,71.08005],[24.1295,71.07938],[24.13065,71.07938],[24.13351,71.08126],[24.13897,71.08155],[24.13993,71.08272],[24.14241,71.0831],[24.14472,71.08172],[24.14436,71.08127],[24.1313,71.07705],[24.13225,71.07663],[24.13424,71.07693],[24.1354,71.07674],[24.14138,71.07753],[24.1427,71.07721],[24.1424,71.07678],[24.13817,71.07502],[24.14292,71.07545],[24.14173,71.07437],[24.14691,71.0745]],[[24.08054,71.0891],[24.07585,71.08932],[24.07609,71.09058],[24.0817,71.09034],[24.08054,71.0891]],[[24.18769,71.08599],[24.18354,71.08346],[24.17131,71.08198],[24.16913,71.08217],[24.17017,71.08355],[24.16934,71.08481],[24.17361,71.08613],[24.18703,71.08653],[24.18769,71.08599]],[[24.07119,71.09204],[24.07386,71.0914],[24.07457,71.0905],[24.06311,71.09177],[24.05725,71.09194],[24.05912,71.09285],[24.06147,71.09296],[24.06392,71.09232],[24.06607,71.09231],[24.0658,71.09271],[24.07045,71.09271],[24.07119,71.09204]],[[24.09598,71.10209],[24.09271,71.10193],[24.09203,71.10217],[24.09451,71.10285],[24.09793,71.10285],[24.09598,71.10209]],[[24.1582,71.09852],[24.15624,71.09837],[24.15494,71.0991],[24.1558,71.09998],[24.15887,71.09995]],[[24.68882,71.0412],[24.69142,71.04052]],[[24.71003,71.08488],[24.71051,71.08477]],[[24.80808,71.10289],[24.80544,71.10264],[24.80395,71.10283],[24.80315,71.10346],[24.80706,71.10349],[24.80808,71.10289]],[[24.59453,71.00024],[24.6058,70.99835]],[[24.66944,71.0021],[24.68046,71.00111],[24.68443,71.00131],[24.68487,71.00199],[24.68203,71.00328],[24.68473,71.00394],[24.69148,71.00325],[24.6974,71.00356],[24.70361,71.00298],[24.70387,71.0017],[24.70779,71.00003],[24.71101,70.99943]],[[24.59453,71.00024],[24.58327,71.00216],[24.57407,71.00566],[24.56651,71.00783],[24.5535,71.00739],[24.54353,71.00913],[24.54074,71.00997],[24.54058,71.01058],[24.54496,71.01149],[24.5477,71.01314],[24.54417,71.01541],[24.55191,71.01683],[24.55501,71.02072],[24.56642,71.02157],[24.5748,71.02104],[24.58826,71.01918],[24.59918,71.01516],[24.60805,71.01461],[24.61438,71.01461],[24.6176,71.01326],[24.62918,71.01215],[24.63653,71.0121],[24.64289,71.01134],[24.64505,71.00978],[24.64935,71.00951],[24.65637,71.00654],[24.65973,71.00614],[24.66133,71.00552],[24.66234,71.00387],[24.66546,71.00361],[24.66944,71.0021]],[[24.77604,71.03605],[24.77451,71.03505],[24.77482,71.03331],[24.77578,71.03245],[24.77821,71.03182],[24.77847,71.03112],[24.77706,71.03048],[24.77079,71.02959],[24.76704,71.02817],[24.75983,71.02824],[24.75393,71.03034],[24.75005,71.03086],[24.73667,71.02927],[24.71859,71.03119],[24.71367,71.03284],[24.71008,71.03775],[24.70402,71.03932],[24.69142,71.04052]],[[24.93485,71.02757],[24.93305,71.02679],[24.9255,71.02645],[24.92479,71.0259],[24.92776,71.02488],[24.93756,71.02403],[24.94189,71.02308],[24.94317,71.02174],[24.94073,71.02054],[24.95049,71.01807],[24.95256,71.01659],[24.95095,71.0159],[24.95449,71.01504]],[[24.95936,70.9987],[24.95344,71.0003],[24.95413,71.00214],[24.95756,71.0033],[24.96532,71.00402],[24.97697,71.00389],[24.98069,71.00441],[24.98298,71.00503],[24.9842,71.00637],[24.99355,71.00662],[24.99354,71.00848],[24.99019,71.00964],[24.98753,71.00994],[24.97719,71.00974],[24.97494,71.00865],[24.97354,71.00882],[24.97298,71.0095],[24.9604,71.01],[24.95951,71.01069],[24.95988,71.01217],[24.95699,71.01441],[24.95449,71.01504]],[[24.80337,71.05589],[24.80378,71.05492],[24.80082,71.05396],[24.7952,71.05543],[24.79609,71.0562],[24.79887,71.05591],[24.80286,71.05621],[24.80337,71.05589]],[[24.93485,71.02757],[24.93785,71.02937],[24.93659,71.03045],[24.93783,71.03285],[24.94146,71.03512],[24.93941,71.03652],[24.94173,71.0373],[24.94046,71.04031],[24.94726,71.04185],[24.94951,71.04291],[24.94805,71.04332],[24.93994,71.04333],[24.93846,71.04385],[24.935,71.04344],[24.93283,71.04412],[24.9378,71.0454],[24.9414,71.0443],[24.95091,71.04424],[24.95254,71.04386],[24.95474,71.04524],[24.95418,71.04586],[24.95054,71.04687],[24.95319,71.04835],[24.95724,71.04868],[24.96731,71.04849],[24.96939,71.04882],[24.97099,71.05054],[24.97286,71.05099]],[[24.97286,71.05099],[24.97496,71.05082],[24.97546,71.04972],[24.97437,71.04897],[24.97758,71.04781],[24.97393,71.04648],[24.97517,71.04535],[24.97371,71.04384],[24.98334,71.04204],[24.98943,71.04168],[24.99422,71.04184],[24.99331,71.03909],[24.99548,71.03699],[24.99133,71.03451],[24.99232,71.03349],[24.99458,71.03266],[24.99687,71.03282],[24.99896,71.03378],[25.00182,71.03373]],[[24.94668,71.05812],[24.9517,71.0576],[24.95196,71.05606],[24.94557,71.05541],[24.94078,71.05607],[24.94015,71.05636],[24.94111,71.05747],[24.94357,71.05805],[24.94668,71.05812]],[[24.70533,71.07439],[24.70276,71.0742],[24.69216,71.07155],[24.68839,71.07209],[24.68636,71.07309],[24.68626,71.07393],[24.69112,71.07585],[24.69929,71.07691],[24.7067,71.07713]],[[24.70767,71.07908],[24.71033,71.07829],[24.7084,71.07735],[24.7067,71.07713]],[[24.70767,71.07908],[24.70419,71.07919],[24.70234,71.08017],[24.70935,71.08244]],[[24.71051,71.08477],[24.71167,71.08441],[24.70935,71.08244]],[[24.64445,71.08832],[24.64299,71.08625],[24.64399,71.08537],[24.64797,71.08439],[24.6478,71.08209],[24.64439,71.08199],[24.64477,71.08148],[24.64327,71.08092],[24.63853,71.08092],[24.64065,71.08001],[24.63731,71.07979],[24.63891,71.07869],[24.63327,71.07798],[24.6332,71.0771],[24.6318,71.0765],[24.6237,71.07582],[24.62579,71.07455],[24.6262,71.07333],[24.62129,71.07231],[24.61106,71.06839],[24.60499,71.06818],[24.60671,71.06632],[24.60317,71.06539],[24.60919,71.06435],[24.61377,71.06303],[24.61481,71.06173],[24.62087,71.06048],[24.62289,71.05863],[24.62123,71.05745],[24.612,71.05794],[24.6099,71.05723],[24.61485,71.05601],[24.62548,71.05511],[24.63662,71.05363],[24.64332,71.05137],[24.64938,71.05055],[24.65365,71.0491],[24.65791,71.04875],[24.66296,71.04735],[24.66667,71.04727],[24.67154,71.04786],[24.67501,71.04903],[24.68147,71.04873],[24.68379,71.04808],[24.68163,71.04725],[24.68154,71.04653],[24.68368,71.0434],[24.68882,71.0412]],[[24.74907,71.08283],[24.74978,71.08148],[24.74494,71.07991],[24.74747,71.07891],[24.74648,71.07816],[24.74444,71.07814],[24.74141,71.07898],[24.73544,71.07796],[24.73558,71.07634],[24.73861,71.07539],[24.74209,71.07532],[24.74291,71.07442],[24.74083,71.07237],[24.73849,71.07154],[24.73603,71.07154],[24.73434,71.07106],[24.73278,71.06893],[24.72806,71.06902],[24.72512,71.06959],[24.71909,71.07307],[24.71807,71.07427],[24.71545,71.07535],[24.71236,71.07539],[24.70533,71.07439]],[[24.83906,71.07806],[24.83823,71.0774],[24.83413,71.07675],[24.82598,71.07627],[24.81561,71.07777],[24.80111,71.07784],[24.79424,71.07467],[24.79096,71.07415],[24.78466,71.07194],[24.78419,71.06972],[24.77708,71.06919],[24.77263,71.0678],[24.7672,71.06748],[24.76567,71.06704],[24.76562,71.0641],[24.76884,71.06304],[24.76905,71.06181],[24.77631,71.06193],[24.77919,71.06128],[24.78585,71.05883],[24.78901,71.05652],[24.78666,71.05493],[24.79117,71.05416],[24.79498,71.05407],[24.79689,71.05275],[24.79591,71.05194],[24.79382,71.05153],[24.79365,71.05],[24.79181,71.04912],[24.78371,71.04736],[24.77796,71.04658],[24.77752,71.04435],[24.77084,71.04033],[24.77191,71.0392],[24.77679,71.03861],[24.77897,71.03781],[24.77892,71.03731],[24.77604,71.03605]],[[24.64445,71.08832],[24.64603,71.08887],[24.64954,71.08921],[24.65097,71.09028],[24.65322,71.0902],[24.65189,71.09102],[24.65881,71.09104],[24.66279,71.09157],[24.66366,71.09261],[24.66788,71.09264],[24.67285,71.09187],[24.67618,71.09208],[24.68911,71.08951],[24.69555,71.08668],[24.70057,71.08598],[24.70768,71.086],[24.71003,71.08488]],[[24.71612,71.09601],[24.71943,71.095],[24.71881,71.09418],[24.71964,71.09353],[24.72312,71.0927],[24.72797,71.09215],[24.7336,71.08995],[24.74569,71.08815],[24.7541,71.08595],[24.75374,71.0854],[24.75218,71.08526],[24.74907,71.08283]],[[24.72592,71.1156],[24.7314,71.11425],[24.73423,71.11285],[24.73691,71.11298],[24.7417,71.11211],[24.74195,71.11169],[24.74848,71.11066],[24.74906,71.11001],[24.74671,71.10849],[24.74799,71.10805],[24.75236,71.10953],[24.753,71.11092],[24.75455,71.11126],[24.75553,71.11227],[24.76248,71.11269],[24.76729,71.11241],[24.76736,71.11106],[24.75586,71.10971],[24.7566,71.10896],[24.76269,71.10792],[24.76362,71.10737],[24.76138,71.10605],[24.76114,71.10328],[24.75978,71.10237],[24.7624,71.10148],[24.76265,71.10011],[24.76743,71.09895],[24.77575,71.09912],[24.7788,71.10012],[24.78037,71.10009],[24.78157,71.09942],[24.77738,71.0974],[24.77691,71.09594],[24.77879,71.09519],[24.78268,71.09552],[24.78398,71.09532],[24.78619,71.09377],[24.79021,71.09405],[24.79278,71.09643],[24.79081,71.09852],[24.7959,71.10122],[24.79884,71.10043],[24.80237,71.10038],[24.8043,71.10071],[24.80509,71.10196],[24.80666,71.10212],[24.813,71.10101],[24.81913,71.10125],[24.82244,71.10235],[24.82848,71.10265],[24.83138,71.10396],[24.83136,71.10454],[24.83512,71.10544],[24.84659,71.10438],[24.85075,71.10362],[24.85132,71.10278],[24.84475,71.10096],[24.84236,71.09963],[24.83795,71.09917],[24.83735,71.09817],[24.83106,71.09713],[24.82485,71.09393],[24.82518,71.09253],[24.82135,71.0909],[24.82216,71.09013],[24.81963,71.08814],[24.81052,71.08752],[24.80492,71.08775],[24.79964,71.08529],[24.80006,71.08432],[24.80352,71.08267],[24.80599,71.08245],[24.81299,71.08269],[24.81993,71.08164],[24.82558,71.08025],[24.83333,71.08002],[24.83893,71.07873],[24.83906,71.07806]],[[24.71612,71.09601],[24.71442,71.09691],[24.71156,71.09714],[24.7111,71.09774],[24.71212,71.09807],[24.71087,71.09874],[24.70859,71.09896],[24.70461,71.10016],[24.70052,71.10046],[24.69725,71.10165],[24.69754,71.10205],[24.70045,71.10237],[24.70447,71.10217],[24.70816,71.10259],[24.70804,71.10506],[24.7012,71.10604],[24.69786,71.10892],[24.69422,71.11],[24.69392,71.11195],[24.6968,71.11262],[24.70329,71.1122],[24.70892,71.11259],[24.71481,71.11467],[24.72199,71.11579],[24.72592,71.1156]]]}}]}